{"type": "FeatureCollection", "features": [{"type": "Feature", "properties": {"name": "California Aqueduct", "type": "Aqueduct", "operator": "CA DWR", "length_mi": 444}, "geometry": {"type": "LineString", "coordinates": [[-121.55, 37.85], [-121.0, 37.0], [-120.2, 36.2], [-119.5, 35.5], [-118.8, 34.8], [-118.2, 34.3], [-117.5, 34.05]]}}, {"type": "Feature", "properties": {"name": "Colorado River Aqueduct", "type": "Aqueduct", "operator": "MWD", "length_mi": 242}, "geometry": {"type": "LineString", "coordinates": [[-114.15, 34.3], [-114.7, 34.3], [-115.5, 34.2], [-116.5, 34.05], [-117.2, 34.05], [-117.85, 34.05]]}}, {"type": "Feature", "properties": {"name": "Los Angeles Aqueduct", "type": "Aqueduct", "operator": "LADWP", "length_mi": 233}, "geometry": {"type": "LineString", "coordinates": [[-118.25, 37.95], [-118.2, 36.5], [-118.3, 35.5], [-118.35, 34.5], [-118.35, 34.25]]}}, {"type": "Feature", "properties": {"name": "Hetch Hetchy Aqueduct", "type": "Aqueduct", "operator": "SFPUC", "length_mi": 167}, "geometry": {"type": "LineString", "coordinates": [[-119.79, 37.95], [-120.5, 37.8], [-121.3, 37.65], [-122.0, 37.55], [-122.42, 37.5]]}}, {"type": "Feature", "properties": {"name": "Catskill Aqueduct", "type": "Aqueduct", "operator": "NYC DEP", "length_mi": 92}, "geometry": {"type": "LineString", "coordinates": [[-74.45, 42.05], [-74.3, 41.7], [-74.1, 41.4], [-73.98, 41.15], [-73.92, 41.0]]}}, {"type": "Feature", "properties": {"name": "Delaware Aqueduct", "type": "Aqueduct", "operator": "NYC DEP", "length_mi": 85}, "geometry": {"type": "LineString", "coordinates": [[-74.76, 41.76], [-74.5, 41.55], [-74.25, 41.35], [-74.0, 41.15], [-73.95, 41.05]]}}, {"type": "Feature", "properties": {"name": "Croton System corridor", "type": "Aqueduct", "operator": "NYC DEP"}, "geometry": {"type": "LineString", "coordinates": [[-73.75, 41.35], [-73.85, 41.2], [-73.92, 41.05], [-73.95, 40.9], [-73.97, 40.78]]}}, {"type": "Feature", "properties": {"name": "Central Arizona Project", "type": "Canal/Aqueduct", "operator": "CAP", "length_mi": 336}, "geometry": {"type": "LineString", "coordinates": [[-114.5, 34.3], [-113.5, 33.9], [-112.5, 33.5], [-111.8, 33.4], [-111.2, 33.2], [-110.9, 32.7], [-110.85, 32.4]]}}, {"type": "Feature", "properties": {"name": "All-American Canal", "type": "Canal", "operator": "IID", "length_mi": 82}, "geometry": {"type": "LineString", "coordinates": [[-114.72, 32.73], [-115.2, 32.74], [-115.7, 32.75], [-116.2, 32.72]]}}, {"type": "Feature", "properties": {"name": "Colorado River Aqueduct feeder", "type": "Aqueduct", "operator": "MWD"}, "geometry": {"type": "LineString", "coordinates": [[-114.7, 34.3], [-114.7, 33.8], [-114.6, 33.2]]}}, {"type": "Feature", "properties": {"name": "Mokelumne Aqueduct", "type": "Aqueduct", "operator": "EBMUD", "length_mi": 95}, "geometry": {"type": "LineString", "coordinates": [[-120.25, 38.35], [-121.0, 38.0], [-121.7, 37.85], [-122.15, 37.85]]}}, {"type": "Feature", "properties": {"name": "Colorado-Big Thompson (east slope corridor)", "type": "Aqueduct/Tunnel system", "operator": "Northern Water"}, "geometry": {"type": "LineString", "coordinates": [[-105.85, 40.35], [-105.4, 40.35], [-105.1, 40.4], [-104.9, 40.4]]}}, {"type": "Feature", "properties": {"name": "Central Utah Project aqueduct corridor", "type": "Aqueduct", "operator": "CUP"}, "geometry": {"type": "LineString", "coordinates": [[-111.0, 40.3], [-111.4, 40.4], [-111.8, 40.5], [-112.0, 40.55]]}}, {"type": "Feature", "properties": {"name": "Windy Gap / CBT related corridor", "type": "Aqueduct", "operator": "Northern Water"}, "geometry": {"type": "LineString", "coordinates": [[-106.0, 40.1], [-105.7, 40.2], [-105.5, 40.3]]}}, {"type": "Feature", "properties": {"name": "Massachusetts Wachusett / Quabbin corridor", "type": "Aqueduct", "operator": "MWRA"}, "geometry": {"type": "LineString", "coordinates": [[-72.35, 42.38], [-71.8, 42.35], [-71.4, 42.35], [-71.15, 42.35]]}}]}