{"type": "FeatureCollection", "features": [{"type": "Feature", "properties": {"name": "Catskill-Delaware system / UV Facility area", "state": "NY", "operator": "NYC DEP", "type": "Drinking Water Treatment", "capacity_mgd": 2100, "feature_kind": "Drinking water treatment plant", "source": "Public utility records (curated)"}, "geometry": {"type": "Point", "coordinates": [-73.98, 41.11]}}, {"type": "Feature", "properties": {"name": "Croton Water Filtration Plant", "state": "NY", "operator": "NYC DEP", "type": "Drinking Water Treatment", "feature_kind": "Drinking water treatment plant", "source": "Public utility records (curated)"}, "geometry": {"type": "Point", "coordinates": [-73.89, 40.88]}}, {"type": "Feature", "properties": {"name": "Jensen Water Treatment Plant", "state": "CA", "operator": "MWD", "capacity_mgd": 750, "feature_kind": "Drinking water treatment plant", "source": "Public utility records (curated)"}, "geometry": {"type": "Point", "coordinates": [-118.53, 34.28]}}, {"type": "Feature", "properties": {"name": "Diemer Water Treatment Plant", "state": "CA", "operator": "MWD", "capacity_mgd": 520, "feature_kind": "Drinking water treatment plant", "source": "Public utility records (curated)"}, "geometry": {"type": "Point", "coordinates": [-117.82, 33.91]}}, {"type": "Feature", "properties": {"name": "Skinner Water Treatment Plant", "state": "CA", "operator": "MWD", "capacity_mgd": 630, "feature_kind": "Drinking water treatment plant", "source": "Public utility records (curated)"}, "geometry": {"type": "Point", "coordinates": [-117.08, 33.58]}}, {"type": "Feature", "properties": {"name": "Weymouth Water Treatment Plant", "state": "CA", "operator": "MWD", "capacity_mgd": 520, "feature_kind": "Drinking water treatment plant", "source": "Public utility records (curated)"}, "geometry": {"type": "Point", "coordinates": [-117.84, 34.1]}}, {"type": "Feature", "properties": {"name": "Mills Water Treatment Plant", "state": "CA", "operator": "MWD", "feature_kind": "Drinking water treatment plant", "source": "Public utility records (curated)"}, "geometry": {"type": "Point", "coordinates": [-117.3, 34.05]}}, {"type": "Feature", "properties": {"name": "Hetch Hetchy / SF regional system", "state": "CA", "operator": "SFPUC", "feature_kind": "Drinking water treatment plant", "source": "Public utility records (curated)"}, "geometry": {"type": "Point", "coordinates": [-122.42, 37.5]}}, {"type": "Feature", "properties": {"name": "H.B. Zachry Water Purification Plant", "state": "TX", "operator": "SAWS", "capacity_mgd": 225, "feature_kind": "Drinking water treatment plant", "source": "Public utility records (curated)"}, "geometry": {"type": "Point", "coordinates": [-98.55, 29.45]}}, {"type": "Feature", "properties": {"name": "East Side Water Treatment Plant", "state": "TX", "operator": "Dallas Water Utilities", "feature_kind": "Drinking water treatment plant", "source": "Public utility records (curated)"}, "geometry": {"type": "Point", "coordinates": [-96.55, 32.85]}}, {"type": "Feature", "properties": {"name": "Elm Fork WTP", "state": "TX", "operator": "Dallas Water Utilities", "feature_kind": "Drinking water treatment plant", "source": "Public utility records (curated)"}, "geometry": {"type": "Point", "coordinates": [-96.95, 33.0]}}, {"type": "Feature", "properties": {"name": "Northeast Water Purification Plant", "state": "TX", "operator": "City of Houston", "feature_kind": "Drinking water treatment plant", "source": "Public utility records (curated)"}, "geometry": {"type": "Point", "coordinates": [-95.15, 29.95]}}, {"type": "Feature", "properties": {"name": "East Water Purification Plant", "state": "TX", "operator": "City of Houston", "feature_kind": "Drinking water treatment plant", "source": "Public utility records (curated)"}, "geometry": {"type": "Point", "coordinates": [-95.2, 29.75]}}, {"type": "Feature", "properties": {"name": "Kay Bailey Hutchison Desal (El Paso)", "state": "TX", "operator": "El Paso Water", "feature_kind": "Drinking water treatment plant", "source": "Public utility records (curated)"}, "geometry": {"type": "Point", "coordinates": [-106.4, 31.8]}}, {"type": "Feature", "properties": {"name": "Jardine Water Purification Plant", "state": "IL", "operator": "City of Chicago", "capacity_mgd": 1000, "feature_kind": "Drinking water treatment plant", "source": "Public utility records (curated)"}, "geometry": {"type": "Point", "coordinates": [-87.61, 41.9]}}, {"type": "Feature", "properties": {"name": "South Water Purification Plant", "state": "IL", "operator": "City of Chicago", "feature_kind": "Drinking water treatment plant", "source": "Public utility records (curated)"}, "geometry": {"type": "Point", "coordinates": [-87.55, 41.75]}}, {"type": "Feature", "properties": {"name": "Baxter Water Treatment Plant", "state": "PA", "operator": "PWD", "feature_kind": "Drinking water treatment plant", "source": "Public utility records (curated)"}, "geometry": {"type": "Point", "coordinates": [-75.0, 40.05]}}, {"type": "Feature", "properties": {"name": "Belmont Water Treatment Plant", "state": "PA", "operator": "PWD", "feature_kind": "Drinking water treatment plant", "source": "Public utility records (curated)"}, "geometry": {"type": "Point", "coordinates": [-75.22, 39.99]}}, {"type": "Feature", "properties": {"name": "Queen Lane Water Treatment Plant", "state": "PA", "operator": "PWD", "feature_kind": "Drinking water treatment plant", "source": "Public utility records (curated)"}, "geometry": {"type": "Point", "coordinates": [-75.2, 40.02]}}, {"type": "Feature", "properties": {"name": "Pittsburgh Aspinwall WTP area", "state": "PA", "operator": "PWSA", "feature_kind": "Drinking water treatment plant", "source": "Public utility records (curated)"}, "geometry": {"type": "Point", "coordinates": [-79.9, 40.49]}}, {"type": "Feature", "properties": {"name": "Hialeah Water Treatment Plant", "state": "FL", "operator": "Miami-Dade Water", "feature_kind": "Drinking water treatment plant", "source": "Public utility records (curated)"}, "geometry": {"type": "Point", "coordinates": [-80.3, 25.85]}}, {"type": "Feature", "properties": {"name": "Orlando Conserv II / regional supply area", "state": "FL", "operator": "OUC / regional", "feature_kind": "Drinking water treatment plant", "source": "Public utility records (curated)"}, "geometry": {"type": "Point", "coordinates": [-81.45, 28.45]}}, {"type": "Feature", "properties": {"name": "Tampa David L. Tippin WTP", "state": "FL", "operator": "City of Tampa", "feature_kind": "Drinking water treatment plant", "source": "Public utility records (curated)"}, "geometry": {"type": "Point", "coordinates": [-82.5, 28.0]}}, {"type": "Feature", "properties": {"name": "Val Vista Water Treatment Plant", "state": "AZ", "operator": "City of Phoenix", "feature_kind": "Drinking water treatment plant", "source": "Public utility records (curated)"}, "geometry": {"type": "Point", "coordinates": [-111.85, 33.45]}}, {"type": "Feature", "properties": {"name": "Union Hills WTP", "state": "AZ", "operator": "City of Phoenix", "feature_kind": "Drinking water treatment plant", "source": "Public utility records (curated)"}, "geometry": {"type": "Point", "coordinates": [-112.05, 33.7]}}, {"type": "Feature", "properties": {"name": "Tucson Hayden-Udall WTP area", "state": "AZ", "operator": "Tucson Water", "feature_kind": "Drinking water treatment plant", "source": "Public utility records (curated)"}, "geometry": {"type": "Point", "coordinates": [-111.0, 32.25]}}, {"type": "Feature", "properties": {"name": "Alfred Merritt Smith WTP / SNWA", "state": "NV", "operator": "SNWA", "feature_kind": "Drinking water treatment plant", "source": "Public utility records (curated)"}, "geometry": {"type": "Point", "coordinates": [-114.9, 36.1]}}, {"type": "Feature", "properties": {"name": "River Mountains WTP", "state": "NV", "operator": "SNWA", "feature_kind": "Drinking water treatment plant", "source": "Public utility records (curated)"}, "geometry": {"type": "Point", "coordinates": [-114.95, 36.0]}}, {"type": "Feature", "properties": {"name": "Cedar Water Treatment Facility", "state": "WA", "operator": "Seattle Public Utilities", "feature_kind": "Drinking water treatment plant", "source": "Public utility records (curated)"}, "geometry": {"type": "Point", "coordinates": [-121.95, 47.4]}}, {"type": "Feature", "properties": {"name": "Tolt Water Treatment Facility", "state": "WA", "operator": "Seattle Public Utilities", "feature_kind": "Drinking water treatment plant", "source": "Public utility records (curated)"}, "geometry": {"type": "Point", "coordinates": [-121.85, 47.7]}}, {"type": "Feature", "properties": {"name": "Bull Run headworks / Portland system", "state": "OR", "operator": "Portland Water Bureau", "feature_kind": "Drinking water treatment plant", "source": "Public utility records (curated)"}, "geometry": {"type": "Point", "coordinates": [-122.05, 45.45]}}, {"type": "Feature", "properties": {"name": "Marston Water Treatment Plant", "state": "CO", "operator": "Denver Water", "feature_kind": "Drinking water treatment plant", "source": "Public utility records (curated)"}, "geometry": {"type": "Point", "coordinates": [-105.1, 39.65]}}, {"type": "Feature", "properties": {"name": "Foothills Water Treatment Plant", "state": "CO", "operator": "Denver Water", "feature_kind": "Drinking water treatment plant", "source": "Public utility records (curated)"}, "geometry": {"type": "Point", "coordinates": [-105.15, 39.55]}}, {"type": "Feature", "properties": {"name": "Hemphill Water Treatment Plant", "state": "GA", "operator": "Atlanta DWM", "feature_kind": "Drinking water treatment plant", "source": "Public utility records (curated)"}, "geometry": {"type": "Point", "coordinates": [-84.42, 33.8]}}, {"type": "Feature", "properties": {"name": "Chattahoochee WTP", "state": "GA", "operator": "Atlanta DWM", "feature_kind": "Drinking water treatment plant", "source": "Public utility records (curated)"}, "geometry": {"type": "Point", "coordinates": [-84.45, 33.9]}}, {"type": "Feature", "properties": {"name": "John J. Carroll Water Treatment Plant", "state": "MA", "operator": "MWRA", "feature_kind": "Drinking water treatment plant", "source": "Public utility records (curated)"}, "geometry": {"type": "Point", "coordinates": [-71.4, 42.35]}}, {"type": "Feature", "properties": {"name": "Water Works Park", "state": "MI", "operator": "GLWA", "feature_kind": "Drinking water treatment plant", "source": "Public utility records (curated)"}, "geometry": {"type": "Point", "coordinates": [-83.0, 42.35]}}, {"type": "Feature", "properties": {"name": "Springwells WTP", "state": "MI", "operator": "GLWA", "feature_kind": "Drinking water treatment plant", "source": "Public utility records (curated)"}, "geometry": {"type": "Point", "coordinates": [-83.15, 42.3]}}, {"type": "Feature", "properties": {"name": "Baldwin Water Treatment Plant", "state": "OH", "operator": "Cleveland Water", "feature_kind": "Drinking water treatment plant", "source": "Public utility records (curated)"}, "geometry": {"type": "Point", "coordinates": [-81.65, 41.5]}}, {"type": "Feature", "properties": {"name": "Nottingham WTP", "state": "OH", "operator": "Cleveland Water", "feature_kind": "Drinking water treatment plant", "source": "Public utility records (curated)"}, "geometry": {"type": "Point", "coordinates": [-81.55, 41.55]}}, {"type": "Feature", "properties": {"name": "Cincinnati Richard Miller WTP", "state": "OH", "operator": "GCWW", "feature_kind": "Drinking water treatment plant", "source": "Public utility records (curated)"}, "geometry": {"type": "Point", "coordinates": [-84.5, 39.1]}}, {"type": "Feature", "properties": {"name": "Hawthorne WTP", "state": "MO", "operator": "Kansas City Water", "feature_kind": "Drinking water treatment plant", "source": "Public utility records (curated)"}, "geometry": {"type": "Point", "coordinates": [-94.62, 39.14]}}, {"type": "Feature", "properties": {"name": "St. Louis Chain of Rocks WTP", "state": "MO", "operator": "City of St. Louis", "feature_kind": "Drinking water treatment plant", "source": "Public utility records (curated)"}, "geometry": {"type": "Point", "coordinates": [-90.18, 38.75]}}, {"type": "Feature", "properties": {"name": "Fridley Softening Plant / Minneapolis system", "state": "MN", "operator": "City of Minneapolis", "feature_kind": "Drinking water treatment plant", "source": "Public utility records (curated)"}, "geometry": {"type": "Point", "coordinates": [-93.27, 45.08]}}, {"type": "Feature", "properties": {"name": "St. Paul McCarrons WTP", "state": "MN", "operator": "Saint Paul Regional Water", "feature_kind": "Drinking water treatment plant", "source": "Public utility records (curated)"}, "geometry": {"type": "Point", "coordinates": [-93.05, 45.0]}}, {"type": "Feature", "properties": {"name": "Milwaukee Linnwood WTP", "state": "WI", "operator": "Milwaukee Water Works", "feature_kind": "Drinking water treatment plant", "source": "Public utility records (curated)"}, "geometry": {"type": "Point", "coordinates": [-87.88, 43.08]}}, {"type": "Feature", "properties": {"name": "Milwaukee Howard Avenue WTP", "state": "WI", "operator": "Milwaukee Water Works", "feature_kind": "Drinking water treatment plant", "source": "Public utility records (curated)"}, "geometry": {"type": "Point", "coordinates": [-87.92, 42.95]}}, {"type": "Feature", "properties": {"name": "Indianapolis White River WTP area", "state": "IN", "operator": "Citizens Energy", "feature_kind": "Drinking water treatment plant", "source": "Public utility records (curated)"}, "geometry": {"type": "Point", "coordinates": [-86.18, 39.8]}}, {"type": "Feature", "properties": {"name": "Raleigh E.M. Johnson WTP", "state": "NC", "operator": "City of Raleigh", "feature_kind": "Drinking water treatment plant", "source": "Public utility records (curated)"}, "geometry": {"type": "Point", "coordinates": [-78.7, 35.85]}}, {"type": "Feature", "properties": {"name": "Charlotte Franklin WTP", "state": "NC", "operator": "Charlotte Water", "feature_kind": "Drinking water treatment plant", "source": "Public utility records (curated)"}, "geometry": {"type": "Point", "coordinates": [-80.9, 35.25]}}, {"type": "Feature", "properties": {"name": "Charleston Hanahan WTP", "state": "SC", "operator": "Charleston Water System", "feature_kind": "Drinking water treatment plant", "source": "Public utility records (curated)"}, "geometry": {"type": "Point", "coordinates": [-80.0, 32.92]}}, {"type": "Feature", "properties": {"name": "Fairfax County Corbalis WTP", "state": "VA", "operator": "Fairfax Water", "feature_kind": "Drinking water treatment plant", "source": "Public utility records (curated)"}, "geometry": {"type": "Point", "coordinates": [-77.4, 39.0]}}, {"type": "Feature", "properties": {"name": "Richmond WTP", "state": "VA", "operator": "City of Richmond", "feature_kind": "Drinking water treatment plant", "source": "Public utility records (curated)"}, "geometry": {"type": "Point", "coordinates": [-77.45, 37.55]}}, {"type": "Feature", "properties": {"name": "Baltimore Montebello WTP", "state": "MD", "operator": "Baltimore DPW", "feature_kind": "Drinking water treatment plant", "source": "Public utility records (curated)"}, "geometry": {"type": "Point", "coordinates": [-76.58, 39.35]}}, {"type": "Feature", "properties": {"name": "Washington Aqueduct Dalecarlia", "state": "DC", "operator": "USACE Washington Aqueduct", "feature_kind": "Drinking water treatment plant", "source": "Public utility records (curated)"}, "geometry": {"type": "Point", "coordinates": [-77.1, 38.94]}}, {"type": "Feature", "properties": {"name": "Washington Aqueduct McMillan", "state": "DC", "operator": "USACE Washington Aqueduct", "feature_kind": "Drinking water treatment plant", "source": "Public utility records (curated)"}, "geometry": {"type": "Point", "coordinates": [-77.02, 38.93]}}, {"type": "Feature", "properties": {"name": "New Orleans Carrollton WTP", "state": "LA", "operator": "Sewerage & Water Board", "feature_kind": "Drinking water treatment plant", "source": "Public utility records (curated)"}, "geometry": {"type": "Point", "coordinates": [-90.13, 29.96]}}, {"type": "Feature", "properties": {"name": "New Orleans Algiers WTP", "state": "LA", "operator": "Sewerage & Water Board", "feature_kind": "Drinking water treatment plant", "source": "Public utility records (curated)"}, "geometry": {"type": "Point", "coordinates": [-90.02, 29.92]}}, {"type": "Feature", "properties": {"name": "Nashville Omohundro WTP", "state": "TN", "operator": "Metro Water Services", "feature_kind": "Drinking water treatment plant", "source": "Public utility records (curated)"}, "geometry": {"type": "Point", "coordinates": [-86.75, 36.2]}}, {"type": "Feature", "properties": {"name": "Memphis Sheahan WTP", "state": "TN", "operator": "MLGW", "feature_kind": "Drinking water treatment plant", "source": "Public utility records (curated)"}, "geometry": {"type": "Point", "coordinates": [-89.95, 35.12]}}, {"type": "Feature", "properties": {"name": "Birmingham Western Filter Plant area", "state": "AL", "operator": "Birmingham Water Works", "feature_kind": "Drinking water treatment plant", "source": "Public utility records (curated)"}, "geometry": {"type": "Point", "coordinates": [-86.9, 33.5]}}, {"type": "Feature", "properties": {"name": "Louisville Crescent Hill WTP", "state": "KY", "operator": "Louisville Water", "feature_kind": "Drinking water treatment plant", "source": "Public utility records (curated)"}, "geometry": {"type": "Point", "coordinates": [-85.68, 38.26]}}, {"type": "Feature", "properties": {"name": "Oklahoma City Draper WTP", "state": "OK", "operator": "OKC Utilities", "feature_kind": "Drinking water treatment plant", "source": "Public utility records (curated)"}, "geometry": {"type": "Point", "coordinates": [-97.4, 35.4]}}, {"type": "Feature", "properties": {"name": "Wichita Cheney WTP system", "state": "KS", "operator": "City of Wichita", "feature_kind": "Drinking water treatment plant", "source": "Public utility records (curated)"}, "geometry": {"type": "Point", "coordinates": [-97.5, 37.7]}}, {"type": "Feature", "properties": {"name": "Omaha Florence WTP", "state": "NE", "operator": "MUD", "feature_kind": "Drinking water treatment plant", "source": "Public utility records (curated)"}, "geometry": {"type": "Point", "coordinates": [-95.95, 41.35]}}, {"type": "Feature", "properties": {"name": "Des Moines Fleur Drive WTP", "state": "IA", "operator": "Des Moines Water Works", "feature_kind": "Drinking water treatment plant", "source": "Public utility records (curated)"}, "geometry": {"type": "Point", "coordinates": [-93.65, 41.55]}}, {"type": "Feature", "properties": {"name": "Salt Lake City Big Cottonwood WTP area", "state": "UT", "operator": "SLC Public Utilities", "feature_kind": "Drinking water treatment plant", "source": "Public utility records (curated)"}, "geometry": {"type": "Point", "coordinates": [-111.8, 40.65]}}, {"type": "Feature", "properties": {"name": "Albuquerque Surface Water Treatment Plant", "state": "NM", "operator": "ABCWUA", "feature_kind": "Drinking water treatment plant", "source": "Public utility records (curated)"}, "geometry": {"type": "Point", "coordinates": [-106.55, 35.15]}}, {"type": "Feature", "properties": {"name": "Boise Columbia WTP area", "state": "ID", "operator": "United Water / Suez area", "feature_kind": "Drinking water treatment plant", "source": "Public utility records (curated)"}, "geometry": {"type": "Point", "coordinates": [-116.25, 43.55]}}, {"type": "Feature", "properties": {"name": "Billings Water Treatment Plant", "state": "MT", "operator": "City of Billings", "feature_kind": "Drinking water treatment plant", "source": "Public utility records (curated)"}, "geometry": {"type": "Point", "coordinates": [-108.5, 45.78]}}, {"type": "Feature", "properties": {"name": "Cheyenne Sherard WTP", "state": "WY", "operator": "Cheyenne Board of Public Utilities", "feature_kind": "Drinking water treatment plant", "source": "Public utility records (curated)"}, "geometry": {"type": "Point", "coordinates": [-104.85, 41.15]}}, {"type": "Feature", "properties": {"name": "Fargo Water Treatment Plant", "state": "ND", "operator": "City of Fargo", "feature_kind": "Drinking water treatment plant", "source": "Public utility records (curated)"}, "geometry": {"type": "Point", "coordinates": [-96.85, 46.88]}}, {"type": "Feature", "properties": {"name": "Sioux Falls Water Purification Plant", "state": "SD", "operator": "City of Sioux Falls", "feature_kind": "Drinking water treatment plant", "source": "Public utility records (curated)"}, "geometry": {"type": "Point", "coordinates": [-96.75, 43.55]}}, {"type": "Feature", "properties": {"name": "Anchorage Eklutna WTP area", "state": "AK", "operator": "AWWU", "feature_kind": "Drinking water treatment plant", "source": "Public utility records (curated)"}, "geometry": {"type": "Point", "coordinates": [-149.25, 61.45]}}, {"type": "Feature", "properties": {"name": "Honolulu Board of Water Supply system", "state": "HI", "operator": "BWS", "feature_kind": "Drinking water treatment plant", "source": "Public utility records (curated)"}, "geometry": {"type": "Point", "coordinates": [-157.85, 21.35]}}, {"type": "Feature", "properties": {"name": "Hartford West Hartford WTP area", "state": "CT", "operator": "MDC", "feature_kind": "Drinking water treatment plant", "source": "Public utility records (curated)"}, "geometry": {"type": "Point", "coordinates": [-72.75, 41.75]}}, {"type": "Feature", "properties": {"name": "Providence Pettaquamscutt / system", "state": "RI", "operator": "Providence Water", "feature_kind": "Drinking water treatment plant", "source": "Public utility records (curated)"}, "geometry": {"type": "Point", "coordinates": [-71.45, 41.75]}}, {"type": "Feature", "properties": {"name": "Manchester Water Works", "state": "NH", "operator": "Manchester Water Works", "feature_kind": "Drinking water treatment plant", "source": "Public utility records (curated)"}, "geometry": {"type": "Point", "coordinates": [-71.45, 42.98]}}, {"type": "Feature", "properties": {"name": "Burlington Water Treatment Plant", "state": "VT", "operator": "City of Burlington", "feature_kind": "Drinking water treatment plant", "source": "Public utility records (curated)"}, "geometry": {"type": "Point", "coordinates": [-73.25, 44.48]}}, {"type": "Feature", "properties": {"name": "Portland Water District system", "state": "ME", "operator": "Portland Water District", "feature_kind": "Drinking water treatment plant", "source": "Public utility records (curated)"}, "geometry": {"type": "Point", "coordinates": [-70.3, 43.7]}}, {"type": "Feature", "properties": {"name": "Wilmington Porter Filter Plant", "state": "DE", "operator": "City of Wilmington", "feature_kind": "Drinking water treatment plant", "source": "Public utility records (curated)"}, "geometry": {"type": "Point", "coordinates": [-75.55, 39.75]}}, {"type": "Feature", "properties": {"name": "Charleston / WV American regional", "state": "WV", "operator": "WV American Water", "feature_kind": "Drinking water treatment plant", "source": "Public utility records (curated)"}, "geometry": {"type": "Point", "coordinates": [-81.65, 38.35]}}, {"type": "Feature", "properties": {"name": "Jackson O.B. Curtis WTP", "state": "MS", "operator": "City of Jackson", "feature_kind": "Drinking water treatment plant", "source": "Public utility records (curated)"}, "geometry": {"type": "Point", "coordinates": [-90.15, 32.35]}}, {"type": "Feature", "properties": {"name": "Little Rock Wilson WTP area", "state": "AR", "operator": "Central Arkansas Water", "feature_kind": "Drinking water treatment plant", "source": "Public utility records (curated)"}, "geometry": {"type": "Point", "coordinates": [-92.35, 34.75]}}]}