{"type": "FeatureCollection", "features": [{"type": "Feature", "id": 3033, "geometry": {"type": "Point", "coordinates": [-95.9574502531362, 41.3430897738843]}, "properties": {"OBJECTID": 3033, "npdes_pfid": "NE0133680103", "npdes_id": "NE0133680", "permitting_state": "NE", "agency_type_code": "ST6", "facility_uin": "110012804787", "facility_name": "OMAHA COMBINED SEWER OVERFLOWS", "location_address": "BOUNDED EAST BY MISSOURI RIVER", "supplemental_address_text": "W BY 76TH ST BY I80 S HARRISON", "facility_city": "OMAHA", "county_code": "NE055", "state_code": "NE", "epa_region_code": "07", "facility_type_code": "STF", "facility_lat": 41.27685, "facility_lon": -95.92526, "permit_name": "CITY OF OMAHA COMBINED SEWER OVERFLOWS", "version_nmbr": 0, "permit_type_code": "NPD", "effective_date": 1704067200000, "expiration_date": 1861833600000, "permit_status_code": "EFF", "facility_type_indicator": "NON-POTW", "major_minor_status_flag": "N", "permit_tracking": "Y", "pt_start_date": 1704067200000, "dmr_tracking": "Y", "dmr_nr_start_date": 1704067200000, "permit_design_flow": null, "permit_avg_flow": null, "perm_feature_nmbr": "103", "perm_feature_text": "Bridge Street Lift Station", "pf_lat": 41.34309, "pf_lon": -95.95745, "pf_character": "CSO", "perm_feature_type_code": "EXO", "pf_state_waterbody_name": "Missouri River", "pf_state_auto_name": "Missouri River", "pf_reach_id": "10230006000148", "in_icis": "YES", "echo_dfr_link": "https://echo.epa.gov/detailed-facility-report?fid=110012804787", "name": "OMAHA COMBINED SEWER OVERFLOWS", "feature_kind": "CSO outfall"}}, {"type": "Feature", "id": 3034, "geometry": {"type": "Point", "coordinates": [-95.9456598650321, 41.3248399482221]}, "properties": {"OBJECTID": 3034, "npdes_pfid": "NE0133680105", "npdes_id": "NE0133680", "permitting_state": "NE", "agency_type_code": "ST6", "facility_uin": "110012804787", "facility_name": "OMAHA COMBINED SEWER OVERFLOWS", "location_address": "BOUNDED EAST BY MISSOURI RIVER", "supplemental_address_text": "W BY 76TH ST BY I80 S HARRISON", "facility_city": "OMAHA", "county_code": "NE055", "state_code": "NE", "epa_region_code": "07", "facility_type_code": "STF", "facility_lat": 41.27685, "facility_lon": -95.92526, "permit_name": "CITY OF OMAHA COMBINED SEWER OVERFLOWS", "version_nmbr": 0, "permit_type_code": "NPD", "effective_date": 1704067200000, "expiration_date": 1861833600000, "permit_status_code": "EFF", "facility_type_indicator": "NON-POTW", "major_minor_status_flag": "N", "permit_tracking": "Y", "pt_start_date": 1704067200000, "dmr_tracking": "Y", "dmr_nr_start_date": 1704067200000, "permit_design_flow": null, "permit_avg_flow": null, "perm_feature_nmbr": "105", "perm_feature_text": "Minne Lusa Avenue", "pf_lat": 41.32484, "pf_lon": -95.94566, "pf_character": "CSO", "perm_feature_type_code": "EXO", "pf_state_waterbody_name": "Outfall channel to Missouri River", "pf_state_auto_name": "Ponca Creek-Missouri River", "pf_reach_id": "10230006000592", "in_icis": "YES", "echo_dfr_link": "https://echo.epa.gov/detailed-facility-report?fid=110012804787", "name": "OMAHA COMBINED SEWER OVERFLOWS", "feature_kind": "CSO outfall"}}, {"type": "Feature", "id": 3035, "geometry": {"type": "Point", "coordinates": [-95.924640185699, 41.2767397035996]}, "properties": {"OBJECTID": 3035, "npdes_pfid": "NE0133680106", "npdes_id": "NE0133680", "permitting_state": "NE", "agency_type_code": "ST6", "facility_uin": "110012804787", "facility_name": "OMAHA COMBINED SEWER OVERFLOWS", "location_address": "BOUNDED EAST BY MISSOURI RIVER", "supplemental_address_text": "W BY 76TH ST BY I80 S HARRISON", "facility_city": "OMAHA", "county_code": "NE055", "state_code": "NE", "epa_region_code": "07", "facility_type_code": "STF", "facility_lat": 41.27685, "facility_lon": -95.92526, "permit_name": "CITY OF OMAHA COMBINED SEWER OVERFLOWS", "version_nmbr": 0, "permit_type_code": "NPD", "effective_date": 1704067200000, "expiration_date": 1861833600000, "permit_status_code": "EFF", "facility_type_indicator": "NON-POTW", "major_minor_status_flag": "N", "permit_tracking": "Y", "pt_start_date": 1704067200000, "dmr_tracking": "Y", "dmr_nr_start_date": 1704067200000, "permit_design_flow": null, "permit_avg_flow": null, "perm_feature_nmbr": "106", "perm_feature_text": "North Interceptor", "pf_lat": 41.27674, "pf_lon": -95.92464, "pf_character": "CSO", "perm_feature_type_code": "EXO", "pf_state_waterbody_name": "Outfall channel to Missouri River", "pf_state_auto_name": "Missouri River", "pf_reach_id": "10230006000081", "in_icis": "YES", "echo_dfr_link": "https://echo.epa.gov/detailed-facility-report?fid=110012804787", "name": "OMAHA COMBINED SEWER OVERFLOWS", "feature_kind": "CSO outfall"}}, {"type": "Feature", "id": 3036, "geometry": {"type": "Point", "coordinates": [-95.925260023245, 41.2768497468758]}, "properties": {"OBJECTID": 3036, "npdes_pfid": "NE0133680107", "npdes_id": "NE0133680", "permitting_state": "NE", "agency_type_code": "ST6", "facility_uin": "110012804787", "facility_name": "OMAHA COMBINED SEWER OVERFLOWS", "location_address": "BOUNDED EAST BY MISSOURI RIVER", "supplemental_address_text": "W BY 76TH ST BY I80 S HARRISON", "facility_city": "OMAHA", "county_code": "NE055", "state_code": "NE", "epa_region_code": "07", "facility_type_code": "STF", "facility_lat": 41.27685, "facility_lon": -95.92526, "permit_name": "CITY OF OMAHA COMBINED SEWER OVERFLOWS", "version_nmbr": 0, "permit_type_code": "NPD", "effective_date": 1704067200000, "expiration_date": 1861833600000, "permit_status_code": "EFF", "facility_type_indicator": "NON-POTW", "major_minor_status_flag": "N", "permit_tracking": "Y", "pt_start_date": 1704067200000, "dmr_tracking": "Y", "dmr_nr_start_date": 1704067200000, "permit_design_flow": null, "permit_avg_flow": null, "perm_feature_nmbr": "107", "perm_feature_text": "Grace Street", "pf_lat": 41.27685, "pf_lon": -95.92526, "pf_character": "CSO", "perm_feature_type_code": "EXO", "pf_state_waterbody_name": "Outfall channel to Missouri River", "pf_state_auto_name": "Missouri River", "pf_reach_id": "10230006000081", "in_icis": "YES", "echo_dfr_link": "https://echo.epa.gov/detailed-facility-report?fid=110012804787", "name": "OMAHA COMBINED SEWER OVERFLOWS", "feature_kind": "CSO outfall"}}, {"type": "Feature", "id": 3037, "geometry": {"type": "Point", "coordinates": [-95.9255304161456, 41.2648897252765]}, "properties": {"OBJECTID": 3037, "npdes_pfid": "NE0133680108", "npdes_id": "NE0133680", "permitting_state": "NE", "agency_type_code": "ST6", "facility_uin": "110012804787", "facility_name": "OMAHA COMBINED SEWER OVERFLOWS", "location_address": "BOUNDED EAST BY MISSOURI RIVER", "supplemental_address_text": "W BY 76TH ST BY I80 S HARRISON", "facility_city": "OMAHA", "county_code": "NE055", "state_code": "NE", "epa_region_code": "07", "facility_type_code": "STF", "facility_lat": 41.27685, "facility_lon": -95.92526, "permit_name": "CITY OF OMAHA COMBINED SEWER OVERFLOWS", "version_nmbr": 0, "permit_type_code": "NPD", "effective_date": 1704067200000, "expiration_date": 1861833600000, "permit_status_code": "EFF", "facility_type_indicator": "NON-POTW", "major_minor_status_flag": "N", "permit_tracking": "Y", "pt_start_date": 1704067200000, "dmr_tracking": "Y", "dmr_nr_start_date": 1704067200000, "permit_design_flow": null, "permit_avg_flow": null, "perm_feature_nmbr": "108", "perm_feature_text": "Burt-Izard Street", "pf_lat": 41.26489, "pf_lon": -95.92553, "pf_character": "CSO", "perm_feature_type_code": "EXO", "pf_state_waterbody_name": "Outfall channel to Missouri River", "pf_state_auto_name": "Missouri River", "pf_reach_id": "10230006000081", "in_icis": "YES", "echo_dfr_link": "https://echo.epa.gov/detailed-facility-report?fid=110012804787", "name": "OMAHA COMBINED SEWER OVERFLOWS", "feature_kind": "CSO outfall"}}, {"type": "Feature", "id": 3038, "geometry": {"type": "Point", "coordinates": [-95.9198602500722, 41.2513998329546]}, "properties": {"OBJECTID": 3038, "npdes_pfid": "NE0133680109", "npdes_id": "NE0133680", "permitting_state": "NE", "agency_type_code": "ST6", "facility_uin": "110012804787", "facility_name": "OMAHA COMBINED SEWER OVERFLOWS", "location_address": "BOUNDED EAST BY MISSOURI RIVER", "supplemental_address_text": "W BY 76TH ST BY I80 S HARRISON", "facility_city": "OMAHA", "county_code": "NE055", "state_code": "NE", "epa_region_code": "07", "facility_type_code": "STF", "facility_lat": 41.27685, "facility_lon": -95.92526, "permit_name": "CITY OF OMAHA COMBINED SEWER OVERFLOWS", "version_nmbr": 0, "permit_type_code": "NPD", "effective_date": 1704067200000, "expiration_date": 1861833600000, "permit_status_code": "EFF", "facility_type_indicator": "NON-POTW", "major_minor_status_flag": "N", "permit_tracking": "Y", "pt_start_date": 1704067200000, "dmr_tracking": "Y", "dmr_nr_start_date": 1704067200000, "permit_design_flow": null, "permit_avg_flow": null, "perm_feature_nmbr": "109", "perm_feature_text": "1st and Leavenworth", "pf_lat": 41.2514, "pf_lon": -95.91986, "pf_character": "CSO", "perm_feature_type_code": "EXO", "pf_state_waterbody_name": "Missouri River", "pf_state_auto_name": "Missouri River", "pf_reach_id": "10230006000081", "in_icis": "YES", "echo_dfr_link": "https://echo.epa.gov/detailed-facility-report?fid=110012804787", "name": "OMAHA COMBINED SEWER OVERFLOWS", "feature_kind": "CSO outfall"}}, {"type": "Feature", "id": 3039, "geometry": {"type": "Point", "coordinates": [-95.917820176062, 41.2480100393007]}, "properties": {"OBJECTID": 3039, "npdes_pfid": "NE0133680110", "npdes_id": "NE0133680", "permitting_state": "NE", "agency_type_code": "ST6", "facility_uin": "110012804787", "facility_name": "OMAHA COMBINED SEWER OVERFLOWS", "location_address": "BOUNDED EAST BY MISSOURI RIVER", "supplemental_address_text": "W BY 76TH ST BY I80 S HARRISON", "facility_city": "OMAHA", "county_code": "NE055", "state_code": "NE", "epa_region_code": "07", "facility_type_code": "STF", "facility_lat": 41.27685, "facility_lon": -95.92526, "permit_name": "CITY OF OMAHA COMBINED SEWER OVERFLOWS", "version_nmbr": 0, "permit_type_code": "NPD", "effective_date": 1704067200000, "expiration_date": 1861833600000, "permit_status_code": "EFF", "facility_type_indicator": "NON-POTW", "major_minor_status_flag": "N", "permit_tracking": "Y", "pt_start_date": 1704067200000, "dmr_tracking": "Y", "dmr_nr_start_date": 1704067200000, "permit_design_flow": null, "permit_avg_flow": null, "perm_feature_nmbr": "110", "perm_feature_text": "Pierce Street Lift Station", "pf_lat": 41.24801, "pf_lon": -95.91782, "pf_character": "CSO", "perm_feature_type_code": "EXO", "pf_state_waterbody_name": "Missouri River", "pf_state_auto_name": "Missouri River", "pf_reach_id": "10230006000081", "in_icis": "YES", "echo_dfr_link": "https://echo.epa.gov/detailed-facility-report?fid=110012804787", "name": "OMAHA COMBINED SEWER OVERFLOWS", "feature_kind": "CSO outfall"}}, {"type": "Feature", "id": 3040, "geometry": {"type": "Point", "coordinates": [-95.9165400767821, 41.2432097258044]}, "properties": {"OBJECTID": 3040, "npdes_pfid": "NE0133680111", "npdes_id": "NE0133680", "permitting_state": "NE", "agency_type_code": "ST6", "facility_uin": "110012804787", "facility_name": "OMAHA COMBINED SEWER OVERFLOWS", "location_address": "BOUNDED EAST BY MISSOURI RIVER", "supplemental_address_text": "W BY 76TH ST BY I80 S HARRISON", "facility_city": "OMAHA", "county_code": "NE055", "state_code": "NE", "epa_region_code": "07", "facility_type_code": "STF", "facility_lat": 41.27685, "facility_lon": -95.92526, "permit_name": "CITY OF OMAHA COMBINED SEWER OVERFLOWS", "version_nmbr": 0, "permit_type_code": "NPD", "effective_date": 1704067200000, "expiration_date": 1861833600000, "permit_status_code": "EFF", "facility_type_indicator": "NON-POTW", "major_minor_status_flag": "N", "permit_tracking": "Y", "pt_start_date": 1704067200000, "dmr_tracking": "Y", "dmr_nr_start_date": 1704067200000, "permit_design_flow": null, "permit_avg_flow": null, "perm_feature_nmbr": "111", "perm_feature_text": "Hickory Street Lift Station", "pf_lat": 41.24321, "pf_lon": -95.91654, "pf_character": "CSO", "perm_feature_type_code": "EXO", "pf_state_waterbody_name": "Outfall channel to Missouri River", "pf_state_auto_name": "Missouri River", "pf_reach_id": "10230006000081", "in_icis": "YES", "echo_dfr_link": "https://echo.epa.gov/detailed-facility-report?fid=110012804787", "name": "OMAHA COMBINED SEWER OVERFLOWS", "feature_kind": "CSO outfall"}}, {"type": "Feature", "id": 3041, "geometry": {"type": "Point", "coordinates": [-95.9141200154067, 41.2377099041141]}, "properties": {"OBJECTID": 3041, "npdes_pfid": "NE0133680112", "npdes_id": "NE0133680", "permitting_state": "NE", "agency_type_code": "ST6", "facility_uin": "110012804787", "facility_name": "OMAHA COMBINED SEWER OVERFLOWS", "location_address": "BOUNDED EAST BY MISSOURI RIVER", "supplemental_address_text": "W BY 76TH ST BY I80 S HARRISON", "facility_city": "OMAHA", "county_code": "NE055", "state_code": "NE", "epa_region_code": "07", "facility_type_code": "STF", "facility_lat": 41.27685, "facility_lon": -95.92526, "permit_name": "CITY OF OMAHA COMBINED SEWER OVERFLOWS", "version_nmbr": 0, "permit_type_code": "NPD", "effective_date": 1704067200000, "expiration_date": 1861833600000, "permit_status_code": "EFF", "facility_type_indicator": "NON-POTW", "major_minor_status_flag": "N", "permit_tracking": "Y", "pt_start_date": 1704067200000, "dmr_tracking": "Y", "dmr_nr_start_date": 1704067200000, "permit_design_flow": null, "permit_avg_flow": null, "perm_feature_nmbr": "112", "perm_feature_text": "Martha Street", "pf_lat": 41.23771, "pf_lon": -95.91412, "pf_character": "CSO", "perm_feature_type_code": "EXO", "pf_state_waterbody_name": "Outfall channel to Missouri River", "pf_state_auto_name": "Missouri River", "pf_reach_id": "10230006000081", "in_icis": "YES", "echo_dfr_link": "https://echo.epa.gov/detailed-facility-report?fid=110012804787", "name": "OMAHA COMBINED SEWER OVERFLOWS", "feature_kind": "CSO outfall"}}, {"type": "Feature", "id": 3042, "geometry": {"type": "Point", "coordinates": [-95.9174096459771, 41.2238400847665]}, "properties": {"OBJECTID": 3042, "npdes_pfid": "NE0133680114", "npdes_id": "NE0133680", "permitting_state": "NE", "agency_type_code": "ST6", "facility_uin": "110012804787", "facility_name": "OMAHA COMBINED SEWER OVERFLOWS", "location_address": "BOUNDED EAST BY MISSOURI RIVER", "supplemental_address_text": "W BY 76TH ST BY I80 S HARRISON", "facility_city": "OMAHA", "county_code": "NE055", "state_code": "NE", "epa_region_code": "07", "facility_type_code": "STF", "facility_lat": 41.27685, "facility_lon": -95.92526, "permit_name": "CITY OF OMAHA COMBINED SEWER OVERFLOWS", "version_nmbr": 0, "permit_type_code": "NPD", "effective_date": 1704067200000, "expiration_date": 1861833600000, "permit_status_code": "EFF", "facility_type_indicator": "NON-POTW", "major_minor_status_flag": "N", "permit_tracking": "Y", "pt_start_date": 1704067200000, "dmr_tracking": "Y", "dmr_nr_start_date": 1704067200000, "permit_design_flow": null, "permit_avg_flow": null, "perm_feature_nmbr": "114", "perm_feature_text": "Grover Street", "pf_lat": 41.22384, "pf_lon": -95.91741, "pf_character": "CSO", "perm_feature_type_code": "EXO", "pf_state_waterbody_name": "Outfall channel to Missouri River", "pf_state_auto_name": "Missouri River", "pf_reach_id": "10230006000081", "in_icis": "YES", "echo_dfr_link": "https://echo.epa.gov/detailed-facility-report?fid=110012804787", "name": "OMAHA COMBINED SEWER OVERFLOWS", "feature_kind": "CSO outfall"}}, {"type": "Feature", "id": 3043, "geometry": {"type": "Point", "coordinates": [-95.9201899317815, 41.2207799510659]}, "properties": {"OBJECTID": 3043, "npdes_pfid": "NE0133680115", "npdes_id": "NE0133680", "permitting_state": "NE", "agency_type_code": "ST6", "facility_uin": "110012804787", "facility_name": "OMAHA COMBINED SEWER OVERFLOWS", "location_address": "BOUNDED EAST BY MISSOURI RIVER", "supplemental_address_text": "W BY 76TH ST BY I80 S HARRISON", "facility_city": "OMAHA", "county_code": "NE055", "state_code": "NE", "epa_region_code": "07", "facility_type_code": "STF", "facility_lat": 41.27685, "facility_lon": -95.92526, "permit_name": "CITY OF OMAHA COMBINED SEWER OVERFLOWS", "version_nmbr": 0, "permit_type_code": "NPD", "effective_date": 1704067200000, "expiration_date": 1861833600000, "permit_status_code": "EFF", "facility_type_indicator": "NON-POTW", "major_minor_status_flag": "N", "permit_tracking": "Y", "pt_start_date": 1704067200000, "dmr_tracking": "Y", "dmr_nr_start_date": 1704067200000, "permit_design_flow": null, "permit_avg_flow": null, "perm_feature_nmbr": "115", "perm_feature_text": "Riverview Lift Station", "pf_lat": 41.22078, "pf_lon": -95.92019, "pf_character": "CSO", "perm_feature_type_code": "EXO", "pf_state_waterbody_name": "Outfall channel to Missouri River.", "pf_state_auto_name": "Missouri River", "pf_reach_id": "10230006000081", "in_icis": "YES", "echo_dfr_link": "https://echo.epa.gov/detailed-facility-report?fid=110012804787", "name": "OMAHA COMBINED SEWER OVERFLOWS", "feature_kind": "CSO outfall"}}, {"type": "Feature", "id": 3044, "geometry": {"type": "Point", "coordinates": [-95.9281301405778, 41.2130097168022]}, "properties": {"OBJECTID": 3044, "npdes_pfid": "NE0133680117", "npdes_id": "NE0133680", "permitting_state": "NE", "agency_type_code": "ST6", "facility_uin": "110012804787", "facility_name": "OMAHA COMBINED SEWER OVERFLOWS", "location_address": "BOUNDED EAST BY MISSOURI RIVER", "supplemental_address_text": "W BY 76TH ST BY I80 S HARRISON", "facility_city": "OMAHA", "county_code": "NE055", "state_code": "NE", "epa_region_code": "07", "facility_type_code": "STF", "facility_lat": 41.27685, "facility_lon": -95.92526, "permit_name": "CITY OF OMAHA COMBINED SEWER OVERFLOWS", "version_nmbr": 0, "permit_type_code": "NPD", "effective_date": 1704067200000, "expiration_date": 1861833600000, "permit_status_code": "EFF", "facility_type_indicator": "NON-POTW", "major_minor_status_flag": "N", "permit_tracking": "Y", "pt_start_date": 1704067200000, "dmr_tracking": "Y", "dmr_nr_start_date": 1704067200000, "permit_design_flow": null, "permit_avg_flow": null, "perm_feature_nmbr": "117", "perm_feature_text": "Missouri Avenue Lift Station", "pf_lat": 41.21301, "pf_lon": -95.92813, "pf_character": "CSO", "perm_feature_type_code": "EXO", "pf_state_waterbody_name": "Outfall channel to Missouri River", "pf_state_auto_name": "Missouri River", "pf_reach_id": "10230006000081", "in_icis": "YES", "echo_dfr_link": "https://echo.epa.gov/detailed-facility-report?fid=110012804787", "name": "OMAHA COMBINED SEWER OVERFLOWS", "feature_kind": "CSO outfall"}}, {"type": "Feature", "id": 3045, "geometry": {"type": "Point", "coordinates": [-95.9291398469572, 41.206019839413]}, "properties": {"OBJECTID": 3045, "npdes_pfid": "NE0133680118", "npdes_id": "NE0133680", "permitting_state": "NE", "agency_type_code": "ST6", "facility_uin": "110012804787", "facility_name": "OMAHA COMBINED SEWER OVERFLOWS", "location_address": "BOUNDED EAST BY MISSOURI RIVER", "supplemental_address_text": "W BY 76TH ST BY I80 S HARRISON", "facility_city": "OMAHA", "county_code": "NE055", "state_code": "NE", "epa_region_code": "07", "facility_type_code": "STF", "facility_lat": 41.27685, "facility_lon": -95.92526, "permit_name": "CITY OF OMAHA COMBINED SEWER OVERFLOWS", "version_nmbr": 0, "permit_type_code": "NPD", "effective_date": 1704067200000, "expiration_date": 1861833600000, "permit_status_code": "EFF", "facility_type_indicator": "NON-POTW", "major_minor_status_flag": "N", "permit_tracking": "Y", "pt_start_date": 1704067200000, "dmr_tracking": "Y", "dmr_nr_start_date": 1704067200000, "permit_design_flow": null, "permit_avg_flow": null, "perm_feature_nmbr": "118", "perm_feature_text": "South Omaha - Ohern Street", "pf_lat": 41.20602, "pf_lon": -95.92914, "pf_character": "CSO", "perm_feature_type_code": "EXO", "pf_state_waterbody_name": "Missouri River", "pf_state_auto_name": "Missouri River", "pf_reach_id": "10230006000081", "in_icis": "YES", "echo_dfr_link": "https://echo.epa.gov/detailed-facility-report?fid=110012804787", "name": "OMAHA COMBINED SEWER OVERFLOWS", "feature_kind": "CSO outfall"}}, {"type": "Feature", "id": 3046, "geometry": {"type": "Point", "coordinates": [-95.9279396977376, 41.1954298644662]}, "properties": {"OBJECTID": 3046, "npdes_pfid": "NE0133680119", "npdes_id": "NE0133680", "permitting_state": "NE", "agency_type_code": "ST6", "facility_uin": "110012804787", "facility_name": "OMAHA COMBINED SEWER OVERFLOWS", "location_address": "BOUNDED EAST BY MISSOURI RIVER", "supplemental_address_text": "W BY 76TH ST BY I80 S HARRISON", "facility_city": "OMAHA", "county_code": "NE055", "state_code": "NE", "epa_region_code": "07", "facility_type_code": "STF", "facility_lat": 41.27685, "facility_lon": -95.92526, "permit_name": "CITY OF OMAHA COMBINED SEWER OVERFLOWS", "version_nmbr": 0, "permit_type_code": "NPD", "effective_date": 1704067200000, "expiration_date": 1861833600000, "permit_status_code": "EFF", "facility_type_indicator": "NON-POTW", "major_minor_status_flag": "N", "permit_tracking": "Y", "pt_start_date": 1704067200000, "dmr_tracking": "Y", "dmr_nr_start_date": 1704067200000, "permit_design_flow": null, "permit_avg_flow": null, "perm_feature_nmbr": "119", "perm_feature_text": "Monroe Street Lift Station", "pf_lat": 41.19543, "pf_lon": -95.92794, "pf_character": "CSO", "perm_feature_type_code": "EXO", "pf_state_waterbody_name": "Missouri River", "pf_state_auto_name": "Missouri River", "pf_reach_id": "10230006000081", "in_icis": "YES", "echo_dfr_link": "https://echo.epa.gov/detailed-facility-report?fid=110012804787", "name": "OMAHA COMBINED SEWER OVERFLOWS", "feature_kind": "CSO outfall"}}, {"type": "Feature", "id": 3047, "geometry": {"type": "Point", "coordinates": [-95.9205564444174, 41.2530558307771]}, "properties": {"OBJECTID": 3047, "npdes_pfid": "NE0133680121", "npdes_id": "NE0133680", "permitting_state": "NE", "agency_type_code": "ST6", "facility_uin": "110012804787", "facility_name": "OMAHA COMBINED SEWER OVERFLOWS", "location_address": "BOUNDED EAST BY MISSOURI RIVER", "supplemental_address_text": "W BY 76TH ST BY I80 S HARRISON", "facility_city": "OMAHA", "county_code": "NE055", "state_code": "NE", "epa_region_code": "07", "facility_type_code": "STF", "facility_lat": 41.27685, "facility_lon": -95.92526, "permit_name": "CITY OF OMAHA COMBINED SEWER OVERFLOWS", "version_nmbr": 0, "permit_type_code": "NPD", "effective_date": 1704067200000, "expiration_date": 1861833600000, "permit_status_code": "EFF", "facility_type_indicator": "NON-POTW", "major_minor_status_flag": "N", "permit_tracking": "Y", "pt_start_date": 1704067200000, "dmr_tracking": "Y", "dmr_nr_start_date": 1704067200000, "permit_design_flow": null, "permit_avg_flow": null, "perm_feature_nmbr": "121", "perm_feature_text": "Jones Street", "pf_lat": 41.253056, "pf_lon": -95.920556, "pf_character": "CSO", "perm_feature_type_code": "EXO", "pf_state_waterbody_name": "Missouri River", "pf_state_auto_name": "Missouri River", "pf_reach_id": "10230006000081", "in_icis": "YES", "echo_dfr_link": "https://echo.epa.gov/detailed-facility-report?fid=110012804787", "name": "OMAHA COMBINED SEWER OVERFLOWS", "feature_kind": "CSO outfall"}}, {"type": "Feature", "id": 3048, "geometry": {"type": "Point", "coordinates": [-95.8700100400106, 41.077109776783]}, "properties": {"OBJECTID": 3048, "npdes_pfid": "NE0133680201", "npdes_id": "NE0133680", "permitting_state": "NE", "agency_type_code": "ST6", "facility_uin": "110012804787", "facility_name": "OMAHA COMBINED SEWER OVERFLOWS", "location_address": "BOUNDED EAST BY MISSOURI RIVER", "supplemental_address_text": "W BY 76TH ST BY I80 S HARRISON", "facility_city": "OMAHA", "county_code": "NE055", "state_code": "NE", "epa_region_code": "07", "facility_type_code": "STF", "facility_lat": 41.27685, "facility_lon": -95.92526, "permit_name": "CITY OF OMAHA COMBINED SEWER OVERFLOWS", "version_nmbr": 0, "permit_type_code": "NPD", "effective_date": 1704067200000, "expiration_date": 1861833600000, "permit_status_code": "EFF", "facility_type_indicator": "NON-POTW", "major_minor_status_flag": "N", "permit_tracking": "Y", "pt_start_date": 1704067200000, "dmr_tracking": "Y", "dmr_nr_start_date": 1704067200000, "permit_design_flow": null, "permit_avg_flow": null, "perm_feature_nmbr": "201", "perm_feature_text": "Papillion Creek WRRF Interceptor", "pf_lat": 41.07711, "pf_lon": -95.87001, "pf_character": "CSO", "perm_feature_type_code": "EXO", "pf_state_waterbody_name": "Missouri River", "pf_state_auto_name": "Missouri River", "pf_reach_id": "10230006000002", "in_icis": "YES", "echo_dfr_link": "https://echo.epa.gov/detailed-facility-report?fid=110012804787", "name": "OMAHA COMBINED SEWER OVERFLOWS", "feature_kind": "CSO outfall"}}, {"type": "Feature", "id": 3049, "geometry": {"type": "Point", "coordinates": [-96.024820306184, 41.2886300553369]}, "properties": {"OBJECTID": 3049, "npdes_pfid": "NE0133680202", "npdes_id": "NE0133680", "permitting_state": "NE", "agency_type_code": "ST6", "facility_uin": "110012804787", "facility_name": "OMAHA COMBINED SEWER OVERFLOWS", "location_address": "BOUNDED EAST BY MISSOURI RIVER", "supplemental_address_text": "W BY 76TH ST BY I80 S HARRISON", "facility_city": "OMAHA", "county_code": "NE055", "state_code": "NE", "epa_region_code": "07", "facility_type_code": "STF", "facility_lat": 41.27685, "facility_lon": -95.92526, "permit_name": "CITY OF OMAHA COMBINED SEWER OVERFLOWS", "version_nmbr": 0, "permit_type_code": "NPD", "effective_date": 1704067200000, "expiration_date": 1861833600000, "permit_status_code": "EFF", "facility_type_indicator": "NON-POTW", "major_minor_status_flag": "N", "permit_tracking": "Y", "pt_start_date": 1704067200000, "dmr_tracking": "Y", "dmr_nr_start_date": 1704067200000, "permit_design_flow": null, "permit_avg_flow": null, "perm_feature_nmbr": "202", "perm_feature_text": "72nd and Bedford", "pf_lat": 41.28863, "pf_lon": -96.02482, "pf_character": "CSO", "perm_feature_type_code": "EXO", "pf_state_waterbody_name": "Cole Creek", "pf_state_auto_name": "Cole Creek", "pf_reach_id": "10230006000328", "in_icis": "YES", "echo_dfr_link": "https://echo.epa.gov/detailed-facility-report?fid=110012804787", "name": "OMAHA COMBINED SEWER OVERFLOWS", "feature_kind": "CSO outfall"}}, {"type": "Feature", "id": 3050, "geometry": {"type": "Point", "coordinates": [-96.021389640114, 41.2922202267416]}, "properties": {"OBJECTID": 3050, "npdes_pfid": "NE0133680203", "npdes_id": "NE0133680", "permitting_state": "NE", "agency_type_code": "ST6", "facility_uin": "110012804787", "facility_name": "OMAHA COMBINED SEWER OVERFLOWS", "location_address": "BOUNDED EAST BY MISSOURI RIVER", "supplemental_address_text": "W BY 76TH ST BY I80 S HARRISON", "facility_city": "OMAHA", "county_code": "NE055", "state_code": "NE", "epa_region_code": "07", "facility_type_code": "STF", "facility_lat": 41.27685, "facility_lon": -95.92526, "permit_name": "CITY OF OMAHA COMBINED SEWER OVERFLOWS", "version_nmbr": 0, "permit_type_code": "NPD", "effective_date": 1704067200000, "expiration_date": 1861833600000, "permit_status_code": "EFF", "facility_type_indicator": "NON-POTW", "major_minor_status_flag": "N", "permit_tracking": "Y", "pt_start_date": 1704067200000, "dmr_tracking": "Y", "dmr_nr_start_date": 1704067200000, "permit_design_flow": null, "permit_avg_flow": null, "perm_feature_nmbr": "203", "perm_feature_text": "69th and Evans", "pf_lat": 41.29222, "pf_lon": -96.02139, "pf_character": "CSO", "perm_feature_type_code": "EXO", "pf_state_waterbody_name": "Cole Creek", "pf_state_auto_name": "Cole Creek", "pf_reach_id": "10230006000328", "in_icis": "YES", "echo_dfr_link": "https://echo.epa.gov/detailed-facility-report?fid=110012804787", "name": "OMAHA COMBINED SEWER OVERFLOWS", "feature_kind": "CSO outfall"}}, {"type": "Feature", "id": 3051, "geometry": {"type": "Point", "coordinates": [-96.0180101780151, 41.2993102179722]}, "properties": {"OBJECTID": 3051, "npdes_pfid": "NE0133680204", "npdes_id": "NE0133680", "permitting_state": "NE", "agency_type_code": "ST6", "facility_uin": "110012804787", "facility_name": "OMAHA COMBINED SEWER OVERFLOWS", "location_address": "BOUNDED EAST BY MISSOURI RIVER", "supplemental_address_text": "W BY 76TH ST BY I80 S HARRISON", "facility_city": "OMAHA", "county_code": "NE055", "state_code": "NE", "epa_region_code": "07", "facility_type_code": "STF", "facility_lat": 41.27685, "facility_lon": -95.92526, "permit_name": "CITY OF OMAHA COMBINED SEWER OVERFLOWS", "version_nmbr": 0, "permit_type_code": "NPD", "effective_date": 1704067200000, "expiration_date": 1861833600000, "permit_status_code": "EFF", "facility_type_indicator": "NON-POTW", "major_minor_status_flag": "N", "permit_tracking": "Y", "pt_start_date": 1704067200000, "dmr_tracking": "Y", "dmr_nr_start_date": 1704067200000, "permit_design_flow": null, "permit_avg_flow": null, "perm_feature_nmbr": "204", "perm_feature_text": "63rd and Ames", "pf_lat": 41.29931, "pf_lon": -96.01801, "pf_character": "CSO", "perm_feature_type_code": "EXO", "pf_state_waterbody_name": "Cole Creek", "pf_state_auto_name": "Cole Creek", "pf_reach_id": "10230006000328", "in_icis": "YES", "echo_dfr_link": "https://echo.epa.gov/detailed-facility-report?fid=110012804787", "name": "OMAHA COMBINED SEWER OVERFLOWS", "feature_kind": "CSO outfall"}}, {"type": "Feature", "id": 3052, "geometry": {"type": "Point", "coordinates": [-95.9802000877065, 41.2027202875757]}, "properties": {"OBJECTID": 3052, "npdes_pfid": "NE0133680207", "npdes_id": "NE0133680", "permitting_state": "NE", "agency_type_code": "ST6", "facility_uin": "110012804787", "facility_name": "OMAHA COMBINED SEWER OVERFLOWS", "location_address": "BOUNDED EAST BY MISSOURI RIVER", "supplemental_address_text": "W BY 76TH ST BY I80 S HARRISON", "facility_city": "OMAHA", "county_code": "NE055", "state_code": "NE", "epa_region_code": "07", "facility_type_code": "STF", "facility_lat": 41.27685, "facility_lon": -95.92526, "permit_name": "CITY OF OMAHA COMBINED SEWER OVERFLOWS", "version_nmbr": 0, "permit_type_code": "NPD", "effective_date": 1704067200000, "expiration_date": 1861833600000, "permit_status_code": "EFF", "facility_type_indicator": "NON-POTW", "major_minor_status_flag": "N", "permit_tracking": "Y", "pt_start_date": 1704067200000, "dmr_tracking": "Y", "dmr_nr_start_date": 1704067200000, "permit_design_flow": null, "permit_avg_flow": null, "perm_feature_nmbr": "207", "perm_feature_text": "44th and Y Street", "pf_lat": 41.20272, "pf_lon": -95.9802, "pf_character": "CSO", "perm_feature_type_code": "EXO", "pf_state_waterbody_name": "Blood Creek to Big Papillion Creek", "pf_state_auto_name": "Big Elk Creek-Big Papillion Creek", "pf_reach_id": "10230006000420", "in_icis": "YES", "echo_dfr_link": "https://echo.epa.gov/detailed-facility-report?fid=110012804787", "name": "OMAHA COMBINED SEWER OVERFLOWS", "feature_kind": "CSO outfall"}}, {"type": "Feature", "id": 3053, "geometry": {"type": "Point", "coordinates": [-95.9817703428232, 41.2007297974238]}, "properties": {"OBJECTID": 3053, "npdes_pfid": "NE0133680208", "npdes_id": "NE0133680", "permitting_state": "NE", "agency_type_code": "ST6", "facility_uin": "110012804787", "facility_name": "OMAHA COMBINED SEWER OVERFLOWS", "location_address": "BOUNDED EAST BY MISSOURI RIVER", "supplemental_address_text": "W BY 76TH ST BY I80 S HARRISON", "facility_city": "OMAHA", "county_code": "NE055", "state_code": "NE", "epa_region_code": "07", "facility_type_code": "STF", "facility_lat": 41.27685, "facility_lon": -95.92526, "permit_name": "CITY OF OMAHA COMBINED SEWER OVERFLOWS", "version_nmbr": 0, "permit_type_code": "NPD", "effective_date": 1704067200000, "expiration_date": 1861833600000, "permit_status_code": "EFF", "facility_type_indicator": "NON-POTW", "major_minor_status_flag": "N", "permit_tracking": "Y", "pt_start_date": 1704067200000, "dmr_tracking": "Y", "dmr_nr_start_date": 1704067200000, "permit_design_flow": null, "permit_avg_flow": null, "perm_feature_nmbr": "208", "perm_feature_text": "45th and T Street", "pf_lat": 41.20073, "pf_lon": -95.98177, "pf_character": "CSO", "perm_feature_type_code": "EXO", "pf_state_waterbody_name": "Blood Creek to Big Papillion Creek", "pf_state_auto_name": "Big Elk Creek-Big Papillion Creek", "pf_reach_id": "10230006000420", "in_icis": "YES", "echo_dfr_link": "https://echo.epa.gov/detailed-facility-report?fid=110012804787", "name": "OMAHA COMBINED SEWER OVERFLOWS", "feature_kind": "CSO outfall"}}, {"type": "Feature", "id": 3054, "geometry": {"type": "Point", "coordinates": [-96.0208704138797, 41.2500902682491]}, "properties": {"OBJECTID": 3054, "npdes_pfid": "NE0133680210", "npdes_id": "NE0133680", "permitting_state": "NE", "agency_type_code": "ST6", "facility_uin": "110012804787", "facility_name": "OMAHA COMBINED SEWER OVERFLOWS", "location_address": "BOUNDED EAST BY MISSOURI RIVER", "supplemental_address_text": "W BY 76TH ST BY I80 S HARRISON", "facility_city": "OMAHA", "county_code": "NE055", "state_code": "NE", "epa_region_code": "07", "facility_type_code": "STF", "facility_lat": 41.27685, "facility_lon": -95.92526, "permit_name": "CITY OF OMAHA COMBINED SEWER OVERFLOWS", "version_nmbr": 0, "permit_type_code": "NPD", "effective_date": 1704067200000, "expiration_date": 1861833600000, "permit_status_code": "EFF", "facility_type_indicator": "NON-POTW", "major_minor_status_flag": "N", "permit_tracking": "Y", "pt_start_date": 1704067200000, "dmr_tracking": "Y", "dmr_nr_start_date": 1704067200000, "permit_design_flow": null, "permit_avg_flow": null, "perm_feature_nmbr": "210", "perm_feature_text": "72nd and Mayberry", "pf_lat": 41.25009, "pf_lon": -96.02087, "pf_character": "CSO", "perm_feature_type_code": "EXO", "pf_state_waterbody_name": "Little Papillion Creek", "pf_state_auto_name": "Little Papillion Creek", "pf_reach_id": "10230006000222", "in_icis": "YES", "echo_dfr_link": "https://echo.epa.gov/detailed-facility-report?fid=110012804787", "name": "OMAHA COMBINED SEWER OVERFLOWS", "feature_kind": "CSO outfall"}}, {"type": "Feature", "id": 3055, "geometry": {"type": "Point", "coordinates": [-96.0219439006443, 41.2449996686485]}, "properties": {"OBJECTID": 3055, "npdes_pfid": "NE0133680211", "npdes_id": "NE0133680", "permitting_state": "NE", "agency_type_code": "ST6", "facility_uin": "110012804787", "facility_name": "OMAHA COMBINED SEWER OVERFLOWS", "location_address": "BOUNDED EAST BY MISSOURI RIVER", "supplemental_address_text": "W BY 76TH ST BY I80 S HARRISON", "facility_city": "OMAHA", "county_code": "NE055", "state_code": "NE", "epa_region_code": "07", "facility_type_code": "STF", "facility_lat": 41.27685, "facility_lon": -95.92526, "permit_name": "CITY OF OMAHA COMBINED SEWER OVERFLOWS", "version_nmbr": 0, "permit_type_code": "NPD", "effective_date": 1704067200000, "expiration_date": 1861833600000, "permit_status_code": "EFF", "facility_type_indicator": "NON-POTW", "major_minor_status_flag": "N", "permit_tracking": "Y", "pt_start_date": 1704067200000, "dmr_tracking": "Y", "dmr_nr_start_date": 1704067200000, "permit_design_flow": null, "permit_avg_flow": null, "perm_feature_nmbr": "211", "perm_feature_text": "69th and Pierce", "pf_lat": 41.245, "pf_lon": -96.021944, "pf_character": "CSO", "perm_feature_type_code": "EXO", "pf_state_waterbody_name": "Little Papillion Creek", "pf_state_auto_name": "Little Papillion Creek", "pf_reach_id": "10230006000221", "in_icis": "YES", "echo_dfr_link": "https://echo.epa.gov/detailed-facility-report?fid=110012804787", "name": "OMAHA COMBINED SEWER OVERFLOWS", "feature_kind": "CSO outfall"}}, {"type": "Feature", "id": 3056, "geometry": {"type": "Point", "coordinates": [-96.0199999463694, 41.2447220618576]}, "properties": {"OBJECTID": 3056, "npdes_pfid": "NE0133680212", "npdes_id": "NE0133680", "permitting_state": "NE", "agency_type_code": "ST6", "facility_uin": "110012804787", "facility_name": "OMAHA COMBINED SEWER OVERFLOWS", "location_address": "BOUNDED EAST BY MISSOURI RIVER", "supplemental_address_text": "W BY 76TH ST BY I80 S HARRISON", "facility_city": "OMAHA", "county_code": "NE055", "state_code": "NE", "epa_region_code": "07", "facility_type_code": "STF", "facility_lat": 41.27685, "facility_lon": -95.92526, "permit_name": "CITY OF OMAHA COMBINED SEWER OVERFLOWS", "version_nmbr": 0, "permit_type_code": "NPD", "effective_date": 1704067200000, "expiration_date": 1861833600000, "permit_status_code": "EFF", "facility_type_indicator": "NON-POTW", "major_minor_status_flag": "N", "permit_tracking": "Y", "pt_start_date": 1704067200000, "dmr_tracking": "Y", "dmr_nr_start_date": 1704067200000, "permit_design_flow": null, "permit_avg_flow": null, "perm_feature_nmbr": "212", "perm_feature_text": "69th and Woolworth", "pf_lat": 41.244722, "pf_lon": -96.02, "pf_character": "CSO", "perm_feature_type_code": "EXO", "pf_state_waterbody_name": "Little Papillion Creek", "pf_state_auto_name": "Little Papillion Creek", "pf_reach_id": "10230006000221", "in_icis": "YES", "echo_dfr_link": "https://echo.epa.gov/detailed-facility-report?fid=110012804787", "name": "OMAHA COMBINED SEWER OVERFLOWS", "feature_kind": "CSO outfall"}}]}