{"type": "FeatureCollection", "features": [{"type": "Feature", "id": 5797, "geometry": {"type": "Point", "coordinates": [-66.0600560386712, 18.4348890068111]}, "properties": {"OBJECTID": 5797, "npdes_pfid": "PR0021555002", "npdes_id": "PR0021555", "permitting_state": "PR", "agency_type_code": "EP6", "facility_uin": "110006622823", "facility_name": "PRASA PUERTO NUEVO WWTP", "location_address": "J.F. KENNEDY AVE.", "supplemental_address_text": "RD PR-2 KM2, GUILLERMO ORITIZ", "facility_city": "SAN JUAN", "county_code": "PR127", "state_code": "PR", "epa_region_code": "02", "facility_type_code": "STF", "facility_lat": 18.431111, "facility_lon": -66.085556, "permit_name": "PRASA PUERTO NUEVO", "version_nmbr": 0, "permit_type_code": "NPD", "effective_date": 1635724800000, "expiration_date": 1793404800000, "permit_status_code": "EFF", "facility_type_indicator": "POTW", "major_minor_status_flag": "M", "permit_tracking": "Y", "pt_start_date": 1635724800000, "dmr_tracking": "Y", "dmr_nr_start_date": 1635724800000, "permit_design_flow": 144, "permit_avg_flow": 80, "perm_feature_nmbr": "002", "perm_feature_text": "Mercantil Plaza Building", "pf_lat": 18.434889, "pf_lon": -66.060056, "pf_character": "CSO", "perm_feature_type_code": "EXO", "pf_state_waterbody_name": "Martin Pena Channel", "pf_state_auto_name": "Ca\u00c3\u00b1o de Mart\u00c3\u00adn Pe\u00c3\u00b1a", "pf_reach_id": "21010005004990", "in_icis": "YES", "echo_dfr_link": "https://echo.epa.gov/detailed-facility-report?fid=110006622823", "name": "PRASA PUERTO NUEVO WWTP", "feature_kind": "CSO outfall"}}, {"type": "Feature", "id": 5798, "geometry": {"type": "Point", "coordinates": [-66.1340278107421, 18.7518326007142]}, "properties": {"OBJECTID": 5798, "npdes_pfid": "PR0021555003", "npdes_id": "PR0021555", "permitting_state": "PR", "agency_type_code": "EP6", "facility_uin": "110006622823", "facility_name": "PRASA PUERTO NUEVO WWTP", "location_address": "J.F. KENNEDY AVE.", "supplemental_address_text": "RD PR-2 KM2, GUILLERMO ORITIZ", "facility_city": "SAN JUAN", "county_code": "PR127", "state_code": "PR", "epa_region_code": "02", "facility_type_code": "STF", "facility_lat": 18.431111, "facility_lon": -66.085556, "permit_name": "PRASA PUERTO NUEVO", "version_nmbr": 0, "permit_type_code": "NPD", "effective_date": 1635724800000, "expiration_date": 1793404800000, "permit_status_code": "EFF", "facility_type_indicator": "POTW", "major_minor_status_flag": "M", "permit_tracking": "Y", "pt_start_date": 1635724800000, "dmr_tracking": "Y", "dmr_nr_start_date": 1635724800000, "permit_design_flow": 144, "permit_avg_flow": 80, "perm_feature_nmbr": "003", "perm_feature_text": "Barriada Figueroa (intersection of San Ramon and del Carmen Street)", "pf_lat": 18.751833, "pf_lon": -66.134028, "pf_character": "CSO", "perm_feature_type_code": "EXO", "pf_state_waterbody_name": "Martin Pena Channel", "pf_state_auto_name": "Laguna San Jose, Laguna Torrecilla, Laguna de Pinones D Watersheds", "pf_reach_id": "21010005006338", "in_icis": "YES", "echo_dfr_link": "https://echo.epa.gov/detailed-facility-report?fid=110006622823", "name": "PRASA PUERTO NUEVO WWTP", "feature_kind": "CSO outfall"}}, {"type": "Feature", "id": 5799, "geometry": {"type": "Point", "coordinates": [-66.1196673426101, 18.464861420614]}, "properties": {"OBJECTID": 5799, "npdes_pfid": "PR0021555004", "npdes_id": "PR0021555", "permitting_state": "PR", "agency_type_code": "EP6", "facility_uin": "110006622823", "facility_name": "PRASA PUERTO NUEVO WWTP", "location_address": "J.F. KENNEDY AVE.", "supplemental_address_text": "RD PR-2 KM2, GUILLERMO ORITIZ", "facility_city": "SAN JUAN", "county_code": "PR127", "state_code": "PR", "epa_region_code": "02", "facility_type_code": "STF", "facility_lat": 18.431111, "facility_lon": -66.085556, "permit_name": "PRASA PUERTO NUEVO", "version_nmbr": 0, "permit_type_code": "NPD", "effective_date": 1635724800000, "expiration_date": 1793404800000, "permit_status_code": "EFF", "facility_type_indicator": "POTW", "major_minor_status_flag": "M", "permit_tracking": "Y", "pt_start_date": 1635724800000, "dmr_tracking": "Y", "dmr_nr_start_date": 1635724800000, "permit_design_flow": 144, "permit_avg_flow": 80, "perm_feature_nmbr": "004", "perm_feature_text": "Puerta de San Juan", "pf_lat": 18.464861, "pf_lon": -66.119667, "pf_character": "CSO", "perm_feature_type_code": "EXO", "pf_state_waterbody_name": "San Juan Bay", "pf_state_auto_name": "", "pf_reach_id": "", "in_icis": "YES", "echo_dfr_link": "https://echo.epa.gov/detailed-facility-report?fid=110006622823", "name": "PRASA PUERTO NUEVO WWTP", "feature_kind": "CSO outfall"}}, {"type": "Feature", "id": 5800, "geometry": {"type": "Point", "coordinates": [-66.1196673426101, 18.4650829582248]}, "properties": {"OBJECTID": 5800, "npdes_pfid": "PR0021555005", "npdes_id": "PR0021555", "permitting_state": "PR", "agency_type_code": "EP6", "facility_uin": "110006622823", "facility_name": "PRASA PUERTO NUEVO WWTP", "location_address": "J.F. KENNEDY AVE.", "supplemental_address_text": "RD PR-2 KM2, GUILLERMO ORITIZ", "facility_city": "SAN JUAN", "county_code": "PR127", "state_code": "PR", "epa_region_code": "02", "facility_type_code": "STF", "facility_lat": 18.431111, "facility_lon": -66.085556, "permit_name": "PRASA PUERTO NUEVO", "version_nmbr": 0, "permit_type_code": "NPD", "effective_date": 1635724800000, "expiration_date": 1793404800000, "permit_status_code": "EFF", "facility_type_indicator": "POTW", "major_minor_status_flag": "M", "permit_tracking": "Y", "pt_start_date": 1635724800000, "dmr_tracking": "Y", "dmr_nr_start_date": 1635724800000, "permit_design_flow": 144, "permit_avg_flow": 80, "perm_feature_nmbr": "005", "perm_feature_text": "Pase", "pf_lat": 18.465083, "pf_lon": -66.119667, "pf_character": "CSO", "perm_feature_type_code": "EXO", "pf_state_waterbody_name": "San Juan Bay", "pf_state_auto_name": "", "pf_reach_id": "", "in_icis": "YES", "echo_dfr_link": "https://echo.epa.gov/detailed-facility-report?fid=110006622823", "name": "PRASA PUERTO NUEVO WWTP", "feature_kind": "CSO outfall"}}, {"type": "Feature", "id": 5801, "geometry": {"type": "Point", "coordinates": [-66.0854172757725, 18.4472218487256]}, "properties": {"OBJECTID": 5801, "npdes_pfid": "PR0021555006", "npdes_id": "PR0021555", "permitting_state": "PR", "agency_type_code": "EP6", "facility_uin": "110006622823", "facility_name": "PRASA PUERTO NUEVO WWTP", "location_address": "J.F. KENNEDY AVE.", "supplemental_address_text": "RD PR-2 KM2, GUILLERMO ORITIZ", "facility_city": "SAN JUAN", "county_code": "PR127", "state_code": "PR", "epa_region_code": "02", "facility_type_code": "STF", "facility_lat": 18.431111, "facility_lon": -66.085556, "permit_name": "PRASA PUERTO NUEVO", "version_nmbr": 0, "permit_type_code": "NPD", "effective_date": 1635724800000, "expiration_date": 1793404800000, "permit_status_code": "EFF", "facility_type_indicator": "POTW", "major_minor_status_flag": "M", "permit_tracking": "Y", "pt_start_date": 1635724800000, "dmr_tracking": "Y", "dmr_nr_start_date": 1635724800000, "permit_design_flow": 144, "permit_avg_flow": 80, "perm_feature_nmbr": "006", "perm_feature_text": "Miramar (behind Cortes Industrial)", "pf_lat": 18.447222, "pf_lon": -66.085417, "pf_character": "CSO", "perm_feature_type_code": "EXO", "pf_state_waterbody_name": "San Juan Bay", "pf_state_auto_name": "Laguna San Jose, Laguna Torrecilla, Laguna de Pinones D Watersheds", "pf_reach_id": "21010005006338", "in_icis": "YES", "echo_dfr_link": "https://echo.epa.gov/detailed-facility-report?fid=110006622823", "name": "PRASA PUERTO NUEVO WWTP", "feature_kind": "CSO outfall"}}, {"type": "Feature", "id": 5802, "geometry": {"type": "Point", "coordinates": [-66.0816937589198, 18.439749983855]}, "properties": {"OBJECTID": 5802, "npdes_pfid": "PR0021555007", "npdes_id": "PR0021555", "permitting_state": "PR", "agency_type_code": "EP6", "facility_uin": "110006622823", "facility_name": "PRASA PUERTO NUEVO WWTP", "location_address": "J.F. KENNEDY AVE.", "supplemental_address_text": "RD PR-2 KM2, GUILLERMO ORITIZ", "facility_city": "SAN JUAN", "county_code": "PR127", "state_code": "PR", "epa_region_code": "02", "facility_type_code": "STF", "facility_lat": 18.431111, "facility_lon": -66.085556, "permit_name": "PRASA PUERTO NUEVO", "version_nmbr": 0, "permit_type_code": "NPD", "effective_date": 1635724800000, "expiration_date": 1793404800000, "permit_status_code": "EFF", "facility_type_indicator": "POTW", "major_minor_status_flag": "M", "permit_tracking": "Y", "pt_start_date": 1635724800000, "dmr_tracking": "Y", "dmr_nr_start_date": 1635724800000, "permit_design_flow": 144, "permit_avg_flow": 80, "perm_feature_nmbr": "007", "perm_feature_text": "Plaza Las Americas", "pf_lat": 18.43975, "pf_lon": -66.081694, "pf_character": "CSO", "perm_feature_type_code": "EXO", "pf_state_waterbody_name": "Puerto Nuevo River", "pf_state_auto_name": "Laguna San Jose, Laguna Torrecilla, Laguna de Pinones D Watersheds", "pf_reach_id": "21010005006338", "in_icis": "YES", "echo_dfr_link": "https://echo.epa.gov/detailed-facility-report?fid=110006622823", "name": "PRASA PUERTO NUEVO WWTP", "feature_kind": "CSO outfall"}}, {"type": "Feature", "id": 5803, "geometry": {"type": "Point", "coordinates": [-66.0786107408647, 18.4424999883352]}, "properties": {"OBJECTID": 5803, "npdes_pfid": "PR0021555008", "npdes_id": "PR0021555", "permitting_state": "PR", "agency_type_code": "EP6", "facility_uin": "110006622823", "facility_name": "PRASA PUERTO NUEVO WWTP", "location_address": "J.F. KENNEDY AVE.", "supplemental_address_text": "RD PR-2 KM2, GUILLERMO ORITIZ", "facility_city": "SAN JUAN", "county_code": "PR127", "state_code": "PR", "epa_region_code": "02", "facility_type_code": "STF", "facility_lat": 18.431111, "facility_lon": -66.085556, "permit_name": "PRASA PUERTO NUEVO", "version_nmbr": 0, "permit_type_code": "NPD", "effective_date": 1635724800000, "expiration_date": 1793404800000, "permit_status_code": "EFF", "facility_type_indicator": "POTW", "major_minor_status_flag": "M", "permit_tracking": "Y", "pt_start_date": 1635724800000, "dmr_tracking": "Y", "dmr_nr_start_date": 1635724800000, "permit_design_flow": 144, "permit_avg_flow": 80, "perm_feature_nmbr": "008", "perm_feature_text": "Constitutution Bridge", "pf_lat": 18.4425, "pf_lon": -66.078611, "pf_character": "CSO", "perm_feature_type_code": "EXO", "pf_state_waterbody_name": "Puerto Nuevo River", "pf_state_auto_name": "Ca\u00c3\u00b1o de Mart\u00c3\u00adn Pe\u00c3\u00b1a", "pf_reach_id": "21010005004848", "in_icis": "YES", "echo_dfr_link": "https://echo.epa.gov/detailed-facility-report?fid=110006622823", "name": "PRASA PUERTO NUEVO WWTP", "feature_kind": "CSO outfall"}}, {"type": "Feature", "id": 5804, "geometry": {"type": "Point", "coordinates": [-66.0703327655216, 18.4421386639488]}, "properties": {"OBJECTID": 5804, "npdes_pfid": "PR0021555009", "npdes_id": "PR0021555", "permitting_state": "PR", "agency_type_code": "EP6", "facility_uin": "110006622823", "facility_name": "PRASA PUERTO NUEVO WWTP", "location_address": "J.F. KENNEDY AVE.", "supplemental_address_text": "RD PR-2 KM2, GUILLERMO ORITIZ", "facility_city": "SAN JUAN", "county_code": "PR127", "state_code": "PR", "epa_region_code": "02", "facility_type_code": "STF", "facility_lat": 18.431111, "facility_lon": -66.085556, "permit_name": "PRASA PUERTO NUEVO", "version_nmbr": 0, "permit_type_code": "NPD", "effective_date": 1635724800000, "expiration_date": 1793404800000, "permit_status_code": "EFF", "facility_type_indicator": "POTW", "major_minor_status_flag": "M", "permit_tracking": "Y", "pt_start_date": 1635724800000, "dmr_tracking": "Y", "dmr_nr_start_date": 1635724800000, "permit_design_flow": 144, "permit_avg_flow": 80, "perm_feature_nmbr": "009", "perm_feature_text": "Pavia Street", "pf_lat": 18.442139, "pf_lon": -66.070333, "pf_character": "CSO", "perm_feature_type_code": "EXO", "pf_state_waterbody_name": "Martin Pena Channel", "pf_state_auto_name": "Ca\u00c3\u00b1o de Mart\u00c3\u00adn Pe\u00c3\u00b1a", "pf_reach_id": "21010005004848", "in_icis": "YES", "echo_dfr_link": "https://echo.epa.gov/detailed-facility-report?fid=110006622823", "name": "PRASA PUERTO NUEVO WWTP", "feature_kind": "CSO outfall"}}, {"type": "Feature", "id": 5805, "geometry": {"type": "Point", "coordinates": [-66.4407503779824, 18.4407496032184]}, "properties": {"OBJECTID": 5805, "npdes_pfid": "PR0021555010", "npdes_id": "PR0021555", "permitting_state": "PR", "agency_type_code": "EP6", "facility_uin": "110006622823", "facility_name": "PRASA PUERTO NUEVO WWTP", "location_address": "J.F. KENNEDY AVE.", "supplemental_address_text": "RD PR-2 KM2, GUILLERMO ORITIZ", "facility_city": "SAN JUAN", "county_code": "PR127", "state_code": "PR", "epa_region_code": "02", "facility_type_code": "STF", "facility_lat": 18.431111, "facility_lon": -66.085556, "permit_name": "PRASA PUERTO NUEVO", "version_nmbr": 0, "permit_type_code": "NPD", "effective_date": 1635724800000, "expiration_date": 1793404800000, "permit_status_code": "EFF", "facility_type_indicator": "POTW", "major_minor_status_flag": "M", "permit_tracking": "Y", "pt_start_date": 1635724800000, "dmr_tracking": "Y", "dmr_nr_start_date": 1635724800000, "permit_design_flow": 144, "permit_avg_flow": 80, "perm_feature_nmbr": "010", "perm_feature_text": "Del Parque Street", "pf_lat": 18.44075, "pf_lon": -66.44075, "pf_character": "CSO", "perm_feature_type_code": "EXO", "pf_state_waterbody_name": "Martin Pena Channel", "pf_state_auto_name": "Rio Cibuco-Cienaga Prieta-Laguna Tortuguero Coastal Watershed", "pf_reach_id": "21010002000386", "in_icis": "YES", "echo_dfr_link": "https://echo.epa.gov/detailed-facility-report?fid=110006622823", "name": "PRASA PUERTO NUEVO WWTP", "feature_kind": "CSO outfall"}}, {"type": "Feature", "id": 5806, "geometry": {"type": "Point", "coordinates": [-66.0685828473481, 18.4404717897248]}, "properties": {"OBJECTID": 5806, "npdes_pfid": "PR0021555011", "npdes_id": "PR0021555", "permitting_state": "PR", "agency_type_code": "EP6", "facility_uin": "110006622823", "facility_name": "PRASA PUERTO NUEVO WWTP", "location_address": "J.F. KENNEDY AVE.", "supplemental_address_text": "RD PR-2 KM2, GUILLERMO ORITIZ", "facility_city": "SAN JUAN", "county_code": "PR127", "state_code": "PR", "epa_region_code": "02", "facility_type_code": "STF", "facility_lat": 18.431111, "facility_lon": -66.085556, "permit_name": "PRASA PUERTO NUEVO", "version_nmbr": 0, "permit_type_code": "NPD", "effective_date": 1635724800000, "expiration_date": 1793404800000, "permit_status_code": "EFF", "facility_type_indicator": "POTW", "major_minor_status_flag": "M", "permit_tracking": "Y", "pt_start_date": 1635724800000, "dmr_tracking": "Y", "dmr_nr_start_date": 1635724800000, "permit_design_flow": 144, "permit_avg_flow": 80, "perm_feature_nmbr": "011", "perm_feature_text": "Bolivar Street", "pf_lat": 18.440472, "pf_lon": -66.068583, "pf_character": "CSO", "perm_feature_type_code": "EXO", "pf_state_waterbody_name": "Martin Pena Channel", "pf_state_auto_name": "Ca\u00c3\u00b1o de Mart\u00c3\u00adn Pe\u00c3\u00b1a", "pf_reach_id": "21010005005077", "in_icis": "YES", "echo_dfr_link": "https://echo.epa.gov/detailed-facility-report?fid=110006622823", "name": "PRASA PUERTO NUEVO WWTP", "feature_kind": "CSO outfall"}}, {"type": "Feature", "id": 5807, "geometry": {"type": "Point", "coordinates": [-66.1187780104788, 18.4630277598702]}, "properties": {"OBJECTID": 5807, "npdes_pfid": "PR0021555012", "npdes_id": "PR0021555", "permitting_state": "PR", "agency_type_code": "EP6", "facility_uin": "110006622823", "facility_name": "PRASA PUERTO NUEVO WWTP", "location_address": "J.F. KENNEDY AVE.", "supplemental_address_text": "RD PR-2 KM2, GUILLERMO ORITIZ", "facility_city": "SAN JUAN", "county_code": "PR127", "state_code": "PR", "epa_region_code": "02", "facility_type_code": "STF", "facility_lat": 18.431111, "facility_lon": -66.085556, "permit_name": "PRASA PUERTO NUEVO", "version_nmbr": 0, "permit_type_code": "NPD", "effective_date": 1635724800000, "expiration_date": 1793404800000, "permit_status_code": "EFF", "facility_type_indicator": "POTW", "major_minor_status_flag": "M", "permit_tracking": "Y", "pt_start_date": 1635724800000, "dmr_tracking": "Y", "dmr_nr_start_date": 1635724800000, "permit_design_flow": 144, "permit_avg_flow": 80, "perm_feature_nmbr": "012", "perm_feature_text": "La Puntilla Street", "pf_lat": 18.463028, "pf_lon": -66.118778, "pf_character": "CSO", "perm_feature_type_code": "EXO", "pf_state_waterbody_name": "San Juan Bay", "pf_state_auto_name": "", "pf_reach_id": "", "in_icis": "YES", "echo_dfr_link": "https://echo.epa.gov/detailed-facility-report?fid=110006622823", "name": "PRASA PUERTO NUEVO WWTP", "feature_kind": "CSO outfall"}}, {"type": "Feature", "id": 5808, "geometry": {"type": "Point", "coordinates": [-66.0666110452995, 18.4357216208064]}, "properties": {"OBJECTID": 5808, "npdes_pfid": "PR0021555013", "npdes_id": "PR0021555", "permitting_state": "PR", "agency_type_code": "EP6", "facility_uin": "110006622823", "facility_name": "PRASA PUERTO NUEVO WWTP", "location_address": "J.F. KENNEDY AVE.", "supplemental_address_text": "RD PR-2 KM2, GUILLERMO ORITIZ", "facility_city": "SAN JUAN", "county_code": "PR127", "state_code": "PR", "epa_region_code": "02", "facility_type_code": "STF", "facility_lat": 18.431111, "facility_lon": -66.085556, "permit_name": "PRASA PUERTO NUEVO", "version_nmbr": 0, "permit_type_code": "NPD", "effective_date": 1635724800000, "expiration_date": 1793404800000, "permit_status_code": "EFF", "facility_type_indicator": "POTW", "major_minor_status_flag": "M", "permit_tracking": "Y", "pt_start_date": 1635724800000, "dmr_tracking": "Y", "dmr_nr_start_date": 1635724800000, "permit_design_flow": 144, "permit_avg_flow": 80, "perm_feature_nmbr": "013", "perm_feature_text": "Los Angeles", "pf_lat": 18.435722, "pf_lon": -66.066611, "pf_character": "CSO", "perm_feature_type_code": "EXO", "pf_state_waterbody_name": "Martin Pena Channel", "pf_state_auto_name": "Ca\u00c3\u00b1o de Mart\u00c3\u00adn Pe\u00c3\u00b1a", "pf_reach_id": "21010005005077", "in_icis": "YES", "echo_dfr_link": "https://echo.epa.gov/detailed-facility-report?fid=110006622823", "name": "PRASA PUERTO NUEVO WWTP", "feature_kind": "CSO outfall"}}]}