{"type": "FeatureCollection", "features": [{"type": "Feature", "id": 5939, "geometry": {"type": "Point", "coordinates": [-103.713028309124, 44.3860000944967]}, "properties": {"OBJECTID": 5939, "npdes_pfid": "SD0020796003", "npdes_id": "SD0020796", "permitting_state": "SD", "agency_type_code": "ST6", "facility_uin": "110039849180", "facility_name": "LEAD - DEADWOOD SANITARY DISTRICT", "location_address": "PO BOX 413", "supplemental_address_text": "EAST SIDE OF DEADWOOD", "facility_city": "DEADWOOD", "county_code": "SD081", "state_code": "SD", "epa_region_code": "08", "facility_type_code": "MWD", "facility_lat": 44.38668, "facility_lon": -103.711044, "permit_name": "Lead - Deadwood Sanitary District", "version_nmbr": 0, "permit_type_code": "NPD", "effective_date": 1435708800000, "expiration_date": 1593475200000, "permit_status_code": "ADC", "facility_type_indicator": "POTW", "major_minor_status_flag": "M", "permit_tracking": "Y", "pt_start_date": 1435708800000, "dmr_tracking": "Y", "dmr_nr_start_date": 1435708800000, "permit_design_flow": 2, "permit_avg_flow": 2, "perm_feature_nmbr": "003", "perm_feature_text": "Any discharge from Outfall 003A to Whitewood Creek", "pf_lat": 44.386, "pf_lon": -103.713028, "pf_character": "CSO|DSW|UTB", "perm_feature_type_code": "EXO", "pf_state_waterbody_name": "Whitewood Creek", "pf_state_auto_name": "Upper Whitewood Creek", "pf_reach_id": "10120202002757", "in_icis": "YES", "echo_dfr_link": "https://echo.epa.gov/detailed-facility-report?fid=110039849180", "name": "LEAD - DEADWOOD SANITARY DISTRICT", "feature_kind": "CSO outfall"}}, {"type": "Feature", "id": 5940, "geometry": {"type": "Point", "coordinates": [-103.753833382589, 44.3557501108369]}, "properties": {"OBJECTID": 5940, "npdes_pfid": "SD0027481004", "npdes_id": "SD0027481", "permitting_state": "SD", "agency_type_code": "ST6", "facility_uin": "110010952282", "facility_name": "LEAD, CITY OF (CSO)", "location_address": "801 W. MAIN STREET", "supplemental_address_text": "004 HWY 85/ SHORT ST. 005 2 BL", "facility_city": "LEAD", "county_code": "SD081", "state_code": "SD", "epa_region_code": "08", "facility_type_code": "MWD", "facility_lat": 44.355747, "facility_lon": -103.753843, "permit_name": "Lead, City of (CSO)", "version_nmbr": 0, "permit_type_code": "NPD", "effective_date": 1341100800000, "expiration_date": 1498780800000, "permit_status_code": "ADC", "facility_type_indicator": "POTW", "major_minor_status_flag": "N", "permit_tracking": "Y", "pt_start_date": 1341100800000, "dmr_tracking": "Y", "dmr_nr_start_date": 1498867200000, "permit_design_flow": 0.0192, "permit_avg_flow": 0.0192, "perm_feature_nmbr": "004", "perm_feature_text": "Any discharge from Outfall 004A to Gold Run Creek", "pf_lat": 44.35575, "pf_lon": -103.753833, "pf_character": "CSO", "perm_feature_type_code": "EXO", "pf_state_waterbody_name": "Gold Run Creek", "pf_state_auto_name": "Whitewood Creek", "pf_reach_id": "10120202000794", "in_icis": "YES", "echo_dfr_link": "https://echo.epa.gov/detailed-facility-report?fid=110010952282", "name": "LEAD, CITY OF (CSO)", "feature_kind": "CSO outfall"}}, {"type": "Feature", "id": 5941, "geometry": {"type": "Point", "coordinates": [-103.770162059509, 44.3513372959809]}, "properties": {"OBJECTID": 5941, "npdes_pfid": "SD0027481005", "npdes_id": "SD0027481", "permitting_state": "SD", "agency_type_code": "ST6", "facility_uin": "110010952282", "facility_name": "LEAD, CITY OF (CSO)", "location_address": "801 W. MAIN STREET", "supplemental_address_text": "004 HWY 85/ SHORT ST. 005 2 BL", "facility_city": "LEAD", "county_code": "SD081", "state_code": "SD", "epa_region_code": "08", "facility_type_code": "MWD", "facility_lat": 44.355747, "facility_lon": -103.753843, "permit_name": "Lead, City of (CSO)", "version_nmbr": 0, "permit_type_code": "NPD", "effective_date": 1341100800000, "expiration_date": 1498780800000, "permit_status_code": "ADC", "facility_type_indicator": "POTW", "major_minor_status_flag": "N", "permit_tracking": "Y", "pt_start_date": 1341100800000, "dmr_tracking": "Y", "dmr_nr_start_date": 1498867200000, "permit_design_flow": 0.0192, "permit_avg_flow": 0.0192, "perm_feature_nmbr": "005", "perm_feature_text": "Any discharge from Outfall 005A to Gold Run Creek", "pf_lat": 44.351337, "pf_lon": -103.770162, "pf_character": "CSO", "perm_feature_type_code": "EXO", "pf_state_waterbody_name": "Gold Run Creek", "pf_state_auto_name": "Whitewood Creek", "pf_reach_id": "10120202000794", "in_icis": "YES", "echo_dfr_link": "https://echo.epa.gov/detailed-facility-report?fid=110010952282", "name": "LEAD, CITY OF (CSO)", "feature_kind": "CSO outfall"}}]}