{"type": "FeatureCollection", "features": [{"type": "Feature", "id": 1798, "geometry": {"type": "Point", "coordinates": [-75.5293411790206, 39.7390397684339]}, "properties": {"OBJECTID": 1798, "npdes_pfid": "DE0020320002", "npdes_id": "DE0020320", "permitting_state": "DE", "agency_type_code": "ST6", "facility_uin": "110006523770", "facility_name": "CITY OF WILMINGTON REGIONAL WWTP", "location_address": "12TH STREET & HAY ROAD", "supplemental_address_text": "", "facility_city": "WILMINGTON", "county_code": "DE003", "state_code": "DE", "epa_region_code": "03", "facility_type_code": "MWD", "facility_lat": 39.735962, "facility_lon": -75.516033, "permit_name": "City of Wilmington Regional WWTP", "version_nmbr": 0, "permit_type_code": "NPD", "effective_date": 1412121600000, "expiration_date": 1569801600000, "permit_status_code": "EXP", "facility_type_indicator": "POTW", "major_minor_status_flag": "M", "permit_tracking": "Y", "pt_start_date": 1412121600000, "dmr_tracking": "Y", "dmr_nr_start_date": 1412121600000, "permit_design_flow": null, "permit_avg_flow": null, "perm_feature_nmbr": "002", "perm_feature_text": "", "pf_lat": 39.7390401, "pf_lon": -75.5293416, "pf_character": "CSO", "perm_feature_type_code": "EXO", "pf_state_waterbody_name": "Brandywine Creek", "pf_state_auto_name": "", "pf_reach_id": "", "in_icis": "YES", "echo_dfr_link": "https://echo.epa.gov/detailed-facility-report?fid=110006523770", "name": "CITY OF WILMINGTON REGIONAL WWTP", "feature_kind": "CSO outfall"}}, {"type": "Feature", "id": 1799, "geometry": {"type": "Point", "coordinates": [-75.5366444822805, 39.7421122548552]}, "properties": {"OBJECTID": 1799, "npdes_pfid": "DE0020320003", "npdes_id": "DE0020320", "permitting_state": "DE", "agency_type_code": "ST6", "facility_uin": "110006523770", "facility_name": "CITY OF WILMINGTON REGIONAL WWTP", "location_address": "12TH STREET & HAY ROAD", "supplemental_address_text": "", "facility_city": "WILMINGTON", "county_code": "DE003", "state_code": "DE", "epa_region_code": "03", "facility_type_code": "MWD", "facility_lat": 39.735962, "facility_lon": -75.516033, "permit_name": "City of Wilmington Regional WWTP", "version_nmbr": 0, "permit_type_code": "NPD", "effective_date": 1412121600000, "expiration_date": 1569801600000, "permit_status_code": "EXP", "facility_type_indicator": "POTW", "major_minor_status_flag": "M", "permit_tracking": "Y", "pt_start_date": 1412121600000, "dmr_tracking": "Y", "dmr_nr_start_date": 1412121600000, "permit_design_flow": null, "permit_avg_flow": null, "perm_feature_nmbr": "003", "perm_feature_text": "", "pf_lat": 39.742112, "pf_lon": -75.5366449, "pf_character": "CSO", "perm_feature_type_code": "EXO", "pf_state_waterbody_name": "Brandywine Creek", "pf_state_auto_name": "", "pf_reach_id": "", "in_icis": "YES", "echo_dfr_link": "https://echo.epa.gov/detailed-facility-report?fid=110006523770", "name": "CITY OF WILMINGTON REGIONAL WWTP", "feature_kind": "CSO outfall"}}, {"type": "Feature", "id": 1800, "geometry": {"type": "Point", "coordinates": [-75.5373137271671, 39.7441347161137]}, "properties": {"OBJECTID": 1800, "npdes_pfid": "DE0020320004A", "npdes_id": "DE0020320", "permitting_state": "DE", "agency_type_code": "ST6", "facility_uin": "110006523770", "facility_name": "CITY OF WILMINGTON REGIONAL WWTP", "location_address": "12TH STREET & HAY ROAD", "supplemental_address_text": "", "facility_city": "WILMINGTON", "county_code": "DE003", "state_code": "DE", "epa_region_code": "03", "facility_type_code": "MWD", "facility_lat": 39.735962, "facility_lon": -75.516033, "permit_name": "City of Wilmington Regional WWTP", "version_nmbr": 0, "permit_type_code": "NPD", "effective_date": 1412121600000, "expiration_date": 1569801600000, "permit_status_code": "EXP", "facility_type_indicator": "POTW", "major_minor_status_flag": "M", "permit_tracking": "Y", "pt_start_date": 1412121600000, "dmr_tracking": "Y", "dmr_nr_start_date": 1412121600000, "permit_design_flow": null, "permit_avg_flow": null, "perm_feature_nmbr": "004A", "perm_feature_text": "", "pf_lat": 39.7441344, "pf_lon": -75.5373138, "pf_character": "CSO", "perm_feature_type_code": "EXO", "pf_state_waterbody_name": "Brandywine Creek", "pf_state_auto_name": "", "pf_reach_id": "", "in_icis": "YES", "echo_dfr_link": "https://echo.epa.gov/detailed-facility-report?fid=110006523770", "name": "CITY OF WILMINGTON REGIONAL WWTP", "feature_kind": "CSO outfall"}}, {"type": "Feature", "id": 1801, "geometry": {"type": "Point", "coordinates": [-75.5382345003334, 39.7450478434467]}, "properties": {"OBJECTID": 1801, "npdes_pfid": "DE0020320004B", "npdes_id": "DE0020320", "permitting_state": "DE", "agency_type_code": "ST6", "facility_uin": "110006523770", "facility_name": "CITY OF WILMINGTON REGIONAL WWTP", "location_address": "12TH STREET & HAY ROAD", "supplemental_address_text": "", "facility_city": "WILMINGTON", "county_code": "DE003", "state_code": "DE", "epa_region_code": "03", "facility_type_code": "MWD", "facility_lat": 39.735962, "facility_lon": -75.516033, "permit_name": "City of Wilmington Regional WWTP", "version_nmbr": 0, "permit_type_code": "NPD", "effective_date": 1412121600000, "expiration_date": 1569801600000, "permit_status_code": "EXP", "facility_type_indicator": "POTW", "major_minor_status_flag": "M", "permit_tracking": "Y", "pt_start_date": 1412121600000, "dmr_tracking": "Y", "dmr_nr_start_date": 1412121600000, "permit_design_flow": null, "permit_avg_flow": null, "perm_feature_nmbr": "004B", "perm_feature_text": "", "pf_lat": 39.7450479, "pf_lon": -75.5382348, "pf_character": "CSO", "perm_feature_type_code": "EXO", "pf_state_waterbody_name": "Brandywine Creek", "pf_state_auto_name": "", "pf_reach_id": "", "in_icis": "YES", "echo_dfr_link": "https://echo.epa.gov/detailed-facility-report?fid=110006523770", "name": "CITY OF WILMINGTON REGIONAL WWTP", "feature_kind": "CSO outfall"}}, {"type": "Feature", "id": 1802, "geometry": {"type": "Point", "coordinates": [-75.5395900580971, 39.7484591856321]}, "properties": {"OBJECTID": 1802, "npdes_pfid": "DE0020320004C", "npdes_id": "DE0020320", "permitting_state": "DE", "agency_type_code": "ST6", "facility_uin": "110006523770", "facility_name": "CITY OF WILMINGTON REGIONAL WWTP", "location_address": "12TH STREET & HAY ROAD", "supplemental_address_text": "", "facility_city": "WILMINGTON", "county_code": "DE003", "state_code": "DE", "epa_region_code": "03", "facility_type_code": "MWD", "facility_lat": 39.735962, "facility_lon": -75.516033, "permit_name": "City of Wilmington Regional WWTP", "version_nmbr": 0, "permit_type_code": "NPD", "effective_date": 1412121600000, "expiration_date": 1569801600000, "permit_status_code": "EXP", "facility_type_indicator": "POTW", "major_minor_status_flag": "M", "permit_tracking": "Y", "pt_start_date": 1412121600000, "dmr_tracking": "Y", "dmr_nr_start_date": 1412121600000, "permit_design_flow": null, "permit_avg_flow": null, "perm_feature_nmbr": "004C", "perm_feature_text": "", "pf_lat": 39.7484589, "pf_lon": -75.5395901, "pf_character": "CSO", "perm_feature_type_code": "EXO", "pf_state_waterbody_name": "Brandywine Creek", "pf_state_auto_name": "", "pf_reach_id": "", "in_icis": "YES", "echo_dfr_link": "https://echo.epa.gov/detailed-facility-report?fid=110006523770", "name": "CITY OF WILMINGTON REGIONAL WWTP", "feature_kind": "CSO outfall"}}, {"type": "Feature", "id": 1803, "geometry": {"type": "Point", "coordinates": [-75.5410480238032, 39.7501133391428]}, "properties": {"OBJECTID": 1803, "npdes_pfid": "DE0020320004D", "npdes_id": "DE0020320", "permitting_state": "DE", "agency_type_code": "ST6", "facility_uin": "110006523770", "facility_name": "CITY OF WILMINGTON REGIONAL WWTP", "location_address": "12TH STREET & HAY ROAD", "supplemental_address_text": "", "facility_city": "WILMINGTON", "county_code": "DE003", "state_code": "DE", "epa_region_code": "03", "facility_type_code": "MWD", "facility_lat": 39.735962, "facility_lon": -75.516033, "permit_name": "City of Wilmington Regional WWTP", "version_nmbr": 0, "permit_type_code": "NPD", "effective_date": 1412121600000, "expiration_date": 1569801600000, "permit_status_code": "EXP", "facility_type_indicator": "POTW", "major_minor_status_flag": "M", "permit_tracking": "Y", "pt_start_date": 1412121600000, "dmr_tracking": "Y", "dmr_nr_start_date": 1412121600000, "permit_design_flow": null, "permit_avg_flow": null, "perm_feature_nmbr": "004D", "perm_feature_text": "", "pf_lat": 39.7501133, "pf_lon": -75.5410477, "pf_character": "CSO", "perm_feature_type_code": "EXO", "pf_state_waterbody_name": "Brandywine Creek", "pf_state_auto_name": "", "pf_reach_id": "", "in_icis": "YES", "echo_dfr_link": "https://echo.epa.gov/detailed-facility-report?fid=110006523770", "name": "CITY OF WILMINGTON REGIONAL WWTP", "feature_kind": "CSO outfall"}}, {"type": "Feature", "id": 1804, "geometry": {"type": "Point", "coordinates": [-75.5450706796455, 39.7505809152104]}, "properties": {"OBJECTID": 1804, "npdes_pfid": "DE0020320004E", "npdes_id": "DE0020320", "permitting_state": "DE", "agency_type_code": "ST6", "facility_uin": "110006523770", "facility_name": "CITY OF WILMINGTON REGIONAL WWTP", "location_address": "12TH STREET & HAY ROAD", "supplemental_address_text": "", "facility_city": "WILMINGTON", "county_code": "DE003", "state_code": "DE", "epa_region_code": "03", "facility_type_code": "MWD", "facility_lat": 39.735962, "facility_lon": -75.516033, "permit_name": "City of Wilmington Regional WWTP", "version_nmbr": 0, "permit_type_code": "NPD", "effective_date": 1412121600000, "expiration_date": 1569801600000, "permit_status_code": "EXP", "facility_type_indicator": "POTW", "major_minor_status_flag": "M", "permit_tracking": "Y", "pt_start_date": 1412121600000, "dmr_tracking": "Y", "dmr_nr_start_date": 1412121600000, "permit_design_flow": null, "permit_avg_flow": null, "perm_feature_nmbr": "004E", "perm_feature_text": "", "pf_lat": 39.7505811, "pf_lon": -75.5450704, "pf_character": "CSO", "perm_feature_type_code": "EXO", "pf_state_waterbody_name": "Brandywine Creek", "pf_state_auto_name": "", "pf_reach_id": "", "in_icis": "YES", "echo_dfr_link": "https://echo.epa.gov/detailed-facility-report?fid=110006523770", "name": "CITY OF WILMINGTON REGIONAL WWTP", "feature_kind": "CSO outfall"}}, {"type": "Feature", "id": 1805, "geometry": {"type": "Point", "coordinates": [-75.5481653757993, 39.7520568324359]}, "properties": {"OBJECTID": 1805, "npdes_pfid": "DE0020320004F", "npdes_id": "DE0020320", "permitting_state": "DE", "agency_type_code": "ST6", "facility_uin": "110006523770", "facility_name": "CITY OF WILMINGTON REGIONAL WWTP", "location_address": "12TH STREET & HAY ROAD", "supplemental_address_text": "", "facility_city": "WILMINGTON", "county_code": "DE003", "state_code": "DE", "epa_region_code": "03", "facility_type_code": "MWD", "facility_lat": 39.735962, "facility_lon": -75.516033, "permit_name": "City of Wilmington Regional WWTP", "version_nmbr": 0, "permit_type_code": "NPD", "effective_date": 1412121600000, "expiration_date": 1569801600000, "permit_status_code": "EXP", "facility_type_indicator": "POTW", "major_minor_status_flag": "M", "permit_tracking": "Y", "pt_start_date": 1412121600000, "dmr_tracking": "Y", "dmr_nr_start_date": 1412121600000, "permit_design_flow": null, "permit_avg_flow": null, "perm_feature_nmbr": "004F", "perm_feature_text": "", "pf_lat": 39.7520571, "pf_lon": -75.5481654, "pf_character": "CSO", "perm_feature_type_code": "EXO", "pf_state_waterbody_name": "Brandywine Creek", "pf_state_auto_name": "", "pf_reach_id": "", "in_icis": "YES", "echo_dfr_link": "https://echo.epa.gov/detailed-facility-report?fid=110006523770", "name": "CITY OF WILMINGTON REGIONAL WWTP", "feature_kind": "CSO outfall"}}, {"type": "Feature", "id": 1806, "geometry": {"type": "Point", "coordinates": [-75.5552090659421, 39.7369183742428]}, "properties": {"OBJECTID": 1806, "npdes_pfid": "DE0020320005", "npdes_id": "DE0020320", "permitting_state": "DE", "agency_type_code": "ST6", "facility_uin": "110006523770", "facility_name": "CITY OF WILMINGTON REGIONAL WWTP", "location_address": "12TH STREET & HAY ROAD", "supplemental_address_text": "", "facility_city": "WILMINGTON", "county_code": "DE003", "state_code": "DE", "epa_region_code": "03", "facility_type_code": "MWD", "facility_lat": 39.735962, "facility_lon": -75.516033, "permit_name": "City of Wilmington Regional WWTP", "version_nmbr": 0, "permit_type_code": "NPD", "effective_date": 1412121600000, "expiration_date": 1569801600000, "permit_status_code": "EXP", "facility_type_indicator": "POTW", "major_minor_status_flag": "M", "permit_tracking": "Y", "pt_start_date": 1412121600000, "dmr_tracking": "Y", "dmr_nr_start_date": 1412121600000, "permit_design_flow": null, "permit_avg_flow": null, "perm_feature_nmbr": "005", "perm_feature_text": "", "pf_lat": 39.7369183, "pf_lon": -75.5552094, "pf_character": "CSO", "perm_feature_type_code": "EXO", "pf_state_waterbody_name": "Christina River", "pf_state_auto_name": "", "pf_reach_id": "", "in_icis": "YES", "echo_dfr_link": "https://echo.epa.gov/detailed-facility-report?fid=110006523770", "name": "CITY OF WILMINGTON REGIONAL WWTP", "feature_kind": "CSO outfall"}}, {"type": "Feature", "id": 1807, "geometry": {"type": "Point", "coordinates": [-75.5545218547497, 39.7367836693786]}, "properties": {"OBJECTID": 1807, "npdes_pfid": "DE0020320006", "npdes_id": "DE0020320", "permitting_state": "DE", "agency_type_code": "ST6", "facility_uin": "110006523770", "facility_name": "CITY OF WILMINGTON REGIONAL WWTP", "location_address": "12TH STREET & HAY ROAD", "supplemental_address_text": "", "facility_city": "WILMINGTON", "county_code": "DE003", "state_code": "DE", "epa_region_code": "03", "facility_type_code": "MWD", "facility_lat": 39.735962, "facility_lon": -75.516033, "permit_name": "City of Wilmington Regional WWTP", "version_nmbr": 0, "permit_type_code": "NPD", "effective_date": 1412121600000, "expiration_date": 1569801600000, "permit_status_code": "EXP", "facility_type_indicator": "POTW", "major_minor_status_flag": "M", "permit_tracking": "Y", "pt_start_date": 1412121600000, "dmr_tracking": "Y", "dmr_nr_start_date": 1412121600000, "permit_design_flow": null, "permit_avg_flow": null, "perm_feature_nmbr": "006", "perm_feature_text": "", "pf_lat": 39.7367835, "pf_lon": -75.5545216, "pf_character": "CSO", "perm_feature_type_code": "EXO", "pf_state_waterbody_name": "Christina River", "pf_state_auto_name": "", "pf_reach_id": "", "in_icis": "YES", "echo_dfr_link": "https://echo.epa.gov/detailed-facility-report?fid=110006523770", "name": "CITY OF WILMINGTON REGIONAL WWTP", "feature_kind": "CSO outfall"}}, {"type": "Feature", "id": 1808, "geometry": {"type": "Point", "coordinates": [-75.5536370141949, 39.7367166622455]}, "properties": {"OBJECTID": 1808, "npdes_pfid": "DE0020320007", "npdes_id": "DE0020320", "permitting_state": "DE", "agency_type_code": "ST6", "facility_uin": "110006523770", "facility_name": "CITY OF WILMINGTON REGIONAL WWTP", "location_address": "12TH STREET & HAY ROAD", "supplemental_address_text": "", "facility_city": "WILMINGTON", "county_code": "DE003", "state_code": "DE", "epa_region_code": "03", "facility_type_code": "MWD", "facility_lat": 39.735962, "facility_lon": -75.516033, "permit_name": "City of Wilmington Regional WWTP", "version_nmbr": 0, "permit_type_code": "NPD", "effective_date": 1412121600000, "expiration_date": 1569801600000, "permit_status_code": "EXP", "facility_type_indicator": "POTW", "major_minor_status_flag": "M", "permit_tracking": "Y", "pt_start_date": 1412121600000, "dmr_tracking": "Y", "dmr_nr_start_date": 1412121600000, "permit_design_flow": null, "permit_avg_flow": null, "perm_feature_nmbr": "007", "perm_feature_text": "", "pf_lat": 39.7367168, "pf_lon": -75.5536373, "pf_character": "CSO", "perm_feature_type_code": "EXO", "pf_state_waterbody_name": "Christina River", "pf_state_auto_name": "", "pf_reach_id": "", "in_icis": "YES", "echo_dfr_link": "https://echo.epa.gov/detailed-facility-report?fid=110006523770", "name": "CITY OF WILMINGTON REGIONAL WWTP", "feature_kind": "CSO outfall"}}, {"type": "Feature", "id": 1809, "geometry": {"type": "Point", "coordinates": [-75.541015684453, 39.734907445028]}, "properties": {"OBJECTID": 1809, "npdes_pfid": "DE0020320009A", "npdes_id": "DE0020320", "permitting_state": "DE", "agency_type_code": "ST6", "facility_uin": "110006523770", "facility_name": "CITY OF WILMINGTON REGIONAL WWTP", "location_address": "12TH STREET & HAY ROAD", "supplemental_address_text": "", "facility_city": "WILMINGTON", "county_code": "DE003", "state_code": "DE", "epa_region_code": "03", "facility_type_code": "MWD", "facility_lat": 39.735962, "facility_lon": -75.516033, "permit_name": "City of Wilmington Regional WWTP", "version_nmbr": 0, "permit_type_code": "NPD", "effective_date": 1412121600000, "expiration_date": 1569801600000, "permit_status_code": "EXP", "facility_type_indicator": "POTW", "major_minor_status_flag": "M", "permit_tracking": "Y", "pt_start_date": 1412121600000, "dmr_tracking": "Y", "dmr_nr_start_date": 1412121600000, "permit_design_flow": null, "permit_avg_flow": null, "perm_feature_nmbr": "009A", "perm_feature_text": "", "pf_lat": 39.7349073, "pf_lon": -75.5410159, "pf_character": "CSO", "perm_feature_type_code": "EXO", "pf_state_waterbody_name": "Christina River", "pf_state_auto_name": "", "pf_reach_id": "", "in_icis": "YES", "echo_dfr_link": "https://echo.epa.gov/detailed-facility-report?fid=110006523770", "name": "CITY OF WILMINGTON REGIONAL WWTP", "feature_kind": "CSO outfall"}}, {"type": "Feature", "id": 1810, "geometry": {"type": "Point", "coordinates": [-75.5350688372721, 39.7283091680251]}, "properties": {"OBJECTID": 1810, "npdes_pfid": "DE0020320009C", "npdes_id": "DE0020320", "permitting_state": "DE", "agency_type_code": "ST6", "facility_uin": "110006523770", "facility_name": "CITY OF WILMINGTON REGIONAL WWTP", "location_address": "12TH STREET & HAY ROAD", "supplemental_address_text": "", "facility_city": "WILMINGTON", "county_code": "DE003", "state_code": "DE", "epa_region_code": "03", "facility_type_code": "MWD", "facility_lat": 39.735962, "facility_lon": -75.516033, "permit_name": "City of Wilmington Regional WWTP", "version_nmbr": 0, "permit_type_code": "NPD", "effective_date": 1412121600000, "expiration_date": 1569801600000, "permit_status_code": "EXP", "facility_type_indicator": "POTW", "major_minor_status_flag": "M", "permit_tracking": "Y", "pt_start_date": 1412121600000, "dmr_tracking": "Y", "dmr_nr_start_date": 1412121600000, "permit_design_flow": null, "permit_avg_flow": null, "perm_feature_nmbr": "009C", "perm_feature_text": "", "pf_lat": 39.728309, "pf_lon": -75.5350684, "pf_character": "CSO", "perm_feature_type_code": "EXO", "pf_state_waterbody_name": "Christina River", "pf_state_auto_name": "", "pf_reach_id": "", "in_icis": "YES", "echo_dfr_link": "https://echo.epa.gov/detailed-facility-report?fid=110006523770", "name": "CITY OF WILMINGTON REGIONAL WWTP", "feature_kind": "CSO outfall"}}, {"type": "Feature", "id": 1811, "geometry": {"type": "Point", "coordinates": [-75.5452925635207, 39.732976593819]}, "properties": {"OBJECTID": 1811, "npdes_pfid": "DE0020320010", "npdes_id": "DE0020320", "permitting_state": "DE", "agency_type_code": "ST6", "facility_uin": "110006523770", "facility_name": "CITY OF WILMINGTON REGIONAL WWTP", "location_address": "12TH STREET & HAY ROAD", "supplemental_address_text": "", "facility_city": "WILMINGTON", "county_code": "DE003", "state_code": "DE", "epa_region_code": "03", "facility_type_code": "MWD", "facility_lat": 39.735962, "facility_lon": -75.516033, "permit_name": "City of Wilmington Regional WWTP", "version_nmbr": 0, "permit_type_code": "NPD", "effective_date": 1412121600000, "expiration_date": 1569801600000, "permit_status_code": "EXP", "facility_type_indicator": "POTW", "major_minor_status_flag": "M", "permit_tracking": "Y", "pt_start_date": 1412121600000, "dmr_tracking": "Y", "dmr_nr_start_date": 1412121600000, "permit_design_flow": null, "permit_avg_flow": null, "perm_feature_nmbr": "010", "perm_feature_text": "", "pf_lat": 39.7329765, "pf_lon": -75.5452924, "pf_character": "CSO", "perm_feature_type_code": "EXO", "pf_state_waterbody_name": "Christina River", "pf_state_auto_name": "", "pf_reach_id": "", "in_icis": "YES", "echo_dfr_link": "https://echo.epa.gov/detailed-facility-report?fid=110006523770", "name": "CITY OF WILMINGTON REGIONAL WWTP", "feature_kind": "CSO outfall"}}, {"type": "Feature", "id": 1812, "geometry": {"type": "Point", "coordinates": [-75.5528141573946, 39.7363878427926]}, "properties": {"OBJECTID": 1812, "npdes_pfid": "DE0020320011", "npdes_id": "DE0020320", "permitting_state": "DE", "agency_type_code": "ST6", "facility_uin": "110006523770", "facility_name": "CITY OF WILMINGTON REGIONAL WWTP", "location_address": "12TH STREET & HAY ROAD", "supplemental_address_text": "", "facility_city": "WILMINGTON", "county_code": "DE003", "state_code": "DE", "epa_region_code": "03", "facility_type_code": "MWD", "facility_lat": 39.735962, "facility_lon": -75.516033, "permit_name": "City of Wilmington Regional WWTP", "version_nmbr": 0, "permit_type_code": "NPD", "effective_date": 1412121600000, "expiration_date": 1569801600000, "permit_status_code": "EXP", "facility_type_indicator": "POTW", "major_minor_status_flag": "M", "permit_tracking": "Y", "pt_start_date": 1412121600000, "dmr_tracking": "Y", "dmr_nr_start_date": 1412121600000, "permit_design_flow": null, "permit_avg_flow": null, "perm_feature_nmbr": "011", "perm_feature_text": "", "pf_lat": 39.7363881, "pf_lon": -75.5528146, "pf_character": "CSO", "perm_feature_type_code": "EXO", "pf_state_waterbody_name": "Christina River", "pf_state_auto_name": "", "pf_reach_id": "", "in_icis": "YES", "echo_dfr_link": "https://echo.epa.gov/detailed-facility-report?fid=110006523770", "name": "CITY OF WILMINGTON REGIONAL WWTP", "feature_kind": "CSO outfall"}}, {"type": "Feature", "id": 1813, "geometry": {"type": "Point", "coordinates": [-75.5520173517376, 39.7360838906426]}, "properties": {"OBJECTID": 1813, "npdes_pfid": "DE0020320012", "npdes_id": "DE0020320", "permitting_state": "DE", "agency_type_code": "ST6", "facility_uin": "110006523770", "facility_name": "CITY OF WILMINGTON REGIONAL WWTP", "location_address": "12TH STREET & HAY ROAD", "supplemental_address_text": "", "facility_city": "WILMINGTON", "county_code": "DE003", "state_code": "DE", "epa_region_code": "03", "facility_type_code": "MWD", "facility_lat": 39.735962, "facility_lon": -75.516033, "permit_name": "City of Wilmington Regional WWTP", "version_nmbr": 0, "permit_type_code": "NPD", "effective_date": 1412121600000, "expiration_date": 1569801600000, "permit_status_code": "EXP", "facility_type_indicator": "POTW", "major_minor_status_flag": "M", "permit_tracking": "Y", "pt_start_date": 1412121600000, "dmr_tracking": "Y", "dmr_nr_start_date": 1412121600000, "permit_design_flow": null, "permit_avg_flow": null, "perm_feature_nmbr": "012", "perm_feature_text": "", "pf_lat": 39.7360841, "pf_lon": -75.5520174, "pf_character": "CSO", "perm_feature_type_code": "EXO", "pf_state_waterbody_name": "Christina River", "pf_state_auto_name": "", "pf_reach_id": "", "in_icis": "YES", "echo_dfr_link": "https://echo.epa.gov/detailed-facility-report?fid=110006523770", "name": "CITY OF WILMINGTON REGIONAL WWTP", "feature_kind": "CSO outfall"}}, {"type": "Feature", "id": 1814, "geometry": {"type": "Point", "coordinates": [-75.5488022813357, 39.7347216159043]}, "properties": {"OBJECTID": 1814, "npdes_pfid": "DE0020320013", "npdes_id": "DE0020320", "permitting_state": "DE", "agency_type_code": "ST6", "facility_uin": "110006523770", "facility_name": "CITY OF WILMINGTON REGIONAL WWTP", "location_address": "12TH STREET & HAY ROAD", "supplemental_address_text": "", "facility_city": "WILMINGTON", "county_code": "DE003", "state_code": "DE", "epa_region_code": "03", "facility_type_code": "MWD", "facility_lat": 39.735962, "facility_lon": -75.516033, "permit_name": "City of Wilmington Regional WWTP", "version_nmbr": 0, "permit_type_code": "NPD", "effective_date": 1412121600000, "expiration_date": 1569801600000, "permit_status_code": "EXP", "facility_type_indicator": "POTW", "major_minor_status_flag": "M", "permit_tracking": "Y", "pt_start_date": 1412121600000, "dmr_tracking": "Y", "dmr_nr_start_date": 1412121600000, "permit_design_flow": null, "permit_avg_flow": null, "perm_feature_nmbr": "013", "perm_feature_text": "", "pf_lat": 39.7347213, "pf_lon": -75.5488024, "pf_character": "CSO", "perm_feature_type_code": "EXO", "pf_state_waterbody_name": "Christina River", "pf_state_auto_name": "", "pf_reach_id": "", "in_icis": "YES", "echo_dfr_link": "https://echo.epa.gov/detailed-facility-report?fid=110006523770", "name": "CITY OF WILMINGTON REGIONAL WWTP", "feature_kind": "CSO outfall"}}, {"type": "Feature", "id": 1815, "geometry": {"type": "Point", "coordinates": [-75.5449979161075, 39.7342905456735]}, "properties": {"OBJECTID": 1815, "npdes_pfid": "DE0020320014", "npdes_id": "DE0020320", "permitting_state": "DE", "agency_type_code": "ST6", "facility_uin": "110006523770", "facility_name": "CITY OF WILMINGTON REGIONAL WWTP", "location_address": "12TH STREET & HAY ROAD", "supplemental_address_text": "", "facility_city": "WILMINGTON", "county_code": "DE003", "state_code": "DE", "epa_region_code": "03", "facility_type_code": "MWD", "facility_lat": 39.735962, "facility_lon": -75.516033, "permit_name": "City of Wilmington Regional WWTP", "version_nmbr": 0, "permit_type_code": "NPD", "effective_date": 1412121600000, "expiration_date": 1569801600000, "permit_status_code": "EXP", "facility_type_indicator": "POTW", "major_minor_status_flag": "M", "permit_tracking": "Y", "pt_start_date": 1412121600000, "dmr_tracking": "Y", "dmr_nr_start_date": 1412121600000, "permit_design_flow": null, "permit_avg_flow": null, "perm_feature_nmbr": "014", "perm_feature_text": "", "pf_lat": 39.7342905, "pf_lon": -75.5449977, "pf_character": "CSO", "perm_feature_type_code": "EXO", "pf_state_waterbody_name": "Christina River", "pf_state_auto_name": "", "pf_reach_id": "", "in_icis": "YES", "echo_dfr_link": "https://echo.epa.gov/detailed-facility-report?fid=110006523770", "name": "CITY OF WILMINGTON REGIONAL WWTP", "feature_kind": "CSO outfall"}}, {"type": "Feature", "id": 1816, "geometry": {"type": "Point", "coordinates": [-75.5442352464313, 39.7343803521939]}, "properties": {"OBJECTID": 1816, "npdes_pfid": "DE0020320015", "npdes_id": "DE0020320", "permitting_state": "DE", "agency_type_code": "ST6", "facility_uin": "110006523770", "facility_name": "CITY OF WILMINGTON REGIONAL WWTP", "location_address": "12TH STREET & HAY ROAD", "supplemental_address_text": "", "facility_city": "WILMINGTON", "county_code": "DE003", "state_code": "DE", "epa_region_code": "03", "facility_type_code": "MWD", "facility_lat": 39.735962, "facility_lon": -75.516033, "permit_name": "City of Wilmington Regional WWTP", "version_nmbr": 0, "permit_type_code": "NPD", "effective_date": 1412121600000, "expiration_date": 1569801600000, "permit_status_code": "EXP", "facility_type_indicator": "POTW", "major_minor_status_flag": "M", "permit_tracking": "Y", "pt_start_date": 1412121600000, "dmr_tracking": "Y", "dmr_nr_start_date": 1412121600000, "permit_design_flow": null, "permit_avg_flow": null, "perm_feature_nmbr": "015", "perm_feature_text": "", "pf_lat": 39.7343804, "pf_lon": -75.5442353, "pf_character": "CSO", "perm_feature_type_code": "EXO", "pf_state_waterbody_name": "Christina River", "pf_state_auto_name": "", "pf_reach_id": "", "in_icis": "YES", "echo_dfr_link": "https://echo.epa.gov/detailed-facility-report?fid=110006523770", "name": "CITY OF WILMINGTON REGIONAL WWTP", "feature_kind": "CSO outfall"}}, {"type": "Feature", "id": 1817, "geometry": {"type": "Point", "coordinates": [-75.5396951609853, 39.7362814596926]}, "properties": {"OBJECTID": 1817, "npdes_pfid": "DE0020320016", "npdes_id": "DE0020320", "permitting_state": "DE", "agency_type_code": "ST6", "facility_uin": "110006523770", "facility_name": "CITY OF WILMINGTON REGIONAL WWTP", "location_address": "12TH STREET & HAY ROAD", "supplemental_address_text": "", "facility_city": "WILMINGTON", "county_code": "DE003", "state_code": "DE", "epa_region_code": "03", "facility_type_code": "MWD", "facility_lat": 39.735962, "facility_lon": -75.516033, "permit_name": "City of Wilmington Regional WWTP", "version_nmbr": 0, "permit_type_code": "NPD", "effective_date": 1412121600000, "expiration_date": 1569801600000, "permit_status_code": "EXP", "facility_type_indicator": "POTW", "major_minor_status_flag": "M", "permit_tracking": "Y", "pt_start_date": 1412121600000, "dmr_tracking": "Y", "dmr_nr_start_date": 1412121600000, "permit_design_flow": null, "permit_avg_flow": null, "perm_feature_nmbr": "016", "perm_feature_text": "", "pf_lat": 39.7362817, "pf_lon": -75.5396954, "pf_character": "CSO", "perm_feature_type_code": "EXO", "pf_state_waterbody_name": "Christina River", "pf_state_auto_name": "", "pf_reach_id": "", "in_icis": "YES", "echo_dfr_link": "https://echo.epa.gov/detailed-facility-report?fid=110006523770", "name": "CITY OF WILMINGTON REGIONAL WWTP", "feature_kind": "CSO outfall"}}, {"type": "Feature", "id": 1818, "geometry": {"type": "Point", "coordinates": [-75.5409042933578, 39.7357481601189]}, "properties": {"OBJECTID": 1818, "npdes_pfid": "DE0020320017", "npdes_id": "DE0020320", "permitting_state": "DE", "agency_type_code": "ST6", "facility_uin": "110006523770", "facility_name": "CITY OF WILMINGTON REGIONAL WWTP", "location_address": "12TH STREET & HAY ROAD", "supplemental_address_text": "", "facility_city": "WILMINGTON", "county_code": "DE003", "state_code": "DE", "epa_region_code": "03", "facility_type_code": "MWD", "facility_lat": 39.735962, "facility_lon": -75.516033, "permit_name": "City of Wilmington Regional WWTP", "version_nmbr": 0, "permit_type_code": "NPD", "effective_date": 1412121600000, "expiration_date": 1569801600000, "permit_status_code": "EXP", "facility_type_indicator": "POTW", "major_minor_status_flag": "M", "permit_tracking": "Y", "pt_start_date": 1412121600000, "dmr_tracking": "Y", "dmr_nr_start_date": 1412121600000, "permit_design_flow": null, "permit_avg_flow": null, "perm_feature_nmbr": "017", "perm_feature_text": "", "pf_lat": 39.7357481, "pf_lon": -75.540904, "pf_character": "CSO", "perm_feature_type_code": "EXO", "pf_state_waterbody_name": "Christina River", "pf_state_auto_name": "", "pf_reach_id": "", "in_icis": "YES", "echo_dfr_link": "https://echo.epa.gov/detailed-facility-report?fid=110006523770", "name": "CITY OF WILMINGTON REGIONAL WWTP", "feature_kind": "CSO outfall"}}, {"type": "Feature", "id": 1819, "geometry": {"type": "Point", "coordinates": [-75.5375940015358, 39.7403363357276]}, "properties": {"OBJECTID": 1819, "npdes_pfid": "DE0020320018", "npdes_id": "DE0020320", "permitting_state": "DE", "agency_type_code": "ST6", "facility_uin": "110006523770", "facility_name": "CITY OF WILMINGTON REGIONAL WWTP", "location_address": "12TH STREET & HAY ROAD", "supplemental_address_text": "", "facility_city": "WILMINGTON", "county_code": "DE003", "state_code": "DE", "epa_region_code": "03", "facility_type_code": "MWD", "facility_lat": 39.735962, "facility_lon": -75.516033, "permit_name": "City of Wilmington Regional WWTP", "version_nmbr": 0, "permit_type_code": "NPD", "effective_date": 1412121600000, "expiration_date": 1569801600000, "permit_status_code": "EXP", "facility_type_indicator": "POTW", "major_minor_status_flag": "M", "permit_tracking": "Y", "pt_start_date": 1412121600000, "dmr_tracking": "Y", "dmr_nr_start_date": 1412121600000, "permit_design_flow": null, "permit_avg_flow": null, "perm_feature_nmbr": "018", "perm_feature_text": "", "pf_lat": 39.7403366, "pf_lon": -75.5375938, "pf_character": "CSO", "perm_feature_type_code": "EXO", "pf_state_waterbody_name": "Brandywine Creek", "pf_state_auto_name": "", "pf_reach_id": "", "in_icis": "YES", "echo_dfr_link": "https://echo.epa.gov/detailed-facility-report?fid=110006523770", "name": "CITY OF WILMINGTON REGIONAL WWTP", "feature_kind": "CSO outfall"}}, {"type": "Feature", "id": 1820, "geometry": {"type": "Point", "coordinates": [-75.5376362223541, 39.7415375555801]}, "properties": {"OBJECTID": 1820, "npdes_pfid": "DE0020320019", "npdes_id": "DE0020320", "permitting_state": "DE", "agency_type_code": "ST6", "facility_uin": "110006523770", "facility_name": "CITY OF WILMINGTON REGIONAL WWTP", "location_address": "12TH STREET & HAY ROAD", "supplemental_address_text": "", "facility_city": "WILMINGTON", "county_code": "DE003", "state_code": "DE", "epa_region_code": "03", "facility_type_code": "MWD", "facility_lat": 39.735962, "facility_lon": -75.516033, "permit_name": "City of Wilmington Regional WWTP", "version_nmbr": 0, "permit_type_code": "NPD", "effective_date": 1412121600000, "expiration_date": 1569801600000, "permit_status_code": "EXP", "facility_type_indicator": "POTW", "major_minor_status_flag": "M", "permit_tracking": "Y", "pt_start_date": 1412121600000, "dmr_tracking": "Y", "dmr_nr_start_date": 1412121600000, "permit_design_flow": null, "permit_avg_flow": null, "perm_feature_nmbr": "019", "perm_feature_text": "", "pf_lat": 39.7415373, "pf_lon": -75.5376366, "pf_character": "CSO", "perm_feature_type_code": "EXO", "pf_state_waterbody_name": "Brandywine Creek", "pf_state_auto_name": "", "pf_reach_id": "", "in_icis": "YES", "echo_dfr_link": "https://echo.epa.gov/detailed-facility-report?fid=110006523770", "name": "CITY OF WILMINGTON REGIONAL WWTP", "feature_kind": "CSO outfall"}}, {"type": "Feature", "id": 1821, "geometry": {"type": "Point", "coordinates": [-75.5380359726556, 39.7438411589922]}, "properties": {"OBJECTID": 1821, "npdes_pfid": "DE0020320020", "npdes_id": "DE0020320", "permitting_state": "DE", "agency_type_code": "ST6", "facility_uin": "110006523770", "facility_name": "CITY OF WILMINGTON REGIONAL WWTP", "location_address": "12TH STREET & HAY ROAD", "supplemental_address_text": "", "facility_city": "WILMINGTON", "county_code": "DE003", "state_code": "DE", "epa_region_code": "03", "facility_type_code": "MWD", "facility_lat": 39.735962, "facility_lon": -75.516033, "permit_name": "City of Wilmington Regional WWTP", "version_nmbr": 0, "permit_type_code": "NPD", "effective_date": 1412121600000, "expiration_date": 1569801600000, "permit_status_code": "EXP", "facility_type_indicator": "POTW", "major_minor_status_flag": "M", "permit_tracking": "Y", "pt_start_date": 1412121600000, "dmr_tracking": "Y", "dmr_nr_start_date": 1412121600000, "permit_design_flow": null, "permit_avg_flow": null, "perm_feature_nmbr": "020", "perm_feature_text": "", "pf_lat": 39.743841, "pf_lon": -75.538036, "pf_character": "CSO", "perm_feature_type_code": "EXO", "pf_state_waterbody_name": "Brandywine Creek", "pf_state_auto_name": "", "pf_reach_id": "", "in_icis": "YES", "echo_dfr_link": "https://echo.epa.gov/detailed-facility-report?fid=110006523770", "name": "CITY OF WILMINGTON REGIONAL WWTP", "feature_kind": "CSO outfall"}}, {"type": "Feature", "id": 1822, "geometry": {"type": "Point", "coordinates": [-75.5391444937162, 39.7451700993647]}, "properties": {"OBJECTID": 1822, "npdes_pfid": "DE0020320021A", "npdes_id": "DE0020320", "permitting_state": "DE", "agency_type_code": "ST6", "facility_uin": "110006523770", "facility_name": "CITY OF WILMINGTON REGIONAL WWTP", "location_address": "12TH STREET & HAY ROAD", "supplemental_address_text": "", "facility_city": "WILMINGTON", "county_code": "DE003", "state_code": "DE", "epa_region_code": "03", "facility_type_code": "MWD", "facility_lat": 39.735962, "facility_lon": -75.516033, "permit_name": "City of Wilmington Regional WWTP", "version_nmbr": 0, "permit_type_code": "NPD", "effective_date": 1412121600000, "expiration_date": 1569801600000, "permit_status_code": "EXP", "facility_type_indicator": "POTW", "major_minor_status_flag": "M", "permit_tracking": "Y", "pt_start_date": 1412121600000, "dmr_tracking": "Y", "dmr_nr_start_date": 1412121600000, "permit_design_flow": null, "permit_avg_flow": null, "perm_feature_nmbr": "021A", "perm_feature_text": "", "pf_lat": 39.7451698, "pf_lon": -75.5391446, "pf_character": "CSO", "perm_feature_type_code": "EXO", "pf_state_waterbody_name": "Brandywine Creek", "pf_state_auto_name": "", "pf_reach_id": "", "in_icis": "YES", "echo_dfr_link": "https://echo.epa.gov/detailed-facility-report?fid=110006523770", "name": "CITY OF WILMINGTON REGIONAL WWTP", "feature_kind": "CSO outfall"}}, {"type": "Feature", "id": 1823, "geometry": {"type": "Point", "coordinates": [-75.5396646182657, 39.7457558196238]}, "properties": {"OBJECTID": 1823, "npdes_pfid": "DE0020320021B", "npdes_id": "DE0020320", "permitting_state": "DE", "agency_type_code": "ST6", "facility_uin": "110006523770", "facility_name": "CITY OF WILMINGTON REGIONAL WWTP", "location_address": "12TH STREET & HAY ROAD", "supplemental_address_text": "", "facility_city": "WILMINGTON", "county_code": "DE003", "state_code": "DE", "epa_region_code": "03", "facility_type_code": "MWD", "facility_lat": 39.735962, "facility_lon": -75.516033, "permit_name": "City of Wilmington Regional WWTP", "version_nmbr": 0, "permit_type_code": "NPD", "effective_date": 1412121600000, "expiration_date": 1569801600000, "permit_status_code": "EXP", "facility_type_indicator": "POTW", "major_minor_status_flag": "M", "permit_tracking": "Y", "pt_start_date": 1412121600000, "dmr_tracking": "Y", "dmr_nr_start_date": 1412121600000, "permit_design_flow": null, "permit_avg_flow": null, "perm_feature_nmbr": "021B", "perm_feature_text": "", "pf_lat": 39.7457559, "pf_lon": -75.5396647, "pf_character": "CSO", "perm_feature_type_code": "EXO", "pf_state_waterbody_name": "Brandywine Creek", "pf_state_auto_name": "", "pf_reach_id": "", "in_icis": "YES", "echo_dfr_link": "https://echo.epa.gov/detailed-facility-report?fid=110006523770", "name": "CITY OF WILMINGTON REGIONAL WWTP", "feature_kind": "CSO outfall"}}, {"type": "Feature", "id": 1824, "geometry": {"type": "Point", "coordinates": [-75.5402305568947, 39.7470764347685]}, "properties": {"OBJECTID": 1824, "npdes_pfid": "DE0020320021C", "npdes_id": "DE0020320", "permitting_state": "DE", "agency_type_code": "ST6", "facility_uin": "110006523770", "facility_name": "CITY OF WILMINGTON REGIONAL WWTP", "location_address": "12TH STREET & HAY ROAD", "supplemental_address_text": "", "facility_city": "WILMINGTON", "county_code": "DE003", "state_code": "DE", "epa_region_code": "03", "facility_type_code": "MWD", "facility_lat": 39.735962, "facility_lon": -75.516033, "permit_name": "City of Wilmington Regional WWTP", "version_nmbr": 0, "permit_type_code": "NPD", "effective_date": 1412121600000, "expiration_date": 1569801600000, "permit_status_code": "EXP", "facility_type_indicator": "POTW", "major_minor_status_flag": "M", "permit_tracking": "Y", "pt_start_date": 1412121600000, "dmr_tracking": "Y", "dmr_nr_start_date": 1412121600000, "permit_design_flow": null, "permit_avg_flow": null, "perm_feature_nmbr": "021C", "perm_feature_text": "", "pf_lat": 39.7470764, "pf_lon": -75.5402302, "pf_character": "CSO", "perm_feature_type_code": "EXO", "pf_state_waterbody_name": "Brandywine Creek", "pf_state_auto_name": "", "pf_reach_id": "", "in_icis": "YES", "echo_dfr_link": "https://echo.epa.gov/detailed-facility-report?fid=110006523770", "name": "CITY OF WILMINGTON REGIONAL WWTP", "feature_kind": "CSO outfall"}}, {"type": "Feature", "id": 1825, "geometry": {"type": "Point", "coordinates": [-75.5415699449833, 39.7495090079136]}, "properties": {"OBJECTID": 1825, "npdes_pfid": "DE0020320022B", "npdes_id": "DE0020320", "permitting_state": "DE", "agency_type_code": "ST6", "facility_uin": "110006523770", "facility_name": "CITY OF WILMINGTON REGIONAL WWTP", "location_address": "12TH STREET & HAY ROAD", "supplemental_address_text": "", "facility_city": "WILMINGTON", "county_code": "DE003", "state_code": "DE", "epa_region_code": "03", "facility_type_code": "MWD", "facility_lat": 39.735962, "facility_lon": -75.516033, "permit_name": "City of Wilmington Regional WWTP", "version_nmbr": 0, "permit_type_code": "NPD", "effective_date": 1412121600000, "expiration_date": 1569801600000, "permit_status_code": "EXP", "facility_type_indicator": "POTW", "major_minor_status_flag": "M", "permit_tracking": "Y", "pt_start_date": 1412121600000, "dmr_tracking": "Y", "dmr_nr_start_date": 1412121600000, "permit_design_flow": null, "permit_avg_flow": null, "perm_feature_nmbr": "022B", "perm_feature_text": "", "pf_lat": 39.7495092, "pf_lon": -75.5415695, "pf_character": "CSO", "perm_feature_type_code": "EXO", "pf_state_waterbody_name": "Brandywine Creek", "pf_state_auto_name": "", "pf_reach_id": "", "in_icis": "YES", "echo_dfr_link": "https://echo.epa.gov/detailed-facility-report?fid=110006523770", "name": "CITY OF WILMINGTON REGIONAL WWTP", "feature_kind": "CSO outfall"}}, {"type": "Feature", "id": 1826, "geometry": {"type": "Point", "coordinates": [-75.5439316158652, 39.7501761892863]}, "properties": {"OBJECTID": 1826, "npdes_pfid": "DE0020320022C", "npdes_id": "DE0020320", "permitting_state": "DE", "agency_type_code": "ST6", "facility_uin": "110006523770", "facility_name": "CITY OF WILMINGTON REGIONAL WWTP", "location_address": "12TH STREET & HAY ROAD", "supplemental_address_text": "", "facility_city": "WILMINGTON", "county_code": "DE003", "state_code": "DE", "epa_region_code": "03", "facility_type_code": "MWD", "facility_lat": 39.735962, "facility_lon": -75.516033, "permit_name": "City of Wilmington Regional WWTP", "version_nmbr": 0, "permit_type_code": "NPD", "effective_date": 1412121600000, "expiration_date": 1569801600000, "permit_status_code": "EXP", "facility_type_indicator": "POTW", "major_minor_status_flag": "M", "permit_tracking": "Y", "pt_start_date": 1412121600000, "dmr_tracking": "Y", "dmr_nr_start_date": 1412121600000, "permit_design_flow": null, "permit_avg_flow": null, "perm_feature_nmbr": "022C", "perm_feature_text": "", "pf_lat": 39.7501759, "pf_lon": -75.5439316, "pf_character": "CSO", "perm_feature_type_code": "EXO", "pf_state_waterbody_name": "Brandywine Creek", "pf_state_auto_name": "", "pf_reach_id": "", "in_icis": "YES", "echo_dfr_link": "https://echo.epa.gov/detailed-facility-report?fid=110006523770", "name": "CITY OF WILMINGTON REGIONAL WWTP", "feature_kind": "CSO outfall"}}, {"type": "Feature", "id": 1827, "geometry": {"type": "Point", "coordinates": [-75.5478347957747, 39.7512667337456]}, "properties": {"OBJECTID": 1827, "npdes_pfid": "DE0020320023", "npdes_id": "DE0020320", "permitting_state": "DE", "agency_type_code": "ST6", "facility_uin": "110006523770", "facility_name": "CITY OF WILMINGTON REGIONAL WWTP", "location_address": "12TH STREET & HAY ROAD", "supplemental_address_text": "", "facility_city": "WILMINGTON", "county_code": "DE003", "state_code": "DE", "epa_region_code": "03", "facility_type_code": "MWD", "facility_lat": 39.735962, "facility_lon": -75.516033, "permit_name": "City of Wilmington Regional WWTP", "version_nmbr": 0, "permit_type_code": "NPD", "effective_date": 1412121600000, "expiration_date": 1569801600000, "permit_status_code": "EXP", "facility_type_indicator": "POTW", "major_minor_status_flag": "M", "permit_tracking": "Y", "pt_start_date": 1412121600000, "dmr_tracking": "Y", "dmr_nr_start_date": 1412121600000, "permit_design_flow": null, "permit_avg_flow": null, "perm_feature_nmbr": "023", "perm_feature_text": "", "pf_lat": 39.7512667, "pf_lon": -75.5478346, "pf_character": "CSO", "perm_feature_type_code": "EXO", "pf_state_waterbody_name": "Brandywine Creek", "pf_state_auto_name": "", "pf_reach_id": "", "in_icis": "YES", "echo_dfr_link": "https://echo.epa.gov/detailed-facility-report?fid=110006523770", "name": "CITY OF WILMINGTON REGIONAL WWTP", "feature_kind": "CSO outfall"}}, {"type": "Feature", "id": 1828, "geometry": {"type": "Point", "coordinates": [-75.5510525611225, 39.7547861945493]}, "properties": {"OBJECTID": 1828, "npdes_pfid": "DE0020320024", "npdes_id": "DE0020320", "permitting_state": "DE", "agency_type_code": "ST6", "facility_uin": "110006523770", "facility_name": "CITY OF WILMINGTON REGIONAL WWTP", "location_address": "12TH STREET & HAY ROAD", "supplemental_address_text": "", "facility_city": "WILMINGTON", "county_code": "DE003", "state_code": "DE", "epa_region_code": "03", "facility_type_code": "MWD", "facility_lat": 39.735962, "facility_lon": -75.516033, "permit_name": "City of Wilmington Regional WWTP", "version_nmbr": 0, "permit_type_code": "NPD", "effective_date": 1412121600000, "expiration_date": 1569801600000, "permit_status_code": "EXP", "facility_type_indicator": "POTW", "major_minor_status_flag": "M", "permit_tracking": "Y", "pt_start_date": 1412121600000, "dmr_tracking": "Y", "dmr_nr_start_date": 1412121600000, "permit_design_flow": null, "permit_avg_flow": null, "perm_feature_nmbr": "024", "perm_feature_text": "", "pf_lat": 39.7547862, "pf_lon": -75.5510528, "pf_character": "CSO", "perm_feature_type_code": "EXO", "pf_state_waterbody_name": "Brandywine Creek", "pf_state_auto_name": "", "pf_reach_id": "", "in_icis": "YES", "echo_dfr_link": "https://echo.epa.gov/detailed-facility-report?fid=110006523770", "name": "CITY OF WILMINGTON REGIONAL WWTP", "feature_kind": "CSO outfall"}}, {"type": "Feature", "id": 1829, "geometry": {"type": "Point", "coordinates": [-75.5549287915734, 39.7584332325448]}, "properties": {"OBJECTID": 1829, "npdes_pfid": "DE0020320025", "npdes_id": "DE0020320", "permitting_state": "DE", "agency_type_code": "ST6", "facility_uin": "110006523770", "facility_name": "CITY OF WILMINGTON REGIONAL WWTP", "location_address": "12TH STREET & HAY ROAD", "supplemental_address_text": "", "facility_city": "WILMINGTON", "county_code": "DE003", "state_code": "DE", "epa_region_code": "03", "facility_type_code": "MWD", "facility_lat": 39.735962, "facility_lon": -75.516033, "permit_name": "City of Wilmington Regional WWTP", "version_nmbr": 0, "permit_type_code": "NPD", "effective_date": 1412121600000, "expiration_date": 1569801600000, "permit_status_code": "EXP", "facility_type_indicator": "POTW", "major_minor_status_flag": "M", "permit_tracking": "Y", "pt_start_date": 1412121600000, "dmr_tracking": "Y", "dmr_nr_start_date": 1412121600000, "permit_design_flow": null, "permit_avg_flow": null, "perm_feature_nmbr": "025", "perm_feature_text": "", "pf_lat": 39.7584333, "pf_lon": -75.5549289, "pf_character": "CSO", "perm_feature_type_code": "EXO", "pf_state_waterbody_name": "Brandywine Creek", "pf_state_auto_name": "", "pf_reach_id": "", "in_icis": "YES", "echo_dfr_link": "https://echo.epa.gov/detailed-facility-report?fid=110006523770", "name": "CITY OF WILMINGTON REGIONAL WWTP", "feature_kind": "CSO outfall"}}, {"type": "Feature", "id": 1830, "geometry": {"type": "Point", "coordinates": [-75.554114917926, 39.7579684721077]}, "properties": {"OBJECTID": 1830, "npdes_pfid": "DE0020320026", "npdes_id": "DE0020320", "permitting_state": "DE", "agency_type_code": "ST6", "facility_uin": "110006523770", "facility_name": "CITY OF WILMINGTON REGIONAL WWTP", "location_address": "12TH STREET & HAY ROAD", "supplemental_address_text": "", "facility_city": "WILMINGTON", "county_code": "DE003", "state_code": "DE", "epa_region_code": "03", "facility_type_code": "MWD", "facility_lat": 39.735962, "facility_lon": -75.516033, "permit_name": "City of Wilmington Regional WWTP", "version_nmbr": 0, "permit_type_code": "NPD", "effective_date": 1412121600000, "expiration_date": 1569801600000, "permit_status_code": "EXP", "facility_type_indicator": "POTW", "major_minor_status_flag": "M", "permit_tracking": "Y", "pt_start_date": 1412121600000, "dmr_tracking": "Y", "dmr_nr_start_date": 1412121600000, "permit_design_flow": null, "permit_avg_flow": null, "perm_feature_nmbr": "026", "perm_feature_text": "", "pf_lat": 39.7579682, "pf_lon": -75.5541153, "pf_character": "CSO", "perm_feature_type_code": "EXO", "pf_state_waterbody_name": "Brandywine Creek", "pf_state_auto_name": "", "pf_reach_id": "", "in_icis": "YES", "echo_dfr_link": "https://echo.epa.gov/detailed-facility-report?fid=110006523770", "name": "CITY OF WILMINGTON REGIONAL WWTP", "feature_kind": "CSO outfall"}}, {"type": "Feature", "id": 1831, "geometry": {"type": "Point", "coordinates": [-75.5817587741642, 39.7490628353987]}, "properties": {"OBJECTID": 1831, "npdes_pfid": "DE0020320027", "npdes_id": "DE0020320", "permitting_state": "DE", "agency_type_code": "ST6", "facility_uin": "110006523770", "facility_name": "CITY OF WILMINGTON REGIONAL WWTP", "location_address": "12TH STREET & HAY ROAD", "supplemental_address_text": "", "facility_city": "WILMINGTON", "county_code": "DE003", "state_code": "DE", "epa_region_code": "03", "facility_type_code": "MWD", "facility_lat": 39.735962, "facility_lon": -75.516033, "permit_name": "City of Wilmington Regional WWTP", "version_nmbr": 0, "permit_type_code": "NPD", "effective_date": 1412121600000, "expiration_date": 1569801600000, "permit_status_code": "EXP", "facility_type_indicator": "POTW", "major_minor_status_flag": "M", "permit_tracking": "Y", "pt_start_date": 1412121600000, "dmr_tracking": "Y", "dmr_nr_start_date": 1412121600000, "permit_design_flow": null, "permit_avg_flow": null, "perm_feature_nmbr": "027", "perm_feature_text": "", "pf_lat": 39.7490627, "pf_lon": -75.5817588, "pf_character": "CSO", "perm_feature_type_code": "EXO", "pf_state_waterbody_name": "Silverbrook Run/Little Mill Creek", "pf_state_auto_name": "", "pf_reach_id": "", "in_icis": "YES", "echo_dfr_link": "https://echo.epa.gov/detailed-facility-report?fid=110006523770", "name": "CITY OF WILMINGTON REGIONAL WWTP", "feature_kind": "CSO outfall"}}, {"type": "Feature", "id": 1832, "geometry": {"type": "Point", "coordinates": [-75.5848076562386, 39.7418048742285]}, "properties": {"OBJECTID": 1832, "npdes_pfid": "DE0020320028", "npdes_id": "DE0020320", "permitting_state": "DE", "agency_type_code": "ST6", "facility_uin": "110006523770", "facility_name": "CITY OF WILMINGTON REGIONAL WWTP", "location_address": "12TH STREET & HAY ROAD", "supplemental_address_text": "", "facility_city": "WILMINGTON", "county_code": "DE003", "state_code": "DE", "epa_region_code": "03", "facility_type_code": "MWD", "facility_lat": 39.735962, "facility_lon": -75.516033, "permit_name": "City of Wilmington Regional WWTP", "version_nmbr": 0, "permit_type_code": "NPD", "effective_date": 1412121600000, "expiration_date": 1569801600000, "permit_status_code": "EXP", "facility_type_indicator": "POTW", "major_minor_status_flag": "M", "permit_tracking": "Y", "pt_start_date": 1412121600000, "dmr_tracking": "Y", "dmr_nr_start_date": 1412121600000, "permit_design_flow": null, "permit_avg_flow": null, "perm_feature_nmbr": "028", "perm_feature_text": "", "pf_lat": 39.7418051, "pf_lon": -75.5848079, "pf_character": "CSO", "perm_feature_type_code": "EXO", "pf_state_waterbody_name": "Silverbrook Run/Little Mill Creek", "pf_state_auto_name": "", "pf_reach_id": "", "in_icis": "YES", "echo_dfr_link": "https://echo.epa.gov/detailed-facility-report?fid=110006523770", "name": "CITY OF WILMINGTON REGIONAL WWTP", "feature_kind": "CSO outfall"}}, {"type": "Feature", "id": 1833, "geometry": {"type": "Point", "coordinates": [-75.578684739262, 39.7404047208586]}, "properties": {"OBJECTID": 1833, "npdes_pfid": "DE0020320029", "npdes_id": "DE0020320", "permitting_state": "DE", "agency_type_code": "ST6", "facility_uin": "110006523770", "facility_name": "CITY OF WILMINGTON REGIONAL WWTP", "location_address": "12TH STREET & HAY ROAD", "supplemental_address_text": "", "facility_city": "WILMINGTON", "county_code": "DE003", "state_code": "DE", "epa_region_code": "03", "facility_type_code": "MWD", "facility_lat": 39.735962, "facility_lon": -75.516033, "permit_name": "City of Wilmington Regional WWTP", "version_nmbr": 0, "permit_type_code": "NPD", "effective_date": 1412121600000, "expiration_date": 1569801600000, "permit_status_code": "EXP", "facility_type_indicator": "POTW", "major_minor_status_flag": "M", "permit_tracking": "Y", "pt_start_date": 1412121600000, "dmr_tracking": "Y", "dmr_nr_start_date": 1412121600000, "permit_design_flow": null, "permit_avg_flow": null, "perm_feature_nmbr": "029", "perm_feature_text": "", "pf_lat": 39.7404047, "pf_lon": -75.5786843, "pf_character": "CSO", "perm_feature_type_code": "EXO", "pf_state_waterbody_name": "Little Mill Creek", "pf_state_auto_name": "", "pf_reach_id": "", "in_icis": "YES", "echo_dfr_link": "https://echo.epa.gov/detailed-facility-report?fid=110006523770", "name": "CITY OF WILMINGTON REGIONAL WWTP", "feature_kind": "CSO outfall"}}, {"type": "Feature", "id": 1834, "geometry": {"type": "Point", "coordinates": [-75.5615709347842, 39.7257659926496]}, "properties": {"OBJECTID": 1834, "npdes_pfid": "DE0020320030", "npdes_id": "DE0020320", "permitting_state": "DE", "agency_type_code": "ST6", "facility_uin": "110006523770", "facility_name": "CITY OF WILMINGTON REGIONAL WWTP", "location_address": "12TH STREET & HAY ROAD", "supplemental_address_text": "", "facility_city": "WILMINGTON", "county_code": "DE003", "state_code": "DE", "epa_region_code": "03", "facility_type_code": "MWD", "facility_lat": 39.735962, "facility_lon": -75.516033, "permit_name": "City of Wilmington Regional WWTP", "version_nmbr": 0, "permit_type_code": "NPD", "effective_date": 1412121600000, "expiration_date": 1569801600000, "permit_status_code": "EXP", "facility_type_indicator": "POTW", "major_minor_status_flag": "M", "permit_tracking": "Y", "pt_start_date": 1412121600000, "dmr_tracking": "Y", "dmr_nr_start_date": 1412121600000, "permit_design_flow": null, "permit_avg_flow": null, "perm_feature_nmbr": "030", "perm_feature_text": "", "pf_lat": 39.725766, "pf_lon": -75.5615705, "pf_character": "CSO", "perm_feature_type_code": "EXO", "pf_state_waterbody_name": "Christina River", "pf_state_auto_name": "", "pf_reach_id": "", "in_icis": "YES", "echo_dfr_link": "https://echo.epa.gov/detailed-facility-report?fid=110006523770", "name": "CITY OF WILMINGTON REGIONAL WWTP", "feature_kind": "CSO outfall"}}, {"type": "Feature", "id": 1835, "geometry": {"type": "Point", "coordinates": [-75.5208961170346, 39.751755021331]}, "properties": {"OBJECTID": 1835, "npdes_pfid": "DE0020320031", "npdes_id": "DE0020320", "permitting_state": "DE", "agency_type_code": "ST6", "facility_uin": "110006523770", "facility_name": "CITY OF WILMINGTON REGIONAL WWTP", "location_address": "12TH STREET & HAY ROAD", "supplemental_address_text": "", "facility_city": "WILMINGTON", "county_code": "DE003", "state_code": "DE", "epa_region_code": "03", "facility_type_code": "MWD", "facility_lat": 39.735962, "facility_lon": -75.516033, "permit_name": "City of Wilmington Regional WWTP", "version_nmbr": 0, "permit_type_code": "NPD", "effective_date": 1412121600000, "expiration_date": 1569801600000, "permit_status_code": "EXP", "facility_type_indicator": "POTW", "major_minor_status_flag": "M", "permit_tracking": "Y", "pt_start_date": 1412121600000, "dmr_tracking": "Y", "dmr_nr_start_date": 1412121600000, "permit_design_flow": null, "permit_avg_flow": null, "perm_feature_nmbr": "031", "perm_feature_text": "", "pf_lat": 39.7517547, "pf_lon": -75.5208958, "pf_character": "CSO", "perm_feature_type_code": "EXO", "pf_state_waterbody_name": "Shellpot Creek", "pf_state_auto_name": "", "pf_reach_id": "", "in_icis": "YES", "echo_dfr_link": "https://echo.epa.gov/detailed-facility-report?fid=110006523770", "name": "CITY OF WILMINGTON REGIONAL WWTP", "feature_kind": "CSO outfall"}}, {"type": "Feature", "id": 1836, "geometry": {"type": "Point", "coordinates": [-75.5610166742539, 39.7627595666529]}, "properties": {"OBJECTID": 1836, "npdes_pfid": "DE0020320032", "npdes_id": "DE0020320", "permitting_state": "DE", "agency_type_code": "ST6", "facility_uin": "110006523770", "facility_name": "CITY OF WILMINGTON REGIONAL WWTP", "location_address": "12TH STREET & HAY ROAD", "supplemental_address_text": "", "facility_city": "WILMINGTON", "county_code": "DE003", "state_code": "DE", "epa_region_code": "03", "facility_type_code": "MWD", "facility_lat": 39.735962, "facility_lon": -75.516033, "permit_name": "City of Wilmington Regional WWTP", "version_nmbr": 0, "permit_type_code": "NPD", "effective_date": 1412121600000, "expiration_date": 1569801600000, "permit_status_code": "EXP", "facility_type_indicator": "POTW", "major_minor_status_flag": "M", "permit_tracking": "Y", "pt_start_date": 1412121600000, "dmr_tracking": "Y", "dmr_nr_start_date": 1412121600000, "permit_design_flow": null, "permit_avg_flow": null, "perm_feature_nmbr": "032", "perm_feature_text": "", "pf_lat": 39.7627599, "pf_lon": -75.5610171, "pf_character": "CSO", "perm_feature_type_code": "EXO", "pf_state_waterbody_name": "Brandywine Creek", "pf_state_auto_name": "", "pf_reach_id": "", "in_icis": "YES", "echo_dfr_link": "https://echo.epa.gov/detailed-facility-report?fid=110006523770", "name": "CITY OF WILMINGTON REGIONAL WWTP", "feature_kind": "CSO outfall"}}, {"type": "Feature", "id": 1837, "geometry": {"type": "Point", "coordinates": [-75.5655774209514, 39.7690555717333]}, "properties": {"OBJECTID": 1837, "npdes_pfid": "DE0020320033", "npdes_id": "DE0020320", "permitting_state": "DE", "agency_type_code": "ST6", "facility_uin": "110006523770", "facility_name": "CITY OF WILMINGTON REGIONAL WWTP", "location_address": "12TH STREET & HAY ROAD", "supplemental_address_text": "", "facility_city": "WILMINGTON", "county_code": "DE003", "state_code": "DE", "epa_region_code": "03", "facility_type_code": "MWD", "facility_lat": 39.735962, "facility_lon": -75.516033, "permit_name": "City of Wilmington Regional WWTP", "version_nmbr": 0, "permit_type_code": "NPD", "effective_date": 1412121600000, "expiration_date": 1569801600000, "permit_status_code": "EXP", "facility_type_indicator": "POTW", "major_minor_status_flag": "M", "permit_tracking": "Y", "pt_start_date": 1412121600000, "dmr_tracking": "Y", "dmr_nr_start_date": 1412121600000, "permit_design_flow": null, "permit_avg_flow": null, "perm_feature_nmbr": "033", "perm_feature_text": "", "pf_lat": 39.7690559, "pf_lon": -75.5655778, "pf_character": "CSO", "perm_feature_type_code": "EXO", "pf_state_waterbody_name": "Brandywine Creek", "pf_state_auto_name": "", "pf_reach_id": "", "in_icis": "YES", "echo_dfr_link": "https://echo.epa.gov/detailed-facility-report?fid=110006523770", "name": "CITY OF WILMINGTON REGIONAL WWTP", "feature_kind": "CSO outfall"}}, {"type": "Feature", "id": 1838, "geometry": {"type": "Point", "coordinates": [-75.5499997356095, 39.7541363233496]}, "properties": {"OBJECTID": 1838, "npdes_pfid": "DE002032023A", "npdes_id": "DE0020320", "permitting_state": "DE", "agency_type_code": "ST6", "facility_uin": "110006523770", "facility_name": "CITY OF WILMINGTON REGIONAL WWTP", "location_address": "12TH STREET & HAY ROAD", "supplemental_address_text": "", "facility_city": "WILMINGTON", "county_code": "DE003", "state_code": "DE", "epa_region_code": "03", "facility_type_code": "MWD", "facility_lat": 39.735962, "facility_lon": -75.516033, "permit_name": "City of Wilmington Regional WWTP", "version_nmbr": 0, "permit_type_code": "NPD", "effective_date": 1412121600000, "expiration_date": 1569801600000, "permit_status_code": "EXP", "facility_type_indicator": "POTW", "major_minor_status_flag": "M", "permit_tracking": "Y", "pt_start_date": 1412121600000, "dmr_tracking": "Y", "dmr_nr_start_date": 1412121600000, "permit_design_flow": null, "permit_avg_flow": null, "perm_feature_nmbr": "23A", "perm_feature_text": "", "pf_lat": 39.7541365, "pf_lon": -75.5500001, "pf_character": "CSO", "perm_feature_type_code": "EXO", "pf_state_waterbody_name": "Brandywine Creek", "pf_state_auto_name": "", "pf_reach_id": "", "in_icis": "YES", "echo_dfr_link": "https://echo.epa.gov/detailed-facility-report?fid=110006523770", "name": "CITY OF WILMINGTON REGIONAL WWTP", "feature_kind": "CSO outfall"}}]}