{"type": "FeatureCollection", "features": [{"type": "Feature", "id": 1839, "geometry": {"type": "Point", "coordinates": [-84.9999998434393, 31.9999997932081]}, "properties": {"OBJECTID": 1839, "npdes_pfid": "GA0036838001", "npdes_id": "GA0036838", "permitting_state": "GA", "agency_type_code": "ST6", "facility_uin": "110010039804", "facility_name": "COLUMBUS WATER WORKS (COLUMBUS CSO)", "location_address": "MULTIPLE LOCATIONS", "supplemental_address_text": "", "facility_city": "COLUMBUS", "county_code": "GA215", "state_code": "GA", "epa_region_code": "04", "facility_type_code": "MWD", "facility_lat": 32.445894, "facility_lon": -84.982037, "permit_name": "COLUMBUS WATER WORKS", "version_nmbr": 0, "permit_type_code": "NPD", "effective_date": 1270512000000, "expiration_date": 1428192000000, "permit_status_code": "ADC", "facility_type_indicator": "POTW", "major_minor_status_flag": "M", "permit_tracking": "Y", "pt_start_date": 1270512000000, "dmr_tracking": "Y", "dmr_nr_start_date": 1498867200000, "permit_design_flow": 76, "permit_avg_flow": 12.6, "perm_feature_nmbr": "001", "perm_feature_text": "Minor CSO Outfall - 24th Street", "pf_lat": 32, "pf_lon": -85, "pf_character": "CSO", "perm_feature_type_code": "EXO", "pf_state_waterbody_name": "Chattahoochee River", "pf_state_auto_name": "", "pf_reach_id": "", "in_icis": "YES", "echo_dfr_link": "https://echo.epa.gov/detailed-facility-report?fid=110010039804", "name": "COLUMBUS WATER WORKS (COLUMBUS CSO)", "feature_kind": "CSO outfall"}}, {"type": "Feature", "id": 1840, "geometry": {"type": "Point", "coordinates": [-84.9999998434393, 31.9999997932081]}, "properties": {"OBJECTID": 1840, "npdes_pfid": "GA0036838002", "npdes_id": "GA0036838", "permitting_state": "GA", "agency_type_code": "ST6", "facility_uin": "110010039804", "facility_name": "COLUMBUS WATER WORKS (COLUMBUS CSO)", "location_address": "MULTIPLE LOCATIONS", "supplemental_address_text": "", "facility_city": "COLUMBUS", "county_code": "GA215", "state_code": "GA", "epa_region_code": "04", "facility_type_code": "MWD", "facility_lat": 32.445894, "facility_lon": -84.982037, "permit_name": "COLUMBUS WATER WORKS", "version_nmbr": 0, "permit_type_code": "NPD", "effective_date": 1270512000000, "expiration_date": 1428192000000, "permit_status_code": "ADC", "facility_type_indicator": "POTW", "major_minor_status_flag": "M", "permit_tracking": "Y", "pt_start_date": 1270512000000, "dmr_tracking": "Y", "dmr_nr_start_date": 1498867200000, "permit_design_flow": 76, "permit_avg_flow": 12.6, "perm_feature_nmbr": "002", "perm_feature_text": "Major CSO Outfall - Uptown Park WRF", "pf_lat": 32, "pf_lon": -85, "pf_character": "TCS", "perm_feature_type_code": "EXO", "pf_state_waterbody_name": "Chattahoochee River", "pf_state_auto_name": "Chattahoochee River", "pf_reach_id": "", "in_icis": "YES", "echo_dfr_link": "https://echo.epa.gov/detailed-facility-report?fid=110010039804", "name": "COLUMBUS WATER WORKS (COLUMBUS CSO)", "feature_kind": "CSO outfall"}}, {"type": "Feature", "id": 1841, "geometry": {"type": "Point", "coordinates": [-84.9999998434393, 31.9999997932081]}, "properties": {"OBJECTID": 1841, "npdes_pfid": "GA0036838003", "npdes_id": "GA0036838", "permitting_state": "GA", "agency_type_code": "ST6", "facility_uin": "110010039804", "facility_name": "COLUMBUS WATER WORKS (COLUMBUS CSO)", "location_address": "MULTIPLE LOCATIONS", "supplemental_address_text": "", "facility_city": "COLUMBUS", "county_code": "GA215", "state_code": "GA", "epa_region_code": "04", "facility_type_code": "MWD", "facility_lat": 32.445894, "facility_lon": -84.982037, "permit_name": "COLUMBUS WATER WORKS", "version_nmbr": 0, "permit_type_code": "NPD", "effective_date": 1270512000000, "expiration_date": 1428192000000, "permit_status_code": "ADC", "facility_type_indicator": "POTW", "major_minor_status_flag": "M", "permit_tracking": "Y", "pt_start_date": 1270512000000, "dmr_tracking": "Y", "dmr_nr_start_date": 1498867200000, "permit_design_flow": 76, "permit_avg_flow": 12.6, "perm_feature_nmbr": "003", "perm_feature_text": "Minor CSO Outfall - 16th Street", "pf_lat": 32, "pf_lon": -85, "pf_character": "CSO", "perm_feature_type_code": "EXO", "pf_state_waterbody_name": "Chattahoochee River", "pf_state_auto_name": "", "pf_reach_id": "", "in_icis": "YES", "echo_dfr_link": "https://echo.epa.gov/detailed-facility-report?fid=110010039804", "name": "COLUMBUS WATER WORKS (COLUMBUS CSO)", "feature_kind": "CSO outfall"}}, {"type": "Feature", "id": 1842, "geometry": {"type": "Point", "coordinates": [-84.9999998434393, 31.9999997932081]}, "properties": {"OBJECTID": 1842, "npdes_pfid": "GA0036838004", "npdes_id": "GA0036838", "permitting_state": "GA", "agency_type_code": "ST6", "facility_uin": "110010039804", "facility_name": "COLUMBUS WATER WORKS (COLUMBUS CSO)", "location_address": "MULTIPLE LOCATIONS", "supplemental_address_text": "", "facility_city": "COLUMBUS", "county_code": "GA215", "state_code": "GA", "epa_region_code": "04", "facility_type_code": "MWD", "facility_lat": 32.445894, "facility_lon": -84.982037, "permit_name": "COLUMBUS WATER WORKS", "version_nmbr": 0, "permit_type_code": "NPD", "effective_date": 1270512000000, "expiration_date": 1428192000000, "permit_status_code": "ADC", "facility_type_indicator": "POTW", "major_minor_status_flag": "M", "permit_tracking": "Y", "pt_start_date": 1270512000000, "dmr_tracking": "Y", "dmr_nr_start_date": 1498867200000, "permit_design_flow": 76, "permit_avg_flow": 12.6, "perm_feature_nmbr": "004", "perm_feature_text": "Minor CSO Outfall - 15th Street", "pf_lat": 32, "pf_lon": -85, "pf_character": "CSO", "perm_feature_type_code": "EXO", "pf_state_waterbody_name": "Chattahoochee River", "pf_state_auto_name": "", "pf_reach_id": "", "in_icis": "YES", "echo_dfr_link": "https://echo.epa.gov/detailed-facility-report?fid=110010039804", "name": "COLUMBUS WATER WORKS (COLUMBUS CSO)", "feature_kind": "CSO outfall"}}, {"type": "Feature", "id": 1843, "geometry": {"type": "Point", "coordinates": [-84.9999998434393, 31.9999997932081]}, "properties": {"OBJECTID": 1843, "npdes_pfid": "GA0036838005", "npdes_id": "GA0036838", "permitting_state": "GA", "agency_type_code": "ST6", "facility_uin": "110010039804", "facility_name": "COLUMBUS WATER WORKS (COLUMBUS CSO)", "location_address": "MULTIPLE LOCATIONS", "supplemental_address_text": "", "facility_city": "COLUMBUS", "county_code": "GA215", "state_code": "GA", "epa_region_code": "04", "facility_type_code": "MWD", "facility_lat": 32.445894, "facility_lon": -84.982037, "permit_name": "COLUMBUS WATER WORKS", "version_nmbr": 0, "permit_type_code": "NPD", "effective_date": 1270512000000, "expiration_date": 1428192000000, "permit_status_code": "ADC", "facility_type_indicator": "POTW", "major_minor_status_flag": "M", "permit_tracking": "Y", "pt_start_date": 1270512000000, "dmr_tracking": "Y", "dmr_nr_start_date": 1498867200000, "permit_design_flow": 76, "permit_avg_flow": 12.6, "perm_feature_nmbr": "005", "perm_feature_text": "Minor CSO Outfall - 14th Street", "pf_lat": 32, "pf_lon": -85, "pf_character": "CSO", "perm_feature_type_code": "EXO", "pf_state_waterbody_name": "Chattahoochee River", "pf_state_auto_name": "", "pf_reach_id": "", "in_icis": "YES", "echo_dfr_link": "https://echo.epa.gov/detailed-facility-report?fid=110010039804", "name": "COLUMBUS WATER WORKS (COLUMBUS CSO)", "feature_kind": "CSO outfall"}}, {"type": "Feature", "id": 1844, "geometry": {"type": "Point", "coordinates": [-84.9999998434393, 31.9999997932081]}, "properties": {"OBJECTID": 1844, "npdes_pfid": "GA0036838006", "npdes_id": "GA0036838", "permitting_state": "GA", "agency_type_code": "ST6", "facility_uin": "110010039804", "facility_name": "COLUMBUS WATER WORKS (COLUMBUS CSO)", "location_address": "MULTIPLE LOCATIONS", "supplemental_address_text": "", "facility_city": "COLUMBUS", "county_code": "GA215", "state_code": "GA", "epa_region_code": "04", "facility_type_code": "MWD", "facility_lat": 32.445894, "facility_lon": -84.982037, "permit_name": "COLUMBUS WATER WORKS", "version_nmbr": 0, "permit_type_code": "NPD", "effective_date": 1270512000000, "expiration_date": 1428192000000, "permit_status_code": "ADC", "facility_type_indicator": "POTW", "major_minor_status_flag": "M", "permit_tracking": "Y", "pt_start_date": 1270512000000, "dmr_tracking": "Y", "dmr_nr_start_date": 1498867200000, "permit_design_flow": 76, "permit_avg_flow": 12.6, "perm_feature_nmbr": "006", "perm_feature_text": "Minor CSO Outfall - 12th Street", "pf_lat": 32, "pf_lon": -85, "pf_character": "CSO", "perm_feature_type_code": "EXO", "pf_state_waterbody_name": "Chattahoochee River", "pf_state_auto_name": "", "pf_reach_id": "", "in_icis": "YES", "echo_dfr_link": "https://echo.epa.gov/detailed-facility-report?fid=110010039804", "name": "COLUMBUS WATER WORKS (COLUMBUS CSO)", "feature_kind": "CSO outfall"}}, {"type": "Feature", "id": 1845, "geometry": {"type": "Point", "coordinates": [-84.9999998434393, 31.9999997932081]}, "properties": {"OBJECTID": 1845, "npdes_pfid": "GA0036838007", "npdes_id": "GA0036838", "permitting_state": "GA", "agency_type_code": "ST6", "facility_uin": "110010039804", "facility_name": "COLUMBUS WATER WORKS (COLUMBUS CSO)", "location_address": "MULTIPLE LOCATIONS", "supplemental_address_text": "", "facility_city": "COLUMBUS", "county_code": "GA215", "state_code": "GA", "epa_region_code": "04", "facility_type_code": "MWD", "facility_lat": 32.445894, "facility_lon": -84.982037, "permit_name": "COLUMBUS WATER WORKS", "version_nmbr": 0, "permit_type_code": "NPD", "effective_date": 1270512000000, "expiration_date": 1428192000000, "permit_status_code": "ADC", "facility_type_indicator": "POTW", "major_minor_status_flag": "M", "permit_tracking": "Y", "pt_start_date": 1270512000000, "dmr_tracking": "Y", "dmr_nr_start_date": 1498867200000, "permit_design_flow": 76, "permit_avg_flow": 12.6, "perm_feature_nmbr": "007", "perm_feature_text": "Minor CSO Outfall - 11th Street", "pf_lat": 32, "pf_lon": -85, "pf_character": "CSO", "perm_feature_type_code": "EXO", "pf_state_waterbody_name": "Chattahoochee River", "pf_state_auto_name": "", "pf_reach_id": "", "in_icis": "YES", "echo_dfr_link": "https://echo.epa.gov/detailed-facility-report?fid=110010039804", "name": "COLUMBUS WATER WORKS (COLUMBUS CSO)", "feature_kind": "CSO outfall"}}, {"type": "Feature", "id": 1846, "geometry": {"type": "Point", "coordinates": [-84.9999998434393, 31.9999997932081]}, "properties": {"OBJECTID": 1846, "npdes_pfid": "GA0036838008", "npdes_id": "GA0036838", "permitting_state": "GA", "agency_type_code": "ST6", "facility_uin": "110010039804", "facility_name": "COLUMBUS WATER WORKS (COLUMBUS CSO)", "location_address": "MULTIPLE LOCATIONS", "supplemental_address_text": "", "facility_city": "COLUMBUS", "county_code": "GA215", "state_code": "GA", "epa_region_code": "04", "facility_type_code": "MWD", "facility_lat": 32.445894, "facility_lon": -84.982037, "permit_name": "COLUMBUS WATER WORKS", "version_nmbr": 0, "permit_type_code": "NPD", "effective_date": 1270512000000, "expiration_date": 1428192000000, "permit_status_code": "ADC", "facility_type_indicator": "POTW", "major_minor_status_flag": "M", "permit_tracking": "Y", "pt_start_date": 1270512000000, "dmr_tracking": "Y", "dmr_nr_start_date": 1498867200000, "permit_design_flow": 76, "permit_avg_flow": 12.6, "perm_feature_nmbr": "008", "perm_feature_text": "Minor CSO Outfall - 9th Street", "pf_lat": 32, "pf_lon": -85, "pf_character": "CSO", "perm_feature_type_code": "EXO", "pf_state_waterbody_name": "Chattahoochee River", "pf_state_auto_name": "", "pf_reach_id": "", "in_icis": "YES", "echo_dfr_link": "https://echo.epa.gov/detailed-facility-report?fid=110010039804", "name": "COLUMBUS WATER WORKS (COLUMBUS CSO)", "feature_kind": "CSO outfall"}}, {"type": "Feature", "id": 1847, "geometry": {"type": "Point", "coordinates": [-84.9999998434393, 31.9999997932081]}, "properties": {"OBJECTID": 1847, "npdes_pfid": "GA0036838009", "npdes_id": "GA0036838", "permitting_state": "GA", "agency_type_code": "ST6", "facility_uin": "110010039804", "facility_name": "COLUMBUS WATER WORKS (COLUMBUS CSO)", "location_address": "MULTIPLE LOCATIONS", "supplemental_address_text": "", "facility_city": "COLUMBUS", "county_code": "GA215", "state_code": "GA", "epa_region_code": "04", "facility_type_code": "MWD", "facility_lat": 32.445894, "facility_lon": -84.982037, "permit_name": "COLUMBUS WATER WORKS", "version_nmbr": 0, "permit_type_code": "NPD", "effective_date": 1270512000000, "expiration_date": 1428192000000, "permit_status_code": "ADC", "facility_type_indicator": "POTW", "major_minor_status_flag": "M", "permit_tracking": "Y", "pt_start_date": 1270512000000, "dmr_tracking": "Y", "dmr_nr_start_date": 1498867200000, "permit_design_flow": 76, "permit_avg_flow": 12.6, "perm_feature_nmbr": "009", "perm_feature_text": "Minor CSO Outfall - 7th Street", "pf_lat": 32, "pf_lon": -85, "pf_character": "CSO", "perm_feature_type_code": "EXO", "pf_state_waterbody_name": "Chattahoochee River", "pf_state_auto_name": "", "pf_reach_id": "", "in_icis": "YES", "echo_dfr_link": "https://echo.epa.gov/detailed-facility-report?fid=110010039804", "name": "COLUMBUS WATER WORKS (COLUMBUS CSO)", "feature_kind": "CSO outfall"}}, {"type": "Feature", "id": 1848, "geometry": {"type": "Point", "coordinates": [-84.9999998434393, 31.9999997932081]}, "properties": {"OBJECTID": 1848, "npdes_pfid": "GA0036838010", "npdes_id": "GA0036838", "permitting_state": "GA", "agency_type_code": "ST6", "facility_uin": "110010039804", "facility_name": "COLUMBUS WATER WORKS (COLUMBUS CSO)", "location_address": "MULTIPLE LOCATIONS", "supplemental_address_text": "", "facility_city": "COLUMBUS", "county_code": "GA215", "state_code": "GA", "epa_region_code": "04", "facility_type_code": "MWD", "facility_lat": 32.445894, "facility_lon": -84.982037, "permit_name": "COLUMBUS WATER WORKS", "version_nmbr": 0, "permit_type_code": "NPD", "effective_date": 1270512000000, "expiration_date": 1428192000000, "permit_status_code": "ADC", "facility_type_indicator": "POTW", "major_minor_status_flag": "M", "permit_tracking": "Y", "pt_start_date": 1270512000000, "dmr_tracking": "Y", "dmr_nr_start_date": 1498867200000, "permit_design_flow": 76, "permit_avg_flow": 12.6, "perm_feature_nmbr": "010", "perm_feature_text": "Minor CSO Outfall - Golden Park", "pf_lat": 32, "pf_lon": -85, "pf_character": "CSO", "perm_feature_type_code": "EXO", "pf_state_waterbody_name": "Chattahoochee River", "pf_state_auto_name": "", "pf_reach_id": "", "in_icis": "YES", "echo_dfr_link": "https://echo.epa.gov/detailed-facility-report?fid=110010039804", "name": "COLUMBUS WATER WORKS (COLUMBUS CSO)", "feature_kind": "CSO outfall"}}, {"type": "Feature", "id": 1849, "geometry": {"type": "Point", "coordinates": [-84.9999998434393, 31.9999997932081]}, "properties": {"OBJECTID": 1849, "npdes_pfid": "GA0036838011", "npdes_id": "GA0036838", "permitting_state": "GA", "agency_type_code": "ST6", "facility_uin": "110010039804", "facility_name": "COLUMBUS WATER WORKS (COLUMBUS CSO)", "location_address": "MULTIPLE LOCATIONS", "supplemental_address_text": "", "facility_city": "COLUMBUS", "county_code": "GA215", "state_code": "GA", "epa_region_code": "04", "facility_type_code": "MWD", "facility_lat": 32.445894, "facility_lon": -84.982037, "permit_name": "COLUMBUS WATER WORKS", "version_nmbr": 0, "permit_type_code": "NPD", "effective_date": 1270512000000, "expiration_date": 1428192000000, "permit_status_code": "ADC", "facility_type_indicator": "POTW", "major_minor_status_flag": "M", "permit_tracking": "Y", "pt_start_date": 1270512000000, "dmr_tracking": "Y", "dmr_nr_start_date": 1498867200000, "permit_design_flow": 76, "permit_avg_flow": 12.6, "perm_feature_nmbr": "011", "perm_feature_text": "Minor CSO Outfall - 5th and Lumpkin (RIDS)", "pf_lat": 32, "pf_lon": -85, "pf_character": "CSO", "perm_feature_type_code": "EXO", "pf_state_waterbody_name": "Chattahoochee River", "pf_state_auto_name": "", "pf_reach_id": "", "in_icis": "YES", "echo_dfr_link": "https://echo.epa.gov/detailed-facility-report?fid=110010039804", "name": "COLUMBUS WATER WORKS (COLUMBUS CSO)", "feature_kind": "CSO outfall"}}, {"type": "Feature", "id": 1850, "geometry": {"type": "Point", "coordinates": [-84.9999998434393, 31.9999997932081]}, "properties": {"OBJECTID": 1850, "npdes_pfid": "GA0036838012", "npdes_id": "GA0036838", "permitting_state": "GA", "agency_type_code": "ST6", "facility_uin": "110010039804", "facility_name": "COLUMBUS WATER WORKS (COLUMBUS CSO)", "location_address": "MULTIPLE LOCATIONS", "supplemental_address_text": "", "facility_city": "COLUMBUS", "county_code": "GA215", "state_code": "GA", "epa_region_code": "04", "facility_type_code": "MWD", "facility_lat": 32.445894, "facility_lon": -84.982037, "permit_name": "COLUMBUS WATER WORKS", "version_nmbr": 0, "permit_type_code": "NPD", "effective_date": 1270512000000, "expiration_date": 1428192000000, "permit_status_code": "ADC", "facility_type_indicator": "POTW", "major_minor_status_flag": "M", "permit_tracking": "Y", "pt_start_date": 1270512000000, "dmr_tracking": "Y", "dmr_nr_start_date": 1498867200000, "permit_design_flow": 76, "permit_avg_flow": 12.6, "perm_feature_nmbr": "012", "perm_feature_text": "Major CSO Outfall - South Commons WRF", "pf_lat": 32, "pf_lon": -85, "pf_character": "TCS", "perm_feature_type_code": "EXO", "pf_state_waterbody_name": "Chattahoochee River", "pf_state_auto_name": "Chattahoochee River", "pf_reach_id": "", "in_icis": "YES", "echo_dfr_link": "https://echo.epa.gov/detailed-facility-report?fid=110010039804", "name": "COLUMBUS WATER WORKS (COLUMBUS CSO)", "feature_kind": "CSO outfall"}}, {"type": "Feature", "id": 1851, "geometry": {"type": "Point", "coordinates": [-83.9999997607339, 31.9999997932081]}, "properties": {"OBJECTID": 1851, "npdes_pfid": "GA0036854001", "npdes_id": "GA0036854", "permitting_state": "GA", "agency_type_code": "ST6", "facility_uin": "110009140116", "facility_name": "ALBANY, CITY OF (ALBANY CSO)", "location_address": "2726 JOSHUA ST", "supplemental_address_text": "", "facility_city": "ALBANY", "county_code": "GA095", "state_code": "GA", "epa_region_code": "04", "facility_type_code": "MWD", "facility_lat": 31.539406, "facility_lon": -84.147313, "permit_name": "City of Albany", "version_nmbr": 0, "permit_type_code": "NPD", "effective_date": 1601510400000, "expiration_date": 1759190400000, "permit_status_code": "ADC", "facility_type_indicator": "POTW", "major_minor_status_flag": "M", "permit_tracking": "Y", "pt_start_date": 1601510400000, "dmr_tracking": "Y", "dmr_nr_start_date": 1601510400000, "permit_design_flow": 34.5, "permit_avg_flow": 1.414, "perm_feature_nmbr": "001", "perm_feature_text": "Major CSO", "pf_lat": 32, "pf_lon": -84, "pf_character": "TCS", "perm_feature_type_code": "EXO", "pf_state_waterbody_name": "Flint River", "pf_state_auto_name": "Flint River", "pf_reach_id": "", "in_icis": "YES", "echo_dfr_link": "https://echo.epa.gov/detailed-facility-report?fid=110009140116", "name": "ALBANY, CITY OF (ALBANY CSO)", "feature_kind": "CSO outfall"}}, {"type": "Feature", "id": 1852, "geometry": {"type": "Point", "coordinates": [-83.9999997607339, 31.9999997932081]}, "properties": {"OBJECTID": 1852, "npdes_pfid": "GA0036854003", "npdes_id": "GA0036854", "permitting_state": "GA", "agency_type_code": "ST6", "facility_uin": "110009140116", "facility_name": "ALBANY, CITY OF (ALBANY CSO)", "location_address": "2726 JOSHUA ST", "supplemental_address_text": "", "facility_city": "ALBANY", "county_code": "GA095", "state_code": "GA", "epa_region_code": "04", "facility_type_code": "MWD", "facility_lat": 31.539406, "facility_lon": -84.147313, "permit_name": "City of Albany", "version_nmbr": 0, "permit_type_code": "NPD", "effective_date": 1601510400000, "expiration_date": 1759190400000, "permit_status_code": "ADC", "facility_type_indicator": "POTW", "major_minor_status_flag": "M", "permit_tracking": "Y", "pt_start_date": 1601510400000, "dmr_tracking": "Y", "dmr_nr_start_date": 1601510400000, "permit_design_flow": 34.5, "permit_avg_flow": 1.414, "perm_feature_nmbr": "003", "perm_feature_text": "Lift Station 27", "pf_lat": 32, "pf_lon": -84, "pf_character": "CSO", "perm_feature_type_code": "EXO", "pf_state_waterbody_name": "Flint River", "pf_state_auto_name": "Flint River", "pf_reach_id": "", "in_icis": "YES", "echo_dfr_link": "https://echo.epa.gov/detailed-facility-report?fid=110009140116", "name": "ALBANY, CITY OF (ALBANY CSO)", "feature_kind": "CSO outfall"}}, {"type": "Feature", "id": 1853, "geometry": {"type": "Point", "coordinates": [-83.9999997607339, 31.9999997932081]}, "properties": {"OBJECTID": 1853, "npdes_pfid": "GA0036854004", "npdes_id": "GA0036854", "permitting_state": "GA", "agency_type_code": "ST6", "facility_uin": "110009140116", "facility_name": "ALBANY, CITY OF (ALBANY CSO)", "location_address": "2726 JOSHUA ST", "supplemental_address_text": "", "facility_city": "ALBANY", "county_code": "GA095", "state_code": "GA", "epa_region_code": "04", "facility_type_code": "MWD", "facility_lat": 31.539406, "facility_lon": -84.147313, "permit_name": "City of Albany", "version_nmbr": 0, "permit_type_code": "NPD", "effective_date": 1601510400000, "expiration_date": 1759190400000, "permit_status_code": "ADC", "facility_type_indicator": "POTW", "major_minor_status_flag": "M", "permit_tracking": "Y", "pt_start_date": 1601510400000, "dmr_tracking": "Y", "dmr_nr_start_date": 1601510400000, "permit_design_flow": 34.5, "permit_avg_flow": 1.414, "perm_feature_nmbr": "004", "perm_feature_text": "Lift Station 25", "pf_lat": 32, "pf_lon": -84, "pf_character": "CSO", "perm_feature_type_code": "EXO", "pf_state_waterbody_name": "Flint River", "pf_state_auto_name": "Flint River", "pf_reach_id": "", "in_icis": "YES", "echo_dfr_link": "https://echo.epa.gov/detailed-facility-report?fid=110009140116", "name": "ALBANY, CITY OF (ALBANY CSO)", "feature_kind": "CSO outfall"}}, {"type": "Feature", "id": 1854, "geometry": {"type": "Point", "coordinates": [-83.9999997607339, 31.9999997932081]}, "properties": {"OBJECTID": 1854, "npdes_pfid": "GA0036854005", "npdes_id": "GA0036854", "permitting_state": "GA", "agency_type_code": "ST6", "facility_uin": "110009140116", "facility_name": "ALBANY, CITY OF (ALBANY CSO)", "location_address": "2726 JOSHUA ST", "supplemental_address_text": "", "facility_city": "ALBANY", "county_code": "GA095", "state_code": "GA", "epa_region_code": "04", "facility_type_code": "MWD", "facility_lat": 31.539406, "facility_lon": -84.147313, "permit_name": "City of Albany", "version_nmbr": 0, "permit_type_code": "NPD", "effective_date": 1601510400000, "expiration_date": 1759190400000, "permit_status_code": "ADC", "facility_type_indicator": "POTW", "major_minor_status_flag": "M", "permit_tracking": "Y", "pt_start_date": 1601510400000, "dmr_tracking": "Y", "dmr_nr_start_date": 1601510400000, "permit_design_flow": 34.5, "permit_avg_flow": 1.414, "perm_feature_nmbr": "005", "perm_feature_text": "Whitney Ave.", "pf_lat": 32, "pf_lon": -84, "pf_character": "CSO", "perm_feature_type_code": "EXO", "pf_state_waterbody_name": "Flint River", "pf_state_auto_name": "Flint River", "pf_reach_id": "", "in_icis": "YES", "echo_dfr_link": "https://echo.epa.gov/detailed-facility-report?fid=110009140116", "name": "ALBANY, CITY OF (ALBANY CSO)", "feature_kind": "CSO outfall"}}, {"type": "Feature", "id": 1855, "geometry": {"type": "Point", "coordinates": [-83.9999997607339, 31.9999997932081]}, "properties": {"OBJECTID": 1855, "npdes_pfid": "GA0036854006", "npdes_id": "GA0036854", "permitting_state": "GA", "agency_type_code": "ST6", "facility_uin": "110009140116", "facility_name": "ALBANY, CITY OF (ALBANY CSO)", "location_address": "2726 JOSHUA ST", "supplemental_address_text": "", "facility_city": "ALBANY", "county_code": "GA095", "state_code": "GA", "epa_region_code": "04", "facility_type_code": "MWD", "facility_lat": 31.539406, "facility_lon": -84.147313, "permit_name": "City of Albany", "version_nmbr": 0, "permit_type_code": "NPD", "effective_date": 1601510400000, "expiration_date": 1759190400000, "permit_status_code": "ADC", "facility_type_indicator": "POTW", "major_minor_status_flag": "M", "permit_tracking": "Y", "pt_start_date": 1601510400000, "dmr_tracking": "Y", "dmr_nr_start_date": 1601510400000, "permit_design_flow": 34.5, "permit_avg_flow": 1.414, "perm_feature_nmbr": "006", "perm_feature_text": "Highland Ave.", "pf_lat": 32, "pf_lon": -84, "pf_character": "CSO", "perm_feature_type_code": "EXO", "pf_state_waterbody_name": "Flint River", "pf_state_auto_name": "Flint River", "pf_reach_id": "", "in_icis": "YES", "echo_dfr_link": "https://echo.epa.gov/detailed-facility-report?fid=110009140116", "name": "ALBANY, CITY OF (ALBANY CSO)", "feature_kind": "CSO outfall"}}, {"type": "Feature", "id": 1856, "geometry": {"type": "Point", "coordinates": [-83.9999997607339, 31.9999997932081]}, "properties": {"OBJECTID": 1856, "npdes_pfid": "GA0036854011", "npdes_id": "GA0036854", "permitting_state": "GA", "agency_type_code": "ST6", "facility_uin": "110009140116", "facility_name": "ALBANY, CITY OF (ALBANY CSO)", "location_address": "2726 JOSHUA ST", "supplemental_address_text": "", "facility_city": "ALBANY", "county_code": "GA095", "state_code": "GA", "epa_region_code": "04", "facility_type_code": "MWD", "facility_lat": 31.539406, "facility_lon": -84.147313, "permit_name": "City of Albany", "version_nmbr": 0, "permit_type_code": "NPD", "effective_date": 1601510400000, "expiration_date": 1759190400000, "permit_status_code": "ADC", "facility_type_indicator": "POTW", "major_minor_status_flag": "M", "permit_tracking": "Y", "pt_start_date": 1601510400000, "dmr_tracking": "Y", "dmr_nr_start_date": 1601510400000, "permit_design_flow": 34.5, "permit_avg_flow": 1.414, "perm_feature_nmbr": "011", "perm_feature_text": "Booker Ave.", "pf_lat": 32, "pf_lon": -84, "pf_character": "CSO", "perm_feature_type_code": "EXO", "pf_state_waterbody_name": "Flint River", "pf_state_auto_name": "Flint River", "pf_reach_id": "", "in_icis": "YES", "echo_dfr_link": "https://echo.epa.gov/detailed-facility-report?fid=110009140116", "name": "ALBANY, CITY OF (ALBANY CSO)", "feature_kind": "CSO outfall"}}, {"type": "Feature", "id": 1857, "geometry": {"type": "Point", "coordinates": [-83.9999997607339, 31.9999997932081]}, "properties": {"OBJECTID": 1857, "npdes_pfid": "GA0036854014", "npdes_id": "GA0036854", "permitting_state": "GA", "agency_type_code": "ST6", "facility_uin": "110009140116", "facility_name": "ALBANY, CITY OF (ALBANY CSO)", "location_address": "2726 JOSHUA ST", "supplemental_address_text": "", "facility_city": "ALBANY", "county_code": "GA095", "state_code": "GA", "epa_region_code": "04", "facility_type_code": "MWD", "facility_lat": 31.539406, "facility_lon": -84.147313, "permit_name": "City of Albany", "version_nmbr": 0, "permit_type_code": "NPD", "effective_date": 1601510400000, "expiration_date": 1759190400000, "permit_status_code": "ADC", "facility_type_indicator": "POTW", "major_minor_status_flag": "M", "permit_tracking": "Y", "pt_start_date": 1601510400000, "dmr_tracking": "Y", "dmr_nr_start_date": 1601510400000, "permit_design_flow": 34.5, "permit_avg_flow": 1.414, "perm_feature_nmbr": "014", "perm_feature_text": "3rd Ave.", "pf_lat": 32, "pf_lon": -84, "pf_character": "CSO", "perm_feature_type_code": "EXO", "pf_state_waterbody_name": "Flint River", "pf_state_auto_name": "Flint River", "pf_reach_id": "", "in_icis": "YES", "echo_dfr_link": "https://echo.epa.gov/detailed-facility-report?fid=110009140116", "name": "ALBANY, CITY OF (ALBANY CSO)", "feature_kind": "CSO outfall"}}, {"type": "Feature", "id": 1858, "geometry": {"type": "Point", "coordinates": [-83.9999997607339, 31.9999997932081]}, "properties": {"OBJECTID": 1858, "npdes_pfid": "GA0036854015", "npdes_id": "GA0036854", "permitting_state": "GA", "agency_type_code": "ST6", "facility_uin": "110009140116", "facility_name": "ALBANY, CITY OF (ALBANY CSO)", "location_address": "2726 JOSHUA ST", "supplemental_address_text": "", "facility_city": "ALBANY", "county_code": "GA095", "state_code": "GA", "epa_region_code": "04", "facility_type_code": "MWD", "facility_lat": 31.539406, "facility_lon": -84.147313, "permit_name": "City of Albany", "version_nmbr": 0, "permit_type_code": "NPD", "effective_date": 1601510400000, "expiration_date": 1759190400000, "permit_status_code": "ADC", "facility_type_indicator": "POTW", "major_minor_status_flag": "M", "permit_tracking": "Y", "pt_start_date": 1601510400000, "dmr_tracking": "Y", "dmr_nr_start_date": 1601510400000, "permit_design_flow": 34.5, "permit_avg_flow": 1.414, "perm_feature_nmbr": "015", "perm_feature_text": "8th Ave.", "pf_lat": 32, "pf_lon": -84, "pf_character": "CSO", "perm_feature_type_code": "EXO", "pf_state_waterbody_name": "Flint River", "pf_state_auto_name": "Flint River", "pf_reach_id": "", "in_icis": "YES", "echo_dfr_link": "https://echo.epa.gov/detailed-facility-report?fid=110009140116", "name": "ALBANY, CITY OF (ALBANY CSO)", "feature_kind": "CSO outfall"}}, {"type": "Feature", "id": 1859, "geometry": {"type": "Point", "coordinates": [-83.9999997607339, 31.9999997932081]}, "properties": {"OBJECTID": 1859, "npdes_pfid": "GA0036854SYS", "npdes_id": "GA0036854", "permitting_state": "GA", "agency_type_code": "ST6", "facility_uin": "110009140116", "facility_name": "ALBANY, CITY OF (ALBANY CSO)", "location_address": "2726 JOSHUA ST", "supplemental_address_text": "", "facility_city": "ALBANY", "county_code": "GA095", "state_code": "GA", "epa_region_code": "04", "facility_type_code": "MWD", "facility_lat": 31.539406, "facility_lon": -84.147313, "permit_name": "City of Albany", "version_nmbr": 0, "permit_type_code": "NPD", "effective_date": 1601510400000, "expiration_date": 1759190400000, "permit_status_code": "ADC", "facility_type_indicator": "POTW", "major_minor_status_flag": "M", "permit_tracking": "Y", "pt_start_date": 1601510400000, "dmr_tracking": "Y", "dmr_nr_start_date": 1601510400000, "permit_design_flow": 34.5, "permit_avg_flow": 1.414, "perm_feature_nmbr": "SYS", "perm_feature_text": "Combined Sewer System Monitoring", "pf_lat": 32, "pf_lon": -84, "pf_character": "CSO|TCS", "perm_feature_type_code": "EXO", "pf_state_waterbody_name": "Flint River", "pf_state_auto_name": "Flint River", "pf_reach_id": "", "in_icis": "YES", "echo_dfr_link": "https://echo.epa.gov/detailed-facility-report?fid=110009140116", "name": "ALBANY, CITY OF (ALBANY CSO)", "feature_kind": "CSO outfall"}}, {"type": "Feature", "id": 1860, "geometry": {"type": "Point", "coordinates": [-83.9999997607339, 33.9999998053674]}, "properties": {"OBJECTID": 1860, "npdes_pfid": "GA0037168001", "npdes_id": "GA0037168", "permitting_state": "GA", "agency_type_code": "ST6", "facility_uin": "110009140045", "facility_name": "ATLANTA, CITY OF (EAST AREA CSS)", "location_address": "MULTIPLE LOCATIONS", "supplemental_address_text": "", "facility_city": "ATLANTA", "county_code": "GA121", "state_code": "GA", "epa_region_code": "04", "facility_type_code": "CTG", "facility_lat": 33.701656, "facility_lon": -84.331784, "permit_name": "Atlanta, City of", "version_nmbr": 0, "permit_type_code": "NPD", "effective_date": 1441065600000, "expiration_date": 1598832000000, "permit_status_code": "ADC", "facility_type_indicator": "POTW", "major_minor_status_flag": "M", "permit_tracking": "Y", "pt_start_date": 1441065600000, "dmr_tracking": "Y", "dmr_nr_start_date": 1498867200000, "permit_design_flow": 20, "permit_avg_flow": 11.6, "perm_feature_nmbr": "001", "perm_feature_text": "Discharge from East Area WQCF", "pf_lat": 34, "pf_lon": -84, "pf_character": "TCS", "perm_feature_type_code": "EXO", "pf_state_waterbody_name": "Intrenchment Creek", "pf_state_auto_name": "Intrenchment Creek", "pf_reach_id": "", "in_icis": "YES", "echo_dfr_link": "https://echo.epa.gov/detailed-facility-report?fid=110009140045", "name": "ATLANTA, CITY OF (EAST AREA CSS)", "feature_kind": "CSO outfall"}}, {"type": "Feature", "id": 1861, "geometry": {"type": "Point", "coordinates": [-83.9999997607339, 33.9999998053674]}, "properties": {"OBJECTID": 1861, "npdes_pfid": "GA0037168002", "npdes_id": "GA0037168", "permitting_state": "GA", "agency_type_code": "ST6", "facility_uin": "110009140045", "facility_name": "ATLANTA, CITY OF (EAST AREA CSS)", "location_address": "MULTIPLE LOCATIONS", "supplemental_address_text": "", "facility_city": "ATLANTA", "county_code": "GA121", "state_code": "GA", "epa_region_code": "04", "facility_type_code": "CTG", "facility_lat": 33.701656, "facility_lon": -84.331784, "permit_name": "Atlanta, City of", "version_nmbr": 0, "permit_type_code": "NPD", "effective_date": 1441065600000, "expiration_date": 1598832000000, "permit_status_code": "ADC", "facility_type_indicator": "POTW", "major_minor_status_flag": "M", "permit_tracking": "Y", "pt_start_date": 1441065600000, "dmr_tracking": "Y", "dmr_nr_start_date": 1498867200000, "permit_design_flow": 20, "permit_avg_flow": 11.6, "perm_feature_nmbr": "002", "perm_feature_text": "Discharge from Custer Avenue CSCF", "pf_lat": 34, "pf_lon": -84, "pf_character": "TCS", "perm_feature_type_code": "EXO", "pf_state_waterbody_name": "Intrenchment Creek", "pf_state_auto_name": "Intrenchment Creek", "pf_reach_id": "", "in_icis": "YES", "echo_dfr_link": "https://echo.epa.gov/detailed-facility-report?fid=110009140045", "name": "ATLANTA, CITY OF (EAST AREA CSS)", "feature_kind": "CSO outfall"}}, {"type": "Feature", "id": 1862, "geometry": {"type": "Point", "coordinates": [-83.9999997607339, 33.9999998053674]}, "properties": {"OBJECTID": 1862, "npdes_pfid": "GA0038644001", "npdes_id": "GA0038644", "permitting_state": "GA", "agency_type_code": "ST6", "facility_uin": "110020834533", "facility_name": "ATLANTA, CITY OF (WEST AREA CSO)", "location_address": "MULTIPLE LOCATIONS", "supplemental_address_text": "", "facility_city": "ATLANTA", "county_code": "GA121", "state_code": "GA", "epa_region_code": "04", "facility_type_code": "CTG", "facility_lat": 33.825962, "facility_lon": -84.453924, "permit_name": "Atlanta, City of", "version_nmbr": 0, "permit_type_code": "NPD", "effective_date": 1441065600000, "expiration_date": 1598832000000, "permit_status_code": "ADC", "facility_type_indicator": "POTW", "major_minor_status_flag": "M", "permit_tracking": "Y", "pt_start_date": 1441065600000, "dmr_tracking": "Y", "dmr_nr_start_date": 1498867200000, "permit_design_flow": 85, "permit_avg_flow": 44.93, "perm_feature_nmbr": "001", "perm_feature_text": "Discharge from West Area WQCF", "pf_lat": 34, "pf_lon": -84, "pf_character": "TCS", "perm_feature_type_code": "EXO", "pf_state_waterbody_name": "Chattahoochee River", "pf_state_auto_name": "Peachtree Creek", "pf_reach_id": "", "in_icis": "YES", "echo_dfr_link": "https://echo.epa.gov/detailed-facility-report?fid=110020834533", "name": "ATLANTA, CITY OF (WEST AREA CSO)", "feature_kind": "CSO outfall"}}, {"type": "Feature", "id": 1863, "geometry": {"type": "Point", "coordinates": [-83.9999997607339, 33.9999998053674]}, "properties": {"OBJECTID": 1863, "npdes_pfid": "GA0038644002", "npdes_id": "GA0038644", "permitting_state": "GA", "agency_type_code": "ST6", "facility_uin": "110020834533", "facility_name": "ATLANTA, CITY OF (WEST AREA CSO)", "location_address": "MULTIPLE LOCATIONS", "supplemental_address_text": "", "facility_city": "ATLANTA", "county_code": "GA121", "state_code": "GA", "epa_region_code": "04", "facility_type_code": "CTG", "facility_lat": 33.825962, "facility_lon": -84.453924, "permit_name": "Atlanta, City of", "version_nmbr": 0, "permit_type_code": "NPD", "effective_date": 1441065600000, "expiration_date": 1598832000000, "permit_status_code": "ADC", "facility_type_indicator": "POTW", "major_minor_status_flag": "M", "permit_tracking": "Y", "pt_start_date": 1441065600000, "dmr_tracking": "Y", "dmr_nr_start_date": 1498867200000, "permit_design_flow": 85, "permit_avg_flow": 44.93, "perm_feature_nmbr": "002", "perm_feature_text": "Discharge from Clear Creek CSCF", "pf_lat": 34, "pf_lon": -84, "pf_character": "TCS", "perm_feature_type_code": "EXO", "pf_state_waterbody_name": "Clear Creek", "pf_state_auto_name": "Peachtree Creek", "pf_reach_id": "", "in_icis": "YES", "echo_dfr_link": "https://echo.epa.gov/detailed-facility-report?fid=110020834533", "name": "ATLANTA, CITY OF (WEST AREA CSO)", "feature_kind": "CSO outfall"}}, {"type": "Feature", "id": 1864, "geometry": {"type": "Point", "coordinates": [-83.9999997607339, 33.9999998053674]}, "properties": {"OBJECTID": 1864, "npdes_pfid": "GA0038644003", "npdes_id": "GA0038644", "permitting_state": "GA", "agency_type_code": "ST6", "facility_uin": "110020834533", "facility_name": "ATLANTA, CITY OF (WEST AREA CSO)", "location_address": "MULTIPLE LOCATIONS", "supplemental_address_text": "", "facility_city": "ATLANTA", "county_code": "GA121", "state_code": "GA", "epa_region_code": "04", "facility_type_code": "CTG", "facility_lat": 33.825962, "facility_lon": -84.453924, "permit_name": "Atlanta, City of", "version_nmbr": 0, "permit_type_code": "NPD", "effective_date": 1441065600000, "expiration_date": 1598832000000, "permit_status_code": "ADC", "facility_type_indicator": "POTW", "major_minor_status_flag": "M", "permit_tracking": "Y", "pt_start_date": 1441065600000, "dmr_tracking": "Y", "dmr_nr_start_date": 1498867200000, "permit_design_flow": 85, "permit_avg_flow": 44.93, "perm_feature_nmbr": "003", "perm_feature_text": "Discharge from Proctor Creek- North Ave CSCF", "pf_lat": 34, "pf_lon": -84, "pf_character": "TCS", "perm_feature_type_code": "EXO", "pf_state_waterbody_name": "Proctor Creek", "pf_state_auto_name": "Proctor Creek", "pf_reach_id": "", "in_icis": "YES", "echo_dfr_link": "https://echo.epa.gov/detailed-facility-report?fid=110020834533", "name": "ATLANTA, CITY OF (WEST AREA CSO)", "feature_kind": "CSO outfall"}}, {"type": "Feature", "id": 1865, "geometry": {"type": "Point", "coordinates": [-83.9999997607339, 33.9999998053674]}, "properties": {"OBJECTID": 1865, "npdes_pfid": "GA0038644004", "npdes_id": "GA0038644", "permitting_state": "GA", "agency_type_code": "ST6", "facility_uin": "110020834533", "facility_name": "ATLANTA, CITY OF (WEST AREA CSO)", "location_address": "MULTIPLE LOCATIONS", "supplemental_address_text": "", "facility_city": "ATLANTA", "county_code": "GA121", "state_code": "GA", "epa_region_code": "04", "facility_type_code": "CTG", "facility_lat": 33.825962, "facility_lon": -84.453924, "permit_name": "Atlanta, City of", "version_nmbr": 0, "permit_type_code": "NPD", "effective_date": 1441065600000, "expiration_date": 1598832000000, "permit_status_code": "ADC", "facility_type_indicator": "POTW", "major_minor_status_flag": "M", "permit_tracking": "Y", "pt_start_date": 1441065600000, "dmr_tracking": "Y", "dmr_nr_start_date": 1498867200000, "permit_design_flow": 85, "permit_avg_flow": 44.93, "perm_feature_nmbr": "004", "perm_feature_text": "Discharge from Tanyard Creek CSCF", "pf_lat": 34, "pf_lon": -84, "pf_character": "TCS", "perm_feature_type_code": "EXO", "pf_state_waterbody_name": "Tanyard Creek", "pf_state_auto_name": "Peachtree Creek", "pf_reach_id": "", "in_icis": "YES", "echo_dfr_link": "https://echo.epa.gov/detailed-facility-report?fid=110020834533", "name": "ATLANTA, CITY OF (WEST AREA CSO)", "feature_kind": "CSO outfall"}}]}