{"type": "FeatureCollection", "features": [{"type": "Feature", "id": 6005, "geometry": {"type": "Point", "coordinates": [-73.2210562760903, 44.47100001573]}, "properties": {"OBJECTID": 6005, "npdes_pfid": "VT0100153002", "npdes_id": "VT0100153", "permitting_state": "VT", "agency_type_code": "ST6", "facility_uin": "110024908607", "facility_name": "BURLINGTON MAIN", "location_address": "53 LAVALLEY LANE", "supplemental_address_text": "", "facility_city": "BURLINGTON", "county_code": "VT007", "state_code": "VT", "epa_region_code": "01", "facility_type_code": "MWD", "facility_lat": 44.472691, "facility_lon": -73.219078, "permit_name": "City of Burlington", "version_nmbr": 0, "permit_type_code": "NPD", "effective_date": 1120176000000, "expiration_date": 1277856000000, "permit_status_code": "ADC", "facility_type_indicator": "POTW", "major_minor_status_flag": "M", "permit_tracking": "Y", "pt_start_date": 1120176000000, "dmr_tracking": "Y", "dmr_nr_start_date": 1120176000000, "permit_design_flow": null, "permit_avg_flow": null, "perm_feature_nmbr": "002", "perm_feature_text": "", "pf_lat": 44.471, "pf_lon": -73.221056, "pf_character": "TCS", "perm_feature_type_code": "EXO", "pf_state_waterbody_name": "LAKE CHAMPLAIN", "pf_state_auto_name": "Lake Champlain", "pf_reach_id": "4150408016276", "in_icis": "YES", "echo_dfr_link": "https://echo.epa.gov/detailed-facility-report?fid=110024908607", "name": "BURLINGTON MAIN", "feature_kind": "CSO outfall"}}, {"type": "Feature", "id": 6006, "geometry": {"type": "Point", "coordinates": [-73.2198893645362, 44.4720282386593]}, "properties": {"OBJECTID": 6006, "npdes_pfid": "VT0100153003", "npdes_id": "VT0100153", "permitting_state": "VT", "agency_type_code": "ST6", "facility_uin": "110024908607", "facility_name": "BURLINGTON MAIN", "location_address": "53 LAVALLEY LANE", "supplemental_address_text": "", "facility_city": "BURLINGTON", "county_code": "VT007", "state_code": "VT", "epa_region_code": "01", "facility_type_code": "MWD", "facility_lat": 44.472691, "facility_lon": -73.219078, "permit_name": "City of Burlington", "version_nmbr": 0, "permit_type_code": "NPD", "effective_date": 1120176000000, "expiration_date": 1277856000000, "permit_status_code": "ADC", "facility_type_indicator": "POTW", "major_minor_status_flag": "M", "permit_tracking": "Y", "pt_start_date": 1120176000000, "dmr_tracking": "Y", "dmr_nr_start_date": 1120176000000, "permit_design_flow": null, "permit_avg_flow": null, "perm_feature_nmbr": "003", "perm_feature_text": "", "pf_lat": 44.472028, "pf_lon": -73.219889, "pf_character": "CSO", "perm_feature_type_code": "EXO", "pf_state_waterbody_name": "Wetland contiguous with Winooski River", "pf_state_auto_name": "Lake Champlain", "pf_reach_id": "4150408016276", "in_icis": "YES", "echo_dfr_link": "https://echo.epa.gov/detailed-facility-report?fid=110024908607", "name": "BURLINGTON MAIN", "feature_kind": "CSO outfall"}}, {"type": "Feature", "id": 6007, "geometry": {"type": "Point", "coordinates": [-73.2198893645362, 44.4720282386593]}, "properties": {"OBJECTID": 6007, "npdes_pfid": "VT0100153004", "npdes_id": "VT0100153", "permitting_state": "VT", "agency_type_code": "ST6", "facility_uin": "110024908607", "facility_name": "BURLINGTON MAIN", "location_address": "53 LAVALLEY LANE", "supplemental_address_text": "", "facility_city": "BURLINGTON", "county_code": "VT007", "state_code": "VT", "epa_region_code": "01", "facility_type_code": "MWD", "facility_lat": 44.472691, "facility_lon": -73.219078, "permit_name": "City of Burlington", "version_nmbr": 0, "permit_type_code": "NPD", "effective_date": 1120176000000, "expiration_date": 1277856000000, "permit_status_code": "ADC", "facility_type_indicator": "POTW", "major_minor_status_flag": "M", "permit_tracking": "Y", "pt_start_date": 1120176000000, "dmr_tracking": "Y", "dmr_nr_start_date": 1120176000000, "permit_design_flow": null, "permit_avg_flow": null, "perm_feature_nmbr": "004", "perm_feature_text": "", "pf_lat": 44.472028, "pf_lon": -73.219889, "pf_character": "CSO", "perm_feature_type_code": "EXO", "pf_state_waterbody_name": "Wetland contiguous with Winooski River", "pf_state_auto_name": "Lake Champlain", "pf_reach_id": "4150408016276", "in_icis": "YES", "echo_dfr_link": "https://echo.epa.gov/detailed-facility-report?fid=110024908607", "name": "BURLINGTON MAIN", "feature_kind": "CSO outfall"}}, {"type": "Feature", "id": 6008, "geometry": {"type": "Point", "coordinates": [-73.1788327627908, 44.0194169958646]}, "properties": {"OBJECTID": 6008, "npdes_pfid": "VT0100188002", "npdes_id": "VT0100188", "permitting_state": "VT", "agency_type_code": "ST6", "facility_uin": "110006619999", "facility_name": "MIDDLEBURY", "location_address": "243 INDUSTRIAL AVE", "supplemental_address_text": "", "facility_city": "MIDDLEBURY", "county_code": "VT001", "state_code": "VT", "epa_region_code": "01", "facility_type_code": "MWD", "facility_lat": 44.04148, "facility_lon": -73.174235, "permit_name": "Town of Middlebury", "version_nmbr": 0, "permit_type_code": "NPD", "effective_date": 1227571200000, "expiration_date": 1380499200000, "permit_status_code": "ADC", "facility_type_indicator": "POTW", "major_minor_status_flag": "M", "permit_tracking": "Y", "pt_start_date": 1227571200000, "dmr_tracking": "Y", "dmr_nr_start_date": 1227571200000, "permit_design_flow": null, "permit_avg_flow": null, "perm_feature_nmbr": "002", "perm_feature_text": "", "pf_lat": 44.019417, "pf_lon": -73.178833, "pf_character": "CSO", "perm_feature_type_code": "EXO", "pf_state_waterbody_name": "Otter Creek", "pf_state_auto_name": "Otter Creek", "pf_reach_id": "4150402011123", "in_icis": "YES", "echo_dfr_link": "https://echo.epa.gov/detailed-facility-report?fid=110006619999", "name": "MIDDLEBURY", "feature_kind": "CSO outfall"}}, {"type": "Feature", "id": 6009, "geometry": {"type": "Point", "coordinates": [-73.1736665515919, 44.0153607334796]}, "properties": {"OBJECTID": 6009, "npdes_pfid": "VT0100188003", "npdes_id": "VT0100188", "permitting_state": "VT", "agency_type_code": "ST6", "facility_uin": "110006619999", "facility_name": "MIDDLEBURY", "location_address": "243 INDUSTRIAL AVE", "supplemental_address_text": "", "facility_city": "MIDDLEBURY", "county_code": "VT001", "state_code": "VT", "epa_region_code": "01", "facility_type_code": "MWD", "facility_lat": 44.04148, "facility_lon": -73.174235, "permit_name": "Town of Middlebury", "version_nmbr": 0, "permit_type_code": "NPD", "effective_date": 1227571200000, "expiration_date": 1380499200000, "permit_status_code": "ADC", "facility_type_indicator": "POTW", "major_minor_status_flag": "M", "permit_tracking": "Y", "pt_start_date": 1227571200000, "dmr_tracking": "Y", "dmr_nr_start_date": 1227571200000, "permit_design_flow": null, "permit_avg_flow": null, "perm_feature_nmbr": "003", "perm_feature_text": "", "pf_lat": 44.015361, "pf_lon": -73.173667, "pf_character": "CSO", "perm_feature_type_code": "EXO", "pf_state_waterbody_name": "Otter Creek", "pf_state_auto_name": "Otter Creek", "pf_reach_id": "4150402011123", "in_icis": "YES", "echo_dfr_link": "https://echo.epa.gov/detailed-facility-report?fid=110006619999", "name": "MIDDLEBURY", "feature_kind": "CSO outfall"}}, {"type": "Feature", "id": 6010, "geometry": {"type": "Point", "coordinates": [-73.1676110082616, 44.0130278854824]}, "properties": {"OBJECTID": 6010, "npdes_pfid": "VT0100188011", "npdes_id": "VT0100188", "permitting_state": "VT", "agency_type_code": "ST6", "facility_uin": "110006619999", "facility_name": "MIDDLEBURY", "location_address": "243 INDUSTRIAL AVE", "supplemental_address_text": "", "facility_city": "MIDDLEBURY", "county_code": "VT001", "state_code": "VT", "epa_region_code": "01", "facility_type_code": "MWD", "facility_lat": 44.04148, "facility_lon": -73.174235, "permit_name": "Town of Middlebury", "version_nmbr": 0, "permit_type_code": "NPD", "effective_date": 1227571200000, "expiration_date": 1380499200000, "permit_status_code": "ADC", "facility_type_indicator": "POTW", "major_minor_status_flag": "M", "permit_tracking": "Y", "pt_start_date": 1227571200000, "dmr_tracking": "Y", "dmr_nr_start_date": 1227571200000, "permit_design_flow": null, "permit_avg_flow": null, "perm_feature_nmbr": "011", "perm_feature_text": "", "pf_lat": 44.013028, "pf_lon": -73.167611, "pf_character": "CSO", "perm_feature_type_code": "EXO", "pf_state_waterbody_name": "Otter Creek", "pf_state_auto_name": "Otter Creek", "pf_reach_id": "4150402011123", "in_icis": "YES", "echo_dfr_link": "https://echo.epa.gov/detailed-facility-report?fid=110006619999", "name": "MIDDLEBURY", "feature_kind": "CSO outfall"}}, {"type": "Feature", "id": 6011, "geometry": {"type": "Point", "coordinates": [-73.1752224336639, 44.0171669963889]}, "properties": {"OBJECTID": 6011, "npdes_pfid": "VT0100188013", "npdes_id": "VT0100188", "permitting_state": "VT", "agency_type_code": "ST6", "facility_uin": "110006619999", "facility_name": "MIDDLEBURY", "location_address": "243 INDUSTRIAL AVE", "supplemental_address_text": "", "facility_city": "MIDDLEBURY", "county_code": "VT001", "state_code": "VT", "epa_region_code": "01", "facility_type_code": "MWD", "facility_lat": 44.04148, "facility_lon": -73.174235, "permit_name": "Town of Middlebury", "version_nmbr": 0, "permit_type_code": "NPD", "effective_date": 1227571200000, "expiration_date": 1380499200000, "permit_status_code": "ADC", "facility_type_indicator": "POTW", "major_minor_status_flag": "M", "permit_tracking": "Y", "pt_start_date": 1227571200000, "dmr_tracking": "Y", "dmr_nr_start_date": 1227571200000, "permit_design_flow": null, "permit_avg_flow": null, "perm_feature_nmbr": "013", "perm_feature_text": "", "pf_lat": 44.017167, "pf_lon": -73.175222, "pf_character": "CSO", "perm_feature_type_code": "EXO", "pf_state_waterbody_name": "Otter Creek", "pf_state_auto_name": "Otter Creek", "pf_reach_id": "4150402011123", "in_icis": "YES", "echo_dfr_link": "https://echo.epa.gov/detailed-facility-report?fid=110006619999", "name": "MIDDLEBURY", "feature_kind": "CSO outfall"}}, {"type": "Feature", "id": 6012, "geometry": {"type": "Point", "coordinates": [-72.6003060417192, 44.2549440454405]}, "properties": {"OBJECTID": 6012, "npdes_pfid": "VT0100196003", "npdes_id": "VT0100196", "permitting_state": "VT", "agency_type_code": "ST6", "facility_uin": "110000547374", "facility_name": "MONTPELIER WASTEWATER TREATMENT FACILITY", "location_address": "949 DOG RIVER ROAD", "supplemental_address_text": "", "facility_city": "MONTPELIER", "county_code": "VT023", "state_code": "VT", "epa_region_code": "01", "facility_type_code": "MWD", "facility_lat": 44.254621, "facility_lon": -72.60036, "permit_name": "City of Montpelier", "version_nmbr": 0, "permit_type_code": "NPD", "effective_date": 1506816000000, "expiration_date": 1664496000000, "permit_status_code": "ADC", "facility_type_indicator": "POTW", "major_minor_status_flag": "M", "permit_tracking": "Y", "pt_start_date": 1506816000000, "dmr_tracking": "Y", "dmr_nr_start_date": 1506816000000, "permit_design_flow": null, "permit_avg_flow": null, "perm_feature_nmbr": "003", "perm_feature_text": "", "pf_lat": 44.254944, "pf_lon": -72.600306, "pf_character": "CSO", "perm_feature_type_code": "EXO", "pf_state_waterbody_name": "WINOOSKI RIVER", "pf_state_auto_name": "Dog River", "pf_reach_id": "4150403008675", "in_icis": "YES", "echo_dfr_link": "https://echo.epa.gov/detailed-facility-report?fid=110000547374", "name": "MONTPELIER WASTEWATER TREATMENT FACILITY", "feature_kind": "CSO outfall"}}, {"type": "Feature", "id": 6013, "geometry": {"type": "Point", "coordinates": [-72.6003060417192, 44.2549440454405]}, "properties": {"OBJECTID": 6013, "npdes_pfid": "VT0100196005", "npdes_id": "VT0100196", "permitting_state": "VT", "agency_type_code": "ST6", "facility_uin": "110000547374", "facility_name": "MONTPELIER WASTEWATER TREATMENT FACILITY", "location_address": "949 DOG RIVER ROAD", "supplemental_address_text": "", "facility_city": "MONTPELIER", "county_code": "VT023", "state_code": "VT", "epa_region_code": "01", "facility_type_code": "MWD", "facility_lat": 44.254621, "facility_lon": -72.60036, "permit_name": "City of Montpelier", "version_nmbr": 0, "permit_type_code": "NPD", "effective_date": 1506816000000, "expiration_date": 1664496000000, "permit_status_code": "ADC", "facility_type_indicator": "POTW", "major_minor_status_flag": "M", "permit_tracking": "Y", "pt_start_date": 1506816000000, "dmr_tracking": "Y", "dmr_nr_start_date": 1506816000000, "permit_design_flow": null, "permit_avg_flow": null, "perm_feature_nmbr": "005", "perm_feature_text": "", "pf_lat": 44.254944, "pf_lon": -72.600306, "pf_character": "CSO", "perm_feature_type_code": "EXO", "pf_state_waterbody_name": "WINOOSKI RIVER", "pf_state_auto_name": "Dog River", "pf_reach_id": "4150403008675", "in_icis": "YES", "echo_dfr_link": "https://echo.epa.gov/detailed-facility-report?fid=110000547374", "name": "MONTPELIER WASTEWATER TREATMENT FACILITY", "feature_kind": "CSO outfall"}}, {"type": "Feature", "id": 6014, "geometry": {"type": "Point", "coordinates": [-72.6003060417192, 44.2549440454405]}, "properties": {"OBJECTID": 6014, "npdes_pfid": "VT0100196006", "npdes_id": "VT0100196", "permitting_state": "VT", "agency_type_code": "ST6", "facility_uin": "110000547374", "facility_name": "MONTPELIER WASTEWATER TREATMENT FACILITY", "location_address": "949 DOG RIVER ROAD", "supplemental_address_text": "", "facility_city": "MONTPELIER", "county_code": "VT023", "state_code": "VT", "epa_region_code": "01", "facility_type_code": "MWD", "facility_lat": 44.254621, "facility_lon": -72.60036, "permit_name": "City of Montpelier", "version_nmbr": 0, "permit_type_code": "NPD", "effective_date": 1506816000000, "expiration_date": 1664496000000, "permit_status_code": "ADC", "facility_type_indicator": "POTW", "major_minor_status_flag": "M", "permit_tracking": "Y", "pt_start_date": 1506816000000, "dmr_tracking": "Y", "dmr_nr_start_date": 1506816000000, "permit_design_flow": null, "permit_avg_flow": null, "perm_feature_nmbr": "006", "perm_feature_text": "", "pf_lat": 44.254944, "pf_lon": -72.600306, "pf_character": "CSO", "perm_feature_type_code": "EXO", "pf_state_waterbody_name": "WINOOSKI RIVER", "pf_state_auto_name": "Dog River", "pf_reach_id": "4150403008675", "in_icis": "YES", "echo_dfr_link": "https://echo.epa.gov/detailed-facility-report?fid=110000547374", "name": "MONTPELIER WASTEWATER TREATMENT FACILITY", "feature_kind": "CSO outfall"}}, {"type": "Feature", "id": 6015, "geometry": {"type": "Point", "coordinates": [-72.6003060417192, 44.2549440454405]}, "properties": {"OBJECTID": 6015, "npdes_pfid": "VT0100196010", "npdes_id": "VT0100196", "permitting_state": "VT", "agency_type_code": "ST6", "facility_uin": "110000547374", "facility_name": "MONTPELIER WASTEWATER TREATMENT FACILITY", "location_address": "949 DOG RIVER ROAD", "supplemental_address_text": "", "facility_city": "MONTPELIER", "county_code": "VT023", "state_code": "VT", "epa_region_code": "01", "facility_type_code": "MWD", "facility_lat": 44.254621, "facility_lon": -72.60036, "permit_name": "City of Montpelier", "version_nmbr": 0, "permit_type_code": "NPD", "effective_date": 1506816000000, "expiration_date": 1664496000000, "permit_status_code": "ADC", "facility_type_indicator": "POTW", "major_minor_status_flag": "M", "permit_tracking": "Y", "pt_start_date": 1506816000000, "dmr_tracking": "Y", "dmr_nr_start_date": 1506816000000, "permit_design_flow": null, "permit_avg_flow": null, "perm_feature_nmbr": "010", "perm_feature_text": "", "pf_lat": 44.254944, "pf_lon": -72.600306, "pf_character": "CSO", "perm_feature_type_code": "EXO", "pf_state_waterbody_name": "North Branch River", "pf_state_auto_name": "Dog River", "pf_reach_id": "4150403008675", "in_icis": "YES", "echo_dfr_link": "https://echo.epa.gov/detailed-facility-report?fid=110000547374", "name": "MONTPELIER WASTEWATER TREATMENT FACILITY", "feature_kind": "CSO outfall"}}, {"type": "Feature", "id": 6016, "geometry": {"type": "Point", "coordinates": [-72.6003060417192, 44.2549440454405]}, "properties": {"OBJECTID": 6016, "npdes_pfid": "VT0100196011", "npdes_id": "VT0100196", "permitting_state": "VT", "agency_type_code": "ST6", "facility_uin": "110000547374", "facility_name": "MONTPELIER WASTEWATER TREATMENT FACILITY", "location_address": "949 DOG RIVER ROAD", "supplemental_address_text": "", "facility_city": "MONTPELIER", "county_code": "VT023", "state_code": "VT", "epa_region_code": "01", "facility_type_code": "MWD", "facility_lat": 44.254621, "facility_lon": -72.60036, "permit_name": "City of Montpelier", "version_nmbr": 0, "permit_type_code": "NPD", "effective_date": 1506816000000, "expiration_date": 1664496000000, "permit_status_code": "ADC", "facility_type_indicator": "POTW", "major_minor_status_flag": "M", "permit_tracking": "Y", "pt_start_date": 1506816000000, "dmr_tracking": "Y", "dmr_nr_start_date": 1506816000000, "permit_design_flow": null, "permit_avg_flow": null, "perm_feature_nmbr": "011", "perm_feature_text": "", "pf_lat": 44.254944, "pf_lon": -72.600306, "pf_character": "CSO", "perm_feature_type_code": "EXO", "pf_state_waterbody_name": "North Branch River", "pf_state_auto_name": "Dog River", "pf_reach_id": "4150403008675", "in_icis": "YES", "echo_dfr_link": "https://echo.epa.gov/detailed-facility-report?fid=110000547374", "name": "MONTPELIER WASTEWATER TREATMENT FACILITY", "feature_kind": "CSO outfall"}}, {"type": "Feature", "id": 6017, "geometry": {"type": "Point", "coordinates": [-72.6003060417192, 44.2549440454405]}, "properties": {"OBJECTID": 6017, "npdes_pfid": "VT0100196012", "npdes_id": "VT0100196", "permitting_state": "VT", "agency_type_code": "ST6", "facility_uin": "110000547374", "facility_name": "MONTPELIER WASTEWATER TREATMENT FACILITY", "location_address": "949 DOG RIVER ROAD", "supplemental_address_text": "", "facility_city": "MONTPELIER", "county_code": "VT023", "state_code": "VT", "epa_region_code": "01", "facility_type_code": "MWD", "facility_lat": 44.254621, "facility_lon": -72.60036, "permit_name": "City of Montpelier", "version_nmbr": 0, "permit_type_code": "NPD", "effective_date": 1506816000000, "expiration_date": 1664496000000, "permit_status_code": "ADC", "facility_type_indicator": "POTW", "major_minor_status_flag": "M", "permit_tracking": "Y", "pt_start_date": 1506816000000, "dmr_tracking": "Y", "dmr_nr_start_date": 1506816000000, "permit_design_flow": null, "permit_avg_flow": null, "perm_feature_nmbr": "012", "perm_feature_text": "", "pf_lat": 44.254944, "pf_lon": -72.600306, "pf_character": "CSO", "perm_feature_type_code": "EXO", "pf_state_waterbody_name": "WINOOSKI RIVER", "pf_state_auto_name": "Dog River", "pf_reach_id": "4150403008675", "in_icis": "YES", "echo_dfr_link": "https://echo.epa.gov/detailed-facility-report?fid=110000547374", "name": "MONTPELIER WASTEWATER TREATMENT FACILITY", "feature_kind": "CSO outfall"}}, {"type": "Feature", "id": 6018, "geometry": {"type": "Point", "coordinates": [-72.6003060417192, 44.2549440454405]}, "properties": {"OBJECTID": 6018, "npdes_pfid": "VT0100196013", "npdes_id": "VT0100196", "permitting_state": "VT", "agency_type_code": "ST6", "facility_uin": "110000547374", "facility_name": "MONTPELIER WASTEWATER TREATMENT FACILITY", "location_address": "949 DOG RIVER ROAD", "supplemental_address_text": "", "facility_city": "MONTPELIER", "county_code": "VT023", "state_code": "VT", "epa_region_code": "01", "facility_type_code": "MWD", "facility_lat": 44.254621, "facility_lon": -72.60036, "permit_name": "City of Montpelier", "version_nmbr": 0, "permit_type_code": "NPD", "effective_date": 1506816000000, "expiration_date": 1664496000000, "permit_status_code": "ADC", "facility_type_indicator": "POTW", "major_minor_status_flag": "M", "permit_tracking": "Y", "pt_start_date": 1506816000000, "dmr_tracking": "Y", "dmr_nr_start_date": 1506816000000, "permit_design_flow": null, "permit_avg_flow": null, "perm_feature_nmbr": "013", "perm_feature_text": "", "pf_lat": 44.254944, "pf_lon": -72.600306, "pf_character": "CSO", "perm_feature_type_code": "EXO", "pf_state_waterbody_name": "North Branch River", "pf_state_auto_name": "Dog River", "pf_reach_id": "4150403008675", "in_icis": "YES", "echo_dfr_link": "https://echo.epa.gov/detailed-facility-report?fid=110000547374", "name": "MONTPELIER WASTEWATER TREATMENT FACILITY", "feature_kind": "CSO outfall"}}, {"type": "Feature", "id": 6019, "geometry": {"type": "Point", "coordinates": [-72.6003060417192, 44.2549440454405]}, "properties": {"OBJECTID": 6019, "npdes_pfid": "VT0100196015", "npdes_id": "VT0100196", "permitting_state": "VT", "agency_type_code": "ST6", "facility_uin": "110000547374", "facility_name": "MONTPELIER WASTEWATER TREATMENT FACILITY", "location_address": "949 DOG RIVER ROAD", "supplemental_address_text": "", "facility_city": "MONTPELIER", "county_code": "VT023", "state_code": "VT", "epa_region_code": "01", "facility_type_code": "MWD", "facility_lat": 44.254621, "facility_lon": -72.60036, "permit_name": "City of Montpelier", "version_nmbr": 0, "permit_type_code": "NPD", "effective_date": 1506816000000, "expiration_date": 1664496000000, "permit_status_code": "ADC", "facility_type_indicator": "POTW", "major_minor_status_flag": "M", "permit_tracking": "Y", "pt_start_date": 1506816000000, "dmr_tracking": "Y", "dmr_nr_start_date": 1506816000000, "permit_design_flow": null, "permit_avg_flow": null, "perm_feature_nmbr": "015", "perm_feature_text": "", "pf_lat": 44.254944, "pf_lon": -72.600306, "pf_character": "CSO", "perm_feature_type_code": "EXO", "pf_state_waterbody_name": "WINOOSKI RIVER", "pf_state_auto_name": "Dog River", "pf_reach_id": "4150403008675", "in_icis": "YES", "echo_dfr_link": "https://echo.epa.gov/detailed-facility-report?fid=110000547374", "name": "MONTPELIER WASTEWATER TREATMENT FACILITY", "feature_kind": "CSO outfall"}}, {"type": "Feature", "id": 6020, "geometry": {"type": "Point", "coordinates": [-72.6003060417192, 44.2549440454405]}, "properties": {"OBJECTID": 6020, "npdes_pfid": "VT0100196016", "npdes_id": "VT0100196", "permitting_state": "VT", "agency_type_code": "ST6", "facility_uin": "110000547374", "facility_name": "MONTPELIER WASTEWATER TREATMENT FACILITY", "location_address": "949 DOG RIVER ROAD", "supplemental_address_text": "", "facility_city": "MONTPELIER", "county_code": "VT023", "state_code": "VT", "epa_region_code": "01", "facility_type_code": "MWD", "facility_lat": 44.254621, "facility_lon": -72.60036, "permit_name": "City of Montpelier", "version_nmbr": 0, "permit_type_code": "NPD", "effective_date": 1506816000000, "expiration_date": 1664496000000, "permit_status_code": "ADC", "facility_type_indicator": "POTW", "major_minor_status_flag": "M", "permit_tracking": "Y", "pt_start_date": 1506816000000, "dmr_tracking": "Y", "dmr_nr_start_date": 1506816000000, "permit_design_flow": null, "permit_avg_flow": null, "perm_feature_nmbr": "016", "perm_feature_text": "", "pf_lat": 44.254944, "pf_lon": -72.600306, "pf_character": "CSO", "perm_feature_type_code": "EXO", "pf_state_waterbody_name": "WINOOSKI RIVER", "pf_state_auto_name": "Dog River", "pf_reach_id": "4150403008675", "in_icis": "YES", "echo_dfr_link": "https://echo.epa.gov/detailed-facility-report?fid=110000547374", "name": "MONTPELIER WASTEWATER TREATMENT FACILITY", "feature_kind": "CSO outfall"}}, {"type": "Feature", "id": 6021, "geometry": {"type": "Point", "coordinates": [-72.197944337755, 44.940917204181]}, "properties": {"OBJECTID": 6021, "npdes_pfid": "VT0100200002", "npdes_id": "VT0100200", "permitting_state": "VT", "agency_type_code": "ST6", "facility_uin": "110000713595", "facility_name": "NEWPORT CITY", "location_address": "94 TREATMENT PLANT LANE", "supplemental_address_text": "", "facility_city": "NEWPORT", "county_code": "VT019", "state_code": "VT", "epa_region_code": "01", "facility_type_code": "MWD", "facility_lat": 44.939408, "facility_lon": -72.200067, "permit_name": "City of Newport", "version_nmbr": 0, "permit_type_code": "NPD", "effective_date": 1094083200000, "expiration_date": 1246320000000, "permit_status_code": "ADC", "facility_type_indicator": "POTW", "major_minor_status_flag": "M", "permit_tracking": "Y", "pt_start_date": 1094083200000, "dmr_tracking": "Y", "dmr_nr_start_date": 1094083200000, "permit_design_flow": null, "permit_avg_flow": null, "perm_feature_nmbr": "002", "perm_feature_text": "", "pf_lat": 44.940917, "pf_lon": -72.197944, "pf_character": "CSO", "perm_feature_type_code": "EXO", "pf_state_waterbody_name": "Clyde River", "pf_state_auto_name": "Clyde River", "pf_reach_id": "4150500006584", "in_icis": "YES", "echo_dfr_link": "https://echo.epa.gov/detailed-facility-report?fid=110000713595", "name": "NEWPORT CITY", "feature_kind": "CSO outfall"}}, {"type": "Feature", "id": 6022, "geometry": {"type": "Point", "coordinates": [-72.1895001740843, 44.9400562439524]}, "properties": {"OBJECTID": 6022, "npdes_pfid": "VT0100200004", "npdes_id": "VT0100200", "permitting_state": "VT", "agency_type_code": "ST6", "facility_uin": "110000713595", "facility_name": "NEWPORT CITY", "location_address": "94 TREATMENT PLANT LANE", "supplemental_address_text": "", "facility_city": "NEWPORT", "county_code": "VT019", "state_code": "VT", "epa_region_code": "01", "facility_type_code": "MWD", "facility_lat": 44.939408, "facility_lon": -72.200067, "permit_name": "City of Newport", "version_nmbr": 0, "permit_type_code": "NPD", "effective_date": 1094083200000, "expiration_date": 1246320000000, "permit_status_code": "ADC", "facility_type_indicator": "POTW", "major_minor_status_flag": "M", "permit_tracking": "Y", "pt_start_date": 1094083200000, "dmr_tracking": "Y", "dmr_nr_start_date": 1094083200000, "permit_design_flow": null, "permit_avg_flow": null, "perm_feature_nmbr": "004", "perm_feature_text": "", "pf_lat": 44.940056, "pf_lon": -72.1895, "pf_character": "CSO", "perm_feature_type_code": "EXO", "pf_state_waterbody_name": "Clyde River", "pf_state_auto_name": "Clyde River", "pf_reach_id": "4150500006584", "in_icis": "YES", "echo_dfr_link": "https://echo.epa.gov/detailed-facility-report?fid=110000713595", "name": "NEWPORT CITY", "feature_kind": "CSO outfall"}}, {"type": "Feature", "id": 6023, "geometry": {"type": "Point", "coordinates": [-72.202471846787, 44.93736073181]}, "properties": {"OBJECTID": 6023, "npdes_pfid": "VT0100200005", "npdes_id": "VT0100200", "permitting_state": "VT", "agency_type_code": "ST6", "facility_uin": "110000713595", "facility_name": "NEWPORT CITY", "location_address": "94 TREATMENT PLANT LANE", "supplemental_address_text": "", "facility_city": "NEWPORT", "county_code": "VT019", "state_code": "VT", "epa_region_code": "01", "facility_type_code": "MWD", "facility_lat": 44.939408, "facility_lon": -72.200067, "permit_name": "City of Newport", "version_nmbr": 0, "permit_type_code": "NPD", "effective_date": 1094083200000, "expiration_date": 1246320000000, "permit_status_code": "ADC", "facility_type_indicator": "POTW", "major_minor_status_flag": "M", "permit_tracking": "Y", "pt_start_date": 1094083200000, "dmr_tracking": "Y", "dmr_nr_start_date": 1094083200000, "permit_design_flow": null, "permit_avg_flow": null, "perm_feature_nmbr": "005", "perm_feature_text": "", "pf_lat": 44.937361, "pf_lon": -72.202472, "pf_character": "CSO", "perm_feature_type_code": "EXO", "pf_state_waterbody_name": "Upper South Bay", "pf_state_auto_name": "Lake Memphremagog", "pf_reach_id": "4150500006816", "in_icis": "YES", "echo_dfr_link": "https://echo.epa.gov/detailed-facility-report?fid=110000713595", "name": "NEWPORT CITY", "feature_kind": "CSO outfall"}}, {"type": "Feature", "id": 6024, "geometry": {"type": "Point", "coordinates": [-72.2167784160019, 44.9340278889883]}, "properties": {"OBJECTID": 6024, "npdes_pfid": "VT0100200006", "npdes_id": "VT0100200", "permitting_state": "VT", "agency_type_code": "ST6", "facility_uin": "110000713595", "facility_name": "NEWPORT CITY", "location_address": "94 TREATMENT PLANT LANE", "supplemental_address_text": "", "facility_city": "NEWPORT", "county_code": "VT019", "state_code": "VT", "epa_region_code": "01", "facility_type_code": "MWD", "facility_lat": 44.939408, "facility_lon": -72.200067, "permit_name": "City of Newport", "version_nmbr": 0, "permit_type_code": "NPD", "effective_date": 1094083200000, "expiration_date": 1246320000000, "permit_status_code": "ADC", "facility_type_indicator": "POTW", "major_minor_status_flag": "M", "permit_tracking": "Y", "pt_start_date": 1094083200000, "dmr_tracking": "Y", "dmr_nr_start_date": 1094083200000, "permit_design_flow": null, "permit_avg_flow": null, "perm_feature_nmbr": "006", "perm_feature_text": "", "pf_lat": 44.934028, "pf_lon": -72.216778, "pf_character": "CSO", "perm_feature_type_code": "EXO", "pf_state_waterbody_name": "Upper South Bay", "pf_state_auto_name": "Lake Memphremagog", "pf_reach_id": "4150500006817", "in_icis": "YES", "echo_dfr_link": "https://echo.epa.gov/detailed-facility-report?fid=110000713595", "name": "NEWPORT CITY", "feature_kind": "CSO outfall"}}, {"type": "Feature", "id": 6025, "geometry": {"type": "Point", "coordinates": [-72.2116391542614, 44.9370281557252]}, "properties": {"OBJECTID": 6025, "npdes_pfid": "VT0100200010", "npdes_id": "VT0100200", "permitting_state": "VT", "agency_type_code": "ST6", "facility_uin": "110000713595", "facility_name": "NEWPORT CITY", "location_address": "94 TREATMENT PLANT LANE", "supplemental_address_text": "", "facility_city": "NEWPORT", "county_code": "VT019", "state_code": "VT", "epa_region_code": "01", "facility_type_code": "MWD", "facility_lat": 44.939408, "facility_lon": -72.200067, "permit_name": "City of Newport", "version_nmbr": 0, "permit_type_code": "NPD", "effective_date": 1094083200000, "expiration_date": 1246320000000, "permit_status_code": "ADC", "facility_type_indicator": "POTW", "major_minor_status_flag": "M", "permit_tracking": "Y", "pt_start_date": 1094083200000, "dmr_tracking": "Y", "dmr_nr_start_date": 1094083200000, "permit_design_flow": null, "permit_avg_flow": null, "perm_feature_nmbr": "010", "perm_feature_text": "", "pf_lat": 44.937028, "pf_lon": -72.211639, "pf_character": "CSO", "perm_feature_type_code": "EXO", "pf_state_waterbody_name": "Lake Memphremagog", "pf_state_auto_name": "Lake Memphremagog", "pf_reach_id": "4150500006817", "in_icis": "YES", "echo_dfr_link": "https://echo.epa.gov/detailed-facility-report?fid=110000713595", "name": "NEWPORT CITY", "feature_kind": "CSO outfall"}}, {"type": "Feature", "id": 6026, "geometry": {"type": "Point", "coordinates": [-72.1960830284863, 44.9519718289948]}, "properties": {"OBJECTID": 6026, "npdes_pfid": "VT0100200013", "npdes_id": "VT0100200", "permitting_state": "VT", "agency_type_code": "ST6", "facility_uin": "110000713595", "facility_name": "NEWPORT CITY", "location_address": "94 TREATMENT PLANT LANE", "supplemental_address_text": "", "facility_city": "NEWPORT", "county_code": "VT019", "state_code": "VT", "epa_region_code": "01", "facility_type_code": "MWD", "facility_lat": 44.939408, "facility_lon": -72.200067, "permit_name": "City of Newport", "version_nmbr": 0, "permit_type_code": "NPD", "effective_date": 1094083200000, "expiration_date": 1246320000000, "permit_status_code": "ADC", "facility_type_indicator": "POTW", "major_minor_status_flag": "M", "permit_tracking": "Y", "pt_start_date": 1094083200000, "dmr_tracking": "Y", "dmr_nr_start_date": 1094083200000, "permit_design_flow": null, "permit_avg_flow": null, "perm_feature_nmbr": "013", "perm_feature_text": "", "pf_lat": 44.951972, "pf_lon": -72.196083, "pf_character": "CSO", "perm_feature_type_code": "EXO", "pf_state_waterbody_name": "Lake Memphremagog", "pf_state_auto_name": "Lake Memphremagog", "pf_reach_id": "4150500006819", "in_icis": "YES", "echo_dfr_link": "https://echo.epa.gov/detailed-facility-report?fid=110000713595", "name": "NEWPORT CITY", "feature_kind": "CSO outfall"}}, {"type": "Feature", "id": 6027, "geometry": {"type": "Point", "coordinates": [-73.2684998995058, 44.528471910539]}, "properties": {"OBJECTID": 6027, "npdes_pfid": "VT0100226002", "npdes_id": "VT0100226", "permitting_state": "VT", "agency_type_code": "ST6", "facility_uin": "110020045217", "facility_name": "BURLINGTON NORTH", "location_address": "3000 NORTH AVENUE", "supplemental_address_text": "", "facility_city": "BURLINGTON", "county_code": "VT007", "state_code": "VT", "epa_region_code": "01", "facility_type_code": "MWD", "facility_lat": 44.527927, "facility_lon": -73.268766, "permit_name": "City of Burlington", "version_nmbr": 0, "permit_type_code": "NPD", "effective_date": 1096588800000, "expiration_date": 1254268800000, "permit_status_code": "ADC", "facility_type_indicator": "POTW", "major_minor_status_flag": "M", "permit_tracking": "Y", "pt_start_date": 1096588800000, "dmr_tracking": "Y", "dmr_nr_start_date": 1096588800000, "permit_design_flow": null, "permit_avg_flow": null, "perm_feature_nmbr": "002", "perm_feature_text": "", "pf_lat": 44.528472, "pf_lon": -73.2685, "pf_character": "CSO", "perm_feature_type_code": "EXO", "pf_state_waterbody_name": "WINOOSKI RIVER", "pf_state_auto_name": "Winooski River", "pf_reach_id": "4150403008628", "in_icis": "YES", "echo_dfr_link": "https://echo.epa.gov/detailed-facility-report?fid=110020045217", "name": "BURLINGTON NORTH", "feature_kind": "CSO outfall"}}, {"type": "Feature", "id": 6028, "geometry": {"type": "Point", "coordinates": [-72.6548607289237, 44.1489722567169]}, "properties": {"OBJECTID": 6028, "npdes_pfid": "VT0100242002", "npdes_id": "VT0100242", "permitting_state": "VT", "agency_type_code": "ST6", "facility_uin": "110022525588", "facility_name": "NORTHFIELD", "location_address": "242 DOG RIVER RD", "supplemental_address_text": "", "facility_city": "NORTHFIELD", "county_code": "VT023", "state_code": "VT", "epa_region_code": "01", "facility_type_code": "MWD", "facility_lat": 44.16312, "facility_lon": -72.657191, "permit_name": "Village of Northfield", "version_nmbr": 0, "permit_type_code": "NPD", "effective_date": 1606780800000, "expiration_date": 1759190400000, "permit_status_code": "EXP", "facility_type_indicator": "POTW", "major_minor_status_flag": "M", "permit_tracking": "Y", "pt_start_date": 1606780800000, "dmr_tracking": "Y", "dmr_nr_start_date": 1606780800000, "permit_design_flow": null, "permit_avg_flow": null, "perm_feature_nmbr": "002", "perm_feature_text": "", "pf_lat": 44.148972, "pf_lon": -72.654861, "pf_character": "CSO", "perm_feature_type_code": "EXO", "pf_state_waterbody_name": "Dog River", "pf_state_auto_name": "Dog River", "pf_reach_id": "4150403008677", "in_icis": "YES", "echo_dfr_link": "https://echo.epa.gov/detailed-facility-report?fid=110022525588", "name": "NORTHFIELD", "feature_kind": "CSO outfall"}}, {"type": "Feature", "id": 6029, "geometry": {"type": "Point", "coordinates": [-72.4691394338237, 43.2797221967753]}, "properties": {"OBJECTID": 6029, "npdes_pfid": "VT0100374020", "npdes_id": "VT0100374", "permitting_state": "VT", "agency_type_code": "ST6", "facility_uin": "110002052064", "facility_name": "SPRINGFIELD", "location_address": "325 CLINTON ST", "supplemental_address_text": "", "facility_city": "SPRINGFIELD", "county_code": "VT027", "state_code": "VT", "epa_region_code": "01", "facility_type_code": "MWD", "facility_lat": 43.27919, "facility_lon": -72.46746, "permit_name": "Town of Springfield", "version_nmbr": 0, "permit_type_code": "NPD", "effective_date": 1446336000000, "expiration_date": 1601424000000, "permit_status_code": "ADC", "facility_type_indicator": "POTW", "major_minor_status_flag": "M", "permit_tracking": "Y", "pt_start_date": 1446336000000, "dmr_tracking": "Y", "dmr_nr_start_date": 1446336000000, "permit_design_flow": null, "permit_avg_flow": null, "perm_feature_nmbr": "020", "perm_feature_text": "", "pf_lat": 43.279722, "pf_lon": -72.469139, "pf_character": "CSO", "perm_feature_type_code": "EXO", "pf_state_waterbody_name": "BLACK RIVER", "pf_state_auto_name": "Seavers Brook", "pf_reach_id": "1080106000471", "in_icis": "YES", "echo_dfr_link": "https://echo.epa.gov/detailed-facility-report?fid=110002052064", "name": "SPRINGFIELD", "feature_kind": "CSO outfall"}}, {"type": "Feature", "id": 6030, "geometry": {"type": "Point", "coordinates": [-72.0140277580608, 44.4140002083256]}, "properties": {"OBJECTID": 6030, "npdes_pfid": "VT0100579006", "npdes_id": "VT0100579", "permitting_state": "VT", "agency_type_code": "ST6", "facility_uin": "110010911102", "facility_name": "ST JOHNSBURY", "location_address": "799 BAY ST", "supplemental_address_text": "", "facility_city": "ST JOHNSBURY", "county_code": "VT005", "state_code": "VT", "epa_region_code": "01", "facility_type_code": "MWD", "facility_lat": 44.410639, "facility_lon": -72.016572, "permit_name": "Town of St Johnsbury", "version_nmbr": 0, "permit_type_code": "NPD", "effective_date": 1522540800000, "expiration_date": 1680220800000, "permit_status_code": "EXP", "facility_type_indicator": "POTW", "major_minor_status_flag": "M", "permit_tracking": "Y", "pt_start_date": 1522540800000, "dmr_tracking": "Y", "dmr_nr_start_date": 1522540800000, "permit_design_flow": null, "permit_avg_flow": null, "perm_feature_nmbr": "006", "perm_feature_text": "", "pf_lat": 44.414, "pf_lon": -72.014028, "pf_character": "CSO", "perm_feature_type_code": "EXO", "pf_state_waterbody_name": "Passumpsic River", "pf_state_auto_name": "Passumpsic River", "pf_reach_id": "1080102000004", "in_icis": "YES", "echo_dfr_link": "https://echo.epa.gov/detailed-facility-report?fid=110010911102", "name": "ST JOHNSBURY", "feature_kind": "CSO outfall"}}, {"type": "Feature", "id": 6031, "geometry": {"type": "Point", "coordinates": [-72.0125563176254, 44.4197216831352]}, "properties": {"OBJECTID": 6031, "npdes_pfid": "VT0100579007", "npdes_id": "VT0100579", "permitting_state": "VT", "agency_type_code": "ST6", "facility_uin": "110010911102", "facility_name": "ST JOHNSBURY", "location_address": "799 BAY ST", "supplemental_address_text": "", "facility_city": "ST JOHNSBURY", "county_code": "VT005", "state_code": "VT", "epa_region_code": "01", "facility_type_code": "MWD", "facility_lat": 44.410639, "facility_lon": -72.016572, "permit_name": "Town of St Johnsbury", "version_nmbr": 0, "permit_type_code": "NPD", "effective_date": 1522540800000, "expiration_date": 1680220800000, "permit_status_code": "EXP", "facility_type_indicator": "POTW", "major_minor_status_flag": "M", "permit_tracking": "Y", "pt_start_date": 1522540800000, "dmr_tracking": "Y", "dmr_nr_start_date": 1522540800000, "permit_design_flow": null, "permit_avg_flow": null, "perm_feature_nmbr": "007", "perm_feature_text": "", "pf_lat": 44.419722, "pf_lon": -72.012556, "pf_character": "CSO", "perm_feature_type_code": "EXO", "pf_state_waterbody_name": "Passumpsic River", "pf_state_auto_name": "Passumpsic River", "pf_reach_id": "1080102000004", "in_icis": "YES", "echo_dfr_link": "https://echo.epa.gov/detailed-facility-report?fid=110010911102", "name": "ST JOHNSBURY", "feature_kind": "CSO outfall"}}, {"type": "Feature", "id": 6032, "geometry": {"type": "Point", "coordinates": [-72.01336120812, 44.4172219352609]}, "properties": {"OBJECTID": 6032, "npdes_pfid": "VT0100579008", "npdes_id": "VT0100579", "permitting_state": "VT", "agency_type_code": "ST6", "facility_uin": "110010911102", "facility_name": "ST JOHNSBURY", "location_address": "799 BAY ST", "supplemental_address_text": "", "facility_city": "ST JOHNSBURY", "county_code": "VT005", "state_code": "VT", "epa_region_code": "01", "facility_type_code": "MWD", "facility_lat": 44.410639, "facility_lon": -72.016572, "permit_name": "Town of St Johnsbury", "version_nmbr": 0, "permit_type_code": "NPD", "effective_date": 1522540800000, "expiration_date": 1680220800000, "permit_status_code": "EXP", "facility_type_indicator": "POTW", "major_minor_status_flag": "M", "permit_tracking": "Y", "pt_start_date": 1522540800000, "dmr_tracking": "Y", "dmr_nr_start_date": 1522540800000, "permit_design_flow": null, "permit_avg_flow": null, "perm_feature_nmbr": "008", "perm_feature_text": "", "pf_lat": 44.417222, "pf_lon": -72.013361, "pf_character": "CSO", "perm_feature_type_code": "EXO", "pf_state_waterbody_name": "Passumpsic River", "pf_state_auto_name": "Passumpsic River", "pf_reach_id": "1080102000004", "in_icis": "YES", "echo_dfr_link": "https://echo.epa.gov/detailed-facility-report?fid=110010911102", "name": "ST JOHNSBURY", "feature_kind": "CSO outfall"}}, {"type": "Feature", "id": 6033, "geometry": {"type": "Point", "coordinates": [-72.0132498170248, 44.4189722832851]}, "properties": {"OBJECTID": 6033, "npdes_pfid": "VT0100579009", "npdes_id": "VT0100579", "permitting_state": "VT", "agency_type_code": "ST6", "facility_uin": "110010911102", "facility_name": "ST JOHNSBURY", "location_address": "799 BAY ST", "supplemental_address_text": "", "facility_city": "ST JOHNSBURY", "county_code": "VT005", "state_code": "VT", "epa_region_code": "01", "facility_type_code": "MWD", "facility_lat": 44.410639, "facility_lon": -72.016572, "permit_name": "Town of St Johnsbury", "version_nmbr": 0, "permit_type_code": "NPD", "effective_date": 1522540800000, "expiration_date": 1680220800000, "permit_status_code": "EXP", "facility_type_indicator": "POTW", "major_minor_status_flag": "M", "permit_tracking": "Y", "pt_start_date": 1522540800000, "dmr_tracking": "Y", "dmr_nr_start_date": 1522540800000, "permit_design_flow": null, "permit_avg_flow": null, "perm_feature_nmbr": "009", "perm_feature_text": "", "pf_lat": 44.418972, "pf_lon": -72.01325, "pf_character": "CSO", "perm_feature_type_code": "EXO", "pf_state_waterbody_name": "Passumpsic River", "pf_state_auto_name": "Passumpsic River", "pf_reach_id": "1080102000004", "in_icis": "YES", "echo_dfr_link": "https://echo.epa.gov/detailed-facility-report?fid=110010911102", "name": "ST JOHNSBURY", "feature_kind": "CSO outfall"}}, {"type": "Feature", "id": 6034, "geometry": {"type": "Point", "coordinates": [-72.013500446989, 44.420916981682]}, "properties": {"OBJECTID": 6034, "npdes_pfid": "VT0100579010", "npdes_id": "VT0100579", "permitting_state": "VT", "agency_type_code": "ST6", "facility_uin": "110010911102", "facility_name": "ST JOHNSBURY", "location_address": "799 BAY ST", "supplemental_address_text": "", "facility_city": "ST JOHNSBURY", "county_code": "VT005", "state_code": "VT", "epa_region_code": "01", "facility_type_code": "MWD", "facility_lat": 44.410639, "facility_lon": -72.016572, "permit_name": "Town of St Johnsbury", "version_nmbr": 0, "permit_type_code": "NPD", "effective_date": 1522540800000, "expiration_date": 1680220800000, "permit_status_code": "EXP", "facility_type_indicator": "POTW", "major_minor_status_flag": "M", "permit_tracking": "Y", "pt_start_date": 1522540800000, "dmr_tracking": "Y", "dmr_nr_start_date": 1522540800000, "permit_design_flow": null, "permit_avg_flow": null, "perm_feature_nmbr": "010", "perm_feature_text": "", "pf_lat": 44.420917, "pf_lon": -72.0135, "pf_character": "CSO", "perm_feature_type_code": "EXO", "pf_state_waterbody_name": "Passumpsic River", "pf_state_auto_name": "Passumpsic River", "pf_reach_id": "1080102000004", "in_icis": "YES", "echo_dfr_link": "https://echo.epa.gov/detailed-facility-report?fid=110010911102", "name": "ST JOHNSBURY", "feature_kind": "CSO outfall"}}, {"type": "Feature", "id": 6035, "geometry": {"type": "Point", "coordinates": [-72.0105279217139, 44.4224170050777]}, "properties": {"OBJECTID": 6035, "npdes_pfid": "VT0100579011", "npdes_id": "VT0100579", "permitting_state": "VT", "agency_type_code": "ST6", "facility_uin": "110010911102", "facility_name": "ST JOHNSBURY", "location_address": "799 BAY ST", "supplemental_address_text": "", "facility_city": "ST JOHNSBURY", "county_code": "VT005", "state_code": "VT", "epa_region_code": "01", "facility_type_code": "MWD", "facility_lat": 44.410639, "facility_lon": -72.016572, "permit_name": "Town of St Johnsbury", "version_nmbr": 0, "permit_type_code": "NPD", "effective_date": 1522540800000, "expiration_date": 1680220800000, "permit_status_code": "EXP", "facility_type_indicator": "POTW", "major_minor_status_flag": "M", "permit_tracking": "Y", "pt_start_date": 1522540800000, "dmr_tracking": "Y", "dmr_nr_start_date": 1522540800000, "permit_design_flow": null, "permit_avg_flow": null, "perm_feature_nmbr": "011", "perm_feature_text": "", "pf_lat": 44.422417, "pf_lon": -72.010528, "pf_character": "CSO", "perm_feature_type_code": "EXO", "pf_state_waterbody_name": "Passumpsic River", "pf_state_auto_name": "Passumpsic River", "pf_reach_id": "1080102000004", "in_icis": "YES", "echo_dfr_link": "https://echo.epa.gov/detailed-facility-report?fid=110010911102", "name": "ST JOHNSBURY", "feature_kind": "CSO outfall"}}, {"type": "Feature", "id": 6036, "geometry": {"type": "Point", "coordinates": [-72.0135561425367, 44.4164718617309]}, "properties": {"OBJECTID": 6036, "npdes_pfid": "VT0100579012", "npdes_id": "VT0100579", "permitting_state": "VT", "agency_type_code": "ST6", "facility_uin": "110010911102", "facility_name": "ST JOHNSBURY", "location_address": "799 BAY ST", "supplemental_address_text": "", "facility_city": "ST JOHNSBURY", "county_code": "VT005", "state_code": "VT", "epa_region_code": "01", "facility_type_code": "MWD", "facility_lat": 44.410639, "facility_lon": -72.016572, "permit_name": "Town of St Johnsbury", "version_nmbr": 0, "permit_type_code": "NPD", "effective_date": 1522540800000, "expiration_date": 1680220800000, "permit_status_code": "EXP", "facility_type_indicator": "POTW", "major_minor_status_flag": "M", "permit_tracking": "Y", "pt_start_date": 1522540800000, "dmr_tracking": "Y", "dmr_nr_start_date": 1522540800000, "permit_design_flow": null, "permit_avg_flow": null, "perm_feature_nmbr": "012", "perm_feature_text": "", "pf_lat": 44.416472, "pf_lon": -72.013556, "pf_character": "CSO", "perm_feature_type_code": "EXO", "pf_state_waterbody_name": "Passumpsic River", "pf_state_auto_name": "Passumpsic River", "pf_reach_id": "1080102000004", "in_icis": "YES", "echo_dfr_link": "https://echo.epa.gov/detailed-facility-report?fid=110010911102", "name": "ST JOHNSBURY", "feature_kind": "CSO outfall"}}, {"type": "Feature", "id": 6037, "geometry": {"type": "Point", "coordinates": [-72.0127503537268, 44.4219717497971]}, "properties": {"OBJECTID": 6037, "npdes_pfid": "VT0100579013", "npdes_id": "VT0100579", "permitting_state": "VT", "agency_type_code": "ST6", "facility_uin": "110010911102", "facility_name": "ST JOHNSBURY", "location_address": "799 BAY ST", "supplemental_address_text": "", "facility_city": "ST JOHNSBURY", "county_code": "VT005", "state_code": "VT", "epa_region_code": "01", "facility_type_code": "MWD", "facility_lat": 44.410639, "facility_lon": -72.016572, "permit_name": "Town of St Johnsbury", "version_nmbr": 0, "permit_type_code": "NPD", "effective_date": 1522540800000, "expiration_date": 1680220800000, "permit_status_code": "EXP", "facility_type_indicator": "POTW", "major_minor_status_flag": "M", "permit_tracking": "Y", "pt_start_date": 1522540800000, "dmr_tracking": "Y", "dmr_nr_start_date": 1522540800000, "permit_design_flow": null, "permit_avg_flow": null, "perm_feature_nmbr": "013", "perm_feature_text": "", "pf_lat": 44.421972, "pf_lon": -72.01275, "pf_character": "CSO", "perm_feature_type_code": "EXO", "pf_state_waterbody_name": "Passumpsic River", "pf_state_auto_name": "Passumpsic River", "pf_reach_id": "1080102000004", "in_icis": "YES", "echo_dfr_link": "https://echo.epa.gov/detailed-facility-report?fid=110010911102", "name": "ST JOHNSBURY", "feature_kind": "CSO outfall"}}, {"type": "Feature", "id": 6038, "geometry": {"type": "Point", "coordinates": [-72.0182498398962, 44.4104998039176]}, "properties": {"OBJECTID": 6038, "npdes_pfid": "VT0100579015", "npdes_id": "VT0100579", "permitting_state": "VT", "agency_type_code": "ST6", "facility_uin": "110010911102", "facility_name": "ST JOHNSBURY", "location_address": "799 BAY ST", "supplemental_address_text": "", "facility_city": "ST JOHNSBURY", "county_code": "VT005", "state_code": "VT", "epa_region_code": "01", "facility_type_code": "MWD", "facility_lat": 44.410639, "facility_lon": -72.016572, "permit_name": "Town of St Johnsbury", "version_nmbr": 0, "permit_type_code": "NPD", "effective_date": 1522540800000, "expiration_date": 1680220800000, "permit_status_code": "EXP", "facility_type_indicator": "POTW", "major_minor_status_flag": "M", "permit_tracking": "Y", "pt_start_date": 1522540800000, "dmr_tracking": "Y", "dmr_nr_start_date": 1522540800000, "permit_design_flow": null, "permit_avg_flow": null, "perm_feature_nmbr": "015", "perm_feature_text": "", "pf_lat": 44.4105, "pf_lon": -72.01825, "pf_character": "CSO", "perm_feature_type_code": "EXO", "pf_state_waterbody_name": "Passumpsic River", "pf_state_auto_name": "Passumpsic River", "pf_reach_id": "1080102000004", "in_icis": "YES", "echo_dfr_link": "https://echo.epa.gov/detailed-facility-report?fid=110010911102", "name": "ST JOHNSBURY", "feature_kind": "CSO outfall"}}, {"type": "Feature", "id": 6039, "geometry": {"type": "Point", "coordinates": [-72.0164999217227, 44.4285001100281]}, "properties": {"OBJECTID": 6039, "npdes_pfid": "VT0100579020", "npdes_id": "VT0100579", "permitting_state": "VT", "agency_type_code": "ST6", "facility_uin": "110010911102", "facility_name": "ST JOHNSBURY", "location_address": "799 BAY ST", "supplemental_address_text": "", "facility_city": "ST JOHNSBURY", "county_code": "VT005", "state_code": "VT", "epa_region_code": "01", "facility_type_code": "MWD", "facility_lat": 44.410639, "facility_lon": -72.016572, "permit_name": "Town of St Johnsbury", "version_nmbr": 0, "permit_type_code": "NPD", "effective_date": 1522540800000, "expiration_date": 1680220800000, "permit_status_code": "EXP", "facility_type_indicator": "POTW", "major_minor_status_flag": "M", "permit_tracking": "Y", "pt_start_date": 1522540800000, "dmr_tracking": "Y", "dmr_nr_start_date": 1522540800000, "permit_design_flow": null, "permit_avg_flow": null, "perm_feature_nmbr": "020", "perm_feature_text": "", "pf_lat": 44.4285, "pf_lon": -72.0165, "pf_character": "CSO", "perm_feature_type_code": "EXO", "pf_state_waterbody_name": "Passumpsac River", "pf_state_auto_name": "Passumpsic River", "pf_reach_id": "1080102000004", "in_icis": "YES", "echo_dfr_link": "https://echo.epa.gov/detailed-facility-report?fid=110010911102", "name": "ST JOHNSBURY", "feature_kind": "CSO outfall"}}, {"type": "Feature", "id": 6040, "geometry": {"type": "Point", "coordinates": [-72.0175275944078, 44.4315831210216]}, "properties": {"OBJECTID": 6040, "npdes_pfid": "VT0100579021", "npdes_id": "VT0100579", "permitting_state": "VT", "agency_type_code": "ST6", "facility_uin": "110010911102", "facility_name": "ST JOHNSBURY", "location_address": "799 BAY ST", "supplemental_address_text": "", "facility_city": "ST JOHNSBURY", "county_code": "VT005", "state_code": "VT", "epa_region_code": "01", "facility_type_code": "MWD", "facility_lat": 44.410639, "facility_lon": -72.016572, "permit_name": "Town of St Johnsbury", "version_nmbr": 0, "permit_type_code": "NPD", "effective_date": 1522540800000, "expiration_date": 1680220800000, "permit_status_code": "EXP", "facility_type_indicator": "POTW", "major_minor_status_flag": "M", "permit_tracking": "Y", "pt_start_date": 1522540800000, "dmr_tracking": "Y", "dmr_nr_start_date": 1522540800000, "permit_design_flow": null, "permit_avg_flow": null, "perm_feature_nmbr": "021", "perm_feature_text": "", "pf_lat": 44.431583, "pf_lon": -72.017528, "pf_character": "CSO", "perm_feature_type_code": "EXO", "pf_state_waterbody_name": "Passumpsic River", "pf_state_auto_name": "Passumpsic River", "pf_reach_id": "1080102000004", "in_icis": "YES", "echo_dfr_link": "https://echo.epa.gov/detailed-facility-report?fid=110010911102", "name": "ST JOHNSBURY", "feature_kind": "CSO outfall"}}, {"type": "Feature", "id": 6041, "geometry": {"type": "Point", "coordinates": [-72.0269437352159, 44.4163332671085]}, "properties": {"OBJECTID": 6041, "npdes_pfid": "VT0100579023", "npdes_id": "VT0100579", "permitting_state": "VT", "agency_type_code": "ST6", "facility_uin": "110010911102", "facility_name": "ST JOHNSBURY", "location_address": "799 BAY ST", "supplemental_address_text": "", "facility_city": "ST JOHNSBURY", "county_code": "VT005", "state_code": "VT", "epa_region_code": "01", "facility_type_code": "MWD", "facility_lat": 44.410639, "facility_lon": -72.016572, "permit_name": "Town of St Johnsbury", "version_nmbr": 0, "permit_type_code": "NPD", "effective_date": 1522540800000, "expiration_date": 1680220800000, "permit_status_code": "EXP", "facility_type_indicator": "POTW", "major_minor_status_flag": "M", "permit_tracking": "Y", "pt_start_date": 1522540800000, "dmr_tracking": "Y", "dmr_nr_start_date": 1522540800000, "permit_design_flow": null, "permit_avg_flow": null, "perm_feature_nmbr": "023", "perm_feature_text": "", "pf_lat": 44.416333, "pf_lon": -72.026944, "pf_character": "CSO", "perm_feature_type_code": "EXO", "pf_state_waterbody_name": "Sleepers River", "pf_state_auto_name": "Passumpsic River", "pf_reach_id": "1080102000004", "in_icis": "YES", "echo_dfr_link": "https://echo.epa.gov/detailed-facility-report?fid=110010911102", "name": "ST JOHNSBURY", "feature_kind": "CSO outfall"}}, {"type": "Feature", "id": 6042, "geometry": {"type": "Point", "coordinates": [-72.0264442719179, 44.4153611705942]}, "properties": {"OBJECTID": 6042, "npdes_pfid": "VT0100579024", "npdes_id": "VT0100579", "permitting_state": "VT", "agency_type_code": "ST6", "facility_uin": "110010911102", "facility_name": "ST JOHNSBURY", "location_address": "799 BAY ST", "supplemental_address_text": "", "facility_city": "ST JOHNSBURY", "county_code": "VT005", "state_code": "VT", "epa_region_code": "01", "facility_type_code": "MWD", "facility_lat": 44.410639, "facility_lon": -72.016572, "permit_name": "Town of St Johnsbury", "version_nmbr": 0, "permit_type_code": "NPD", "effective_date": 1522540800000, "expiration_date": 1680220800000, "permit_status_code": "EXP", "facility_type_indicator": "POTW", "major_minor_status_flag": "M", "permit_tracking": "Y", "pt_start_date": 1522540800000, "dmr_tracking": "Y", "dmr_nr_start_date": 1522540800000, "permit_design_flow": null, "permit_avg_flow": null, "perm_feature_nmbr": "024", "perm_feature_text": "", "pf_lat": 44.415361, "pf_lon": -72.026444, "pf_character": "CSO", "perm_feature_type_code": "EXO", "pf_state_waterbody_name": "Sleepers River", "pf_state_auto_name": "Passumpsic River", "pf_reach_id": "1080102000004", "in_icis": "YES", "echo_dfr_link": "https://echo.epa.gov/detailed-facility-report?fid=110010911102", "name": "ST JOHNSBURY", "feature_kind": "CSO outfall"}}, {"type": "Feature", "id": 6043, "geometry": {"type": "Point", "coordinates": [-72.028389124508, 44.4176672267144]}, "properties": {"OBJECTID": 6043, "npdes_pfid": "VT0100579027", "npdes_id": "VT0100579", "permitting_state": "VT", "agency_type_code": "ST6", "facility_uin": "110010911102", "facility_name": "ST JOHNSBURY", "location_address": "799 BAY ST", "supplemental_address_text": "", "facility_city": "ST JOHNSBURY", "county_code": "VT005", "state_code": "VT", "epa_region_code": "01", "facility_type_code": "MWD", "facility_lat": 44.410639, "facility_lon": -72.016572, "permit_name": "Town of St Johnsbury", "version_nmbr": 0, "permit_type_code": "NPD", "effective_date": 1522540800000, "expiration_date": 1680220800000, "permit_status_code": "EXP", "facility_type_indicator": "POTW", "major_minor_status_flag": "M", "permit_tracking": "Y", "pt_start_date": 1522540800000, "dmr_tracking": "Y", "dmr_nr_start_date": 1522540800000, "permit_design_flow": null, "permit_avg_flow": null, "perm_feature_nmbr": "027", "perm_feature_text": "", "pf_lat": 44.417667, "pf_lon": -72.028389, "pf_character": "CSO", "perm_feature_type_code": "EXO", "pf_state_waterbody_name": "Sleepers River", "pf_state_auto_name": "Sleepers River", "pf_reach_id": "1080102000065", "in_icis": "YES", "echo_dfr_link": "https://echo.epa.gov/detailed-facility-report?fid=110010911102", "name": "ST JOHNSBURY", "feature_kind": "CSO outfall"}}, {"type": "Feature", "id": 6044, "geometry": {"type": "Point", "coordinates": [-72.9870280765868, 43.5955827626842]}, "properties": {"OBJECTID": 6044, "npdes_pfid": "VT0100871002", "npdes_id": "VT0100871", "permitting_state": "VT", "agency_type_code": "ST6", "facility_uin": "110010911291", "facility_name": "RUTLAND", "location_address": "10 GREENS HILL LANE", "supplemental_address_text": "", "facility_city": "RUTLAND", "county_code": "VT021", "state_code": "VT", "epa_region_code": "01", "facility_type_code": "MWD", "facility_lat": 43.603904, "facility_lon": -72.993577, "permit_name": "City of Rutland", "version_nmbr": 0, "permit_type_code": "NPD", "effective_date": 1654041600000, "expiration_date": 1806451200000, "permit_status_code": "EFF", "facility_type_indicator": "POTW", "major_minor_status_flag": "M", "permit_tracking": "Y", "pt_start_date": 1654041600000, "dmr_tracking": "Y", "dmr_nr_start_date": 1654041600000, "permit_design_flow": null, "permit_avg_flow": null, "perm_feature_nmbr": "002", "perm_feature_text": "", "pf_lat": 43.595583, "pf_lon": -72.987028, "pf_character": "CSO", "perm_feature_type_code": "EXO", "pf_state_waterbody_name": "OTTER CREEK", "pf_state_auto_name": "Otter Creek", "pf_reach_id": "4150402010802", "in_icis": "YES", "echo_dfr_link": "https://echo.epa.gov/detailed-facility-report?fid=110010911291", "name": "RUTLAND", "feature_kind": "CSO outfall"}}, {"type": "Feature", "id": 6045, "geometry": {"type": "Point", "coordinates": [-72.989944007999, 43.6032780099121]}, "properties": {"OBJECTID": 6045, "npdes_pfid": "VT0100871003", "npdes_id": "VT0100871", "permitting_state": "VT", "agency_type_code": "ST6", "facility_uin": "110010911291", "facility_name": "RUTLAND", "location_address": "10 GREENS HILL LANE", "supplemental_address_text": "", "facility_city": "RUTLAND", "county_code": "VT021", "state_code": "VT", "epa_region_code": "01", "facility_type_code": "MWD", "facility_lat": 43.603904, "facility_lon": -72.993577, "permit_name": "City of Rutland", "version_nmbr": 0, "permit_type_code": "NPD", "effective_date": 1654041600000, "expiration_date": 1806451200000, "permit_status_code": "EFF", "facility_type_indicator": "POTW", "major_minor_status_flag": "M", "permit_tracking": "Y", "pt_start_date": 1654041600000, "dmr_tracking": "Y", "dmr_nr_start_date": 1654041600000, "permit_design_flow": null, "permit_avg_flow": null, "perm_feature_nmbr": "003", "perm_feature_text": "", "pf_lat": 43.603278, "pf_lon": -72.989944, "pf_character": "CSO", "perm_feature_type_code": "EXO", "pf_state_waterbody_name": "EAST CREEK", "pf_state_auto_name": "East Creek", "pf_reach_id": "4150402010836", "in_icis": "YES", "echo_dfr_link": "https://echo.epa.gov/detailed-facility-report?fid=110010911291", "name": "RUTLAND", "feature_kind": "CSO outfall"}}, {"type": "Feature", "id": 6046, "geometry": {"type": "Point", "coordinates": [-72.9887222992126, 43.6048613041485]}, "properties": {"OBJECTID": 6046, "npdes_pfid": "VT0100871009", "npdes_id": "VT0100871", "permitting_state": "VT", "agency_type_code": "ST6", "facility_uin": "110010911291", "facility_name": "RUTLAND", "location_address": "10 GREENS HILL LANE", "supplemental_address_text": "", "facility_city": "RUTLAND", "county_code": "VT021", "state_code": "VT", "epa_region_code": "01", "facility_type_code": "MWD", "facility_lat": 43.603904, "facility_lon": -72.993577, "permit_name": "City of Rutland", "version_nmbr": 0, "permit_type_code": "NPD", "effective_date": 1654041600000, "expiration_date": 1806451200000, "permit_status_code": "EFF", "facility_type_indicator": "POTW", "major_minor_status_flag": "M", "permit_tracking": "Y", "pt_start_date": 1654041600000, "dmr_tracking": "Y", "dmr_nr_start_date": 1654041600000, "permit_design_flow": null, "permit_avg_flow": null, "perm_feature_nmbr": "009", "perm_feature_text": "", "pf_lat": 43.604861, "pf_lon": -72.988722, "pf_character": "CSO", "perm_feature_type_code": "EXO", "pf_state_waterbody_name": "EAST CREEK", "pf_state_auto_name": "East Creek", "pf_reach_id": "4150402010836", "in_icis": "YES", "echo_dfr_link": "https://echo.epa.gov/detailed-facility-report?fid=110010911291", "name": "RUTLAND", "feature_kind": "CSO outfall"}}, {"type": "Feature", "id": 6047, "geometry": {"type": "Point", "coordinates": [-72.988167140367, 43.606499846211]}, "properties": {"OBJECTID": 6047, "npdes_pfid": "VT0100871010", "npdes_id": "VT0100871", "permitting_state": "VT", "agency_type_code": "ST6", "facility_uin": "110010911291", "facility_name": "RUTLAND", "location_address": "10 GREENS HILL LANE", "supplemental_address_text": "", "facility_city": "RUTLAND", "county_code": "VT021", "state_code": "VT", "epa_region_code": "01", "facility_type_code": "MWD", "facility_lat": 43.603904, "facility_lon": -72.993577, "permit_name": "City of Rutland", "version_nmbr": 0, "permit_type_code": "NPD", "effective_date": 1654041600000, "expiration_date": 1806451200000, "permit_status_code": "EFF", "facility_type_indicator": "POTW", "major_minor_status_flag": "M", "permit_tracking": "Y", "pt_start_date": 1654041600000, "dmr_tracking": "Y", "dmr_nr_start_date": 1654041600000, "permit_design_flow": null, "permit_avg_flow": null, "perm_feature_nmbr": "010", "perm_feature_text": "", "pf_lat": 43.6065, "pf_lon": -72.988167, "pf_character": "CSO", "perm_feature_type_code": "EXO", "pf_state_waterbody_name": "East Creek", "pf_state_auto_name": "East Creek", "pf_reach_id": "4150402010836", "in_icis": "YES", "echo_dfr_link": "https://echo.epa.gov/detailed-facility-report?fid=110010911291", "name": "RUTLAND", "feature_kind": "CSO outfall"}}, {"type": "Feature", "id": 6048, "geometry": {"type": "Point", "coordinates": [-72.3028612747332, 43.6784722478547]}, "properties": {"OBJECTID": 6048, "npdes_pfid": "VT0101010002", "npdes_id": "VT0101010", "permitting_state": "VT", "agency_type_code": "ST6", "facility_uin": "110002047464", "facility_name": "HARTFORD - WRJ", "location_address": "319 LATHAM WORKS LANE", "supplemental_address_text": "", "facility_city": "WHITE RIVER JCT", "county_code": "VT027", "state_code": "VT", "epa_region_code": "01", "facility_type_code": "MWD", "facility_lat": 43.646444, "facility_lon": -72.314662, "permit_name": "Town of Hartford", "version_nmbr": 0, "permit_type_code": "NPD", "effective_date": 1522540800000, "expiration_date": 1680220800000, "permit_status_code": "EXP", "facility_type_indicator": "POTW", "major_minor_status_flag": "M", "permit_tracking": "Y", "pt_start_date": 1522540800000, "dmr_tracking": "Y", "dmr_nr_start_date": 1522540800000, "permit_design_flow": null, "permit_avg_flow": null, "perm_feature_nmbr": "002", "perm_feature_text": "", "pf_lat": 43.678472, "pf_lon": -72.302861, "pf_character": "CSO", "perm_feature_type_code": "EXO", "pf_state_waterbody_name": "CONNECTICUT RIVER", "pf_state_auto_name": "Connecticut River", "pf_reach_id": "1080104000290", "in_icis": "YES", "echo_dfr_link": "https://echo.epa.gov/detailed-facility-report?fid=110002047464", "name": "HARTFORD - WRJ", "feature_kind": "CSO outfall"}}, {"type": "Feature", "id": 6049, "geometry": {"type": "Point", "coordinates": [-72.3071938493485, 43.6708061180201]}, "properties": {"OBJECTID": 6049, "npdes_pfid": "VT0101010003", "npdes_id": "VT0101010", "permitting_state": "VT", "agency_type_code": "ST6", "facility_uin": "110002047464", "facility_name": "HARTFORD - WRJ", "location_address": "319 LATHAM WORKS LANE", "supplemental_address_text": "", "facility_city": "WHITE RIVER JCT", "county_code": "VT027", "state_code": "VT", "epa_region_code": "01", "facility_type_code": "MWD", "facility_lat": 43.646444, "facility_lon": -72.314662, "permit_name": "Town of Hartford", "version_nmbr": 0, "permit_type_code": "NPD", "effective_date": 1522540800000, "expiration_date": 1680220800000, "permit_status_code": "EXP", "facility_type_indicator": "POTW", "major_minor_status_flag": "M", "permit_tracking": "Y", "pt_start_date": 1522540800000, "dmr_tracking": "Y", "dmr_nr_start_date": 1522540800000, "permit_design_flow": null, "permit_avg_flow": null, "perm_feature_nmbr": "003", "perm_feature_text": "", "pf_lat": 43.670806, "pf_lon": -72.307194, "pf_character": "CSO", "perm_feature_type_code": "EXO", "pf_state_waterbody_name": "CONNECTICUT RIVER", "pf_state_auto_name": "Connecticut River", "pf_reach_id": "1080104001971", "in_icis": "YES", "echo_dfr_link": "https://echo.epa.gov/detailed-facility-report?fid=110002047464", "name": "HARTFORD - WRJ", "feature_kind": "CSO outfall"}}, {"type": "Feature", "id": 6050, "geometry": {"type": "Point", "coordinates": [-72.317528068377, 43.6424441687879]}, "properties": {"OBJECTID": 6050, "npdes_pfid": "VT0101010004", "npdes_id": "VT0101010", "permitting_state": "VT", "agency_type_code": "ST6", "facility_uin": "110002047464", "facility_name": "HARTFORD - WRJ", "location_address": "319 LATHAM WORKS LANE", "supplemental_address_text": "", "facility_city": "WHITE RIVER JCT", "county_code": "VT027", "state_code": "VT", "epa_region_code": "01", "facility_type_code": "MWD", "facility_lat": 43.646444, "facility_lon": -72.314662, "permit_name": "Town of Hartford", "version_nmbr": 0, "permit_type_code": "NPD", "effective_date": 1522540800000, "expiration_date": 1680220800000, "permit_status_code": "EXP", "facility_type_indicator": "POTW", "major_minor_status_flag": "M", "permit_tracking": "Y", "pt_start_date": 1522540800000, "dmr_tracking": "Y", "dmr_nr_start_date": 1522540800000, "permit_design_flow": null, "permit_avg_flow": null, "perm_feature_nmbr": "004", "perm_feature_text": "", "pf_lat": 43.642444, "pf_lon": -72.317528, "pf_character": "CSO", "perm_feature_type_code": "EXO", "pf_state_waterbody_name": "CONNECTICUT RIVER", "pf_state_auto_name": "Connecticut River", "pf_reach_id": "1080106000686", "in_icis": "YES", "echo_dfr_link": "https://echo.epa.gov/detailed-facility-report?fid=110002047464", "name": "HARTFORD - WRJ", "feature_kind": "CSO outfall"}}, {"type": "Feature", "id": 6051, "geometry": {"type": "Point", "coordinates": [-72.3167222795672, 43.6500281215563]}, "properties": {"OBJECTID": 6051, "npdes_pfid": "VT0101010006", "npdes_id": "VT0101010", "permitting_state": "VT", "agency_type_code": "ST6", "facility_uin": "110002047464", "facility_name": "HARTFORD - WRJ", "location_address": "319 LATHAM WORKS LANE", "supplemental_address_text": "", "facility_city": "WHITE RIVER JCT", "county_code": "VT027", "state_code": "VT", "epa_region_code": "01", "facility_type_code": "MWD", "facility_lat": 43.646444, "facility_lon": -72.314662, "permit_name": "Town of Hartford", "version_nmbr": 0, "permit_type_code": "NPD", "effective_date": 1522540800000, "expiration_date": 1680220800000, "permit_status_code": "EXP", "facility_type_indicator": "POTW", "major_minor_status_flag": "M", "permit_tracking": "Y", "pt_start_date": 1522540800000, "dmr_tracking": "Y", "dmr_nr_start_date": 1522540800000, "permit_design_flow": null, "permit_avg_flow": null, "perm_feature_nmbr": "006", "perm_feature_text": "", "pf_lat": 43.650028, "pf_lon": -72.316722, "pf_character": "CSO", "perm_feature_type_code": "EXO", "pf_state_waterbody_name": "CONNECTICUT RIVER", "pf_state_auto_name": "Connecticut River", "pf_reach_id": "1080106000686", "in_icis": "YES", "echo_dfr_link": "https://echo.epa.gov/detailed-facility-report?fid=110002047464", "name": "HARTFORD - WRJ", "feature_kind": "CSO outfall"}}, {"type": "Feature", "id": 6052, "geometry": {"type": "Point", "coordinates": [-72.3164168523706, 43.6511668993503]}, "properties": {"OBJECTID": 6052, "npdes_pfid": "VT0101010007", "npdes_id": "VT0101010", "permitting_state": "VT", "agency_type_code": "ST6", "facility_uin": "110002047464", "facility_name": "HARTFORD - WRJ", "location_address": "319 LATHAM WORKS LANE", "supplemental_address_text": "", "facility_city": "WHITE RIVER JCT", "county_code": "VT027", "state_code": "VT", "epa_region_code": "01", "facility_type_code": "MWD", "facility_lat": 43.646444, "facility_lon": -72.314662, "permit_name": "Town of Hartford", "version_nmbr": 0, "permit_type_code": "NPD", "effective_date": 1522540800000, "expiration_date": 1680220800000, "permit_status_code": "EXP", "facility_type_indicator": "POTW", "major_minor_status_flag": "M", "permit_tracking": "Y", "pt_start_date": 1522540800000, "dmr_tracking": "Y", "dmr_nr_start_date": 1522540800000, "permit_design_flow": null, "permit_avg_flow": null, "perm_feature_nmbr": "007", "perm_feature_text": "", "pf_lat": 43.651167, "pf_lon": -72.316417, "pf_character": "CSO", "perm_feature_type_code": "EXO", "pf_state_waterbody_name": "CONNECTICUT RIVER", "pf_state_auto_name": "Connecticut River", "pf_reach_id": "1080106000686", "in_icis": "YES", "echo_dfr_link": "https://echo.epa.gov/detailed-facility-report?fid=110002047464", "name": "HARTFORD - WRJ", "feature_kind": "CSO outfall"}}]}