{"type": "FeatureCollection", "features": [{"type": "Feature", "id": 1742, "geometry": {"type": "Point", "coordinates": [-77.0200001715968, 38.8308327339675]}, "properties": {"OBJECTID": 1742, "npdes_pfid": "DC0021199003", "npdes_id": "DC0021199", "permitting_state": "DC", "agency_type_code": "EP6", "facility_uin": "110029030144", "facility_name": "D.C. WASA (BLUE PLAINS)", "location_address": "5000 OVERLOOK AVE, SW", "supplemental_address_text": "", "facility_city": "WASHINGTON", "county_code": "DC001", "state_code": "DC", "epa_region_code": "03", "facility_type_code": "MWD", "facility_lat": 38.813611, "facility_lon": -77.0275, "permit_name": "D.C. WASA (BLUE PLAINS)", "version_nmbr": 0, "permit_type_code": "NPD", "effective_date": 1535241600000, "expiration_date": 1692921600000, "permit_status_code": "ADC", "facility_type_indicator": "POTW", "major_minor_status_flag": "M", "permit_tracking": "Y", "pt_start_date": 1535241600000, "dmr_tracking": "Y", "dmr_nr_start_date": 1535241600000, "permit_design_flow": 370, "permit_avg_flow": null, "perm_feature_nmbr": "003", "perm_feature_text": "Bolling Air Force Base near Chanuet Place, SW", "pf_lat": 38.830833, "pf_lon": -77.02, "pf_character": "CSO", "perm_feature_type_code": "EXO", "pf_state_waterbody_name": "Potomac River, East Side", "pf_state_auto_name": "Potomac River", "pf_reach_id": "2070010000046", "in_icis": "YES", "echo_dfr_link": "https://echo.epa.gov/detailed-facility-report?fid=110029030144", "name": "D.C. WASA (BLUE PLAINS)", "feature_kind": "CSO outfall"}}, {"type": "Feature", "id": 1743, "geometry": {"type": "Point", "coordinates": [-77.0200001715968, 38.8486107317592]}, "properties": {"OBJECTID": 1743, "npdes_pfid": "DC0021199003A", "npdes_id": "DC0021199", "permitting_state": "DC", "agency_type_code": "EP6", "facility_uin": "110029030144", "facility_name": "D.C. WASA (BLUE PLAINS)", "location_address": "5000 OVERLOOK AVE, SW", "supplemental_address_text": "", "facility_city": "WASHINGTON", "county_code": "DC001", "state_code": "DC", "epa_region_code": "03", "facility_type_code": "MWD", "facility_lat": 38.813611, "facility_lon": -77.0275, "permit_name": "D.C. WASA (BLUE PLAINS)", "version_nmbr": 0, "permit_type_code": "NPD", "effective_date": 1535241600000, "expiration_date": 1692921600000, "permit_status_code": "ADC", "facility_type_indicator": "POTW", "major_minor_status_flag": "M", "permit_tracking": "Y", "pt_start_date": 1535241600000, "dmr_tracking": "Y", "dmr_nr_start_date": 1535241600000, "permit_design_flow": 370, "permit_avg_flow": null, "perm_feature_nmbr": "003A", "perm_feature_text": "Overflow on Blue Plains Tunnel (JBAB) Near MacDill Blvd, SE", "pf_lat": 38.848611, "pf_lon": -77.02, "pf_character": "CSO", "perm_feature_type_code": "EXO", "pf_state_waterbody_name": "Potomac River, East Side", "pf_state_auto_name": "Potomac River", "pf_reach_id": "2070010000047", "in_icis": "YES", "echo_dfr_link": "https://echo.epa.gov/detailed-facility-report?fid=110029030144", "name": "D.C. WASA (BLUE PLAINS)", "feature_kind": "CSO outfall"}}, {"type": "Feature", "id": 1744, "geometry": {"type": "Point", "coordinates": [-76.9933318857572, 38.8691672993362]}, "properties": {"OBJECTID": 1744, "npdes_pfid": "DC0021199005", "npdes_id": "DC0021199", "permitting_state": "DC", "agency_type_code": "EP6", "facility_uin": "110029030144", "facility_name": "D.C. WASA (BLUE PLAINS)", "location_address": "5000 OVERLOOK AVE, SW", "supplemental_address_text": "", "facility_city": "WASHINGTON", "county_code": "DC001", "state_code": "DC", "epa_region_code": "03", "facility_type_code": "MWD", "facility_lat": 38.813611, "facility_lon": -77.0275, "permit_name": "D.C. WASA (BLUE PLAINS)", "version_nmbr": 0, "permit_type_code": "NPD", "effective_date": 1535241600000, "expiration_date": 1692921600000, "permit_status_code": "ADC", "facility_type_indicator": "POTW", "major_minor_status_flag": "M", "permit_tracking": "Y", "pt_start_date": 1535241600000, "dmr_tracking": "Y", "dmr_nr_start_date": 1535241600000, "permit_design_flow": 370, "permit_avg_flow": null, "perm_feature_nmbr": "005", "perm_feature_text": "Chicago Street and Railroad Station, SE", "pf_lat": 38.869167, "pf_lon": -76.993332, "pf_character": "CSO", "perm_feature_type_code": "EXO", "pf_state_waterbody_name": "Anacostia River, East Side", "pf_state_auto_name": "Anacostia River", "pf_reach_id": "2070010001222", "in_icis": "YES", "echo_dfr_link": "https://echo.epa.gov/detailed-facility-report?fid=110029030144", "name": "D.C. WASA (BLUE PLAINS)", "feature_kind": "CSO outfall"}}, {"type": "Feature", "id": 1745, "geometry": {"type": "Point", "coordinates": [-76.9911112503748, 38.87111093643]}, "properties": {"OBJECTID": 1745, "npdes_pfid": "DC0021199006", "npdes_id": "DC0021199", "permitting_state": "DC", "agency_type_code": "EP6", "facility_uin": "110029030144", "facility_name": "D.C. WASA (BLUE PLAINS)", "location_address": "5000 OVERLOOK AVE, SW", "supplemental_address_text": "", "facility_city": "WASHINGTON", "county_code": "DC001", "state_code": "DC", "epa_region_code": "03", "facility_type_code": "MWD", "facility_lat": 38.813611, "facility_lon": -77.0275, "permit_name": "D.C. WASA (BLUE PLAINS)", "version_nmbr": 0, "permit_type_code": "NPD", "effective_date": 1535241600000, "expiration_date": 1692921600000, "permit_status_code": "ADC", "facility_type_indicator": "POTW", "major_minor_status_flag": "M", "permit_tracking": "Y", "pt_start_date": 1535241600000, "dmr_tracking": "Y", "dmr_nr_start_date": 1535241600000, "permit_design_flow": 370, "permit_avg_flow": null, "perm_feature_nmbr": "006", "perm_feature_text": "Good Hope Road, West of Nichols Ave, SE (SEPARATED)", "pf_lat": 38.871111, "pf_lon": -76.991111, "pf_character": "CSO", "perm_feature_type_code": "EXO", "pf_state_waterbody_name": "Anacostia River, East Side", "pf_state_auto_name": "Anacostia River", "pf_reach_id": "2070010001222", "in_icis": "YES", "echo_dfr_link": "https://echo.epa.gov/detailed-facility-report?fid=110029030144", "name": "D.C. WASA (BLUE PLAINS)", "feature_kind": "CSO outfall"}}, {"type": "Feature", "id": 1746, "geometry": {"type": "Point", "coordinates": [-76.9886094423085, 38.8711130346061]}, "properties": {"OBJECTID": 1746, "npdes_pfid": "DC0021199007", "npdes_id": "DC0021199", "permitting_state": "DC", "agency_type_code": "EP6", "facility_uin": "110029030144", "facility_name": "D.C. WASA (BLUE PLAINS)", "location_address": "5000 OVERLOOK AVE, SW", "supplemental_address_text": "", "facility_city": "WASHINGTON", "county_code": "DC001", "state_code": "DC", "epa_region_code": "03", "facility_type_code": "MWD", "facility_lat": 38.813611, "facility_lon": -77.0275, "permit_name": "D.C. WASA (BLUE PLAINS)", "version_nmbr": 0, "permit_type_code": "NPD", "effective_date": 1535241600000, "expiration_date": 1692921600000, "permit_status_code": "ADC", "facility_type_indicator": "POTW", "major_minor_status_flag": "M", "permit_tracking": "Y", "pt_start_date": 1535241600000, "dmr_tracking": "Y", "dmr_nr_start_date": 1535241600000, "permit_design_flow": 370, "permit_avg_flow": null, "perm_feature_nmbr": "007", "perm_feature_text": "13th Street and Ridge Place, SE", "pf_lat": 38.871113, "pf_lon": -76.988609, "pf_character": "CSO", "perm_feature_type_code": "EXO", "pf_state_waterbody_name": "Anacostia River, East Side", "pf_state_auto_name": "Anacostia River", "pf_reach_id": "2070010001222", "in_icis": "YES", "echo_dfr_link": "https://echo.epa.gov/detailed-facility-report?fid=110029030144", "name": "D.C. WASA (BLUE PLAINS)", "feature_kind": "CSO outfall"}}, {"type": "Feature", "id": 1747, "geometry": {"type": "Point", "coordinates": [-77.0041655680836, 38.8725013142369]}, "properties": {"OBJECTID": 1747, "npdes_pfid": "DC0021199009", "npdes_id": "DC0021199", "permitting_state": "DC", "agency_type_code": "EP6", "facility_uin": "110029030144", "facility_name": "D.C. WASA (BLUE PLAINS)", "location_address": "5000 OVERLOOK AVE, SW", "supplemental_address_text": "", "facility_city": "WASHINGTON", "county_code": "DC001", "state_code": "DC", "epa_region_code": "03", "facility_type_code": "MWD", "facility_lat": 38.813611, "facility_lon": -77.0275, "permit_name": "D.C. WASA (BLUE PLAINS)", "version_nmbr": 0, "permit_type_code": "NPD", "effective_date": 1535241600000, "expiration_date": 1692921600000, "permit_status_code": "ADC", "facility_type_indicator": "POTW", "major_minor_status_flag": "M", "permit_tracking": "Y", "pt_start_date": 1535241600000, "dmr_tracking": "Y", "dmr_nr_start_date": 1535241600000, "permit_design_flow": 370, "permit_avg_flow": null, "perm_feature_nmbr": "009", "perm_feature_text": "2nd Street, 300 feet north of N Place, SE", "pf_lat": 38.872501, "pf_lon": -77.004166, "pf_character": "CSO", "perm_feature_type_code": "EXO", "pf_state_waterbody_name": "Anacostia River, West Side", "pf_state_auto_name": "Anacostia River", "pf_reach_id": "2070010001222", "in_icis": "YES", "echo_dfr_link": "https://echo.epa.gov/detailed-facility-report?fid=110029030144", "name": "D.C. WASA (BLUE PLAINS)", "feature_kind": "CSO outfall"}}, {"type": "Feature", "id": 1748, "geometry": {"type": "Point", "coordinates": [-77.0038906836067, 38.8730552197511]}, "properties": {"OBJECTID": 1748, "npdes_pfid": "DC0021199010", "npdes_id": "DC0021199", "permitting_state": "DC", "agency_type_code": "EP6", "facility_uin": "110029030144", "facility_name": "D.C. WASA (BLUE PLAINS)", "location_address": "5000 OVERLOOK AVE, SW", "supplemental_address_text": "", "facility_city": "WASHINGTON", "county_code": "DC001", "state_code": "DC", "epa_region_code": "03", "facility_type_code": "MWD", "facility_lat": 38.813611, "facility_lon": -77.0275, "permit_name": "D.C. WASA (BLUE PLAINS)", "version_nmbr": 0, "permit_type_code": "NPD", "effective_date": 1535241600000, "expiration_date": 1692921600000, "permit_status_code": "ADC", "facility_type_indicator": "POTW", "major_minor_status_flag": "M", "permit_tracking": "Y", "pt_start_date": 1535241600000, "dmr_tracking": "Y", "dmr_nr_start_date": 1535241600000, "permit_design_flow": 370, "permit_avg_flow": null, "perm_feature_nmbr": "010", "perm_feature_text": "O Street Sewage Pumping Station, SE", "pf_lat": 38.873055, "pf_lon": -77.003891, "pf_character": "CSO", "perm_feature_type_code": "EXO", "pf_state_waterbody_name": "Anacostia River, West Side", "pf_state_auto_name": "Anacostia River", "pf_reach_id": "2070010001222", "in_icis": "YES", "echo_dfr_link": "https://echo.epa.gov/detailed-facility-report?fid=110029030144", "name": "D.C. WASA (BLUE PLAINS)", "feature_kind": "CSO outfall"}}, {"type": "Feature", "id": 1749, "geometry": {"type": "Point", "coordinates": [-77.0047234218751, 38.8727761694066]}, "properties": {"OBJECTID": 1749, "npdes_pfid": "DC0021199011", "npdes_id": "DC0021199", "permitting_state": "DC", "agency_type_code": "EP6", "facility_uin": "110029030144", "facility_name": "D.C. WASA (BLUE PLAINS)", "location_address": "5000 OVERLOOK AVE, SW", "supplemental_address_text": "", "facility_city": "WASHINGTON", "county_code": "DC001", "state_code": "DC", "epa_region_code": "03", "facility_type_code": "MWD", "facility_lat": 38.813611, "facility_lon": -77.0275, "permit_name": "D.C. WASA (BLUE PLAINS)", "version_nmbr": 0, "permit_type_code": "NPD", "effective_date": 1535241600000, "expiration_date": 1692921600000, "permit_status_code": "ADC", "facility_type_indicator": "POTW", "major_minor_status_flag": "M", "permit_tracking": "Y", "pt_start_date": 1535241600000, "dmr_tracking": "Y", "dmr_nr_start_date": 1535241600000, "permit_design_flow": 370, "permit_avg_flow": null, "perm_feature_nmbr": "011", "perm_feature_text": "South of Main Sewage Pumping Station, SE", "pf_lat": 38.872776, "pf_lon": -77.004723, "pf_character": "CSO", "perm_feature_type_code": "EXO", "pf_state_waterbody_name": "Anacostia River, West Side", "pf_state_auto_name": "Anacostia River", "pf_reach_id": "2070010001222", "in_icis": "YES", "echo_dfr_link": "https://echo.epa.gov/detailed-facility-report?fid=110029030144", "name": "D.C. WASA (BLUE PLAINS)", "feature_kind": "CSO outfall"}}, {"type": "Feature", "id": 1750, "geometry": {"type": "Point", "coordinates": [-77.0047234218751, 38.8727761694066]}, "properties": {"OBJECTID": 1750, "npdes_pfid": "DC0021199011A", "npdes_id": "DC0021199", "permitting_state": "DC", "agency_type_code": "EP6", "facility_uin": "110029030144", "facility_name": "D.C. WASA (BLUE PLAINS)", "location_address": "5000 OVERLOOK AVE, SW", "supplemental_address_text": "", "facility_city": "WASHINGTON", "county_code": "DC001", "state_code": "DC", "epa_region_code": "03", "facility_type_code": "MWD", "facility_lat": 38.813611, "facility_lon": -77.0275, "permit_name": "D.C. WASA (BLUE PLAINS)", "version_nmbr": 0, "permit_type_code": "NPD", "effective_date": 1535241600000, "expiration_date": 1692921600000, "permit_status_code": "ADC", "facility_type_indicator": "POTW", "major_minor_status_flag": "M", "permit_tracking": "Y", "pt_start_date": 1535241600000, "dmr_tracking": "Y", "dmr_nr_start_date": 1535241600000, "permit_design_flow": 370, "permit_avg_flow": null, "perm_feature_nmbr": "011A", "perm_feature_text": "Main Street and New Jersey Avenue, South of Main Sewage Pump Station, SE", "pf_lat": 38.872776, "pf_lon": -77.004723, "pf_character": "CSO", "perm_feature_type_code": "EXO", "pf_state_waterbody_name": "Anacostia River, West Side", "pf_state_auto_name": "Anacostia River", "pf_reach_id": "2070010001222", "in_icis": "YES", "echo_dfr_link": "https://echo.epa.gov/detailed-facility-report?fid=110029030144", "name": "D.C. WASA (BLUE PLAINS)", "feature_kind": "CSO outfall"}}, {"type": "Feature", "id": 1751, "geometry": {"type": "Point", "coordinates": [-77.0025018881774, 38.8727761694066]}, "properties": {"OBJECTID": 1751, "npdes_pfid": "DC0021199012", "npdes_id": "DC0021199", "permitting_state": "DC", "agency_type_code": "EP6", "facility_uin": "110029030144", "facility_name": "D.C. WASA (BLUE PLAINS)", "location_address": "5000 OVERLOOK AVE, SW", "supplemental_address_text": "", "facility_city": "WASHINGTON", "county_code": "DC001", "state_code": "DC", "epa_region_code": "03", "facility_type_code": "MWD", "facility_lat": 38.813611, "facility_lon": -77.0275, "permit_name": "D.C. WASA (BLUE PLAINS)", "version_nmbr": 0, "permit_type_code": "NPD", "effective_date": 1535241600000, "expiration_date": 1692921600000, "permit_status_code": "ADC", "facility_type_indicator": "POTW", "major_minor_status_flag": "M", "permit_tracking": "Y", "pt_start_date": 1535241600000, "dmr_tracking": "Y", "dmr_nr_start_date": 1535241600000, "permit_design_flow": 370, "permit_avg_flow": null, "perm_feature_nmbr": "012", "perm_feature_text": "North of Main Sewage Pumping Station, SE", "pf_lat": 38.872776, "pf_lon": -77.002502, "pf_character": "CSO", "perm_feature_type_code": "EXO", "pf_state_waterbody_name": "Anacostia River, West Side", "pf_state_auto_name": "Anacostia River", "pf_reach_id": "2070010001222", "in_icis": "YES", "echo_dfr_link": "https://echo.epa.gov/detailed-facility-report?fid=110029030144", "name": "D.C. WASA (BLUE PLAINS)", "feature_kind": "CSO outfall"}}, {"type": "Feature", "id": 1752, "geometry": {"type": "Point", "coordinates": [-77.0025018881774, 38.8727761694066]}, "properties": {"OBJECTID": 1752, "npdes_pfid": "DC0021199013", "npdes_id": "DC0021199", "permitting_state": "DC", "agency_type_code": "EP6", "facility_uin": "110029030144", "facility_name": "D.C. WASA (BLUE PLAINS)", "location_address": "5000 OVERLOOK AVE, SW", "supplemental_address_text": "", "facility_city": "WASHINGTON", "county_code": "DC001", "state_code": "DC", "epa_region_code": "03", "facility_type_code": "MWD", "facility_lat": 38.813611, "facility_lon": -77.0275, "permit_name": "D.C. WASA (BLUE PLAINS)", "version_nmbr": 0, "permit_type_code": "NPD", "effective_date": 1535241600000, "expiration_date": 1692921600000, "permit_status_code": "ADC", "facility_type_indicator": "POTW", "major_minor_status_flag": "M", "permit_tracking": "Y", "pt_start_date": 1535241600000, "dmr_tracking": "Y", "dmr_nr_start_date": 1535241600000, "permit_design_flow": 370, "permit_avg_flow": null, "perm_feature_nmbr": "013", "perm_feature_text": "4th and N Street, SE", "pf_lat": 38.872776, "pf_lon": -77.002502, "pf_character": "CSO", "perm_feature_type_code": "EXO", "pf_state_waterbody_name": "Anacostia River, West Side", "pf_state_auto_name": "Anacostia River", "pf_reach_id": "2070010001222", "in_icis": "YES", "echo_dfr_link": "https://echo.epa.gov/detailed-facility-report?fid=110029030144", "name": "D.C. WASA (BLUE PLAINS)", "feature_kind": "CSO outfall"}}, {"type": "Feature", "id": 1753, "geometry": {"type": "Point", "coordinates": [-76.999443124635, 38.8730552197511]}, "properties": {"OBJECTID": 1753, "npdes_pfid": "DC0021199014", "npdes_id": "DC0021199", "permitting_state": "DC", "agency_type_code": "EP6", "facility_uin": "110029030144", "facility_name": "D.C. WASA (BLUE PLAINS)", "location_address": "5000 OVERLOOK AVE, SW", "supplemental_address_text": "", "facility_city": "WASHINGTON", "county_code": "DC001", "state_code": "DC", "epa_region_code": "03", "facility_type_code": "MWD", "facility_lat": 38.813611, "facility_lon": -77.0275, "permit_name": "D.C. WASA (BLUE PLAINS)", "version_nmbr": 0, "permit_type_code": "NPD", "effective_date": 1535241600000, "expiration_date": 1692921600000, "permit_status_code": "ADC", "facility_type_indicator": "POTW", "major_minor_status_flag": "M", "permit_tracking": "Y", "pt_start_date": 1535241600000, "dmr_tracking": "Y", "dmr_nr_start_date": 1535241600000, "permit_design_flow": 370, "permit_avg_flow": null, "perm_feature_nmbr": "014", "perm_feature_text": "6th and M Street, SE", "pf_lat": 38.873055, "pf_lon": -76.999443, "pf_character": "CSO", "perm_feature_type_code": "EXO", "pf_state_waterbody_name": "Anacostia River, West Side", "pf_state_auto_name": "Anacostia River", "pf_reach_id": "2070010001222", "in_icis": "YES", "echo_dfr_link": "https://echo.epa.gov/detailed-facility-report?fid=110029030144", "name": "D.C. WASA (BLUE PLAINS)", "feature_kind": "CSO outfall"}}, {"type": "Feature", "id": 1754, "geometry": {"type": "Point", "coordinates": [-76.9938888412333, 38.8716662515525]}, "properties": {"OBJECTID": 1754, "npdes_pfid": "DC0021199015", "npdes_id": "DC0021199", "permitting_state": "DC", "agency_type_code": "EP6", "facility_uin": "110029030144", "facility_name": "D.C. WASA (BLUE PLAINS)", "location_address": "5000 OVERLOOK AVE, SW", "supplemental_address_text": "", "facility_city": "WASHINGTON", "county_code": "DC001", "state_code": "DC", "epa_region_code": "03", "facility_type_code": "MWD", "facility_lat": 38.813611, "facility_lon": -77.0275, "permit_name": "D.C. WASA (BLUE PLAINS)", "version_nmbr": 0, "permit_type_code": "NPD", "effective_date": 1535241600000, "expiration_date": 1692921600000, "permit_status_code": "ADC", "facility_type_indicator": "POTW", "major_minor_status_flag": "M", "permit_tracking": "Y", "pt_start_date": 1535241600000, "dmr_tracking": "Y", "dmr_nr_start_date": 1535241600000, "permit_design_flow": 370, "permit_avg_flow": null, "perm_feature_nmbr": "015", "perm_feature_text": "9th and M Street, SE", "pf_lat": 38.871666, "pf_lon": -76.993889, "pf_character": "CSO", "perm_feature_type_code": "EXO", "pf_state_waterbody_name": "Anacostia River", "pf_state_auto_name": "Anacostia River", "pf_reach_id": "2070010001222", "in_icis": "YES", "echo_dfr_link": "https://echo.epa.gov/detailed-facility-report?fid=110029030144", "name": "D.C. WASA (BLUE PLAINS)", "feature_kind": "CSO outfall"}}, {"type": "Feature", "id": 1755, "geometry": {"type": "Point", "coordinates": [-76.9911121486901, 38.8722229610989]}, "properties": {"OBJECTID": 1755, "npdes_pfid": "DC0021199016", "npdes_id": "DC0021199", "permitting_state": "DC", "agency_type_code": "EP6", "facility_uin": "110029030144", "facility_name": "D.C. WASA (BLUE PLAINS)", "location_address": "5000 OVERLOOK AVE, SW", "supplemental_address_text": "", "facility_city": "WASHINGTON", "county_code": "DC001", "state_code": "DC", "epa_region_code": "03", "facility_type_code": "MWD", "facility_lat": 38.813611, "facility_lon": -77.0275, "permit_name": "D.C. WASA (BLUE PLAINS)", "version_nmbr": 0, "permit_type_code": "NPD", "effective_date": 1535241600000, "expiration_date": 1692921600000, "permit_status_code": "ADC", "facility_type_indicator": "POTW", "major_minor_status_flag": "M", "permit_tracking": "Y", "pt_start_date": 1535241600000, "dmr_tracking": "Y", "dmr_nr_start_date": 1535241600000, "permit_design_flow": 370, "permit_avg_flow": null, "perm_feature_nmbr": "016", "perm_feature_text": "12th and M Street, SE", "pf_lat": 38.872223, "pf_lon": -76.991112, "pf_character": "CSO", "perm_feature_type_code": "EXO", "pf_state_waterbody_name": "Anacostia River, West Side", "pf_state_auto_name": "Anacostia River", "pf_reach_id": "2070010001222", "in_icis": "YES", "echo_dfr_link": "https://echo.epa.gov/detailed-facility-report?fid=110029030144", "name": "D.C. WASA (BLUE PLAINS)", "feature_kind": "CSO outfall"}}, {"type": "Feature", "id": 1756, "geometry": {"type": "Point", "coordinates": [-76.9911121486901, 38.8752777921522]}, "properties": {"OBJECTID": 1756, "npdes_pfid": "DC0021199017", "npdes_id": "DC0021199", "permitting_state": "DC", "agency_type_code": "EP6", "facility_uin": "110029030144", "facility_name": "D.C. WASA (BLUE PLAINS)", "location_address": "5000 OVERLOOK AVE, SW", "supplemental_address_text": "", "facility_city": "WASHINGTON", "county_code": "DC001", "state_code": "DC", "epa_region_code": "03", "facility_type_code": "MWD", "facility_lat": 38.813611, "facility_lon": -77.0275, "permit_name": "D.C. WASA (BLUE PLAINS)", "version_nmbr": 0, "permit_type_code": "NPD", "effective_date": 1535241600000, "expiration_date": 1692921600000, "permit_status_code": "ADC", "facility_type_indicator": "POTW", "major_minor_status_flag": "M", "permit_tracking": "Y", "pt_start_date": 1535241600000, "dmr_tracking": "Y", "dmr_nr_start_date": 1535241600000, "permit_design_flow": 370, "permit_avg_flow": null, "perm_feature_nmbr": "017", "perm_feature_text": "14th and M Street, SE", "pf_lat": 38.875278, "pf_lon": -76.991112, "pf_character": "CSO", "perm_feature_type_code": "EXO", "pf_state_waterbody_name": "Anacostia River", "pf_state_auto_name": "Anacostia River", "pf_reach_id": "2070010001222", "in_icis": "YES", "echo_dfr_link": "https://echo.epa.gov/detailed-facility-report?fid=110029030144", "name": "D.C. WASA (BLUE PLAINS)", "feature_kind": "CSO outfall"}}, {"type": "Feature", "id": 1757, "geometry": {"type": "Point", "coordinates": [-76.9824982034307, 38.8774988963908]}, "properties": {"OBJECTID": 1757, "npdes_pfid": "DC0021199018", "npdes_id": "DC0021199", "permitting_state": "DC", "agency_type_code": "EP6", "facility_uin": "110029030144", "facility_name": "D.C. WASA (BLUE PLAINS)", "location_address": "5000 OVERLOOK AVE, SW", "supplemental_address_text": "", "facility_city": "WASHINGTON", "county_code": "DC001", "state_code": "DC", "epa_region_code": "03", "facility_type_code": "MWD", "facility_lat": 38.813611, "facility_lon": -77.0275, "permit_name": "D.C. WASA (BLUE PLAINS)", "version_nmbr": 0, "permit_type_code": "NPD", "effective_date": 1535241600000, "expiration_date": 1692921600000, "permit_status_code": "ADC", "facility_type_indicator": "POTW", "major_minor_status_flag": "M", "permit_tracking": "Y", "pt_start_date": 1535241600000, "dmr_tracking": "Y", "dmr_nr_start_date": 1535241600000, "permit_design_flow": 370, "permit_avg_flow": null, "perm_feature_nmbr": "018", "perm_feature_text": "Barney Circle and Penn. Avenue, SE", "pf_lat": 38.877499, "pf_lon": -76.982498, "pf_character": "CSO", "perm_feature_type_code": "EXO", "pf_state_waterbody_name": "Anacostia River", "pf_state_auto_name": "Anacostia River", "pf_reach_id": "2070010001222", "in_icis": "YES", "echo_dfr_link": "https://echo.epa.gov/detailed-facility-report?fid=110029030144", "name": "D.C. WASA (BLUE PLAINS)", "feature_kind": "CSO outfall"}}, {"type": "Feature", "id": 1758, "geometry": {"type": "Point", "coordinates": [-76.9719465921034, 38.8852771093209]}, "properties": {"OBJECTID": 1758, "npdes_pfid": "DC0021199019", "npdes_id": "DC0021199", "permitting_state": "DC", "agency_type_code": "EP6", "facility_uin": "110029030144", "facility_name": "D.C. WASA (BLUE PLAINS)", "location_address": "5000 OVERLOOK AVE, SW", "supplemental_address_text": "", "facility_city": "WASHINGTON", "county_code": "DC001", "state_code": "DC", "epa_region_code": "03", "facility_type_code": "MWD", "facility_lat": 38.813611, "facility_lon": -77.0275, "permit_name": "D.C. WASA (BLUE PLAINS)", "version_nmbr": 0, "permit_type_code": "NPD", "effective_date": 1535241600000, "expiration_date": 1692921600000, "permit_status_code": "ADC", "facility_type_indicator": "POTW", "major_minor_status_flag": "M", "permit_tracking": "Y", "pt_start_date": 1535241600000, "dmr_tracking": "Y", "dmr_nr_start_date": 1535241600000, "permit_design_flow": 370, "permit_avg_flow": null, "perm_feature_nmbr": "019", "perm_feature_text": "N.E. Boundary Trunk, Vic of 25th and E streets, SE", "pf_lat": 38.885277, "pf_lon": -76.971947, "pf_character": "CSO", "perm_feature_type_code": "EXO", "pf_state_waterbody_name": "Anacostia River, West Side", "pf_state_auto_name": "Potomac River", "pf_reach_id": "2070010000046", "in_icis": "YES", "echo_dfr_link": "https://echo.epa.gov/detailed-facility-report?fid=110029030144", "name": "D.C. WASA (BLUE PLAINS)", "feature_kind": "CSO outfall"}}, {"type": "Feature", "id": 1759, "geometry": {"type": "Point", "coordinates": [-76.9711111588892, 38.8833331603675]}, "properties": {"OBJECTID": 1759, "npdes_pfid": "DC0021199019A", "npdes_id": "DC0021199", "permitting_state": "DC", "agency_type_code": "EP6", "facility_uin": "110029030144", "facility_name": "D.C. WASA (BLUE PLAINS)", "location_address": "5000 OVERLOOK AVE, SW", "supplemental_address_text": "", "facility_city": "WASHINGTON", "county_code": "DC001", "state_code": "DC", "epa_region_code": "03", "facility_type_code": "MWD", "facility_lat": 38.813611, "facility_lon": -77.0275, "permit_name": "D.C. WASA (BLUE PLAINS)", "version_nmbr": 0, "permit_type_code": "NPD", "effective_date": 1535241600000, "expiration_date": 1692921600000, "permit_status_code": "ADC", "facility_type_indicator": "POTW", "major_minor_status_flag": "M", "permit_tracking": "Y", "pt_start_date": 1535241600000, "dmr_tracking": "Y", "dmr_nr_start_date": 1535241600000, "permit_design_flow": 370, "permit_avg_flow": null, "perm_feature_nmbr": "019A", "perm_feature_text": "Overflow on Anacostia River Tunnel (Adjacent to CSO 019)", "pf_lat": 38.8833334, "pf_lon": -76.971111, "pf_character": "CSO", "perm_feature_type_code": "EXO", "pf_state_waterbody_name": "Anacostia River, West Side", "pf_state_auto_name": "Lower Anacostia River", "pf_reach_id": "2070010001219", "in_icis": "YES", "echo_dfr_link": "https://echo.epa.gov/detailed-facility-report?fid=110029030144", "name": "D.C. WASA (BLUE PLAINS)", "feature_kind": "CSO outfall"}}, {"type": "Feature", "id": 1760, "geometry": {"type": "Point", "coordinates": [-77.0508348437242, 38.8861120120756]}, "properties": {"OBJECTID": 1760, "npdes_pfid": "DC0021199020", "npdes_id": "DC0021199", "permitting_state": "DC", "agency_type_code": "EP6", "facility_uin": "110029030144", "facility_name": "D.C. WASA (BLUE PLAINS)", "location_address": "5000 OVERLOOK AVE, SW", "supplemental_address_text": "", "facility_city": "WASHINGTON", "county_code": "DC001", "state_code": "DC", "epa_region_code": "03", "facility_type_code": "MWD", "facility_lat": 38.813611, "facility_lon": -77.0275, "permit_name": "D.C. WASA (BLUE PLAINS)", "version_nmbr": 0, "permit_type_code": "NPD", "effective_date": 1535241600000, "expiration_date": 1692921600000, "permit_status_code": "ADC", "facility_type_indicator": "POTW", "major_minor_status_flag": "M", "permit_tracking": "Y", "pt_start_date": 1535241600000, "dmr_tracking": "Y", "dmr_nr_start_date": 1535241600000, "permit_design_flow": 370, "permit_avg_flow": null, "perm_feature_nmbr": "020", "perm_feature_text": "23rd Street, North of Constitution Ave, NW", "pf_lat": 38.886112, "pf_lon": -77.050835, "pf_character": "CSO", "perm_feature_type_code": "EXO", "pf_state_waterbody_name": "Potomac River, East Side", "pf_state_auto_name": "Potomac River", "pf_reach_id": "2070010001252", "in_icis": "YES", "echo_dfr_link": "https://echo.epa.gov/detailed-facility-report?fid=110029030144", "name": "D.C. WASA (BLUE PLAINS)", "feature_kind": "CSO outfall"}}, {"type": "Feature", "id": 1761, "geometry": {"type": "Point", "coordinates": [-77.0530545807913, 38.8886110677104]}, "properties": {"OBJECTID": 1761, "npdes_pfid": "DC0021199021", "npdes_id": "DC0021199", "permitting_state": "DC", "agency_type_code": "EP6", "facility_uin": "110029030144", "facility_name": "D.C. WASA (BLUE PLAINS)", "location_address": "5000 OVERLOOK AVE, SW", "supplemental_address_text": "", "facility_city": "WASHINGTON", "county_code": "DC001", "state_code": "DC", "epa_region_code": "03", "facility_type_code": "MWD", "facility_lat": 38.813611, "facility_lon": -77.0275, "permit_name": "D.C. WASA (BLUE PLAINS)", "version_nmbr": 0, "permit_type_code": "NPD", "effective_date": 1535241600000, "expiration_date": 1692921600000, "permit_status_code": "ADC", "facility_type_indicator": "POTW", "major_minor_status_flag": "M", "permit_tracking": "Y", "pt_start_date": 1535241600000, "dmr_tracking": "Y", "dmr_nr_start_date": 1535241600000, "permit_design_flow": 370, "permit_avg_flow": null, "perm_feature_nmbr": "021", "perm_feature_text": "N.E. of Roosevelt Bridge, NW", "pf_lat": 38.888611, "pf_lon": -77.053055, "pf_character": "CSO", "perm_feature_type_code": "EXO", "pf_state_waterbody_name": "Potomac River, East Side", "pf_state_auto_name": "Potomac River", "pf_reach_id": "2070010001252", "in_icis": "YES", "echo_dfr_link": "https://echo.epa.gov/detailed-facility-report?fid=110029030144", "name": "D.C. WASA (BLUE PLAINS)", "feature_kind": "CSO outfall"}}, {"type": "Feature", "id": 1762, "geometry": {"type": "Point", "coordinates": [-77.0575003431324, 38.8977779473633]}, "properties": {"OBJECTID": 1762, "npdes_pfid": "DC0021199022", "npdes_id": "DC0021199", "permitting_state": "DC", "agency_type_code": "EP6", "facility_uin": "110029030144", "facility_name": "D.C. WASA (BLUE PLAINS)", "location_address": "5000 OVERLOOK AVE, SW", "supplemental_address_text": "", "facility_city": "WASHINGTON", "county_code": "DC001", "state_code": "DC", "epa_region_code": "03", "facility_type_code": "MWD", "facility_lat": 38.813611, "facility_lon": -77.0275, "permit_name": "D.C. WASA (BLUE PLAINS)", "version_nmbr": 0, "permit_type_code": "NPD", "effective_date": 1535241600000, "expiration_date": 1692921600000, "permit_status_code": "ADC", "facility_type_indicator": "POTW", "major_minor_status_flag": "M", "permit_tracking": "Y", "pt_start_date": 1535241600000, "dmr_tracking": "Y", "dmr_nr_start_date": 1535241600000, "permit_design_flow": 370, "permit_avg_flow": null, "perm_feature_nmbr": "022", "perm_feature_text": "27th and K Street, NW", "pf_lat": 38.897778, "pf_lon": -77.0575, "pf_character": "CSO", "perm_feature_type_code": "EXO", "pf_state_waterbody_name": "Potomac River, East Side", "pf_state_auto_name": "Potomac River", "pf_reach_id": "2070010001252", "in_icis": "YES", "echo_dfr_link": "https://echo.epa.gov/detailed-facility-report?fid=110029030144", "name": "D.C. WASA (BLUE PLAINS)", "feature_kind": "CSO outfall"}}, {"type": "Feature", "id": 1763, "geometry": {"type": "Point", "coordinates": [-77.0594478906684, 38.9013902580832]}, "properties": {"OBJECTID": 1763, "npdes_pfid": "DC0021199024", "npdes_id": "DC0021199", "permitting_state": "DC", "agency_type_code": "EP6", "facility_uin": "110029030144", "facility_name": "D.C. WASA (BLUE PLAINS)", "location_address": "5000 OVERLOOK AVE, SW", "supplemental_address_text": "", "facility_city": "WASHINGTON", "county_code": "DC001", "state_code": "DC", "epa_region_code": "03", "facility_type_code": "MWD", "facility_lat": 38.813611, "facility_lon": -77.0275, "permit_name": "D.C. WASA (BLUE PLAINS)", "version_nmbr": 0, "permit_type_code": "NPD", "effective_date": 1535241600000, "expiration_date": 1692921600000, "permit_status_code": "ADC", "facility_type_indicator": "POTW", "major_minor_status_flag": "M", "permit_tracking": "Y", "pt_start_date": 1535241600000, "dmr_tracking": "Y", "dmr_nr_start_date": 1535241600000, "permit_design_flow": 370, "permit_avg_flow": null, "perm_feature_nmbr": "024", "perm_feature_text": "30th and K Street, NW", "pf_lat": 38.90139, "pf_lon": -77.059448, "pf_character": "CSO", "perm_feature_type_code": "EXO", "pf_state_waterbody_name": "Potomac River, East Side", "pf_state_auto_name": "Potomac River", "pf_reach_id": "2070010001253", "in_icis": "YES", "echo_dfr_link": "https://echo.epa.gov/detailed-facility-report?fid=110029030144", "name": "D.C. WASA (BLUE PLAINS)", "feature_kind": "CSO outfall"}}, {"type": "Feature", "id": 1764, "geometry": {"type": "Point", "coordinates": [-77.0622245832116, 38.9008330779575]}, "properties": {"OBJECTID": 1764, "npdes_pfid": "DC0021199025", "npdes_id": "DC0021199", "permitting_state": "DC", "agency_type_code": "EP6", "facility_uin": "110029030144", "facility_name": "D.C. WASA (BLUE PLAINS)", "location_address": "5000 OVERLOOK AVE, SW", "supplemental_address_text": "", "facility_city": "WASHINGTON", "county_code": "DC001", "state_code": "DC", "epa_region_code": "03", "facility_type_code": "MWD", "facility_lat": 38.813611, "facility_lon": -77.0275, "permit_name": "D.C. WASA (BLUE PLAINS)", "version_nmbr": 0, "permit_type_code": "NPD", "effective_date": 1535241600000, "expiration_date": 1692921600000, "permit_status_code": "ADC", "facility_type_indicator": "POTW", "major_minor_status_flag": "M", "permit_tracking": "Y", "pt_start_date": 1535241600000, "dmr_tracking": "Y", "dmr_nr_start_date": 1535241600000, "permit_design_flow": 370, "permit_avg_flow": null, "perm_feature_nmbr": "025", "perm_feature_text": "31st and K Street, NW", "pf_lat": 38.900833, "pf_lon": -77.062225, "pf_character": "CSO", "perm_feature_type_code": "EXO", "pf_state_waterbody_name": "Potomac River, East Side", "pf_state_auto_name": "Potomac River", "pf_reach_id": "2070010001253", "in_icis": "YES", "echo_dfr_link": "https://echo.epa.gov/detailed-facility-report?fid=110029030144", "name": "D.C. WASA (BLUE PLAINS)", "feature_kind": "CSO outfall"}}, {"type": "Feature", "id": 1765, "geometry": {"type": "Point", "coordinates": [-77.0630573214799, 38.901669196052]}, "properties": {"OBJECTID": 1765, "npdes_pfid": "DC0021199026", "npdes_id": "DC0021199", "permitting_state": "DC", "agency_type_code": "EP6", "facility_uin": "110029030144", "facility_name": "D.C. WASA (BLUE PLAINS)", "location_address": "5000 OVERLOOK AVE, SW", "supplemental_address_text": "", "facility_city": "WASHINGTON", "county_code": "DC001", "state_code": "DC", "epa_region_code": "03", "facility_type_code": "MWD", "facility_lat": 38.813611, "facility_lon": -77.0275, "permit_name": "D.C. WASA (BLUE PLAINS)", "version_nmbr": 0, "permit_type_code": "NPD", "effective_date": 1535241600000, "expiration_date": 1692921600000, "permit_status_code": "ADC", "facility_type_indicator": "POTW", "major_minor_status_flag": "M", "permit_tracking": "Y", "pt_start_date": 1535241600000, "dmr_tracking": "Y", "dmr_nr_start_date": 1535241600000, "permit_design_flow": 370, "permit_avg_flow": null, "perm_feature_nmbr": "026", "perm_feature_text": "Wisconsin Avenue and K Street, NW", "pf_lat": 38.901669, "pf_lon": -77.063057, "pf_character": "CSO", "perm_feature_type_code": "EXO", "pf_state_waterbody_name": "Potomac River, East Side", "pf_state_auto_name": "Potomac River", "pf_reach_id": "2070010001253", "in_icis": "YES", "echo_dfr_link": "https://echo.epa.gov/detailed-facility-report?fid=110029030144", "name": "D.C. WASA (BLUE PLAINS)", "feature_kind": "CSO outfall"}}, {"type": "Feature", "id": 1766, "geometry": {"type": "Point", "coordinates": [-77.0658340140232, 38.9036098469254]}, "properties": {"OBJECTID": 1766, "npdes_pfid": "DC0021199027", "npdes_id": "DC0021199", "permitting_state": "DC", "agency_type_code": "EP6", "facility_uin": "110029030144", "facility_name": "D.C. WASA (BLUE PLAINS)", "location_address": "5000 OVERLOOK AVE, SW", "supplemental_address_text": "", "facility_city": "WASHINGTON", "county_code": "DC001", "state_code": "DC", "epa_region_code": "03", "facility_type_code": "MWD", "facility_lat": 38.813611, "facility_lon": -77.0275, "permit_name": "D.C. WASA (BLUE PLAINS)", "version_nmbr": 0, "permit_type_code": "NPD", "effective_date": 1535241600000, "expiration_date": 1692921600000, "permit_status_code": "ADC", "facility_type_indicator": "POTW", "major_minor_status_flag": "M", "permit_tracking": "Y", "pt_start_date": 1535241600000, "dmr_tracking": "Y", "dmr_nr_start_date": 1535241600000, "permit_design_flow": 370, "permit_avg_flow": null, "perm_feature_nmbr": "027", "perm_feature_text": "Water Street, NW", "pf_lat": 38.90361, "pf_lon": -77.065834, "pf_character": "CSO", "perm_feature_type_code": "EXO", "pf_state_waterbody_name": "Potomac River, East Side", "pf_state_auto_name": "Potomac River", "pf_reach_id": "2070010001253", "in_icis": "YES", "echo_dfr_link": "https://echo.epa.gov/detailed-facility-report?fid=110029030144", "name": "D.C. WASA (BLUE PLAINS)", "feature_kind": "CSO outfall"}}, {"type": "Feature", "id": 1767, "geometry": {"type": "Point", "coordinates": [-77.0716631819018, 38.9036098469254]}, "properties": {"OBJECTID": 1767, "npdes_pfid": "DC0021199028", "npdes_id": "DC0021199", "permitting_state": "DC", "agency_type_code": "EP6", "facility_uin": "110029030144", "facility_name": "D.C. WASA (BLUE PLAINS)", "location_address": "5000 OVERLOOK AVE, SW", "supplemental_address_text": "", "facility_city": "WASHINGTON", "county_code": "DC001", "state_code": "DC", "epa_region_code": "03", "facility_type_code": "MWD", "facility_lat": 38.813611, "facility_lon": -77.0275, "permit_name": "D.C. WASA (BLUE PLAINS)", "version_nmbr": 0, "permit_type_code": "NPD", "effective_date": 1535241600000, "expiration_date": 1692921600000, "permit_status_code": "ADC", "facility_type_indicator": "POTW", "major_minor_status_flag": "M", "permit_tracking": "Y", "pt_start_date": 1535241600000, "dmr_tracking": "Y", "dmr_nr_start_date": 1535241600000, "permit_design_flow": 370, "permit_avg_flow": null, "perm_feature_nmbr": "028", "perm_feature_text": "36th and M Street, NW", "pf_lat": 38.90361, "pf_lon": -77.071663, "pf_character": "CSO", "perm_feature_type_code": "EXO", "pf_state_waterbody_name": "Potomac River, East Side", "pf_state_auto_name": "Potomac River", "pf_reach_id": "2070010001253", "in_icis": "YES", "echo_dfr_link": "https://echo.epa.gov/detailed-facility-report?fid=110029030144", "name": "D.C. WASA (BLUE PLAINS)", "feature_kind": "CSO outfall"}}, {"type": "Feature", "id": 1768, "geometry": {"type": "Point", "coordinates": [-77.0763847270351, 38.904724159224]}, "properties": {"OBJECTID": 1768, "npdes_pfid": "DC0021199029", "npdes_id": "DC0021199", "permitting_state": "DC", "agency_type_code": "EP6", "facility_uin": "110029030144", "facility_name": "D.C. WASA (BLUE PLAINS)", "location_address": "5000 OVERLOOK AVE, SW", "supplemental_address_text": "", "facility_city": "WASHINGTON", "county_code": "DC001", "state_code": "DC", "epa_region_code": "03", "facility_type_code": "MWD", "facility_lat": 38.813611, "facility_lon": -77.0275, "permit_name": "D.C. WASA (BLUE PLAINS)", "version_nmbr": 0, "permit_type_code": "NPD", "effective_date": 1535241600000, "expiration_date": 1692921600000, "permit_status_code": "ADC", "facility_type_indicator": "POTW", "major_minor_status_flag": "M", "permit_tracking": "Y", "pt_start_date": 1535241600000, "dmr_tracking": "Y", "dmr_nr_start_date": 1535241600000, "permit_design_flow": 370, "permit_avg_flow": null, "perm_feature_nmbr": "029", "perm_feature_text": "Canal Road, 1000 feet east of Rock Creek, NW", "pf_lat": 38.904724, "pf_lon": -77.076385, "pf_character": "CSO", "perm_feature_type_code": "EXO", "pf_state_waterbody_name": "Potomac River, East Side", "pf_state_auto_name": "Potomac River", "pf_reach_id": "2070010001253", "in_icis": "YES", "echo_dfr_link": "https://echo.epa.gov/detailed-facility-report?fid=110029030144", "name": "D.C. WASA (BLUE PLAINS)", "feature_kind": "CSO outfall"}}, {"type": "Feature", "id": 1769, "geometry": {"type": "Point", "coordinates": [-77.0561106493878, 38.9063893034763]}, "properties": {"OBJECTID": 1769, "npdes_pfid": "DC0021199031", "npdes_id": "DC0021199", "permitting_state": "DC", "agency_type_code": "EP6", "facility_uin": "110029030144", "facility_name": "D.C. WASA (BLUE PLAINS)", "location_address": "5000 OVERLOOK AVE, SW", "supplemental_address_text": "", "facility_city": "WASHINGTON", "county_code": "DC001", "state_code": "DC", "epa_region_code": "03", "facility_type_code": "MWD", "facility_lat": 38.813611, "facility_lon": -77.0275, "permit_name": "D.C. WASA (BLUE PLAINS)", "version_nmbr": 0, "permit_type_code": "NPD", "effective_date": 1535241600000, "expiration_date": 1692921600000, "permit_status_code": "ADC", "facility_type_indicator": "POTW", "major_minor_status_flag": "M", "permit_tracking": "Y", "pt_start_date": 1535241600000, "dmr_tracking": "Y", "dmr_nr_start_date": 1535241600000, "permit_design_flow": 370, "permit_avg_flow": null, "perm_feature_nmbr": "031", "perm_feature_text": "Penn. Avenue, East Rock Creek, NW (SEPARATED)", "pf_lat": 38.906389, "pf_lon": -77.056111, "pf_character": "CSO", "perm_feature_type_code": "EXO", "pf_state_waterbody_name": "Rock Creek East Side", "pf_state_auto_name": "Rock Creek", "pf_reach_id": "2070010000087", "in_icis": "YES", "echo_dfr_link": "https://echo.epa.gov/detailed-facility-report?fid=110029030144", "name": "D.C. WASA (BLUE PLAINS)", "feature_kind": "CSO outfall"}}, {"type": "Feature", "id": 1770, "geometry": {"type": "Point", "coordinates": [-77.054726345535, 38.9061131802415]}, "properties": {"OBJECTID": 1770, "npdes_pfid": "DC0021199032", "npdes_id": "DC0021199", "permitting_state": "DC", "agency_type_code": "EP6", "facility_uin": "110029030144", "facility_name": "D.C. WASA (BLUE PLAINS)", "location_address": "5000 OVERLOOK AVE, SW", "supplemental_address_text": "", "facility_city": "WASHINGTON", "county_code": "DC001", "state_code": "DC", "epa_region_code": "03", "facility_type_code": "MWD", "facility_lat": 38.813611, "facility_lon": -77.0275, "permit_name": "D.C. WASA (BLUE PLAINS)", "version_nmbr": 0, "permit_type_code": "NPD", "effective_date": 1535241600000, "expiration_date": 1692921600000, "permit_status_code": "ADC", "facility_type_indicator": "POTW", "major_minor_status_flag": "M", "permit_tracking": "Y", "pt_start_date": 1535241600000, "dmr_tracking": "Y", "dmr_nr_start_date": 1535241600000, "permit_design_flow": 370, "permit_avg_flow": null, "perm_feature_nmbr": "032", "perm_feature_text": "26th and M Street, NW", "pf_lat": 38.906113, "pf_lon": -77.054726, "pf_character": "CSO", "perm_feature_type_code": "EXO", "pf_state_waterbody_name": "Rock Creek East Side", "pf_state_auto_name": "Rock Creek", "pf_reach_id": "2070010000087", "in_icis": "YES", "echo_dfr_link": "https://echo.epa.gov/detailed-facility-report?fid=110029030144", "name": "D.C. WASA (BLUE PLAINS)", "feature_kind": "CSO outfall"}}, {"type": "Feature", "id": 1771, "geometry": {"type": "Point", "coordinates": [-77.0552752161736, 38.9072232590296]}, "properties": {"OBJECTID": 1771, "npdes_pfid": "DC0021199033", "npdes_id": "DC0021199", "permitting_state": "DC", "agency_type_code": "EP6", "facility_uin": "110029030144", "facility_name": "D.C. WASA (BLUE PLAINS)", "location_address": "5000 OVERLOOK AVE, SW", "supplemental_address_text": "", "facility_city": "WASHINGTON", "county_code": "DC001", "state_code": "DC", "epa_region_code": "03", "facility_type_code": "MWD", "facility_lat": 38.813611, "facility_lon": -77.0275, "permit_name": "D.C. WASA (BLUE PLAINS)", "version_nmbr": 0, "permit_type_code": "NPD", "effective_date": 1535241600000, "expiration_date": 1692921600000, "permit_status_code": "ADC", "facility_type_indicator": "POTW", "major_minor_status_flag": "M", "permit_tracking": "Y", "pt_start_date": 1535241600000, "dmr_tracking": "Y", "dmr_nr_start_date": 1535241600000, "permit_design_flow": 370, "permit_avg_flow": null, "perm_feature_nmbr": "033", "perm_feature_text": "N Street extended West of 25th Street, NW", "pf_lat": 38.907223, "pf_lon": -77.055275, "pf_character": "CSO", "perm_feature_type_code": "EXO", "pf_state_waterbody_name": "Rock Creek East Side", "pf_state_auto_name": "Rock Creek", "pf_reach_id": "2070010000087", "in_icis": "YES", "echo_dfr_link": "https://echo.epa.gov/detailed-facility-report?fid=110029030144", "name": "D.C. WASA (BLUE PLAINS)", "feature_kind": "CSO outfall"}}, {"type": "Feature", "id": 1772, "geometry": {"type": "Point", "coordinates": [-77.0513917992004, 38.9099997780752]}, "properties": {"OBJECTID": 1772, "npdes_pfid": "DC0021199034", "npdes_id": "DC0021199", "permitting_state": "DC", "agency_type_code": "EP6", "facility_uin": "110029030144", "facility_name": "D.C. WASA (BLUE PLAINS)", "location_address": "5000 OVERLOOK AVE, SW", "supplemental_address_text": "", "facility_city": "WASHINGTON", "county_code": "DC001", "state_code": "DC", "epa_region_code": "03", "facility_type_code": "MWD", "facility_lat": 38.813611, "facility_lon": -77.0275, "permit_name": "D.C. WASA (BLUE PLAINS)", "version_nmbr": 0, "permit_type_code": "NPD", "effective_date": 1535241600000, "expiration_date": 1692921600000, "permit_status_code": "ADC", "facility_type_indicator": "POTW", "major_minor_status_flag": "M", "permit_tracking": "Y", "pt_start_date": 1535241600000, "dmr_tracking": "Y", "dmr_nr_start_date": 1535241600000, "permit_design_flow": 370, "permit_avg_flow": null, "perm_feature_nmbr": "034", "perm_feature_text": "23rd and O Street, NW", "pf_lat": 38.91, "pf_lon": -77.051392, "pf_character": "CSO", "perm_feature_type_code": "EXO", "pf_state_waterbody_name": "Rock Creek East Side", "pf_state_auto_name": "Rock Creek", "pf_reach_id": "2070010000087", "in_icis": "YES", "echo_dfr_link": "https://echo.epa.gov/detailed-facility-report?fid=110029030144", "name": "D.C. WASA (BLUE PLAINS)", "feature_kind": "CSO outfall"}}, {"type": "Feature", "id": 1773, "geometry": {"type": "Point", "coordinates": [-77.050277888248, 38.9091679521925]}, "properties": {"OBJECTID": 1773, "npdes_pfid": "DC0021199035", "npdes_id": "DC0021199", "permitting_state": "DC", "agency_type_code": "EP6", "facility_uin": "110029030144", "facility_name": "D.C. WASA (BLUE PLAINS)", "location_address": "5000 OVERLOOK AVE, SW", "supplemental_address_text": "", "facility_city": "WASHINGTON", "county_code": "DC001", "state_code": "DC", "epa_region_code": "03", "facility_type_code": "MWD", "facility_lat": 38.813611, "facility_lon": -77.0275, "permit_name": "D.C. WASA (BLUE PLAINS)", "version_nmbr": 0, "permit_type_code": "NPD", "effective_date": 1535241600000, "expiration_date": 1692921600000, "permit_status_code": "ADC", "facility_type_indicator": "POTW", "major_minor_status_flag": "M", "permit_tracking": "Y", "pt_start_date": 1535241600000, "dmr_tracking": "Y", "dmr_nr_start_date": 1535241600000, "permit_design_flow": 370, "permit_avg_flow": null, "perm_feature_nmbr": "035", "perm_feature_text": "22nd Street South of Q Street, NW", "pf_lat": 38.909168, "pf_lon": -77.050278, "pf_character": "CSO", "perm_feature_type_code": "EXO", "pf_state_waterbody_name": "Rock Creek East Side", "pf_state_auto_name": "Rock Creek", "pf_reach_id": "2070010000087", "in_icis": "YES", "echo_dfr_link": "https://echo.epa.gov/detailed-facility-report?fid=110029030144", "name": "D.C. WASA (BLUE PLAINS)", "feature_kind": "CSO outfall"}}, {"type": "Feature", "id": 1774, "geometry": {"type": "Point", "coordinates": [-77.0511088298859, 38.910556886262]}, "properties": {"OBJECTID": 1774, "npdes_pfid": "DC0021199036", "npdes_id": "DC0021199", "permitting_state": "DC", "agency_type_code": "EP6", "facility_uin": "110029030144", "facility_name": "D.C. WASA (BLUE PLAINS)", "location_address": "5000 OVERLOOK AVE, SW", "supplemental_address_text": "", "facility_city": "WASHINGTON", "county_code": "DC001", "state_code": "DC", "epa_region_code": "03", "facility_type_code": "MWD", "facility_lat": 38.813611, "facility_lon": -77.0275, "permit_name": "D.C. WASA (BLUE PLAINS)", "version_nmbr": 0, "permit_type_code": "NPD", "effective_date": 1535241600000, "expiration_date": 1692921600000, "permit_status_code": "ADC", "facility_type_indicator": "POTW", "major_minor_status_flag": "M", "permit_tracking": "Y", "pt_start_date": 1535241600000, "dmr_tracking": "Y", "dmr_nr_start_date": 1535241600000, "permit_design_flow": 370, "permit_avg_flow": null, "perm_feature_nmbr": "036", "perm_feature_text": "22nd Street South of Q Street, NW", "pf_lat": 38.910557, "pf_lon": -77.051109, "pf_character": "CSO", "perm_feature_type_code": "EXO", "pf_state_waterbody_name": "Rock Creek East Side", "pf_state_auto_name": "Rock Creek", "pf_reach_id": "2070010000087", "in_icis": "YES", "echo_dfr_link": "https://echo.epa.gov/detailed-facility-report?fid=110029030144", "name": "D.C. WASA (BLUE PLAINS)", "feature_kind": "CSO outfall"}}, {"type": "Feature", "id": 1775, "geometry": {"type": "Point", "coordinates": [-77.0511106265164, 38.9172222731744]}, "properties": {"OBJECTID": 1775, "npdes_pfid": "DC0021199037", "npdes_id": "DC0021199", "permitting_state": "DC", "agency_type_code": "EP6", "facility_uin": "110029030144", "facility_name": "D.C. WASA (BLUE PLAINS)", "location_address": "5000 OVERLOOK AVE, SW", "supplemental_address_text": "", "facility_city": "WASHINGTON", "county_code": "DC001", "state_code": "DC", "epa_region_code": "03", "facility_type_code": "MWD", "facility_lat": 38.813611, "facility_lon": -77.0275, "permit_name": "D.C. WASA (BLUE PLAINS)", "version_nmbr": 0, "permit_type_code": "NPD", "effective_date": 1535241600000, "expiration_date": 1692921600000, "permit_status_code": "ADC", "facility_type_indicator": "POTW", "major_minor_status_flag": "M", "permit_tracking": "Y", "pt_start_date": 1535241600000, "dmr_tracking": "Y", "dmr_nr_start_date": 1535241600000, "permit_design_flow": 370, "permit_avg_flow": null, "perm_feature_nmbr": "037", "perm_feature_text": "NW of Belmont Road and Rock Creek and Potomac Pkwy (SEPARATED)", "pf_lat": 38.917222, "pf_lon": -77.051111, "pf_character": "CSO", "perm_feature_type_code": "EXO", "pf_state_waterbody_name": "Rock Creek East Side", "pf_state_auto_name": "Rock Creek", "pf_reach_id": "2070010000087", "in_icis": "YES", "echo_dfr_link": "https://echo.epa.gov/detailed-facility-report?fid=110029030144", "name": "D.C. WASA (BLUE PLAINS)", "feature_kind": "CSO outfall"}}, {"type": "Feature", "id": 1776, "geometry": {"type": "Point", "coordinates": [-77.0513917992004, 38.9191666923865]}, "properties": {"OBJECTID": 1776, "npdes_pfid": "DC0021199038", "npdes_id": "DC0021199", "permitting_state": "DC", "agency_type_code": "EP6", "facility_uin": "110029030144", "facility_name": "D.C. WASA (BLUE PLAINS)", "location_address": "5000 OVERLOOK AVE, SW", "supplemental_address_text": "", "facility_city": "WASHINGTON", "county_code": "DC001", "state_code": "DC", "epa_region_code": "03", "facility_type_code": "MWD", "facility_lat": 38.813611, "facility_lon": -77.0275, "permit_name": "D.C. WASA (BLUE PLAINS)", "version_nmbr": 0, "permit_type_code": "NPD", "effective_date": 1535241600000, "expiration_date": 1692921600000, "permit_status_code": "ADC", "facility_type_indicator": "POTW", "major_minor_status_flag": "M", "permit_tracking": "Y", "pt_start_date": 1535241600000, "dmr_tracking": "Y", "dmr_nr_start_date": 1535241600000, "permit_design_flow": 370, "permit_avg_flow": null, "perm_feature_nmbr": "038", "perm_feature_text": "Nort of Belmont Road, east of Kalorama Circle, NW", "pf_lat": 38.919167, "pf_lon": -77.051392, "pf_character": "CSO", "perm_feature_type_code": "EXO", "pf_state_waterbody_name": "Rock Creek East Side", "pf_state_auto_name": "Rock Creek", "pf_reach_id": "2070010000087", "in_icis": "YES", "echo_dfr_link": "https://echo.epa.gov/detailed-facility-report?fid=110029030144", "name": "D.C. WASA (BLUE PLAINS)", "feature_kind": "CSO outfall"}}, {"type": "Feature", "id": 1777, "geometry": {"type": "Point", "coordinates": [-77.0488890928188, 38.9216652837097]}, "properties": {"OBJECTID": 1777, "npdes_pfid": "DC0021199039", "npdes_id": "DC0021199", "permitting_state": "DC", "agency_type_code": "EP6", "facility_uin": "110029030144", "facility_name": "D.C. WASA (BLUE PLAINS)", "location_address": "5000 OVERLOOK AVE, SW", "supplemental_address_text": "", "facility_city": "WASHINGTON", "county_code": "DC001", "state_code": "DC", "epa_region_code": "03", "facility_type_code": "MWD", "facility_lat": 38.813611, "facility_lon": -77.0275, "permit_name": "D.C. WASA (BLUE PLAINS)", "version_nmbr": 0, "permit_type_code": "NPD", "effective_date": 1535241600000, "expiration_date": 1692921600000, "permit_status_code": "ADC", "facility_type_indicator": "POTW", "major_minor_status_flag": "M", "permit_tracking": "Y", "pt_start_date": 1535241600000, "dmr_tracking": "Y", "dmr_nr_start_date": 1535241600000, "permit_design_flow": 370, "permit_avg_flow": null, "perm_feature_nmbr": "039", "perm_feature_text": "Connecticut Avenue east of creek, NW", "pf_lat": 38.921665, "pf_lon": -77.048889, "pf_character": "CSO", "perm_feature_type_code": "EXO", "pf_state_waterbody_name": "Rock Creek East Side", "pf_state_auto_name": "Rock Creek", "pf_reach_id": "2070010000087", "in_icis": "YES", "echo_dfr_link": "https://echo.epa.gov/detailed-facility-report?fid=110029030144", "name": "D.C. WASA (BLUE PLAINS)", "feature_kind": "CSO outfall"}}, {"type": "Feature", "id": 1778, "geometry": {"type": "Point", "coordinates": [-77.0452796620072, 38.9277761527994]}, "properties": {"OBJECTID": 1778, "npdes_pfid": "DC0021199040", "npdes_id": "DC0021199", "permitting_state": "DC", "agency_type_code": "EP6", "facility_uin": "110029030144", "facility_name": "D.C. WASA (BLUE PLAINS)", "location_address": "5000 OVERLOOK AVE, SW", "supplemental_address_text": "", "facility_city": "WASHINGTON", "county_code": "DC001", "state_code": "DC", "epa_region_code": "03", "facility_type_code": "MWD", "facility_lat": 38.813611, "facility_lon": -77.0275, "permit_name": "D.C. WASA (BLUE PLAINS)", "version_nmbr": 0, "permit_type_code": "NPD", "effective_date": 1535241600000, "expiration_date": 1692921600000, "permit_status_code": "ADC", "facility_type_indicator": "POTW", "major_minor_status_flag": "M", "permit_tracking": "Y", "pt_start_date": 1535241600000, "dmr_tracking": "Y", "dmr_nr_start_date": 1535241600000, "permit_design_flow": 370, "permit_avg_flow": null, "perm_feature_nmbr": "040", "perm_feature_text": "Biltmore Street, extended east of Rock Creek, NW", "pf_lat": 38.927776, "pf_lon": -77.04528, "pf_character": "CSO", "perm_feature_type_code": "EXO", "pf_state_waterbody_name": "Rock Creek East Side", "pf_state_auto_name": "Rock Creek", "pf_reach_id": "2070010000087", "in_icis": "YES", "echo_dfr_link": "https://echo.epa.gov/detailed-facility-report?fid=110029030144", "name": "D.C. WASA (BLUE PLAINS)", "feature_kind": "CSO outfall"}}, {"type": "Feature", "id": 1779, "geometry": {"type": "Point", "coordinates": [-77.0452796620072, 38.9277761527994]}, "properties": {"OBJECTID": 1779, "npdes_pfid": "DC0021199041", "npdes_id": "DC0021199", "permitting_state": "DC", "agency_type_code": "EP6", "facility_uin": "110029030144", "facility_name": "D.C. WASA (BLUE PLAINS)", "location_address": "5000 OVERLOOK AVE, SW", "supplemental_address_text": "", "facility_city": "WASHINGTON", "county_code": "DC001", "state_code": "DC", "epa_region_code": "03", "facility_type_code": "MWD", "facility_lat": 38.813611, "facility_lon": -77.0275, "permit_name": "D.C. WASA (BLUE PLAINS)", "version_nmbr": 0, "permit_type_code": "NPD", "effective_date": 1535241600000, "expiration_date": 1692921600000, "permit_status_code": "ADC", "facility_type_indicator": "POTW", "major_minor_status_flag": "M", "permit_tracking": "Y", "pt_start_date": 1535241600000, "dmr_tracking": "Y", "dmr_nr_start_date": 1535241600000, "permit_design_flow": 370, "permit_avg_flow": null, "perm_feature_nmbr": "041", "perm_feature_text": "Ontario extended and Rock Creek Parkway, NW", "pf_lat": 38.927776, "pf_lon": -77.04528, "pf_character": "CSO", "perm_feature_type_code": "EXO", "pf_state_waterbody_name": "Rock Creek East Side", "pf_state_auto_name": "Rock Creek", "pf_reach_id": "2070010000087", "in_icis": "YES", "echo_dfr_link": "https://echo.epa.gov/detailed-facility-report?fid=110029030144", "name": "D.C. WASA (BLUE PLAINS)", "feature_kind": "CSO outfall"}}, {"type": "Feature", "id": 1780, "geometry": {"type": "Point", "coordinates": [-77.0452796620072, 38.9286119535324]}, "properties": {"OBJECTID": 1780, "npdes_pfid": "DC0021199042", "npdes_id": "DC0021199", "permitting_state": "DC", "agency_type_code": "EP6", "facility_uin": "110029030144", "facility_name": "D.C. WASA (BLUE PLAINS)", "location_address": "5000 OVERLOOK AVE, SW", "supplemental_address_text": "", "facility_city": "WASHINGTON", "county_code": "DC001", "state_code": "DC", "epa_region_code": "03", "facility_type_code": "MWD", "facility_lat": 38.813611, "facility_lon": -77.0275, "permit_name": "D.C. WASA (BLUE PLAINS)", "version_nmbr": 0, "permit_type_code": "NPD", "effective_date": 1535241600000, "expiration_date": 1692921600000, "permit_status_code": "ADC", "facility_type_indicator": "POTW", "major_minor_status_flag": "M", "permit_tracking": "Y", "pt_start_date": 1535241600000, "dmr_tracking": "Y", "dmr_nr_start_date": 1535241600000, "permit_design_flow": 370, "permit_avg_flow": null, "perm_feature_nmbr": "042", "perm_feature_text": "Harvard Street and Rock Creek Parkway, NW", "pf_lat": 38.928612, "pf_lon": -77.04528, "pf_character": "CSO", "perm_feature_type_code": "EXO", "pf_state_waterbody_name": "Rock Creek", "pf_state_auto_name": "Rock Creek", "pf_reach_id": "2070010000087", "in_icis": "YES", "echo_dfr_link": "https://echo.epa.gov/detailed-facility-report?fid=110029030144", "name": "D.C. WASA (BLUE PLAINS)", "feature_kind": "CSO outfall"}}, {"type": "Feature", "id": 1781, "geometry": {"type": "Point", "coordinates": [-77.044997591008, 38.9286119535324]}, "properties": {"OBJECTID": 1781, "npdes_pfid": "DC0021199043", "npdes_id": "DC0021199", "permitting_state": "DC", "agency_type_code": "EP6", "facility_uin": "110029030144", "facility_name": "D.C. WASA (BLUE PLAINS)", "location_address": "5000 OVERLOOK AVE, SW", "supplemental_address_text": "", "facility_city": "WASHINGTON", "county_code": "DC001", "state_code": "DC", "epa_region_code": "03", "facility_type_code": "MWD", "facility_lat": 38.813611, "facility_lon": -77.0275, "permit_name": "D.C. WASA (BLUE PLAINS)", "version_nmbr": 0, "permit_type_code": "NPD", "effective_date": 1535241600000, "expiration_date": 1692921600000, "permit_status_code": "ADC", "facility_type_indicator": "POTW", "major_minor_status_flag": "M", "permit_tracking": "Y", "pt_start_date": 1535241600000, "dmr_tracking": "Y", "dmr_nr_start_date": 1535241600000, "permit_design_flow": 370, "permit_avg_flow": null, "perm_feature_nmbr": "043", "perm_feature_text": "Adams Mill Road South of Irving Street, NW", "pf_lat": 38.928612, "pf_lon": -77.044998, "pf_character": "CSO", "perm_feature_type_code": "EXO", "pf_state_waterbody_name": "Rock Creek East Side", "pf_state_auto_name": "Rock Creek", "pf_reach_id": "2070010000087", "in_icis": "YES", "echo_dfr_link": "https://echo.epa.gov/detailed-facility-report?fid=110029030144", "name": "D.C. WASA (BLUE PLAINS)", "feature_kind": "CSO outfall"}}, {"type": "Feature", "id": 1782, "geometry": {"type": "Point", "coordinates": [-77.0455554447994, 38.9288900857062]}, "properties": {"OBJECTID": 1782, "npdes_pfid": "DC0021199044", "npdes_id": "DC0021199", "permitting_state": "DC", "agency_type_code": "EP6", "facility_uin": "110029030144", "facility_name": "D.C. WASA (BLUE PLAINS)", "location_address": "5000 OVERLOOK AVE, SW", "supplemental_address_text": "", "facility_city": "WASHINGTON", "county_code": "DC001", "state_code": "DC", "epa_region_code": "03", "facility_type_code": "MWD", "facility_lat": 38.813611, "facility_lon": -77.0275, "permit_name": "D.C. WASA (BLUE PLAINS)", "version_nmbr": 0, "permit_type_code": "NPD", "effective_date": 1535241600000, "expiration_date": 1692921600000, "permit_status_code": "ADC", "facility_type_indicator": "POTW", "major_minor_status_flag": "M", "permit_tracking": "Y", "pt_start_date": 1535241600000, "dmr_tracking": "Y", "dmr_nr_start_date": 1535241600000, "permit_design_flow": 370, "permit_avg_flow": null, "perm_feature_nmbr": "044", "perm_feature_text": "Kenyon Street and Adams Mill Road, NW", "pf_lat": 38.92889, "pf_lon": -77.045555, "pf_character": "CSO", "perm_feature_type_code": "EXO", "pf_state_waterbody_name": "Rock Creek East Side", "pf_state_auto_name": "Rock Creek", "pf_reach_id": "2070010000087", "in_icis": "YES", "echo_dfr_link": "https://echo.epa.gov/detailed-facility-report?fid=110029030144", "name": "D.C. WASA (BLUE PLAINS)", "feature_kind": "CSO outfall"}}, {"type": "Feature", "id": 1783, "geometry": {"type": "Point", "coordinates": [-77.0469442402287, 38.9305567594271]}, "properties": {"OBJECTID": 1783, "npdes_pfid": "DC0021199045", "npdes_id": "DC0021199", "permitting_state": "DC", "agency_type_code": "EP6", "facility_uin": "110029030144", "facility_name": "D.C. WASA (BLUE PLAINS)", "location_address": "5000 OVERLOOK AVE, SW", "supplemental_address_text": "", "facility_city": "WASHINGTON", "county_code": "DC001", "state_code": "DC", "epa_region_code": "03", "facility_type_code": "MWD", "facility_lat": 38.813611, "facility_lon": -77.0275, "permit_name": "D.C. WASA (BLUE PLAINS)", "version_nmbr": 0, "permit_type_code": "NPD", "effective_date": 1535241600000, "expiration_date": 1692921600000, "permit_status_code": "ADC", "facility_type_indicator": "POTW", "major_minor_status_flag": "M", "permit_tracking": "Y", "pt_start_date": 1535241600000, "dmr_tracking": "Y", "dmr_nr_start_date": 1535241600000, "permit_design_flow": 370, "permit_avg_flow": null, "perm_feature_nmbr": "045", "perm_feature_text": "Adams Mill Road and Lamont Street, NW", "pf_lat": 38.930557, "pf_lon": -77.046944, "pf_character": "CSO", "perm_feature_type_code": "EXO", "pf_state_waterbody_name": "Rock Creek East Side", "pf_state_auto_name": "Rock Creek", "pf_reach_id": "2070010000087", "in_icis": "YES", "echo_dfr_link": "https://echo.epa.gov/detailed-facility-report?fid=110029030144", "name": "D.C. WASA (BLUE PLAINS)", "feature_kind": "CSO outfall"}}, {"type": "Feature", "id": 1784, "geometry": {"type": "Point", "coordinates": [-77.0458303292764, 38.9352763433045]}, "properties": {"OBJECTID": 1784, "npdes_pfid": "DC0021199046", "npdes_id": "DC0021199", "permitting_state": "DC", "agency_type_code": "EP6", "facility_uin": "110029030144", "facility_name": "D.C. WASA (BLUE PLAINS)", "location_address": "5000 OVERLOOK AVE, SW", "supplemental_address_text": "", "facility_city": "WASHINGTON", "county_code": "DC001", "state_code": "DC", "epa_region_code": "03", "facility_type_code": "MWD", "facility_lat": 38.813611, "facility_lon": -77.0275, "permit_name": "D.C. WASA (BLUE PLAINS)", "version_nmbr": 0, "permit_type_code": "NPD", "effective_date": 1535241600000, "expiration_date": 1692921600000, "permit_status_code": "ADC", "facility_type_indicator": "POTW", "major_minor_status_flag": "M", "permit_tracking": "Y", "pt_start_date": 1535241600000, "dmr_tracking": "Y", "dmr_nr_start_date": 1535241600000, "permit_design_flow": 370, "permit_avg_flow": null, "perm_feature_nmbr": "046", "perm_feature_text": "Park Road South of Piney Branch Parkway, NW", "pf_lat": 38.935276, "pf_lon": -77.04583, "pf_character": "CSO", "perm_feature_type_code": "EXO", "pf_state_waterbody_name": "Rock Creek East Side", "pf_state_auto_name": "Rock Creek", "pf_reach_id": "2070010000087", "in_icis": "YES", "echo_dfr_link": "https://echo.epa.gov/detailed-facility-report?fid=110029030144", "name": "D.C. WASA (BLUE PLAINS)", "feature_kind": "CSO outfall"}}, {"type": "Feature", "id": 1785, "geometry": {"type": "Point", "coordinates": [-77.0433348094171, 38.936110658156]}, "properties": {"OBJECTID": 1785, "npdes_pfid": "DC0021199047", "npdes_id": "DC0021199", "permitting_state": "DC", "agency_type_code": "EP6", "facility_uin": "110029030144", "facility_name": "D.C. WASA (BLUE PLAINS)", "location_address": "5000 OVERLOOK AVE, SW", "supplemental_address_text": "", "facility_city": "WASHINGTON", "county_code": "DC001", "state_code": "DC", "epa_region_code": "03", "facility_type_code": "MWD", "facility_lat": 38.813611, "facility_lon": -77.0275, "permit_name": "D.C. WASA (BLUE PLAINS)", "version_nmbr": 0, "permit_type_code": "NPD", "effective_date": 1535241600000, "expiration_date": 1692921600000, "permit_status_code": "ADC", "facility_type_indicator": "POTW", "major_minor_status_flag": "M", "permit_tracking": "Y", "pt_start_date": 1535241600000, "dmr_tracking": "Y", "dmr_nr_start_date": 1535241600000, "permit_design_flow": 370, "permit_avg_flow": null, "perm_feature_nmbr": "047", "perm_feature_text": "Ingleside Terrace extended and Piney Branch Pkwy", "pf_lat": 38.936111, "pf_lon": -77.043335, "pf_character": "CSO", "perm_feature_type_code": "EXO", "pf_state_waterbody_name": "Rock Creek East Side", "pf_state_auto_name": "Rock Creek", "pf_reach_id": "2070010000087", "in_icis": "YES", "echo_dfr_link": "https://echo.epa.gov/detailed-facility-report?fid=110029030144", "name": "D.C. WASA (BLUE PLAINS)", "feature_kind": "CSO outfall"}}, {"type": "Feature", "id": 1786, "geometry": {"type": "Point", "coordinates": [-77.0397190903985, 38.9374997636197]}, "properties": {"OBJECTID": 1786, "npdes_pfid": "DC0021199048", "npdes_id": "DC0021199", "permitting_state": "DC", "agency_type_code": "EP6", "facility_uin": "110029030144", "facility_name": "D.C. WASA (BLUE PLAINS)", "location_address": "5000 OVERLOOK AVE, SW", "supplemental_address_text": "", "facility_city": "WASHINGTON", "county_code": "DC001", "state_code": "DC", "epa_region_code": "03", "facility_type_code": "MWD", "facility_lat": 38.813611, "facility_lon": -77.0275, "permit_name": "D.C. WASA (BLUE PLAINS)", "version_nmbr": 0, "permit_type_code": "NPD", "effective_date": 1535241600000, "expiration_date": 1692921600000, "permit_status_code": "ADC", "facility_type_indicator": "POTW", "major_minor_status_flag": "M", "permit_tracking": "Y", "pt_start_date": 1535241600000, "dmr_tracking": "Y", "dmr_nr_start_date": 1535241600000, "permit_design_flow": 370, "permit_avg_flow": null, "perm_feature_nmbr": "048", "perm_feature_text": "Mt. Pleasant Street extended and Piney Branch Pkwy", "pf_lat": 38.9375, "pf_lon": -77.039719, "pf_character": "CSO", "perm_feature_type_code": "EXO", "pf_state_waterbody_name": "Rock Creek East Side", "pf_state_auto_name": "Rock Creek", "pf_reach_id": "2070010000087", "in_icis": "YES", "echo_dfr_link": "https://echo.epa.gov/detailed-facility-report?fid=110029030144", "name": "D.C. WASA (BLUE PLAINS)", "feature_kind": "CSO outfall"}}, {"type": "Feature", "id": 1787, "geometry": {"type": "Point", "coordinates": [-77.0386123659685, 38.9366682600971]}, "properties": {"OBJECTID": 1787, "npdes_pfid": "DC0021199049", "npdes_id": "DC0021199", "permitting_state": "DC", "agency_type_code": "EP6", "facility_uin": "110029030144", "facility_name": "D.C. WASA (BLUE PLAINS)", "location_address": "5000 OVERLOOK AVE, SW", "supplemental_address_text": "", "facility_city": "WASHINGTON", "county_code": "DC001", "state_code": "DC", "epa_region_code": "03", "facility_type_code": "MWD", "facility_lat": 38.813611, "facility_lon": -77.0275, "permit_name": "D.C. WASA (BLUE PLAINS)", "version_nmbr": 0, "permit_type_code": "NPD", "effective_date": 1535241600000, "expiration_date": 1692921600000, "permit_status_code": "ADC", "facility_type_indicator": "POTW", "major_minor_status_flag": "M", "permit_tracking": "Y", "pt_start_date": 1535241600000, "dmr_tracking": "Y", "dmr_nr_start_date": 1535241600000, "permit_design_flow": 370, "permit_avg_flow": null, "perm_feature_nmbr": "049", "perm_feature_text": "Piney Branch and Lamont Street, NW", "pf_lat": 38.936668, "pf_lon": -77.038612, "pf_character": "CSO", "perm_feature_type_code": "EXO", "pf_state_waterbody_name": "Rock Creek East Side", "pf_state_auto_name": "Rock Creek", "pf_reach_id": "2070010000087", "in_icis": "YES", "echo_dfr_link": "https://echo.epa.gov/detailed-facility-report?fid=110029030144", "name": "D.C. WASA (BLUE PLAINS)", "feature_kind": "CSO outfall"}}, {"type": "Feature", "id": 1788, "geometry": {"type": "Point", "coordinates": [-77.0563891271259, 38.9038887761744]}, "properties": {"OBJECTID": 1788, "npdes_pfid": "DC0021199050", "npdes_id": "DC0021199", "permitting_state": "DC", "agency_type_code": "EP6", "facility_uin": "110029030144", "facility_name": "D.C. WASA (BLUE PLAINS)", "location_address": "5000 OVERLOOK AVE, SW", "supplemental_address_text": "", "facility_city": "WASHINGTON", "county_code": "DC001", "state_code": "DC", "epa_region_code": "03", "facility_type_code": "MWD", "facility_lat": 38.813611, "facility_lon": -77.0275, "permit_name": "D.C. WASA (BLUE PLAINS)", "version_nmbr": 0, "permit_type_code": "NPD", "effective_date": 1535241600000, "expiration_date": 1692921600000, "permit_status_code": "ADC", "facility_type_indicator": "POTW", "major_minor_status_flag": "M", "permit_tracking": "Y", "pt_start_date": 1535241600000, "dmr_tracking": "Y", "dmr_nr_start_date": 1535241600000, "permit_design_flow": 370, "permit_avg_flow": null, "perm_feature_nmbr": "050", "perm_feature_text": "28th Street West of 16th Street, NW", "pf_lat": 38.903889, "pf_lon": -77.056389, "pf_character": "CSO", "perm_feature_type_code": "EXO", "pf_state_waterbody_name": "Rock Creek East Side", "pf_state_auto_name": "Rock Creek", "pf_reach_id": "2070010000087", "in_icis": "YES", "echo_dfr_link": "https://echo.epa.gov/detailed-facility-report?fid=110029030144", "name": "D.C. WASA (BLUE PLAINS)", "feature_kind": "CSO outfall"}}, {"type": "Feature", "id": 1789, "geometry": {"type": "Point", "coordinates": [-77.0530545807913, 38.9088897427052]}, "properties": {"OBJECTID": 1789, "npdes_pfid": "DC0021199051", "npdes_id": "DC0021199", "permitting_state": "DC", "agency_type_code": "EP6", "facility_uin": "110029030144", "facility_name": "D.C. WASA (BLUE PLAINS)", "location_address": "5000 OVERLOOK AVE, SW", "supplemental_address_text": "", "facility_city": "WASHINGTON", "county_code": "DC001", "state_code": "DC", "epa_region_code": "03", "facility_type_code": "MWD", "facility_lat": 38.813611, "facility_lon": -77.0275, "permit_name": "D.C. WASA (BLUE PLAINS)", "version_nmbr": 0, "permit_type_code": "NPD", "effective_date": 1535241600000, "expiration_date": 1692921600000, "permit_status_code": "ADC", "facility_type_indicator": "POTW", "major_minor_status_flag": "M", "permit_tracking": "Y", "pt_start_date": 1535241600000, "dmr_tracking": "Y", "dmr_nr_start_date": 1535241600000, "permit_design_flow": 370, "permit_avg_flow": null, "perm_feature_nmbr": "051", "perm_feature_text": "Olive Street extended and Rock Creek Pkwy, NW", "pf_lat": 38.90889, "pf_lon": -77.053055, "pf_character": "CSO", "perm_feature_type_code": "EXO", "pf_state_waterbody_name": "Rock Creek East Side", "pf_state_auto_name": "Rock Creek", "pf_reach_id": "2070010000087", "in_icis": "YES", "echo_dfr_link": "https://echo.epa.gov/detailed-facility-report?fid=110029030144", "name": "D.C. WASA (BLUE PLAINS)", "feature_kind": "CSO outfall"}}, {"type": "Feature", "id": 1790, "geometry": {"type": "Point", "coordinates": [-77.0544433762205, 38.9086108331045]}, "properties": {"OBJECTID": 1790, "npdes_pfid": "DC0021199052", "npdes_id": "DC0021199", "permitting_state": "DC", "agency_type_code": "EP6", "facility_uin": "110029030144", "facility_name": "D.C. WASA (BLUE PLAINS)", "location_address": "5000 OVERLOOK AVE, SW", "supplemental_address_text": "", "facility_city": "WASHINGTON", "county_code": "DC001", "state_code": "DC", "epa_region_code": "03", "facility_type_code": "MWD", "facility_lat": 38.813611, "facility_lon": -77.0275, "permit_name": "D.C. WASA (BLUE PLAINS)", "version_nmbr": 0, "permit_type_code": "NPD", "effective_date": 1535241600000, "expiration_date": 1692921600000, "permit_status_code": "ADC", "facility_type_indicator": "POTW", "major_minor_status_flag": "M", "permit_tracking": "Y", "pt_start_date": 1535241600000, "dmr_tracking": "Y", "dmr_nr_start_date": 1535241600000, "permit_design_flow": 370, "permit_avg_flow": null, "perm_feature_nmbr": "052", "perm_feature_text": "O Street extended and Rock Creek Pkwy, NW", "pf_lat": 38.908611, "pf_lon": -77.054443, "pf_character": "CSO", "perm_feature_type_code": "EXO", "pf_state_waterbody_name": "Rock Creek West Side", "pf_state_auto_name": "Rock Creek", "pf_reach_id": "2070010000087", "in_icis": "YES", "echo_dfr_link": "https://echo.epa.gov/detailed-facility-report?fid=110029030144", "name": "D.C. WASA (BLUE PLAINS)", "feature_kind": "CSO outfall"}}, {"type": "Feature", "id": 1791, "geometry": {"type": "Point", "coordinates": [-77.0277777853267, 38.9216666814984]}, "properties": {"OBJECTID": 1791, "npdes_pfid": "DC0021199053", "npdes_id": "DC0021199", "permitting_state": "DC", "agency_type_code": "EP6", "facility_uin": "110029030144", "facility_name": "D.C. WASA (BLUE PLAINS)", "location_address": "5000 OVERLOOK AVE, SW", "supplemental_address_text": "", "facility_city": "WASHINGTON", "county_code": "DC001", "state_code": "DC", "epa_region_code": "03", "facility_type_code": "MWD", "facility_lat": 38.813611, "facility_lon": -77.0275, "permit_name": "D.C. WASA (BLUE PLAINS)", "version_nmbr": 0, "permit_type_code": "NPD", "effective_date": 1535241600000, "expiration_date": 1692921600000, "permit_status_code": "ADC", "facility_type_indicator": "POTW", "major_minor_status_flag": "M", "permit_tracking": "Y", "pt_start_date": 1535241600000, "dmr_tracking": "Y", "dmr_nr_start_date": 1535241600000, "permit_design_flow": 370, "permit_avg_flow": null, "perm_feature_nmbr": "053", "perm_feature_text": "O Street West of Rock Creek Parkway, NW (SEPARATED)", "pf_lat": 38.921667, "pf_lon": -77.027778, "pf_character": "CSO", "perm_feature_type_code": "EXO", "pf_state_waterbody_name": "Rock Creek West Side", "pf_state_auto_name": "Rock Creek", "pf_reach_id": "2070010000087", "in_icis": "YES", "echo_dfr_link": "https://echo.epa.gov/detailed-facility-report?fid=110029030144", "name": "D.C. WASA (BLUE PLAINS)", "feature_kind": "CSO outfall"}}, {"type": "Feature", "id": 1792, "geometry": {"type": "Point", "coordinates": [-77.0505518744097, 38.9094426655158]}, "properties": {"OBJECTID": 1792, "npdes_pfid": "DC0021199054", "npdes_id": "DC0021199", "permitting_state": "DC", "agency_type_code": "EP6", "facility_uin": "110029030144", "facility_name": "D.C. WASA (BLUE PLAINS)", "location_address": "5000 OVERLOOK AVE, SW", "supplemental_address_text": "", "facility_city": "WASHINGTON", "county_code": "DC001", "state_code": "DC", "epa_region_code": "03", "facility_type_code": "MWD", "facility_lat": 38.813611, "facility_lon": -77.0275, "permit_name": "D.C. WASA (BLUE PLAINS)", "version_nmbr": 0, "permit_type_code": "NPD", "effective_date": 1535241600000, "expiration_date": 1692921600000, "permit_status_code": "ADC", "facility_type_indicator": "POTW", "major_minor_status_flag": "M", "permit_tracking": "Y", "pt_start_date": 1535241600000, "dmr_tracking": "Y", "dmr_nr_start_date": 1535241600000, "permit_design_flow": 370, "permit_avg_flow": null, "perm_feature_nmbr": "054", "perm_feature_text": "West Side Rock Creek 300ft south of Mass Ave, NW", "pf_lat": 38.909443, "pf_lon": -77.050552, "pf_character": "CSO", "perm_feature_type_code": "EXO", "pf_state_waterbody_name": "Rock Creek West Side", "pf_state_auto_name": "Rock Creek", "pf_reach_id": "2070010000087", "in_icis": "YES", "echo_dfr_link": "https://echo.epa.gov/detailed-facility-report?fid=110029030144", "name": "D.C. WASA (BLUE PLAINS)", "feature_kind": "CSO outfall"}}, {"type": "Feature", "id": 1793, "geometry": {"type": "Point", "coordinates": [-77.0511088298859, 38.9172208752982]}, "properties": {"OBJECTID": 1793, "npdes_pfid": "DC0021199056", "npdes_id": "DC0021199", "permitting_state": "DC", "agency_type_code": "EP6", "facility_uin": "110029030144", "facility_name": "D.C. WASA (BLUE PLAINS)", "location_address": "5000 OVERLOOK AVE, SW", "supplemental_address_text": "", "facility_city": "WASHINGTON", "county_code": "DC001", "state_code": "DC", "epa_region_code": "03", "facility_type_code": "MWD", "facility_lat": 38.813611, "facility_lon": -77.0275, "permit_name": "D.C. WASA (BLUE PLAINS)", "version_nmbr": 0, "permit_type_code": "NPD", "effective_date": 1535241600000, "expiration_date": 1692921600000, "permit_status_code": "ADC", "facility_type_indicator": "POTW", "major_minor_status_flag": "M", "permit_tracking": "Y", "pt_start_date": 1535241600000, "dmr_tracking": "Y", "dmr_nr_start_date": 1535241600000, "permit_design_flow": 370, "permit_avg_flow": null, "perm_feature_nmbr": "056", "perm_feature_text": "Narmanstone Drive extended west of Rock Creek, NW", "pf_lat": 38.917221, "pf_lon": -77.051109, "pf_character": "CSO", "perm_feature_type_code": "EXO", "pf_state_waterbody_name": "Rock Creek West Side", "pf_state_auto_name": "Rock Creek", "pf_reach_id": "2070010000087", "in_icis": "YES", "echo_dfr_link": "https://echo.epa.gov/detailed-facility-report?fid=110029030144", "name": "D.C. WASA (BLUE PLAINS)", "feature_kind": "CSO outfall"}}, {"type": "Feature", "id": 1794, "geometry": {"type": "Point", "coordinates": [-77.052500320261, 38.9216666814984]}, "properties": {"OBJECTID": 1794, "npdes_pfid": "DC0021199057", "npdes_id": "DC0021199", "permitting_state": "DC", "agency_type_code": "EP6", "facility_uin": "110029030144", "facility_name": "D.C. WASA (BLUE PLAINS)", "location_address": "5000 OVERLOOK AVE, SW", "supplemental_address_text": "", "facility_city": "WASHINGTON", "county_code": "DC001", "state_code": "DC", "epa_region_code": "03", "facility_type_code": "MWD", "facility_lat": 38.813611, "facility_lon": -77.0275, "permit_name": "D.C. WASA (BLUE PLAINS)", "version_nmbr": 0, "permit_type_code": "NPD", "effective_date": 1535241600000, "expiration_date": 1692921600000, "permit_status_code": "ADC", "facility_type_indicator": "POTW", "major_minor_status_flag": "M", "permit_tracking": "Y", "pt_start_date": 1535241600000, "dmr_tracking": "Y", "dmr_nr_start_date": 1535241600000, "permit_design_flow": 370, "permit_avg_flow": null, "perm_feature_nmbr": "057", "perm_feature_text": "28th Street extended west of Rock Creek, NW (SEPARATED)", "pf_lat": 38.921667, "pf_lon": -77.0525, "pf_character": "CSO", "perm_feature_type_code": "EXO", "pf_state_waterbody_name": "Rock Creek West Side", "pf_state_auto_name": "Rock Creek", "pf_reach_id": "2070010000087", "in_icis": "YES", "echo_dfr_link": "https://echo.epa.gov/detailed-facility-report?fid=110029030144", "name": "D.C. WASA (BLUE PLAINS)", "feature_kind": "CSO outfall"}}, {"type": "Feature", "id": 1795, "geometry": {"type": "Point", "coordinates": [-77.050277888248, 38.9211117572187]}, "properties": {"OBJECTID": 1795, "npdes_pfid": "DC0021199058", "npdes_id": "DC0021199", "permitting_state": "DC", "agency_type_code": "EP6", "facility_uin": "110029030144", "facility_name": "D.C. WASA (BLUE PLAINS)", "location_address": "5000 OVERLOOK AVE, SW", "supplemental_address_text": "", "facility_city": "WASHINGTON", "county_code": "DC001", "state_code": "DC", "epa_region_code": "03", "facility_type_code": "MWD", "facility_lat": 38.813611, "facility_lon": -77.0275, "permit_name": "D.C. WASA (BLUE PLAINS)", "version_nmbr": 0, "permit_type_code": "NPD", "effective_date": 1535241600000, "expiration_date": 1692921600000, "permit_status_code": "ADC", "facility_type_indicator": "POTW", "major_minor_status_flag": "M", "permit_tracking": "Y", "pt_start_date": 1535241600000, "dmr_tracking": "Y", "dmr_nr_start_date": 1535241600000, "permit_design_flow": 370, "permit_avg_flow": null, "perm_feature_nmbr": "058", "perm_feature_text": "Connecticut Avenue and Rock Creek Parkway, NW (SEPARATED)", "pf_lat": 38.921112, "pf_lon": -77.050278, "pf_character": "CSO", "perm_feature_type_code": "EXO", "pf_state_waterbody_name": "Rock Creek West Side", "pf_state_auto_name": "Rock Creek", "pf_reach_id": "2070010000087", "in_icis": "YES", "echo_dfr_link": "https://echo.epa.gov/detailed-facility-report?fid=110029030144", "name": "D.C. WASA (BLUE PLAINS)", "feature_kind": "CSO outfall"}}, {"type": "Feature", "id": 1796, "geometry": {"type": "Point", "coordinates": [-77.0374975567009, 38.9655569404762]}, "properties": {"OBJECTID": 1796, "npdes_pfid": "DC0021199059", "npdes_id": "DC0021199", "permitting_state": "DC", "agency_type_code": "EP6", "facility_uin": "110029030144", "facility_name": "D.C. WASA (BLUE PLAINS)", "location_address": "5000 OVERLOOK AVE, SW", "supplemental_address_text": "", "facility_city": "WASHINGTON", "county_code": "DC001", "state_code": "DC", "epa_region_code": "03", "facility_type_code": "MWD", "facility_lat": 38.813611, "facility_lon": -77.0275, "permit_name": "D.C. WASA (BLUE PLAINS)", "version_nmbr": 0, "permit_type_code": "NPD", "effective_date": 1535241600000, "expiration_date": 1692921600000, "permit_status_code": "ADC", "facility_type_indicator": "POTW", "major_minor_status_flag": "M", "permit_tracking": "Y", "pt_start_date": 1535241600000, "dmr_tracking": "Y", "dmr_nr_start_date": 1535241600000, "permit_design_flow": 370, "permit_avg_flow": null, "perm_feature_nmbr": "059", "perm_feature_text": "Luzon Valley (SEPARATED)", "pf_lat": 38.965557, "pf_lon": -77.037498, "pf_character": "CSO", "perm_feature_type_code": "EXO", "pf_state_waterbody_name": "Rock Creek West Side", "pf_state_auto_name": "Rock Creek", "pf_reach_id": "2070010000088", "in_icis": "YES", "echo_dfr_link": "https://echo.epa.gov/detailed-facility-report?fid=110029030144", "name": "D.C. WASA (BLUE PLAINS)", "feature_kind": "CSO outfall"}}, {"type": "Feature", "id": 1797, "geometry": {"type": "Point", "coordinates": [-77.0513998840379, 38.9107001818892]}, "properties": {"OBJECTID": 1797, "npdes_pfid": "DC0021199060", "npdes_id": "DC0021199", "permitting_state": "DC", "agency_type_code": "EP6", "facility_uin": "110029030144", "facility_name": "D.C. WASA (BLUE PLAINS)", "location_address": "5000 OVERLOOK AVE, SW", "supplemental_address_text": "", "facility_city": "WASHINGTON", "county_code": "DC001", "state_code": "DC", "epa_region_code": "03", "facility_type_code": "MWD", "facility_lat": 38.813611, "facility_lon": -77.0275, "permit_name": "D.C. WASA (BLUE PLAINS)", "version_nmbr": 0, "permit_type_code": "NPD", "effective_date": 1535241600000, "expiration_date": 1692921600000, "permit_status_code": "ADC", "facility_type_indicator": "POTW", "major_minor_status_flag": "M", "permit_tracking": "Y", "pt_start_date": 1535241600000, "dmr_tracking": "Y", "dmr_nr_start_date": 1535241600000, "permit_design_flow": 370, "permit_avg_flow": null, "perm_feature_nmbr": "060", "perm_feature_text": "P street and 26th St, NW", "pf_lat": 38.9107, "pf_lon": -77.0514, "pf_character": "CSO", "perm_feature_type_code": "EXO", "pf_state_waterbody_name": "Rock Creek West Side", "pf_state_auto_name": "Rock Creek", "pf_reach_id": "2070010000087", "in_icis": "YES", "echo_dfr_link": "https://echo.epa.gov/detailed-facility-report?fid=110029030144", "name": "D.C. WASA (BLUE PLAINS)", "feature_kind": "CSO outfall"}}]}