{"type": "FeatureCollection", "features": [{"type": "Feature", "id": 5942, "geometry": {"type": "Point", "coordinates": [-86.7824999122592, 36.1750000221808]}, "properties": {"OBJECTID": 5942, "npdes_pfid": "TN0020575019", "npdes_id": "TN0020575", "permitting_state": "TN", "agency_type_code": "ST6", "facility_uin": "110000566487", "facility_name": "NASHVILLE CENTRAL STP", "location_address": "1600 SECOND AVENUE NORTH", "supplemental_address_text": "NASHVILLE", "facility_city": "NASHVILLE", "county_code": "TN037", "state_code": "TN", "epa_region_code": "04", "facility_type_code": "MWD", "facility_lat": 36.187222, "facility_lon": -86.789356, "permit_name": "Metro Water Services - Nashville Central STP", "version_nmbr": 0, "permit_type_code": "NPD", "effective_date": 1604188800000, "expiration_date": 1761868800000, "permit_status_code": "ADC", "facility_type_indicator": "POTW", "major_minor_status_flag": "M", "permit_tracking": "Y", "pt_start_date": 1604188800000, "dmr_tracking": "Y", "dmr_nr_start_date": 1604188800000, "permit_design_flow": 100, "permit_avg_flow": 102, "perm_feature_nmbr": "019", "perm_feature_text": "PCS", "pf_lat": 36.175, "pf_lon": -86.7825, "pf_character": "TCS", "perm_feature_type_code": "EXO", "pf_state_waterbody_name": "", "pf_state_auto_name": "Cumberland River", "pf_reach_id": "5130202003842", "in_icis": "YES", "echo_dfr_link": "https://echo.epa.gov/detailed-facility-report?fid=110000566487", "name": "NASHVILLE CENTRAL STP", "feature_kind": "CSO outfall"}}, {"type": "Feature", "id": 5943, "geometry": {"type": "Point", "coordinates": [-86.7644437750484, 36.1597220885956]}, "properties": {"OBJECTID": 5943, "npdes_pfid": "TN0020575023", "npdes_id": "TN0020575", "permitting_state": "TN", "agency_type_code": "ST6", "facility_uin": "110000566487", "facility_name": "NASHVILLE CENTRAL STP", "location_address": "1600 SECOND AVENUE NORTH", "supplemental_address_text": "NASHVILLE", "facility_city": "NASHVILLE", "county_code": "TN037", "state_code": "TN", "epa_region_code": "04", "facility_type_code": "MWD", "facility_lat": 36.187222, "facility_lon": -86.789356, "permit_name": "Metro Water Services - Nashville Central STP", "version_nmbr": 0, "permit_type_code": "NPD", "effective_date": 1604188800000, "expiration_date": 1761868800000, "permit_status_code": "ADC", "facility_type_indicator": "POTW", "major_minor_status_flag": "M", "permit_tracking": "Y", "pt_start_date": 1604188800000, "dmr_tracking": "Y", "dmr_nr_start_date": 1604188800000, "permit_design_flow": 100, "permit_avg_flow": 102, "perm_feature_nmbr": "023", "perm_feature_text": "PCS", "pf_lat": 36.159722, "pf_lon": -86.764444, "pf_character": "TCS", "perm_feature_type_code": "EXO", "pf_state_waterbody_name": "", "pf_state_auto_name": "Cumberland River", "pf_reach_id": "5130202003842", "in_icis": "YES", "echo_dfr_link": "https://echo.epa.gov/detailed-facility-report?fid=110000566487", "name": "NASHVILLE CENTRAL STP", "feature_kind": "CSO outfall"}}, {"type": "Feature", "id": 5944, "geometry": {"type": "Point", "coordinates": [-86.7777783671258, 36.1713887606477]}, "properties": {"OBJECTID": 5944, "npdes_pfid": "TN0020575024", "npdes_id": "TN0020575", "permitting_state": "TN", "agency_type_code": "ST6", "facility_uin": "110000566487", "facility_name": "NASHVILLE CENTRAL STP", "location_address": "1600 SECOND AVENUE NORTH", "supplemental_address_text": "NASHVILLE", "facility_city": "NASHVILLE", "county_code": "TN037", "state_code": "TN", "epa_region_code": "04", "facility_type_code": "MWD", "facility_lat": 36.187222, "facility_lon": -86.789356, "permit_name": "Metro Water Services - Nashville Central STP", "version_nmbr": 0, "permit_type_code": "NPD", "effective_date": 1604188800000, "expiration_date": 1761868800000, "permit_status_code": "ADC", "facility_type_indicator": "POTW", "major_minor_status_flag": "M", "permit_tracking": "Y", "pt_start_date": 1604188800000, "dmr_tracking": "Y", "dmr_nr_start_date": 1604188800000, "permit_design_flow": 100, "permit_avg_flow": 102, "perm_feature_nmbr": "024", "perm_feature_text": "PCS", "pf_lat": 36.171389, "pf_lon": -86.777778, "pf_character": "TCS", "perm_feature_type_code": "EXO", "pf_state_waterbody_name": "", "pf_state_auto_name": "Cumberland River", "pf_reach_id": "5130202003842", "in_icis": "YES", "echo_dfr_link": "https://echo.epa.gov/detailed-facility-report?fid=110000566487", "name": "NASHVILLE CENTRAL STP", "feature_kind": "CSO outfall"}}, {"type": "Feature", "id": 5945, "geometry": {"type": "Point", "coordinates": [-86.8322216632352, 36.1586109554843]}, "properties": {"OBJECTID": 5945, "npdes_pfid": "TN0020575033", "npdes_id": "TN0020575", "permitting_state": "TN", "agency_type_code": "ST6", "facility_uin": "110000566487", "facility_name": "NASHVILLE CENTRAL STP", "location_address": "1600 SECOND AVENUE NORTH", "supplemental_address_text": "NASHVILLE", "facility_city": "NASHVILLE", "county_code": "TN037", "state_code": "TN", "epa_region_code": "04", "facility_type_code": "MWD", "facility_lat": 36.187222, "facility_lon": -86.789356, "permit_name": "Metro Water Services - Nashville Central STP", "version_nmbr": 0, "permit_type_code": "NPD", "effective_date": 1604188800000, "expiration_date": 1761868800000, "permit_status_code": "ADC", "facility_type_indicator": "POTW", "major_minor_status_flag": "M", "permit_tracking": "Y", "pt_start_date": 1604188800000, "dmr_tracking": "Y", "dmr_nr_start_date": 1604188800000, "permit_design_flow": 100, "permit_avg_flow": 102, "perm_feature_nmbr": "033", "perm_feature_text": "PCS", "pf_lat": 36.158611, "pf_lon": -86.832222, "pf_character": "TCS", "perm_feature_type_code": "EXO", "pf_state_waterbody_name": "", "pf_state_auto_name": "Cumberland River-Browns Creek", "pf_reach_id": "5130202000548", "in_icis": "YES", "echo_dfr_link": "https://echo.epa.gov/detailed-facility-report?fid=110000566487", "name": "NASHVILLE CENTRAL STP", "feature_kind": "CSO outfall"}}, {"type": "Feature", "id": 5946, "geometry": {"type": "Point", "coordinates": [-86.7577782756402, 36.1588887402384]}, "properties": {"OBJECTID": 5946, "npdes_pfid": "TN0020575035", "npdes_id": "TN0020575", "permitting_state": "TN", "agency_type_code": "ST6", "facility_uin": "110000566487", "facility_name": "NASHVILLE CENTRAL STP", "location_address": "1600 SECOND AVENUE NORTH", "supplemental_address_text": "NASHVILLE", "facility_city": "NASHVILLE", "county_code": "TN037", "state_code": "TN", "epa_region_code": "04", "facility_type_code": "MWD", "facility_lat": 36.187222, "facility_lon": -86.789356, "permit_name": "Metro Water Services - Nashville Central STP", "version_nmbr": 0, "permit_type_code": "NPD", "effective_date": 1604188800000, "expiration_date": 1761868800000, "permit_status_code": "ADC", "facility_type_indicator": "POTW", "major_minor_status_flag": "M", "permit_tracking": "Y", "pt_start_date": 1604188800000, "dmr_tracking": "Y", "dmr_nr_start_date": 1604188800000, "permit_design_flow": 100, "permit_avg_flow": 102, "perm_feature_nmbr": "035", "perm_feature_text": "PCS", "pf_lat": 36.158889, "pf_lon": -86.757778, "pf_character": "TCS", "perm_feature_type_code": "EXO", "pf_state_waterbody_name": "", "pf_state_auto_name": "Cumberland River", "pf_reach_id": "5130202003842", "in_icis": "YES", "echo_dfr_link": "https://echo.epa.gov/detailed-facility-report?fid=110000566487", "name": "NASHVILLE CENTRAL STP", "feature_kind": "CSO outfall"}}, {"type": "Feature", "id": 5947, "geometry": {"type": "Point", "coordinates": [-86.7441670024552, 36.1624998524783]}, "properties": {"OBJECTID": 5947, "npdes_pfid": "TN0020575047", "npdes_id": "TN0020575", "permitting_state": "TN", "agency_type_code": "ST6", "facility_uin": "110000566487", "facility_name": "NASHVILLE CENTRAL STP", "location_address": "1600 SECOND AVENUE NORTH", "supplemental_address_text": "NASHVILLE", "facility_city": "NASHVILLE", "county_code": "TN037", "state_code": "TN", "epa_region_code": "04", "facility_type_code": "MWD", "facility_lat": 36.187222, "facility_lon": -86.789356, "permit_name": "Metro Water Services - Nashville Central STP", "version_nmbr": 0, "permit_type_code": "NPD", "effective_date": 1604188800000, "expiration_date": 1761868800000, "permit_status_code": "ADC", "facility_type_indicator": "POTW", "major_minor_status_flag": "M", "permit_tracking": "Y", "pt_start_date": 1604188800000, "dmr_tracking": "Y", "dmr_nr_start_date": 1604188800000, "permit_design_flow": 100, "permit_avg_flow": 102, "perm_feature_nmbr": "047", "perm_feature_text": "PCS", "pf_lat": 36.1625, "pf_lon": -86.744167, "pf_character": "TCS", "perm_feature_type_code": "EXO", "pf_state_waterbody_name": "", "pf_state_auto_name": "Cumberland River", "pf_reach_id": "5130202003775", "in_icis": "YES", "echo_dfr_link": "https://echo.epa.gov/detailed-facility-report?fid=110000566487", "name": "NASHVILLE CENTRAL STP", "feature_kind": "CSO outfall"}}, {"type": "Feature", "id": 5948, "geometry": {"type": "Point", "coordinates": [-87.3636937314094, 36.5209168236446]}, "properties": {"OBJECTID": 5948, "npdes_pfid": "TN0020656002", "npdes_id": "TN0020656", "permitting_state": "TN", "agency_type_code": "ST6", "facility_uin": "110000726251", "facility_name": "CLARKSVILLE GAS AND WATER DBA CLARKSVILLE WASTEWATER TREATMENT PLANT", "location_address": "15 QUARRY ROAD", "supplemental_address_text": "CLARKSVILLE", "facility_city": "CLARKSVILLE", "county_code": "TN125", "state_code": "TN", "epa_region_code": "04", "facility_type_code": "MWD", "facility_lat": 36.546708, "facility_lon": -87.355514, "permit_name": "City of Clarksville", "version_nmbr": 0, "permit_type_code": "NPD", "effective_date": 1740787200000, "expiration_date": 1896048000000, "permit_status_code": "EFF", "facility_type_indicator": "POTW", "major_minor_status_flag": "M", "permit_tracking": "Y", "pt_start_date": 1740787200000, "dmr_tracking": "Y", "dmr_nr_start_date": 1740787200000, "permit_design_flow": 25, "permit_avg_flow": 9.8, "perm_feature_nmbr": "002", "perm_feature_text": "PCS", "pf_lat": 36.520917, "pf_lon": -87.363694, "pf_character": "CSO|TCS", "perm_feature_type_code": "EXO", "pf_state_waterbody_name": "Cumberland River", "pf_state_auto_name": "", "pf_reach_id": "", "in_icis": "YES", "echo_dfr_link": "https://echo.epa.gov/detailed-facility-report?fid=110000726251", "name": "CLARKSVILLE GAS AND WATER DBA CLARKSVILLE WASTEWATER TREATMENT PLANT", "feature_kind": "CSO outfall"}}, {"type": "Feature", "id": 5949, "geometry": {"type": "Point", "coordinates": [-87.0000000088502, 36.0000002031689]}, "properties": {"OBJECTID": 5949, "npdes_pfid": "TN0020656004", "npdes_id": "TN0020656", "permitting_state": "TN", "agency_type_code": "ST6", "facility_uin": "110000726251", "facility_name": "CLARKSVILLE GAS AND WATER DBA CLARKSVILLE WASTEWATER TREATMENT PLANT", "location_address": "15 QUARRY ROAD", "supplemental_address_text": "CLARKSVILLE", "facility_city": "CLARKSVILLE", "county_code": "TN125", "state_code": "TN", "epa_region_code": "04", "facility_type_code": "MWD", "facility_lat": 36.546708, "facility_lon": -87.355514, "permit_name": "City of Clarksville", "version_nmbr": 0, "permit_type_code": "NPD", "effective_date": 1740787200000, "expiration_date": 1896048000000, "permit_status_code": "EFF", "facility_type_indicator": "POTW", "major_minor_status_flag": "M", "permit_tracking": "Y", "pt_start_date": 1740787200000, "dmr_tracking": "Y", "dmr_nr_start_date": 1740787200000, "permit_design_flow": 25, "permit_avg_flow": 9.8, "perm_feature_nmbr": "004", "perm_feature_text": "PCS", "pf_lat": 36, "pf_lon": -87, "pf_character": "CSO|TCS", "perm_feature_type_code": "EXO", "pf_state_waterbody_name": "Cumberland River", "pf_state_auto_name": "", "pf_reach_id": "", "in_icis": "YES", "echo_dfr_link": "https://echo.epa.gov/detailed-facility-report?fid=110000726251", "name": "CLARKSVILLE GAS AND WATER DBA CLARKSVILLE WASTEWATER TREATMENT PLANT", "feature_kind": "CSO outfall"}}, {"type": "Feature", "id": 5950, "geometry": {"type": "Point", "coordinates": [-87.366111097839, 36.5328608194352]}, "properties": {"OBJECTID": 5950, "npdes_pfid": "TN0020656006", "npdes_id": "TN0020656", "permitting_state": "TN", "agency_type_code": "ST6", "facility_uin": "110000726251", "facility_name": "CLARKSVILLE GAS AND WATER DBA CLARKSVILLE WASTEWATER TREATMENT PLANT", "location_address": "15 QUARRY ROAD", "supplemental_address_text": "CLARKSVILLE", "facility_city": "CLARKSVILLE", "county_code": "TN125", "state_code": "TN", "epa_region_code": "04", "facility_type_code": "MWD", "facility_lat": 36.546708, "facility_lon": -87.355514, "permit_name": "City of Clarksville", "version_nmbr": 0, "permit_type_code": "NPD", "effective_date": 1740787200000, "expiration_date": 1896048000000, "permit_status_code": "EFF", "facility_type_indicator": "POTW", "major_minor_status_flag": "M", "permit_tracking": "Y", "pt_start_date": 1740787200000, "dmr_tracking": "Y", "dmr_nr_start_date": 1740787200000, "permit_design_flow": 25, "permit_avg_flow": 9.8, "perm_feature_nmbr": "006", "perm_feature_text": "PCS", "pf_lat": 36.532861, "pf_lon": -87.366111, "pf_character": "CSO|TCS", "perm_feature_type_code": "EXO", "pf_state_waterbody_name": "Cumberland River", "pf_state_auto_name": "", "pf_reach_id": "", "in_icis": "YES", "echo_dfr_link": "https://echo.epa.gov/detailed-facility-report?fid=110000726251", "name": "CLARKSVILLE GAS AND WATER DBA CLARKSVILLE WASTEWATER TREATMENT PLANT", "feature_kind": "CSO outfall"}}, {"type": "Feature", "id": 5951, "geometry": {"type": "Point", "coordinates": [-85.3066667151321, 35.0219436614525]}, "properties": {"OBJECTID": 5951, "npdes_pfid": "TN0024210002", "npdes_id": "TN0024210", "permitting_state": "TN", "agency_type_code": "ST6", "facility_uin": "110000536527", "facility_name": "CHATTANOOGA - MOCCASIN BEND WWTP & COMBINED SEWER SYSTEM", "location_address": "455 MOCCASIN BEND ROAD", "supplemental_address_text": "CHATTANOOGA", "facility_city": "CHATTANOOGA", "county_code": "TN065", "state_code": "TN", "epa_region_code": "04", "facility_type_code": "MWD", "facility_lat": 35.051951, "facility_lon": -85.335379, "permit_name": "City of Chattanooga", "version_nmbr": 0, "permit_type_code": "NPD", "effective_date": 1648771200000, "expiration_date": 1730332800000, "permit_status_code": "ADC", "facility_type_indicator": "POTW", "major_minor_status_flag": "M", "permit_tracking": "Y", "pt_start_date": 1648771200000, "dmr_tracking": "Y", "dmr_nr_start_date": 1648771200000, "permit_design_flow": 140, "permit_avg_flow": 127, "perm_feature_nmbr": "002", "perm_feature_text": "Combined Sewer Overflow", "pf_lat": 35.021944, "pf_lon": -85.306667, "pf_character": "INT|TCS", "perm_feature_type_code": "EXO", "pf_state_waterbody_name": "", "pf_state_auto_name": "Chattanooga Creek", "pf_reach_id": "6020001001872", "in_icis": "YES", "echo_dfr_link": "https://echo.epa.gov/detailed-facility-report?fid=110000536527", "name": "CHATTANOOGA - MOCCASIN BEND WWTP & COMBINED SEWER SYSTEM", "feature_kind": "CSO outfall"}}, {"type": "Feature", "id": 5952, "geometry": {"type": "Point", "coordinates": [-85.3066667151321, 35.0219436614525]}, "properties": {"OBJECTID": 5952, "npdes_pfid": "TN0024210003", "npdes_id": "TN0024210", "permitting_state": "TN", "agency_type_code": "ST6", "facility_uin": "110000536527", "facility_name": "CHATTANOOGA - MOCCASIN BEND WWTP & COMBINED SEWER SYSTEM", "location_address": "455 MOCCASIN BEND ROAD", "supplemental_address_text": "CHATTANOOGA", "facility_city": "CHATTANOOGA", "county_code": "TN065", "state_code": "TN", "epa_region_code": "04", "facility_type_code": "MWD", "facility_lat": 35.051951, "facility_lon": -85.335379, "permit_name": "City of Chattanooga", "version_nmbr": 0, "permit_type_code": "NPD", "effective_date": 1648771200000, "expiration_date": 1730332800000, "permit_status_code": "ADC", "facility_type_indicator": "POTW", "major_minor_status_flag": "M", "permit_tracking": "Y", "pt_start_date": 1648771200000, "dmr_tracking": "Y", "dmr_nr_start_date": 1648771200000, "permit_design_flow": 140, "permit_avg_flow": 127, "perm_feature_nmbr": "003", "perm_feature_text": "Combined Sewer Overflow", "pf_lat": 35.021944, "pf_lon": -85.306667, "pf_character": "INT|TCS", "perm_feature_type_code": "EXO", "pf_state_waterbody_name": "", "pf_state_auto_name": "Chattanooga Creek", "pf_reach_id": "6020001001872", "in_icis": "YES", "echo_dfr_link": "https://echo.epa.gov/detailed-facility-report?fid=110000536527", "name": "CHATTANOOGA - MOCCASIN BEND WWTP & COMBINED SEWER SYSTEM", "feature_kind": "CSO outfall"}}, {"type": "Feature", "id": 5953, "geometry": {"type": "Point", "coordinates": [-85.2916666465178, 35.0527781579841]}, "properties": {"OBJECTID": 5953, "npdes_pfid": "TN0024210004", "npdes_id": "TN0024210", "permitting_state": "TN", "agency_type_code": "ST6", "facility_uin": "110000536527", "facility_name": "CHATTANOOGA - MOCCASIN BEND WWTP & COMBINED SEWER SYSTEM", "location_address": "455 MOCCASIN BEND ROAD", "supplemental_address_text": "CHATTANOOGA", "facility_city": "CHATTANOOGA", "county_code": "TN065", "state_code": "TN", "epa_region_code": "04", "facility_type_code": "MWD", "facility_lat": 35.051951, "facility_lon": -85.335379, "permit_name": "City of Chattanooga", "version_nmbr": 0, "permit_type_code": "NPD", "effective_date": 1648771200000, "expiration_date": 1730332800000, "permit_status_code": "ADC", "facility_type_indicator": "POTW", "major_minor_status_flag": "M", "permit_tracking": "Y", "pt_start_date": 1648771200000, "dmr_tracking": "Y", "dmr_nr_start_date": 1648771200000, "permit_design_flow": 140, "permit_avg_flow": 127, "perm_feature_nmbr": "004", "perm_feature_text": "Combined Sewer Overflow", "pf_lat": 35.052778, "pf_lon": -85.291667, "pf_character": "INT|TCS", "perm_feature_type_code": "EXO", "pf_state_waterbody_name": "", "pf_state_auto_name": "Tennessee River", "pf_reach_id": "6020001000068", "in_icis": "YES", "echo_dfr_link": "https://echo.epa.gov/detailed-facility-report?fid=110000536527", "name": "CHATTANOOGA - MOCCASIN BEND WWTP & COMBINED SEWER SYSTEM", "feature_kind": "CSO outfall"}}, {"type": "Feature", "id": 5954, "geometry": {"type": "Point", "coordinates": [-85.3055563974409, 35.0597220736715]}, "properties": {"OBJECTID": 5954, "npdes_pfid": "TN0024210005", "npdes_id": "TN0024210", "permitting_state": "TN", "agency_type_code": "ST6", "facility_uin": "110000536527", "facility_name": "CHATTANOOGA - MOCCASIN BEND WWTP & COMBINED SEWER SYSTEM", "location_address": "455 MOCCASIN BEND ROAD", "supplemental_address_text": "CHATTANOOGA", "facility_city": "CHATTANOOGA", "county_code": "TN065", "state_code": "TN", "epa_region_code": "04", "facility_type_code": "MWD", "facility_lat": 35.051951, "facility_lon": -85.335379, "permit_name": "City of Chattanooga", "version_nmbr": 0, "permit_type_code": "NPD", "effective_date": 1648771200000, "expiration_date": 1730332800000, "permit_status_code": "ADC", "facility_type_indicator": "POTW", "major_minor_status_flag": "M", "permit_tracking": "Y", "pt_start_date": 1648771200000, "dmr_tracking": "Y", "dmr_nr_start_date": 1648771200000, "permit_design_flow": 140, "permit_avg_flow": 127, "perm_feature_nmbr": "005", "perm_feature_text": "PCS", "pf_lat": 35.059722, "pf_lon": -85.305556, "pf_character": "TCS", "perm_feature_type_code": "EXO", "pf_state_waterbody_name": "", "pf_state_auto_name": "Tennessee River", "pf_reach_id": "6020001000068", "in_icis": "YES", "echo_dfr_link": "https://echo.epa.gov/detailed-facility-report?fid=110000536527", "name": "CHATTANOOGA - MOCCASIN BEND WWTP & COMBINED SEWER SYSTEM", "feature_kind": "CSO outfall"}}, {"type": "Feature", "id": 5955, "geometry": {"type": "Point", "coordinates": [-85.3191667723106, 35.0547217491197]}, "properties": {"OBJECTID": 5955, "npdes_pfid": "TN0024210006", "npdes_id": "TN0024210", "permitting_state": "TN", "agency_type_code": "ST6", "facility_uin": "110000536527", "facility_name": "CHATTANOOGA - MOCCASIN BEND WWTP & COMBINED SEWER SYSTEM", "location_address": "455 MOCCASIN BEND ROAD", "supplemental_address_text": "CHATTANOOGA", "facility_city": "CHATTANOOGA", "county_code": "TN065", "state_code": "TN", "epa_region_code": "04", "facility_type_code": "MWD", "facility_lat": 35.051951, "facility_lon": -85.335379, "permit_name": "City of Chattanooga", "version_nmbr": 0, "permit_type_code": "NPD", "effective_date": 1648771200000, "expiration_date": 1730332800000, "permit_status_code": "ADC", "facility_type_indicator": "POTW", "major_minor_status_flag": "M", "permit_tracking": "Y", "pt_start_date": 1648771200000, "dmr_tracking": "Y", "dmr_nr_start_date": 1648771200000, "permit_design_flow": 140, "permit_avg_flow": 127, "perm_feature_nmbr": "006", "perm_feature_text": "PCS", "pf_lat": 35.054722, "pf_lon": -85.319167, "pf_character": "TCS", "perm_feature_type_code": "EXO", "pf_state_waterbody_name": "", "pf_state_auto_name": "Tennessee River", "pf_reach_id": "6020001000068", "in_icis": "YES", "echo_dfr_link": "https://echo.epa.gov/detailed-facility-report?fid=110000536527", "name": "CHATTANOOGA - MOCCASIN BEND WWTP & COMBINED SEWER SYSTEM", "feature_kind": "CSO outfall"}}, {"type": "Feature", "id": 5956, "geometry": {"type": "Point", "coordinates": [-85.3250004317656, 35.0499998380479]}, "properties": {"OBJECTID": 5956, "npdes_pfid": "TN0024210007", "npdes_id": "TN0024210", "permitting_state": "TN", "agency_type_code": "ST6", "facility_uin": "110000536527", "facility_name": "CHATTANOOGA - MOCCASIN BEND WWTP & COMBINED SEWER SYSTEM", "location_address": "455 MOCCASIN BEND ROAD", "supplemental_address_text": "CHATTANOOGA", "facility_city": "CHATTANOOGA", "county_code": "TN065", "state_code": "TN", "epa_region_code": "04", "facility_type_code": "MWD", "facility_lat": 35.051951, "facility_lon": -85.335379, "permit_name": "City of Chattanooga", "version_nmbr": 0, "permit_type_code": "NPD", "effective_date": 1648771200000, "expiration_date": 1730332800000, "permit_status_code": "ADC", "facility_type_indicator": "POTW", "major_minor_status_flag": "M", "permit_tracking": "Y", "pt_start_date": 1648771200000, "dmr_tracking": "Y", "dmr_nr_start_date": 1648771200000, "permit_design_flow": 140, "permit_avg_flow": 127, "perm_feature_nmbr": "007", "perm_feature_text": "PCS", "pf_lat": 35.05, "pf_lon": -85.325, "pf_character": "TCS", "perm_feature_type_code": "EXO", "pf_state_waterbody_name": "", "pf_state_auto_name": "Tennessee River", "pf_reach_id": "6020001000068", "in_icis": "YES", "echo_dfr_link": "https://echo.epa.gov/detailed-facility-report?fid=110000536527", "name": "CHATTANOOGA - MOCCASIN BEND WWTP & COMBINED SEWER SYSTEM", "feature_kind": "CSO outfall"}}, {"type": "Feature", "id": 5957, "geometry": {"type": "Point", "coordinates": [-85.3263892271949, 35.0388892907447]}, "properties": {"OBJECTID": 5957, "npdes_pfid": "TN0024210008", "npdes_id": "TN0024210", "permitting_state": "TN", "agency_type_code": "ST6", "facility_uin": "110000536527", "facility_name": "CHATTANOOGA - MOCCASIN BEND WWTP & COMBINED SEWER SYSTEM", "location_address": "455 MOCCASIN BEND ROAD", "supplemental_address_text": "CHATTANOOGA", "facility_city": "CHATTANOOGA", "county_code": "TN065", "state_code": "TN", "epa_region_code": "04", "facility_type_code": "MWD", "facility_lat": 35.051951, "facility_lon": -85.335379, "permit_name": "City of Chattanooga", "version_nmbr": 0, "permit_type_code": "NPD", "effective_date": 1648771200000, "expiration_date": 1730332800000, "permit_status_code": "ADC", "facility_type_indicator": "POTW", "major_minor_status_flag": "M", "permit_tracking": "Y", "pt_start_date": 1648771200000, "dmr_tracking": "Y", "dmr_nr_start_date": 1648771200000, "permit_design_flow": 140, "permit_avg_flow": 127, "perm_feature_nmbr": "008", "perm_feature_text": "PCS", "pf_lat": 35.038889, "pf_lon": -85.326389, "pf_character": "TCS", "perm_feature_type_code": "EXO", "pf_state_waterbody_name": "", "pf_state_auto_name": "Tennessee River", "pf_reach_id": "6020001000068", "in_icis": "YES", "echo_dfr_link": "https://echo.epa.gov/detailed-facility-report?fid=110000536527", "name": "CHATTANOOGA - MOCCASIN BEND WWTP & COMBINED SEWER SYSTEM", "feature_kind": "CSO outfall"}}, {"type": "Feature", "id": 5958, "geometry": {"type": "Point", "coordinates": [-85.3236107380211, 35.022221740237]}, "properties": {"OBJECTID": 5958, "npdes_pfid": "TN0024210009", "npdes_id": "TN0024210", "permitting_state": "TN", "agency_type_code": "ST6", "facility_uin": "110000536527", "facility_name": "CHATTANOOGA - MOCCASIN BEND WWTP & COMBINED SEWER SYSTEM", "location_address": "455 MOCCASIN BEND ROAD", "supplemental_address_text": "CHATTANOOGA", "facility_city": "CHATTANOOGA", "county_code": "TN065", "state_code": "TN", "epa_region_code": "04", "facility_type_code": "MWD", "facility_lat": 35.051951, "facility_lon": -85.335379, "permit_name": "City of Chattanooga", "version_nmbr": 0, "permit_type_code": "NPD", "effective_date": 1648771200000, "expiration_date": 1730332800000, "permit_status_code": "ADC", "facility_type_indicator": "POTW", "major_minor_status_flag": "M", "permit_tracking": "Y", "pt_start_date": 1648771200000, "dmr_tracking": "Y", "dmr_nr_start_date": 1648771200000, "permit_design_flow": 140, "permit_avg_flow": 127, "perm_feature_nmbr": "009", "perm_feature_text": "PCS", "pf_lat": 35.022222, "pf_lon": -85.323611, "pf_character": "TCS", "perm_feature_type_code": "EXO", "pf_state_waterbody_name": "", "pf_state_auto_name": "Chattanooga Creek", "pf_reach_id": "6020001001872", "in_icis": "YES", "echo_dfr_link": "https://echo.epa.gov/detailed-facility-report?fid=110000536527", "name": "CHATTANOOGA - MOCCASIN BEND WWTP & COMBINED SEWER SYSTEM", "feature_kind": "CSO outfall"}}]}