{"type": "FeatureCollection", "features": [{"type": "Feature", "id": 2464, "geometry": {"type": "Point", "coordinates": [-76.0741110083456, 38.5688608059283]}, "properties": {"OBJECTID": 2464, "npdes_pfid": "MD0021636012", "npdes_id": "MD0021636", "permitting_state": "MD", "agency_type_code": "ST6", "facility_uin": "110003515866", "facility_name": "CAMBRIDGE WWTP", "location_address": "1010 ROSYLN AVE.", "supplemental_address_text": "DORCHESTER COUNTY", "facility_city": "CAMBRIDGE", "county_code": "MD019", "state_code": "MD", "epa_region_code": "03", "facility_type_code": "MWD", "facility_lat": 38.564417, "facility_lon": -76.058442, "permit_name": "CITY OF CAMBRIDGE", "version_nmbr": 0, "permit_type_code": "NPD", "effective_date": 1730419200000, "expiration_date": 1888099200000, "permit_status_code": "EFF", "facility_type_indicator": "POTW", "major_minor_status_flag": "M", "permit_tracking": "Y", "pt_start_date": 1730419200000, "dmr_tracking": "Y", "dmr_nr_start_date": 1730419200000, "permit_design_flow": 8.1, "permit_avg_flow": 4.32, "perm_feature_nmbr": "012", "perm_feature_text": "CSO", "pf_lat": 38.568861, "pf_lon": -76.074111, "pf_character": "TCS", "perm_feature_type_code": "EXO", "pf_state_waterbody_name": "Cambridge Creek", "pf_state_auto_name": "LaTrappe Creek-Choptank River", "pf_reach_id": "2060005001149", "in_icis": "YES", "echo_dfr_link": "https://echo.epa.gov/detailed-facility-report?fid=110003515866", "name": "CAMBRIDGE WWTP", "feature_kind": "CSO outfall"}}, {"type": "Feature", "id": 2465, "geometry": {"type": "Point", "coordinates": [-76.0732782700772, 38.5677777643969]}, "properties": {"OBJECTID": 2465, "npdes_pfid": "MD0021636013", "npdes_id": "MD0021636", "permitting_state": "MD", "agency_type_code": "ST6", "facility_uin": "110003515866", "facility_name": "CAMBRIDGE WWTP", "location_address": "1010 ROSYLN AVE.", "supplemental_address_text": "DORCHESTER COUNTY", "facility_city": "CAMBRIDGE", "county_code": "MD019", "state_code": "MD", "epa_region_code": "03", "facility_type_code": "MWD", "facility_lat": 38.564417, "facility_lon": -76.058442, "permit_name": "CITY OF CAMBRIDGE", "version_nmbr": 0, "permit_type_code": "NPD", "effective_date": 1730419200000, "expiration_date": 1888099200000, "permit_status_code": "EFF", "facility_type_indicator": "POTW", "major_minor_status_flag": "M", "permit_tracking": "Y", "pt_start_date": 1730419200000, "dmr_tracking": "Y", "dmr_nr_start_date": 1730419200000, "permit_design_flow": 8.1, "permit_avg_flow": 4.32, "perm_feature_nmbr": "013", "perm_feature_text": "CSO", "pf_lat": 38.567778, "pf_lon": -76.073278, "pf_character": "TCS", "perm_feature_type_code": "EXO", "pf_state_waterbody_name": "Cambridge Creek", "pf_state_auto_name": "LaTrappe Creek-Choptank River", "pf_reach_id": "2060005001149", "in_icis": "YES", "echo_dfr_link": "https://echo.epa.gov/detailed-facility-report?fid=110003515866", "name": "CAMBRIDGE WWTP", "feature_kind": "CSO outfall"}}, {"type": "Feature", "id": 2466, "geometry": {"type": "Point", "coordinates": [-76.0733887628572, 38.5652779972727]}, "properties": {"OBJECTID": 2466, "npdes_pfid": "MD0021636014", "npdes_id": "MD0021636", "permitting_state": "MD", "agency_type_code": "ST6", "facility_uin": "110003515866", "facility_name": "CAMBRIDGE WWTP", "location_address": "1010 ROSYLN AVE.", "supplemental_address_text": "DORCHESTER COUNTY", "facility_city": "CAMBRIDGE", "county_code": "MD019", "state_code": "MD", "epa_region_code": "03", "facility_type_code": "MWD", "facility_lat": 38.564417, "facility_lon": -76.058442, "permit_name": "CITY OF CAMBRIDGE", "version_nmbr": 0, "permit_type_code": "NPD", "effective_date": 1730419200000, "expiration_date": 1888099200000, "permit_status_code": "EFF", "facility_type_indicator": "POTW", "major_minor_status_flag": "M", "permit_tracking": "Y", "pt_start_date": 1730419200000, "dmr_tracking": "Y", "dmr_nr_start_date": 1730419200000, "permit_design_flow": 8.1, "permit_avg_flow": 4.32, "perm_feature_nmbr": "014", "perm_feature_text": "CSO", "pf_lat": 38.565278, "pf_lon": -76.073389, "pf_character": "TCS", "perm_feature_type_code": "EXO", "pf_state_waterbody_name": "Cambridge Creek", "pf_state_auto_name": "LaTrappe Creek-Choptank River", "pf_reach_id": "2060005001149", "in_icis": "YES", "echo_dfr_link": "https://echo.epa.gov/detailed-facility-report?fid=110003515866", "name": "CAMBRIDGE WWTP", "feature_kind": "CSO outfall"}}, {"type": "Feature", "id": 2467, "geometry": {"type": "Point", "coordinates": [-76.0718607285589, 38.5676386956245]}, "properties": {"OBJECTID": 2467, "npdes_pfid": "MD0021636015", "npdes_id": "MD0021636", "permitting_state": "MD", "agency_type_code": "ST6", "facility_uin": "110003515866", "facility_name": "CAMBRIDGE WWTP", "location_address": "1010 ROSYLN AVE.", "supplemental_address_text": "DORCHESTER COUNTY", "facility_city": "CAMBRIDGE", "county_code": "MD019", "state_code": "MD", "epa_region_code": "03", "facility_type_code": "MWD", "facility_lat": 38.564417, "facility_lon": -76.058442, "permit_name": "CITY OF CAMBRIDGE", "version_nmbr": 0, "permit_type_code": "NPD", "effective_date": 1730419200000, "expiration_date": 1888099200000, "permit_status_code": "EFF", "facility_type_indicator": "POTW", "major_minor_status_flag": "M", "permit_tracking": "Y", "pt_start_date": 1730419200000, "dmr_tracking": "Y", "dmr_nr_start_date": 1730419200000, "permit_design_flow": 8.1, "permit_avg_flow": 4.32, "perm_feature_nmbr": "015", "perm_feature_text": "CSO", "pf_lat": 38.567639, "pf_lon": -76.071861, "pf_character": "TCS", "perm_feature_type_code": "EXO", "pf_state_waterbody_name": "Cambridge Creek", "pf_state_auto_name": "LaTrappe Creek-Choptank River", "pf_reach_id": "2060005001149", "in_icis": "YES", "echo_dfr_link": "https://echo.epa.gov/detailed-facility-report?fid=110003515866", "name": "CAMBRIDGE WWTP", "feature_kind": "CSO outfall"}}, {"type": "Feature", "id": 2468, "geometry": {"type": "Point", "coordinates": [-76.0718607285589, 38.5676386956245]}, "properties": {"OBJECTID": 2468, "npdes_pfid": "MD0021636016", "npdes_id": "MD0021636", "permitting_state": "MD", "agency_type_code": "ST6", "facility_uin": "110003515866", "facility_name": "CAMBRIDGE WWTP", "location_address": "1010 ROSYLN AVE.", "supplemental_address_text": "DORCHESTER COUNTY", "facility_city": "CAMBRIDGE", "county_code": "MD019", "state_code": "MD", "epa_region_code": "03", "facility_type_code": "MWD", "facility_lat": 38.564417, "facility_lon": -76.058442, "permit_name": "CITY OF CAMBRIDGE", "version_nmbr": 0, "permit_type_code": "NPD", "effective_date": 1730419200000, "expiration_date": 1888099200000, "permit_status_code": "EFF", "facility_type_indicator": "POTW", "major_minor_status_flag": "M", "permit_tracking": "Y", "pt_start_date": 1730419200000, "dmr_tracking": "Y", "dmr_nr_start_date": 1730419200000, "permit_design_flow": 8.1, "permit_avg_flow": 4.32, "perm_feature_nmbr": "016", "perm_feature_text": "CSO", "pf_lat": 38.567639, "pf_lon": -76.071861, "pf_character": "TCS", "perm_feature_type_code": "EXO", "pf_state_waterbody_name": "Cambridge Creek", "pf_state_auto_name": "LaTrappe Creek-Choptank River", "pf_reach_id": "2060005001149", "in_icis": "YES", "echo_dfr_link": "https://echo.epa.gov/detailed-facility-report?fid=110003515866", "name": "CAMBRIDGE WWTP", "feature_kind": "CSO outfall"}}, {"type": "Feature", "id": 2469, "geometry": {"type": "Point", "coordinates": [-79.0416668033454, 39.485278039994]}, "properties": {"OBJECTID": 2469, "npdes_pfid": "MD0067384002", "npdes_id": "MD0067384", "permitting_state": "MD", "agency_type_code": "ST6", "facility_uin": "110011128617", "facility_name": "WESTERNPORT CSO", "location_address": "WAVERLY, WASHINGTON STREETS,", "supplemental_address_text": "ALLEGANY COUNTY", "facility_city": "WESTERNPORT", "county_code": "MD001", "state_code": "MD", "epa_region_code": "03", "facility_type_code": "", "facility_lat": 39.485278, "facility_lon": -79.041667, "permit_name": "TOWN OF WESTERNPORT", "version_nmbr": 0, "permit_type_code": "NPD", "effective_date": 1543622400000, "expiration_date": 1701302400000, "permit_status_code": "EXP", "facility_type_indicator": "NON-POTW", "major_minor_status_flag": "N", "permit_tracking": "Y", "pt_start_date": 1543622400000, "dmr_tracking": "N", "dmr_nr_start_date": 1543622400000, "permit_design_flow": null, "permit_avg_flow": 0.045, "perm_feature_nmbr": "002", "perm_feature_text": "", "pf_lat": 39.485278, "pf_lon": -79.041667, "pf_character": "CSO", "perm_feature_type_code": "EXO", "pf_state_waterbody_name": "NORTH BRANCH POTOMAC RIVER", "pf_state_auto_name": "North Branch Potomac River", "pf_reach_id": "2070002000154", "in_icis": "YES", "echo_dfr_link": "https://echo.epa.gov/detailed-facility-report?fid=110011128617", "name": "WESTERNPORT CSO", "feature_kind": "CSO outfall"}}, {"type": "Feature", "id": 2470, "geometry": {"type": "Point", "coordinates": [-79.0416668033454, 39.485278039994]}, "properties": {"OBJECTID": 2470, "npdes_pfid": "MD0067407001", "npdes_id": "MD0067407", "permitting_state": "MD", "agency_type_code": "ST6", "facility_uin": "110019881118", "facility_name": "ALLEGANY COUNTY COMBINED SEWER", "location_address": "WRIGHTS CROSS./BRADDOCK/GRAHAM", "supplemental_address_text": "ALLEGHANY COUNTY", "facility_city": "ALLEGHANY COUNTY", "county_code": "MD001", "state_code": "MD", "epa_region_code": "03", "facility_type_code": "MWD", "facility_lat": 39.48528, "facility_lon": -79.04167, "permit_name": "CSO ALLEGHANY COUNTY D.P.W.", "version_nmbr": 0, "permit_type_code": "NPD", "effective_date": 1541030400000, "expiration_date": 1667174400000, "permit_status_code": "EXP", "facility_type_indicator": "POTW", "major_minor_status_flag": "N", "permit_tracking": "Y", "pt_start_date": 1541030400000, "dmr_tracking": "N", "dmr_nr_start_date": 1541030400000, "permit_design_flow": 1, "permit_avg_flow": 1.14, "perm_feature_nmbr": "001", "perm_feature_text": "Wright's Crossing Pumping Station", "pf_lat": 39.485278, "pf_lon": -79.041667, "pf_character": "CSO", "perm_feature_type_code": "EXO", "pf_state_waterbody_name": "George's Creek", "pf_state_auto_name": "North Branch Potomac River", "pf_reach_id": "2070002000154", "in_icis": "YES", "echo_dfr_link": "https://echo.epa.gov/detailed-facility-report?fid=110019881118", "name": "ALLEGANY COUNTY COMBINED SEWER", "feature_kind": "CSO outfall"}}, {"type": "Feature", "id": 2471, "geometry": {"type": "Point", "coordinates": [-76.7194436404667, 38.7919439851804]}, "properties": {"OBJECTID": 2471, "npdes_pfid": "MD0067407002", "npdes_id": "MD0067407", "permitting_state": "MD", "agency_type_code": "ST6", "facility_uin": "110019881118", "facility_name": "ALLEGANY COUNTY COMBINED SEWER", "location_address": "WRIGHTS CROSS./BRADDOCK/GRAHAM", "supplemental_address_text": "ALLEGHANY COUNTY", "facility_city": "ALLEGHANY COUNTY", "county_code": "MD001", "state_code": "MD", "epa_region_code": "03", "facility_type_code": "MWD", "facility_lat": 39.48528, "facility_lon": -79.04167, "permit_name": "CSO ALLEGHANY COUNTY D.P.W.", "version_nmbr": 0, "permit_type_code": "NPD", "effective_date": 1541030400000, "expiration_date": 1667174400000, "permit_status_code": "EXP", "facility_type_indicator": "POTW", "major_minor_status_flag": "N", "permit_tracking": "Y", "pt_start_date": 1541030400000, "dmr_tracking": "N", "dmr_nr_start_date": 1541030400000, "permit_design_flow": 1, "permit_avg_flow": 1.14, "perm_feature_nmbr": "002", "perm_feature_text": "Braddock Estates", "pf_lat": 38.791944, "pf_lon": -76.719444, "pf_character": "CSO", "perm_feature_type_code": "EXO", "pf_state_waterbody_name": "George's Creek", "pf_state_auto_name": "Western Branch Patuxent River", "pf_reach_id": "2060006000217", "in_icis": "YES", "echo_dfr_link": "https://echo.epa.gov/detailed-facility-report?fid=110019881118", "name": "ALLEGANY COUNTY COMBINED SEWER", "feature_kind": "CSO outfall"}}, {"type": "Feature", "id": 2472, "geometry": {"type": "Point", "coordinates": [-76.7013892998864, 38.7583327901017]}, "properties": {"OBJECTID": 2472, "npdes_pfid": "MD0067407003", "npdes_id": "MD0067407", "permitting_state": "MD", "agency_type_code": "ST6", "facility_uin": "110019881118", "facility_name": "ALLEGANY COUNTY COMBINED SEWER", "location_address": "WRIGHTS CROSS./BRADDOCK/GRAHAM", "supplemental_address_text": "ALLEGHANY COUNTY", "facility_city": "ALLEGHANY COUNTY", "county_code": "MD001", "state_code": "MD", "epa_region_code": "03", "facility_type_code": "MWD", "facility_lat": 39.48528, "facility_lon": -79.04167, "permit_name": "CSO ALLEGHANY COUNTY D.P.W.", "version_nmbr": 0, "permit_type_code": "NPD", "effective_date": 1541030400000, "expiration_date": 1667174400000, "permit_status_code": "EXP", "facility_type_indicator": "POTW", "major_minor_status_flag": "N", "permit_tracking": "Y", "pt_start_date": 1541030400000, "dmr_tracking": "N", "dmr_nr_start_date": 1541030400000, "permit_design_flow": 1, "permit_avg_flow": 1.14, "perm_feature_nmbr": "003", "perm_feature_text": "Grahamtown", "pf_lat": 38.758333, "pf_lon": -76.701389, "pf_character": "CSO", "perm_feature_type_code": "EXO", "pf_state_waterbody_name": "George's Creek", "pf_state_auto_name": "Swan Point Creek", "pf_reach_id": "2060006000511", "in_icis": "YES", "echo_dfr_link": "https://echo.epa.gov/detailed-facility-report?fid=110019881118", "name": "ALLEGANY COUNTY COMBINED SEWER", "feature_kind": "CSO outfall"}}, {"type": "Feature", "id": 2473, "geometry": {"type": "Point", "coordinates": [-78.9305559824832, 39.6555557308351]}, "properties": {"OBJECTID": 2473, "npdes_pfid": "MD0067423001", "npdes_id": "MD0067423", "permitting_state": "MD", "agency_type_code": "ST6", "facility_uin": "110006643560", "facility_name": "FROSTBURG COMBINED SEWER OVERF", "location_address": "15 LOCATIONS IN FROSTBURG", "supplemental_address_text": "ALLEGANY COUNTY", "facility_city": "FROSTBURG", "county_code": "MD001", "state_code": "MD", "epa_region_code": "03", "facility_type_code": "MWD", "facility_lat": 39.655556, "facility_lon": -78.930556, "permit_name": "CSO ALLEGANY COUNTY FROSTBURG", "version_nmbr": 0, "permit_type_code": "NPD", "effective_date": 1543622400000, "expiration_date": 1701302400000, "permit_status_code": "EXP", "facility_type_indicator": "POTW", "major_minor_status_flag": "N", "permit_tracking": "Y", "pt_start_date": 1543622400000, "dmr_tracking": "N", "dmr_nr_start_date": 1543622400000, "permit_design_flow": 0, "permit_avg_flow": null, "perm_feature_nmbr": "001", "perm_feature_text": "", "pf_lat": 39.655556, "pf_lon": -78.930556, "pf_character": "CSO", "perm_feature_type_code": "EXO", "pf_state_waterbody_name": "POTOMAC RIVER - ALLEGHANY COUNTY", "pf_state_auto_name": "Sand Spring Run", "pf_reach_id": "2070002000915", "in_icis": "YES", "echo_dfr_link": "https://echo.epa.gov/detailed-facility-report?fid=110006643560", "name": "FROSTBURG COMBINED SEWER OVERF", "feature_kind": "CSO outfall"}}, {"type": "Feature", "id": 2474, "geometry": {"type": "Point", "coordinates": [-78.9305559824832, 39.6555557308351]}, "properties": {"OBJECTID": 2474, "npdes_pfid": "MD0067423002", "npdes_id": "MD0067423", "permitting_state": "MD", "agency_type_code": "ST6", "facility_uin": "110006643560", "facility_name": "FROSTBURG COMBINED SEWER OVERF", "location_address": "15 LOCATIONS IN FROSTBURG", "supplemental_address_text": "ALLEGANY COUNTY", "facility_city": "FROSTBURG", "county_code": "MD001", "state_code": "MD", "epa_region_code": "03", "facility_type_code": "MWD", "facility_lat": 39.655556, "facility_lon": -78.930556, "permit_name": "CSO ALLEGANY COUNTY FROSTBURG", "version_nmbr": 0, "permit_type_code": "NPD", "effective_date": 1543622400000, "expiration_date": 1701302400000, "permit_status_code": "EXP", "facility_type_indicator": "POTW", "major_minor_status_flag": "N", "permit_tracking": "Y", "pt_start_date": 1543622400000, "dmr_tracking": "N", "dmr_nr_start_date": 1543622400000, "permit_design_flow": 0, "permit_avg_flow": null, "perm_feature_nmbr": "002", "perm_feature_text": "", "pf_lat": 39.655556, "pf_lon": -78.930556, "pf_character": "CSO", "perm_feature_type_code": "EXO", "pf_state_waterbody_name": "POTOMAC RIVER - ALLEGHANY COUNTY", "pf_state_auto_name": "Sand Spring Run", "pf_reach_id": "2070002000915", "in_icis": "YES", "echo_dfr_link": "https://echo.epa.gov/detailed-facility-report?fid=110006643560", "name": "FROSTBURG COMBINED SEWER OVERF", "feature_kind": "CSO outfall"}}, {"type": "Feature", "id": 2475, "geometry": {"type": "Point", "coordinates": [-78.9305559824832, 39.6555557308351]}, "properties": {"OBJECTID": 2475, "npdes_pfid": "MD0067423003", "npdes_id": "MD0067423", "permitting_state": "MD", "agency_type_code": "ST6", "facility_uin": "110006643560", "facility_name": "FROSTBURG COMBINED SEWER OVERF", "location_address": "15 LOCATIONS IN FROSTBURG", "supplemental_address_text": "ALLEGANY COUNTY", "facility_city": "FROSTBURG", "county_code": "MD001", "state_code": "MD", "epa_region_code": "03", "facility_type_code": "MWD", "facility_lat": 39.655556, "facility_lon": -78.930556, "permit_name": "CSO ALLEGANY COUNTY FROSTBURG", "version_nmbr": 0, "permit_type_code": "NPD", "effective_date": 1543622400000, "expiration_date": 1701302400000, "permit_status_code": "EXP", "facility_type_indicator": "POTW", "major_minor_status_flag": "N", "permit_tracking": "Y", "pt_start_date": 1543622400000, "dmr_tracking": "N", "dmr_nr_start_date": 1543622400000, "permit_design_flow": 0, "permit_avg_flow": null, "perm_feature_nmbr": "003", "perm_feature_text": "", "pf_lat": 39.655556, "pf_lon": -78.930556, "pf_character": "CSO", "perm_feature_type_code": "EXO", "pf_state_waterbody_name": "POTOMAC RIVER - ALLEGHANY COUNTY", "pf_state_auto_name": "Sand Spring Run", "pf_reach_id": "2070002000915", "in_icis": "YES", "echo_dfr_link": "https://echo.epa.gov/detailed-facility-report?fid=110006643560", "name": "FROSTBURG COMBINED SEWER OVERF", "feature_kind": "CSO outfall"}}, {"type": "Feature", "id": 2476, "geometry": {"type": "Point", "coordinates": [-78.9305559824832, 39.6555557308351]}, "properties": {"OBJECTID": 2476, "npdes_pfid": "MD0067423004", "npdes_id": "MD0067423", "permitting_state": "MD", "agency_type_code": "ST6", "facility_uin": "110006643560", "facility_name": "FROSTBURG COMBINED SEWER OVERF", "location_address": "15 LOCATIONS IN FROSTBURG", "supplemental_address_text": "ALLEGANY COUNTY", "facility_city": "FROSTBURG", "county_code": "MD001", "state_code": "MD", "epa_region_code": "03", "facility_type_code": "MWD", "facility_lat": 39.655556, "facility_lon": -78.930556, "permit_name": "CSO ALLEGANY COUNTY FROSTBURG", "version_nmbr": 0, "permit_type_code": "NPD", "effective_date": 1543622400000, "expiration_date": 1701302400000, "permit_status_code": "EXP", "facility_type_indicator": "POTW", "major_minor_status_flag": "N", "permit_tracking": "Y", "pt_start_date": 1543622400000, "dmr_tracking": "N", "dmr_nr_start_date": 1543622400000, "permit_design_flow": 0, "permit_avg_flow": null, "perm_feature_nmbr": "004", "perm_feature_text": "", "pf_lat": 39.655556, "pf_lon": -78.930556, "pf_character": "CSO", "perm_feature_type_code": "EXO", "pf_state_waterbody_name": "POTOMAC RIVER - ALLEGHANY COUNTY", "pf_state_auto_name": "Sand Spring Run", "pf_reach_id": "2070002000915", "in_icis": "YES", "echo_dfr_link": "https://echo.epa.gov/detailed-facility-report?fid=110006643560", "name": "FROSTBURG COMBINED SEWER OVERF", "feature_kind": "CSO outfall"}}, {"type": "Feature", "id": 2477, "geometry": {"type": "Point", "coordinates": [-78.9305559824832, 39.6555557308351]}, "properties": {"OBJECTID": 2477, "npdes_pfid": "MD0067423005", "npdes_id": "MD0067423", "permitting_state": "MD", "agency_type_code": "ST6", "facility_uin": "110006643560", "facility_name": "FROSTBURG COMBINED SEWER OVERF", "location_address": "15 LOCATIONS IN FROSTBURG", "supplemental_address_text": "ALLEGANY COUNTY", "facility_city": "FROSTBURG", "county_code": "MD001", "state_code": "MD", "epa_region_code": "03", "facility_type_code": "MWD", "facility_lat": 39.655556, "facility_lon": -78.930556, "permit_name": "CSO ALLEGANY COUNTY FROSTBURG", "version_nmbr": 0, "permit_type_code": "NPD", "effective_date": 1543622400000, "expiration_date": 1701302400000, "permit_status_code": "EXP", "facility_type_indicator": "POTW", "major_minor_status_flag": "N", "permit_tracking": "Y", "pt_start_date": 1543622400000, "dmr_tracking": "N", "dmr_nr_start_date": 1543622400000, "permit_design_flow": 0, "permit_avg_flow": null, "perm_feature_nmbr": "005", "perm_feature_text": "", "pf_lat": 39.655556, "pf_lon": -78.930556, "pf_character": "CSO", "perm_feature_type_code": "EXO", "pf_state_waterbody_name": "POTOMAC RIVER - ALLEGHANY COUNTY", "pf_state_auto_name": "Sand Spring Run", "pf_reach_id": "2070002000915", "in_icis": "YES", "echo_dfr_link": "https://echo.epa.gov/detailed-facility-report?fid=110006643560", "name": "FROSTBURG COMBINED SEWER OVERF", "feature_kind": "CSO outfall"}}, {"type": "Feature", "id": 2478, "geometry": {"type": "Point", "coordinates": [-78.9305559824832, 39.6555557308351]}, "properties": {"OBJECTID": 2478, "npdes_pfid": "MD0067423006", "npdes_id": "MD0067423", "permitting_state": "MD", "agency_type_code": "ST6", "facility_uin": "110006643560", "facility_name": "FROSTBURG COMBINED SEWER OVERF", "location_address": "15 LOCATIONS IN FROSTBURG", "supplemental_address_text": "ALLEGANY COUNTY", "facility_city": "FROSTBURG", "county_code": "MD001", "state_code": "MD", "epa_region_code": "03", "facility_type_code": "MWD", "facility_lat": 39.655556, "facility_lon": -78.930556, "permit_name": "CSO ALLEGANY COUNTY FROSTBURG", "version_nmbr": 0, "permit_type_code": "NPD", "effective_date": 1543622400000, "expiration_date": 1701302400000, "permit_status_code": "EXP", "facility_type_indicator": "POTW", "major_minor_status_flag": "N", "permit_tracking": "Y", "pt_start_date": 1543622400000, "dmr_tracking": "N", "dmr_nr_start_date": 1543622400000, "permit_design_flow": 0, "permit_avg_flow": null, "perm_feature_nmbr": "006", "perm_feature_text": "", "pf_lat": 39.655556, "pf_lon": -78.930556, "pf_character": "CSO", "perm_feature_type_code": "EXO", "pf_state_waterbody_name": "POTOMAC RIVER - ALLEGHANY COUNTY", "pf_state_auto_name": "Sand Spring Run", "pf_reach_id": "2070002000915", "in_icis": "YES", "echo_dfr_link": "https://echo.epa.gov/detailed-facility-report?fid=110006643560", "name": "FROSTBURG COMBINED SEWER OVERF", "feature_kind": "CSO outfall"}}, {"type": "Feature", "id": 2479, "geometry": {"type": "Point", "coordinates": [-78.9305559824832, 39.6555557308351]}, "properties": {"OBJECTID": 2479, "npdes_pfid": "MD0067423007", "npdes_id": "MD0067423", "permitting_state": "MD", "agency_type_code": "ST6", "facility_uin": "110006643560", "facility_name": "FROSTBURG COMBINED SEWER OVERF", "location_address": "15 LOCATIONS IN FROSTBURG", "supplemental_address_text": "ALLEGANY COUNTY", "facility_city": "FROSTBURG", "county_code": "MD001", "state_code": "MD", "epa_region_code": "03", "facility_type_code": "MWD", "facility_lat": 39.655556, "facility_lon": -78.930556, "permit_name": "CSO ALLEGANY COUNTY FROSTBURG", "version_nmbr": 0, "permit_type_code": "NPD", "effective_date": 1543622400000, "expiration_date": 1701302400000, "permit_status_code": "EXP", "facility_type_indicator": "POTW", "major_minor_status_flag": "N", "permit_tracking": "Y", "pt_start_date": 1543622400000, "dmr_tracking": "N", "dmr_nr_start_date": 1543622400000, "permit_design_flow": 0, "permit_avg_flow": null, "perm_feature_nmbr": "007", "perm_feature_text": "", "pf_lat": 39.655556, "pf_lon": -78.930556, "pf_character": "CSO", "perm_feature_type_code": "EXO", "pf_state_waterbody_name": "POTOMAC RIVER - ALLEGHANY COUNTY", "pf_state_auto_name": "Sand Spring Run", "pf_reach_id": "2070002000915", "in_icis": "YES", "echo_dfr_link": "https://echo.epa.gov/detailed-facility-report?fid=110006643560", "name": "FROSTBURG COMBINED SEWER OVERF", "feature_kind": "CSO outfall"}}, {"type": "Feature", "id": 2480, "geometry": {"type": "Point", "coordinates": [-78.9305559824832, 39.6555557308351]}, "properties": {"OBJECTID": 2480, "npdes_pfid": "MD0067423008", "npdes_id": "MD0067423", "permitting_state": "MD", "agency_type_code": "ST6", "facility_uin": "110006643560", "facility_name": "FROSTBURG COMBINED SEWER OVERF", "location_address": "15 LOCATIONS IN FROSTBURG", "supplemental_address_text": "ALLEGANY COUNTY", "facility_city": "FROSTBURG", "county_code": "MD001", "state_code": "MD", "epa_region_code": "03", "facility_type_code": "MWD", "facility_lat": 39.655556, "facility_lon": -78.930556, "permit_name": "CSO ALLEGANY COUNTY FROSTBURG", "version_nmbr": 0, "permit_type_code": "NPD", "effective_date": 1543622400000, "expiration_date": 1701302400000, "permit_status_code": "EXP", "facility_type_indicator": "POTW", "major_minor_status_flag": "N", "permit_tracking": "Y", "pt_start_date": 1543622400000, "dmr_tracking": "N", "dmr_nr_start_date": 1543622400000, "permit_design_flow": 0, "permit_avg_flow": null, "perm_feature_nmbr": "008", "perm_feature_text": "", "pf_lat": 39.655556, "pf_lon": -78.930556, "pf_character": "CSO", "perm_feature_type_code": "EXO", "pf_state_waterbody_name": "POTOMAC RIVER - ALLEGHANY COUNTY", "pf_state_auto_name": "Sand Spring Run", "pf_reach_id": "2070002000915", "in_icis": "YES", "echo_dfr_link": "https://echo.epa.gov/detailed-facility-report?fid=110006643560", "name": "FROSTBURG COMBINED SEWER OVERF", "feature_kind": "CSO outfall"}}, {"type": "Feature", "id": 2481, "geometry": {"type": "Point", "coordinates": [-78.9305559824832, 39.6555557308351]}, "properties": {"OBJECTID": 2481, "npdes_pfid": "MD0067423009", "npdes_id": "MD0067423", "permitting_state": "MD", "agency_type_code": "ST6", "facility_uin": "110006643560", "facility_name": "FROSTBURG COMBINED SEWER OVERF", "location_address": "15 LOCATIONS IN FROSTBURG", "supplemental_address_text": "ALLEGANY COUNTY", "facility_city": "FROSTBURG", "county_code": "MD001", "state_code": "MD", "epa_region_code": "03", "facility_type_code": "MWD", "facility_lat": 39.655556, "facility_lon": -78.930556, "permit_name": "CSO ALLEGANY COUNTY FROSTBURG", "version_nmbr": 0, "permit_type_code": "NPD", "effective_date": 1543622400000, "expiration_date": 1701302400000, "permit_status_code": "EXP", "facility_type_indicator": "POTW", "major_minor_status_flag": "N", "permit_tracking": "Y", "pt_start_date": 1543622400000, "dmr_tracking": "N", "dmr_nr_start_date": 1543622400000, "permit_design_flow": 0, "permit_avg_flow": null, "perm_feature_nmbr": "009", "perm_feature_text": "", "pf_lat": 39.655556, "pf_lon": -78.930556, "pf_character": "CSO", "perm_feature_type_code": "EXO", "pf_state_waterbody_name": "POTOMAC RIVER - ALLEGHANY COUNTY", "pf_state_auto_name": "Sand Spring Run", "pf_reach_id": "2070002000915", "in_icis": "YES", "echo_dfr_link": "https://echo.epa.gov/detailed-facility-report?fid=110006643560", "name": "FROSTBURG COMBINED SEWER OVERF", "feature_kind": "CSO outfall"}}, {"type": "Feature", "id": 2482, "geometry": {"type": "Point", "coordinates": [-78.9305559824832, 39.6555557308351]}, "properties": {"OBJECTID": 2482, "npdes_pfid": "MD0067423010", "npdes_id": "MD0067423", "permitting_state": "MD", "agency_type_code": "ST6", "facility_uin": "110006643560", "facility_name": "FROSTBURG COMBINED SEWER OVERF", "location_address": "15 LOCATIONS IN FROSTBURG", "supplemental_address_text": "ALLEGANY COUNTY", "facility_city": "FROSTBURG", "county_code": "MD001", "state_code": "MD", "epa_region_code": "03", "facility_type_code": "MWD", "facility_lat": 39.655556, "facility_lon": -78.930556, "permit_name": "CSO ALLEGANY COUNTY FROSTBURG", "version_nmbr": 0, "permit_type_code": "NPD", "effective_date": 1543622400000, "expiration_date": 1701302400000, "permit_status_code": "EXP", "facility_type_indicator": "POTW", "major_minor_status_flag": "N", "permit_tracking": "Y", "pt_start_date": 1543622400000, "dmr_tracking": "N", "dmr_nr_start_date": 1543622400000, "permit_design_flow": 0, "permit_avg_flow": null, "perm_feature_nmbr": "010", "perm_feature_text": "", "pf_lat": 39.655556, "pf_lon": -78.930556, "pf_character": "CSO", "perm_feature_type_code": "EXO", "pf_state_waterbody_name": "POTOMAC RIVER - ALLEGHANY COUNTY", "pf_state_auto_name": "Sand Spring Run", "pf_reach_id": "2070002000915", "in_icis": "YES", "echo_dfr_link": "https://echo.epa.gov/detailed-facility-report?fid=110006643560", "name": "FROSTBURG COMBINED SEWER OVERF", "feature_kind": "CSO outfall"}}, {"type": "Feature", "id": 2483, "geometry": {"type": "Point", "coordinates": [-78.9305559824832, 39.6555557308351]}, "properties": {"OBJECTID": 2483, "npdes_pfid": "MD0067423011", "npdes_id": "MD0067423", "permitting_state": "MD", "agency_type_code": "ST6", "facility_uin": "110006643560", "facility_name": "FROSTBURG COMBINED SEWER OVERF", "location_address": "15 LOCATIONS IN FROSTBURG", "supplemental_address_text": "ALLEGANY COUNTY", "facility_city": "FROSTBURG", "county_code": "MD001", "state_code": "MD", "epa_region_code": "03", "facility_type_code": "MWD", "facility_lat": 39.655556, "facility_lon": -78.930556, "permit_name": "CSO ALLEGANY COUNTY FROSTBURG", "version_nmbr": 0, "permit_type_code": "NPD", "effective_date": 1543622400000, "expiration_date": 1701302400000, "permit_status_code": "EXP", "facility_type_indicator": "POTW", "major_minor_status_flag": "N", "permit_tracking": "Y", "pt_start_date": 1543622400000, "dmr_tracking": "N", "dmr_nr_start_date": 1543622400000, "permit_design_flow": 0, "permit_avg_flow": null, "perm_feature_nmbr": "011", "perm_feature_text": "", "pf_lat": 39.655556, "pf_lon": -78.930556, "pf_character": "CSO", "perm_feature_type_code": "EXO", "pf_state_waterbody_name": "POTOMAC RIVER - ALLEGHANY COUNTY", "pf_state_auto_name": "Sand Spring Run", "pf_reach_id": "2070002000915", "in_icis": "YES", "echo_dfr_link": "https://echo.epa.gov/detailed-facility-report?fid=110006643560", "name": "FROSTBURG COMBINED SEWER OVERF", "feature_kind": "CSO outfall"}}, {"type": "Feature", "id": 2484, "geometry": {"type": "Point", "coordinates": [-78.9305559824832, 39.6555557308351]}, "properties": {"OBJECTID": 2484, "npdes_pfid": "MD0067423012", "npdes_id": "MD0067423", "permitting_state": "MD", "agency_type_code": "ST6", "facility_uin": "110006643560", "facility_name": "FROSTBURG COMBINED SEWER OVERF", "location_address": "15 LOCATIONS IN FROSTBURG", "supplemental_address_text": "ALLEGANY COUNTY", "facility_city": "FROSTBURG", "county_code": "MD001", "state_code": "MD", "epa_region_code": "03", "facility_type_code": "MWD", "facility_lat": 39.655556, "facility_lon": -78.930556, "permit_name": "CSO ALLEGANY COUNTY FROSTBURG", "version_nmbr": 0, "permit_type_code": "NPD", "effective_date": 1543622400000, "expiration_date": 1701302400000, "permit_status_code": "EXP", "facility_type_indicator": "POTW", "major_minor_status_flag": "N", "permit_tracking": "Y", "pt_start_date": 1543622400000, "dmr_tracking": "N", "dmr_nr_start_date": 1543622400000, "permit_design_flow": 0, "permit_avg_flow": null, "perm_feature_nmbr": "012", "perm_feature_text": "", "pf_lat": 39.655556, "pf_lon": -78.930556, "pf_character": "CSO", "perm_feature_type_code": "EXO", "pf_state_waterbody_name": "POTOMAC RIVER - ALLEGHANY COUNTY", "pf_state_auto_name": "Sand Spring Run", "pf_reach_id": "2070002000915", "in_icis": "YES", "echo_dfr_link": "https://echo.epa.gov/detailed-facility-report?fid=110006643560", "name": "FROSTBURG COMBINED SEWER OVERF", "feature_kind": "CSO outfall"}}, {"type": "Feature", "id": 2485, "geometry": {"type": "Point", "coordinates": [-78.9305559824832, 39.6555557308351]}, "properties": {"OBJECTID": 2485, "npdes_pfid": "MD0067423013", "npdes_id": "MD0067423", "permitting_state": "MD", "agency_type_code": "ST6", "facility_uin": "110006643560", "facility_name": "FROSTBURG COMBINED SEWER OVERF", "location_address": "15 LOCATIONS IN FROSTBURG", "supplemental_address_text": "ALLEGANY COUNTY", "facility_city": "FROSTBURG", "county_code": "MD001", "state_code": "MD", "epa_region_code": "03", "facility_type_code": "MWD", "facility_lat": 39.655556, "facility_lon": -78.930556, "permit_name": "CSO ALLEGANY COUNTY FROSTBURG", "version_nmbr": 0, "permit_type_code": "NPD", "effective_date": 1543622400000, "expiration_date": 1701302400000, "permit_status_code": "EXP", "facility_type_indicator": "POTW", "major_minor_status_flag": "N", "permit_tracking": "Y", "pt_start_date": 1543622400000, "dmr_tracking": "N", "dmr_nr_start_date": 1543622400000, "permit_design_flow": 0, "permit_avg_flow": null, "perm_feature_nmbr": "013", "perm_feature_text": "", "pf_lat": 39.655556, "pf_lon": -78.930556, "pf_character": "CSO", "perm_feature_type_code": "EXO", "pf_state_waterbody_name": "POTOMAC RIVER - ALLEGHANY COUNTY", "pf_state_auto_name": "Sand Spring Run", "pf_reach_id": "2070002000915", "in_icis": "YES", "echo_dfr_link": "https://echo.epa.gov/detailed-facility-report?fid=110006643560", "name": "FROSTBURG COMBINED SEWER OVERF", "feature_kind": "CSO outfall"}}, {"type": "Feature", "id": 2486, "geometry": {"type": "Point", "coordinates": [-78.9305559824832, 39.6555557308351]}, "properties": {"OBJECTID": 2486, "npdes_pfid": "MD0067423014", "npdes_id": "MD0067423", "permitting_state": "MD", "agency_type_code": "ST6", "facility_uin": "110006643560", "facility_name": "FROSTBURG COMBINED SEWER OVERF", "location_address": "15 LOCATIONS IN FROSTBURG", "supplemental_address_text": "ALLEGANY COUNTY", "facility_city": "FROSTBURG", "county_code": "MD001", "state_code": "MD", "epa_region_code": "03", "facility_type_code": "MWD", "facility_lat": 39.655556, "facility_lon": -78.930556, "permit_name": "CSO ALLEGANY COUNTY FROSTBURG", "version_nmbr": 0, "permit_type_code": "NPD", "effective_date": 1543622400000, "expiration_date": 1701302400000, "permit_status_code": "EXP", "facility_type_indicator": "POTW", "major_minor_status_flag": "N", "permit_tracking": "Y", "pt_start_date": 1543622400000, "dmr_tracking": "N", "dmr_nr_start_date": 1543622400000, "permit_design_flow": 0, "permit_avg_flow": null, "perm_feature_nmbr": "014", "perm_feature_text": "", "pf_lat": 39.655556, "pf_lon": -78.930556, "pf_character": "CSO", "perm_feature_type_code": "EXO", "pf_state_waterbody_name": "POTOMAC RIVER - ALLEGHANY COUNTY", "pf_state_auto_name": "Sand Spring Run", "pf_reach_id": "2070002000915", "in_icis": "YES", "echo_dfr_link": "https://echo.epa.gov/detailed-facility-report?fid=110006643560", "name": "FROSTBURG COMBINED SEWER OVERF", "feature_kind": "CSO outfall"}}, {"type": "Feature", "id": 2487, "geometry": {"type": "Point", "coordinates": [-78.9305559824832, 39.6555557308351]}, "properties": {"OBJECTID": 2487, "npdes_pfid": "MD0067423015", "npdes_id": "MD0067423", "permitting_state": "MD", "agency_type_code": "ST6", "facility_uin": "110006643560", "facility_name": "FROSTBURG COMBINED SEWER OVERF", "location_address": "15 LOCATIONS IN FROSTBURG", "supplemental_address_text": "ALLEGANY COUNTY", "facility_city": "FROSTBURG", "county_code": "MD001", "state_code": "MD", "epa_region_code": "03", "facility_type_code": "MWD", "facility_lat": 39.655556, "facility_lon": -78.930556, "permit_name": "CSO ALLEGANY COUNTY FROSTBURG", "version_nmbr": 0, "permit_type_code": "NPD", "effective_date": 1543622400000, "expiration_date": 1701302400000, "permit_status_code": "EXP", "facility_type_indicator": "POTW", "major_minor_status_flag": "N", "permit_tracking": "Y", "pt_start_date": 1543622400000, "dmr_tracking": "N", "dmr_nr_start_date": 1543622400000, "permit_design_flow": 0, "permit_avg_flow": null, "perm_feature_nmbr": "015", "perm_feature_text": "", "pf_lat": 39.655556, "pf_lon": -78.930556, "pf_character": "CSO", "perm_feature_type_code": "EXO", "pf_state_waterbody_name": "POTOMAC RIVER - ALLEGHANY COUNTY", "pf_state_auto_name": "Sand Spring Run", "pf_reach_id": "2070002000915", "in_icis": "YES", "echo_dfr_link": "https://echo.epa.gov/detailed-facility-report?fid=110006643560", "name": "FROSTBURG COMBINED SEWER OVERF", "feature_kind": "CSO outfall"}}, {"type": "Feature", "id": 2488, "geometry": {"type": "Point", "coordinates": [-78.8197002831617, 39.6445299240399]}, "properties": {"OBJECTID": 2488, "npdes_pfid": "MD0067547007", "npdes_id": "MD0067547", "permitting_state": "MD", "agency_type_code": "ST6", "facility_uin": "110008494931", "facility_name": "LAVALE SANITARY COMMISSION CSO", "location_address": "1  ROSELAWN AVENUE ", "supplemental_address_text": "ALLEGHANY COUNTY", "facility_city": "LA VALE", "county_code": "MD001", "state_code": "MD", "epa_region_code": "03", "facility_type_code": "MWD", "facility_lat": 39.644592, "facility_lon": -78.819802, "permit_name": "CSO ALLEGANY COUNTY LAVALE", "version_nmbr": 0, "permit_type_code": "NPD", "effective_date": 1541030400000, "expiration_date": 1698710400000, "permit_status_code": "EXP", "facility_type_indicator": "POTW", "major_minor_status_flag": "N", "permit_tracking": "Y", "pt_start_date": 1541030400000, "dmr_tracking": "Y", "dmr_nr_start_date": 1541030400000, "permit_design_flow": 0, "permit_avg_flow": null, "perm_feature_nmbr": "007", "perm_feature_text": "", "pf_lat": 39.64453, "pf_lon": -78.8197, "pf_character": "CSO", "perm_feature_type_code": "EXO", "pf_state_waterbody_name": "UPPER POTOMAC RIVER", "pf_state_auto_name": "Braddock Run", "pf_reach_id": "2070002000137", "in_icis": "YES", "echo_dfr_link": "https://echo.epa.gov/detailed-facility-report?fid=110008494931", "name": "LAVALE SANITARY COMMISSION CSO", "feature_kind": "CSO outfall"}}]}