{"type": "FeatureCollection", "features": [{"type": "Feature", "id": 1866, "geometry": {"type": "Point", "coordinates": [-95.1483295918922, 43.1369400424086]}, "properties": {"OBJECTID": 1866, "npdes_pfid": "IA0021059002", "npdes_id": "IA0021059", "permitting_state": "IA", "agency_type_code": "ST6", "facility_uin": "110009360609", "facility_name": "SPENCER, CITY OF STP", "location_address": "400 10TH AVE SE", "supplemental_address_text": "", "facility_city": "SPENCER", "county_code": "IA041", "state_code": "IA", "epa_region_code": "07", "facility_type_code": "CTG", "facility_lat": 43.13391, "facility_lon": -95.12404, "permit_name": "City of Spencer", "version_nmbr": 0, "permit_type_code": "NPD", "effective_date": 1627776000000, "expiration_date": 1709164800000, "permit_status_code": "ADC", "facility_type_indicator": "POTW", "major_minor_status_flag": "M", "permit_tracking": "Y", "pt_start_date": 1627776000000, "dmr_tracking": "Y", "dmr_nr_start_date": 1627776000000, "permit_design_flow": 6.5, "permit_avg_flow": 3.7, "perm_feature_nmbr": "002", "perm_feature_text": "COMBINED SEWER OVERFLOW AT 3RD AVENUE AND WEST PARK STREET.", "pf_lat": 43.13694, "pf_lon": -95.14833, "pf_character": "CSO", "perm_feature_type_code": "EXO", "pf_state_waterbody_name": "LITTLE SIOUX RIVER", "pf_state_auto_name": "", "pf_reach_id": "", "in_icis": "YES", "echo_dfr_link": "https://echo.epa.gov/detailed-facility-report?fid=110009360609", "name": "SPENCER, CITY OF STP", "feature_kind": "CSO outfall"}}, {"type": "Feature", "id": 1867, "geometry": {"type": "Point", "coordinates": [-95.1441703921267, 43.137779757849]}, "properties": {"OBJECTID": 1867, "npdes_pfid": "IA0021059003", "npdes_id": "IA0021059", "permitting_state": "IA", "agency_type_code": "ST6", "facility_uin": "110009360609", "facility_name": "SPENCER, CITY OF STP", "location_address": "400 10TH AVE SE", "supplemental_address_text": "", "facility_city": "SPENCER", "county_code": "IA041", "state_code": "IA", "epa_region_code": "07", "facility_type_code": "CTG", "facility_lat": 43.13391, "facility_lon": -95.12404, "permit_name": "City of Spencer", "version_nmbr": 0, "permit_type_code": "NPD", "effective_date": 1627776000000, "expiration_date": 1709164800000, "permit_status_code": "ADC", "facility_type_indicator": "POTW", "major_minor_status_flag": "M", "permit_tracking": "Y", "pt_start_date": 1627776000000, "dmr_tracking": "Y", "dmr_nr_start_date": 1627776000000, "permit_design_flow": 6.5, "permit_avg_flow": 3.7, "perm_feature_nmbr": "003", "perm_feature_text": "COMBINED SEWER OVERFLOW AT GRAND AVENUE AND WEST PARK STREET.", "pf_lat": 43.13778, "pf_lon": -95.14417, "pf_character": "CSO", "perm_feature_type_code": "EXO", "pf_state_waterbody_name": "LITTLE SIOUX RIVER", "pf_state_auto_name": "", "pf_reach_id": "", "in_icis": "YES", "echo_dfr_link": "https://echo.epa.gov/detailed-facility-report?fid=110009360609", "name": "SPENCER, CITY OF STP", "feature_kind": "CSO outfall"}}, {"type": "Feature", "id": 1868, "geometry": {"type": "Point", "coordinates": [-95.1377797771955, 43.1363900585988]}, "properties": {"OBJECTID": 1868, "npdes_pfid": "IA0021059004", "npdes_id": "IA0021059", "permitting_state": "IA", "agency_type_code": "ST6", "facility_uin": "110009360609", "facility_name": "SPENCER, CITY OF STP", "location_address": "400 10TH AVE SE", "supplemental_address_text": "", "facility_city": "SPENCER", "county_code": "IA041", "state_code": "IA", "epa_region_code": "07", "facility_type_code": "CTG", "facility_lat": 43.13391, "facility_lon": -95.12404, "permit_name": "City of Spencer", "version_nmbr": 0, "permit_type_code": "NPD", "effective_date": 1627776000000, "expiration_date": 1709164800000, "permit_status_code": "ADC", "facility_type_indicator": "POTW", "major_minor_status_flag": "M", "permit_tracking": "Y", "pt_start_date": 1627776000000, "dmr_tracking": "Y", "dmr_nr_start_date": 1627776000000, "permit_design_flow": 6.5, "permit_avg_flow": 3.7, "perm_feature_nmbr": "004", "perm_feature_text": "COMBINED SEWER OVERFLOW AT 4TH AVENUE EAST AND EAST PARK STREET.", "pf_lat": 43.13639, "pf_lon": -95.13778, "pf_character": "CSO", "perm_feature_type_code": "EXO", "pf_state_waterbody_name": "LITTLE SIOUX RIVER", "pf_state_auto_name": "", "pf_reach_id": "", "in_icis": "YES", "echo_dfr_link": "https://echo.epa.gov/detailed-facility-report?fid=110009360609", "name": "SPENCER, CITY OF STP", "feature_kind": "CSO outfall"}}, {"type": "Feature", "id": 1869, "geometry": {"type": "Point", "coordinates": [-91.0428904029122, 41.4203102155367]}, "properties": {"OBJECTID": 1869, "npdes_pfid": "IA0023434002", "npdes_id": "IA0023434", "permitting_state": "IA", "agency_type_code": "ST6", "facility_uin": "110000789479", "facility_name": "MUSCATINE CITY OF STP", "location_address": "1202 MUSSER STREET", "supplemental_address_text": "", "facility_city": "MUSCATINE", "county_code": "IA139", "state_code": "IA", "epa_region_code": "07", "facility_type_code": "CTG", "facility_lat": 41.40713, "facility_lon": -91.07207, "permit_name": "CITY OF MUSCATINE", "version_nmbr": 0, "permit_type_code": "NPD", "effective_date": 1743465600000, "expiration_date": 1901145600000, "permit_status_code": "EFF", "facility_type_indicator": "POTW", "major_minor_status_flag": "M", "permit_tracking": "Y", "pt_start_date": 1743465600000, "dmr_tracking": "Y", "dmr_nr_start_date": 1743465600000, "permit_design_flow": 16.9, "permit_avg_flow": 10.3, "perm_feature_nmbr": "002", "perm_feature_text": "COMBINED SEWER OVERFLOW AT PAPOOSE CREEK LIFT STATION.", "pf_lat": 41.42031, "pf_lon": -91.04289, "pf_character": "TCS", "perm_feature_type_code": "EXO", "pf_state_waterbody_name": "MISSISSIPPI RIVER FROM THE WAPSIPINICON TO THE IOW", "pf_state_auto_name": "", "pf_reach_id": "", "in_icis": "YES", "echo_dfr_link": "https://echo.epa.gov/detailed-facility-report?fid=110000789479", "name": "MUSCATINE CITY OF STP", "feature_kind": "CSO outfall"}}, {"type": "Feature", "id": 1870, "geometry": {"type": "Point", "coordinates": [-91.0533000804246, 41.4150698704975]}, "properties": {"OBJECTID": 1870, "npdes_pfid": "IA0023434003", "npdes_id": "IA0023434", "permitting_state": "IA", "agency_type_code": "ST6", "facility_uin": "110000789479", "facility_name": "MUSCATINE CITY OF STP", "location_address": "1202 MUSSER STREET", "supplemental_address_text": "", "facility_city": "MUSCATINE", "county_code": "IA139", "state_code": "IA", "epa_region_code": "07", "facility_type_code": "CTG", "facility_lat": 41.40713, "facility_lon": -91.07207, "permit_name": "CITY OF MUSCATINE", "version_nmbr": 0, "permit_type_code": "NPD", "effective_date": 1743465600000, "expiration_date": 1901145600000, "permit_status_code": "EFF", "facility_type_indicator": "POTW", "major_minor_status_flag": "M", "permit_tracking": "Y", "pt_start_date": 1743465600000, "dmr_tracking": "Y", "dmr_nr_start_date": 1743465600000, "permit_design_flow": 16.9, "permit_avg_flow": 10.3, "perm_feature_nmbr": "003", "perm_feature_text": "COMBINED SEWER OVERFLOW AT HERSHEY AVENUE LIFT STATION.", "pf_lat": 41.41507, "pf_lon": -91.0533, "pf_character": "TCS", "perm_feature_type_code": "EXO", "pf_state_waterbody_name": "MISSISSIPPI RIVER FROM THE WAPSIPINICON TO THE IOW", "pf_state_auto_name": "", "pf_reach_id": "", "in_icis": "YES", "echo_dfr_link": "https://echo.epa.gov/detailed-facility-report?fid=110000789479", "name": "MUSCATINE CITY OF STP", "feature_kind": "CSO outfall"}}, {"type": "Feature", "id": 1871, "geometry": {"type": "Point", "coordinates": [-91.036869893878, 41.4232599550968]}, "properties": {"OBJECTID": 1871, "npdes_pfid": "IA0023434004", "npdes_id": "IA0023434", "permitting_state": "IA", "agency_type_code": "ST6", "facility_uin": "110000789479", "facility_name": "MUSCATINE CITY OF STP", "location_address": "1202 MUSSER STREET", "supplemental_address_text": "", "facility_city": "MUSCATINE", "county_code": "IA139", "state_code": "IA", "epa_region_code": "07", "facility_type_code": "CTG", "facility_lat": 41.40713, "facility_lon": -91.07207, "permit_name": "CITY OF MUSCATINE", "version_nmbr": 0, "permit_type_code": "NPD", "effective_date": 1743465600000, "expiration_date": 1901145600000, "permit_status_code": "EFF", "facility_type_indicator": "POTW", "major_minor_status_flag": "M", "permit_tracking": "Y", "pt_start_date": 1743465600000, "dmr_tracking": "Y", "dmr_nr_start_date": 1743465600000, "permit_design_flow": 16.9, "permit_avg_flow": 10.3, "perm_feature_nmbr": "004", "perm_feature_text": "COMBINED SEWER OVERFLOW AT MISSISSIPPI DRIVE AND SPRING STREET STORM WATER PUMP STATION.", "pf_lat": 41.42326, "pf_lon": -91.03687, "pf_character": "TCS", "perm_feature_type_code": "EXO", "pf_state_waterbody_name": "MISSISSIPPI RIVER FROM THE WAPSIPINICON TO THE IOW", "pf_state_auto_name": "", "pf_reach_id": "", "in_icis": "YES", "echo_dfr_link": "https://echo.epa.gov/detailed-facility-report?fid=110000789479", "name": "MUSCATINE CITY OF STP", "feature_kind": "CSO outfall"}}, {"type": "Feature", "id": 1872, "geometry": {"type": "Point", "coordinates": [-91.0377700057927, 41.4338601280897]}, "properties": {"OBJECTID": 1872, "npdes_pfid": "IA0023434005", "npdes_id": "IA0023434", "permitting_state": "IA", "agency_type_code": "ST6", "facility_uin": "110000789479", "facility_name": "MUSCATINE CITY OF STP", "location_address": "1202 MUSSER STREET", "supplemental_address_text": "", "facility_city": "MUSCATINE", "county_code": "IA139", "state_code": "IA", "epa_region_code": "07", "facility_type_code": "CTG", "facility_lat": 41.40713, "facility_lon": -91.07207, "permit_name": "CITY OF MUSCATINE", "version_nmbr": 0, "permit_type_code": "NPD", "effective_date": 1743465600000, "expiration_date": 1901145600000, "permit_status_code": "EFF", "facility_type_indicator": "POTW", "major_minor_status_flag": "M", "permit_tracking": "Y", "pt_start_date": 1743465600000, "dmr_tracking": "Y", "dmr_nr_start_date": 1743465600000, "permit_design_flow": 16.9, "permit_avg_flow": 10.3, "perm_feature_nmbr": "005", "perm_feature_text": "COMBINED SEWER OVERFLOW LOCATED AT THE WASHINGTON STREET BRIDGE.", "pf_lat": 41.43386, "pf_lon": -91.03777, "pf_character": "TCS", "perm_feature_type_code": "EXO", "pf_state_waterbody_name": "MISSISSIPPI RIVER FROM THE WAPSIPINICON TO THE IOW", "pf_state_auto_name": "", "pf_reach_id": "", "in_icis": "YES", "echo_dfr_link": "https://echo.epa.gov/detailed-facility-report?fid=110000789479", "name": "MUSCATINE CITY OF STP", "feature_kind": "CSO outfall"}}, {"type": "Feature", "id": 1873, "geometry": {"type": "Point", "coordinates": [-91.3333804129685, 40.6224396718706]}, "properties": {"OBJECTID": 1873, "npdes_pfid": "IA0027219002", "npdes_id": "IA0027219", "permitting_state": "IA", "agency_type_code": "ST6", "facility_uin": "110002040666", "facility_name": "FORT MADISON CITY OF STP", "location_address": "1621 20TH STREET", "supplemental_address_text": "", "facility_city": "FORT MADISON", "county_code": "IA111", "state_code": "IA", "epa_region_code": "07", "facility_type_code": "CTG", "facility_lat": 40.62279, "facility_lon": -91.33307, "permit_name": "CITY OF FORT MADISON", "version_nmbr": 0, "permit_type_code": "NPD", "effective_date": 1735689600000, "expiration_date": 1893369600000, "permit_status_code": "EFF", "facility_type_indicator": "POTW", "major_minor_status_flag": "M", "permit_tracking": "Y", "pt_start_date": 1735689600000, "dmr_tracking": "Y", "dmr_nr_start_date": 1735689600000, "permit_design_flow": 9.3, "permit_avg_flow": 7.29, "perm_feature_nmbr": "002", "perm_feature_text": "MAIN PLANT BYPASS LOCATED AT THE HEAD OF THE FACILITY (CSO)", "pf_lat": 40.62244, "pf_lon": -91.33338, "pf_character": "CSO", "perm_feature_type_code": "EXO", "pf_state_waterbody_name": "MISSISSIPPI RIVER NEAR FORT MADISON", "pf_state_auto_name": "", "pf_reach_id": "", "in_icis": "YES", "echo_dfr_link": "https://echo.epa.gov/detailed-facility-report?fid=110002040666", "name": "FORT MADISON CITY OF STP", "feature_kind": "CSO outfall"}}, {"type": "Feature", "id": 1874, "geometry": {"type": "Point", "coordinates": [-91.3043801006513, 40.6285302352547]}, "properties": {"OBJECTID": 1874, "npdes_pfid": "IA0027219004", "npdes_id": "IA0027219", "permitting_state": "IA", "agency_type_code": "ST6", "facility_uin": "110002040666", "facility_name": "FORT MADISON CITY OF STP", "location_address": "1621 20TH STREET", "supplemental_address_text": "", "facility_city": "FORT MADISON", "county_code": "IA111", "state_code": "IA", "epa_region_code": "07", "facility_type_code": "CTG", "facility_lat": 40.62279, "facility_lon": -91.33307, "permit_name": "CITY OF FORT MADISON", "version_nmbr": 0, "permit_type_code": "NPD", "effective_date": 1735689600000, "expiration_date": 1893369600000, "permit_status_code": "EFF", "facility_type_indicator": "POTW", "major_minor_status_flag": "M", "permit_tracking": "Y", "pt_start_date": 1735689600000, "dmr_tracking": "Y", "dmr_nr_start_date": 1735689600000, "permit_design_flow": 9.3, "permit_avg_flow": 7.29, "perm_feature_nmbr": "004", "perm_feature_text": "COMBINED SEWER OVERFLOW LOCATED AT RIVERVIEW PARK AND 4TH STREET.", "pf_lat": 40.62853, "pf_lon": -91.30438, "pf_character": "CSO", "perm_feature_type_code": "EXO", "pf_state_waterbody_name": "MISSISSIPPI RIVER NEAR FORT MADISON", "pf_state_auto_name": "", "pf_reach_id": "", "in_icis": "YES", "echo_dfr_link": "https://echo.epa.gov/detailed-facility-report?fid=110002040666", "name": "FORT MADISON CITY OF STP", "feature_kind": "CSO outfall"}}, {"type": "Feature", "id": 1875, "geometry": {"type": "Point", "coordinates": [-91.3081799743031, 40.6284402410478]}, "properties": {"OBJECTID": 1875, "npdes_pfid": "IA0027219006", "npdes_id": "IA0027219", "permitting_state": "IA", "agency_type_code": "ST6", "facility_uin": "110002040666", "facility_name": "FORT MADISON CITY OF STP", "location_address": "1621 20TH STREET", "supplemental_address_text": "", "facility_city": "FORT MADISON", "county_code": "IA111", "state_code": "IA", "epa_region_code": "07", "facility_type_code": "CTG", "facility_lat": 40.62279, "facility_lon": -91.33307, "permit_name": "CITY OF FORT MADISON", "version_nmbr": 0, "permit_type_code": "NPD", "effective_date": 1735689600000, "expiration_date": 1893369600000, "permit_status_code": "EFF", "facility_type_indicator": "POTW", "major_minor_status_flag": "M", "permit_tracking": "Y", "pt_start_date": 1735689600000, "dmr_tracking": "Y", "dmr_nr_start_date": 1735689600000, "permit_design_flow": 9.3, "permit_avg_flow": 7.29, "perm_feature_nmbr": "006", "perm_feature_text": "COMBINED SEWER OVERFLOW LOCATED AT RIVERVIEW PARK AND 6TH STREET.", "pf_lat": 40.62844, "pf_lon": -91.30818, "pf_character": "TCS", "perm_feature_type_code": "EXO", "pf_state_waterbody_name": "MISSISSIPPI RIVER NEAR FORT MADISON", "pf_state_auto_name": "Mississippi River", "pf_reach_id": "7080104000021", "in_icis": "YES", "echo_dfr_link": "https://echo.epa.gov/detailed-facility-report?fid=110002040666", "name": "FORT MADISON CITY OF STP", "feature_kind": "CSO outfall"}}, {"type": "Feature", "id": 1876, "geometry": {"type": "Point", "coordinates": [-91.3100601481928, 40.6283597915782]}, "properties": {"OBJECTID": 1876, "npdes_pfid": "IA0027219007", "npdes_id": "IA0027219", "permitting_state": "IA", "agency_type_code": "ST6", "facility_uin": "110002040666", "facility_name": "FORT MADISON CITY OF STP", "location_address": "1621 20TH STREET", "supplemental_address_text": "", "facility_city": "FORT MADISON", "county_code": "IA111", "state_code": "IA", "epa_region_code": "07", "facility_type_code": "CTG", "facility_lat": 40.62279, "facility_lon": -91.33307, "permit_name": "CITY OF FORT MADISON", "version_nmbr": 0, "permit_type_code": "NPD", "effective_date": 1735689600000, "expiration_date": 1893369600000, "permit_status_code": "EFF", "facility_type_indicator": "POTW", "major_minor_status_flag": "M", "permit_tracking": "Y", "pt_start_date": 1735689600000, "dmr_tracking": "Y", "dmr_nr_start_date": 1735689600000, "permit_design_flow": 9.3, "permit_avg_flow": 7.29, "perm_feature_nmbr": "007", "perm_feature_text": "COMBINED SEWER OVERFLOW LOCATED AT RIVERVIEW PARK AND 7TH STREET.", "pf_lat": 40.62836, "pf_lon": -91.31006, "pf_character": "CSO", "perm_feature_type_code": "EXO", "pf_state_waterbody_name": "MISSISSIPPI RIVER NEAR FORT MADISON", "pf_state_auto_name": "", "pf_reach_id": "", "in_icis": "YES", "echo_dfr_link": "https://echo.epa.gov/detailed-facility-report?fid=110002040666", "name": "FORT MADISON CITY OF STP", "feature_kind": "CSO outfall"}}, {"type": "Feature", "id": 1877, "geometry": {"type": "Point", "coordinates": [-91.3117597607103, 40.6283202485832]}, "properties": {"OBJECTID": 1877, "npdes_pfid": "IA0027219008", "npdes_id": "IA0027219", "permitting_state": "IA", "agency_type_code": "ST6", "facility_uin": "110002040666", "facility_name": "FORT MADISON CITY OF STP", "location_address": "1621 20TH STREET", "supplemental_address_text": "", "facility_city": "FORT MADISON", "county_code": "IA111", "state_code": "IA", "epa_region_code": "07", "facility_type_code": "CTG", "facility_lat": 40.62279, "facility_lon": -91.33307, "permit_name": "CITY OF FORT MADISON", "version_nmbr": 0, "permit_type_code": "NPD", "effective_date": 1735689600000, "expiration_date": 1893369600000, "permit_status_code": "EFF", "facility_type_indicator": "POTW", "major_minor_status_flag": "M", "permit_tracking": "Y", "pt_start_date": 1735689600000, "dmr_tracking": "Y", "dmr_nr_start_date": 1735689600000, "permit_design_flow": 9.3, "permit_avg_flow": 7.29, "perm_feature_nmbr": "008", "perm_feature_text": "COMBINED SEWER OVERFLOW LOCATED AT RIVERVIEW PARK AND 8TH STREET.", "pf_lat": 40.62832, "pf_lon": -91.31176, "pf_character": "CSO", "perm_feature_type_code": "EXO", "pf_state_waterbody_name": "MISSISSIPPI RIVER NEAR FORT MADISON", "pf_state_auto_name": "", "pf_reach_id": "", "in_icis": "YES", "echo_dfr_link": "https://echo.epa.gov/detailed-facility-report?fid=110002040666", "name": "FORT MADISON CITY OF STP", "feature_kind": "CSO outfall"}}, {"type": "Feature", "id": 1878, "geometry": {"type": "Point", "coordinates": [-91.3131503527701, 40.6282500256203]}, "properties": {"OBJECTID": 1878, "npdes_pfid": "IA0027219009", "npdes_id": "IA0027219", "permitting_state": "IA", "agency_type_code": "ST6", "facility_uin": "110002040666", "facility_name": "FORT MADISON CITY OF STP", "location_address": "1621 20TH STREET", "supplemental_address_text": "", "facility_city": "FORT MADISON", "county_code": "IA111", "state_code": "IA", "epa_region_code": "07", "facility_type_code": "CTG", "facility_lat": 40.62279, "facility_lon": -91.33307, "permit_name": "CITY OF FORT MADISON", "version_nmbr": 0, "permit_type_code": "NPD", "effective_date": 1735689600000, "expiration_date": 1893369600000, "permit_status_code": "EFF", "facility_type_indicator": "POTW", "major_minor_status_flag": "M", "permit_tracking": "Y", "pt_start_date": 1735689600000, "dmr_tracking": "Y", "dmr_nr_start_date": 1735689600000, "permit_design_flow": 9.3, "permit_avg_flow": 7.29, "perm_feature_nmbr": "009", "perm_feature_text": "COMBINED SEWER OVERFLOW LOCATED AT RIVERVIEW PARK AND 9TH STREET.", "pf_lat": 40.62825, "pf_lon": -91.31315, "pf_character": "CSO", "perm_feature_type_code": "EXO", "pf_state_waterbody_name": "MISSISSIPPI RIVER NEAR FORT MADISON", "pf_state_auto_name": "", "pf_reach_id": "", "in_icis": "YES", "echo_dfr_link": "https://echo.epa.gov/detailed-facility-report?fid=110002040666", "name": "FORT MADISON CITY OF STP", "feature_kind": "CSO outfall"}}, {"type": "Feature", "id": 1879, "geometry": {"type": "Point", "coordinates": [-91.3155201084896, 40.6281600310357]}, "properties": {"OBJECTID": 1879, "npdes_pfid": "IA0027219010", "npdes_id": "IA0027219", "permitting_state": "IA", "agency_type_code": "ST6", "facility_uin": "110002040666", "facility_name": "FORT MADISON CITY OF STP", "location_address": "1621 20TH STREET", "supplemental_address_text": "", "facility_city": "FORT MADISON", "county_code": "IA111", "state_code": "IA", "epa_region_code": "07", "facility_type_code": "CTG", "facility_lat": 40.62279, "facility_lon": -91.33307, "permit_name": "CITY OF FORT MADISON", "version_nmbr": 0, "permit_type_code": "NPD", "effective_date": 1735689600000, "expiration_date": 1893369600000, "permit_status_code": "EFF", "facility_type_indicator": "POTW", "major_minor_status_flag": "M", "permit_tracking": "Y", "pt_start_date": 1735689600000, "dmr_tracking": "Y", "dmr_nr_start_date": 1735689600000, "permit_design_flow": 9.3, "permit_avg_flow": 7.29, "perm_feature_nmbr": "010", "perm_feature_text": "COMBINED SEWER OVERFLOW LOCATED AT RIVERVIEW PARK AND 10TH STREET.", "pf_lat": 40.62816, "pf_lon": -91.31552, "pf_character": "CSO", "perm_feature_type_code": "EXO", "pf_state_waterbody_name": "MISSISSIPPI RIVER NEAR FORT MADISON", "pf_state_auto_name": "", "pf_reach_id": "", "in_icis": "YES", "echo_dfr_link": "https://echo.epa.gov/detailed-facility-report?fid=110002040666", "name": "FORT MADISON CITY OF STP", "feature_kind": "CSO outfall"}}, {"type": "Feature", "id": 1880, "geometry": {"type": "Point", "coordinates": [-90.1841099744468, 41.8454597433989]}, "properties": {"OBJECTID": 1880, "npdes_pfid": "IA0035947006", "npdes_id": "IA0035947", "permitting_state": "IA", "agency_type_code": "ST6", "facility_uin": "110001123203", "facility_name": "CLINTON CITY OF STP", "location_address": "1901 BEAVER CHANNEL PARKWAY", "supplemental_address_text": "", "facility_city": "CLINTON", "county_code": "IA045", "state_code": "IA", "epa_region_code": "07", "facility_type_code": "CTG", "facility_lat": 41.8109, "facility_lon": -90.2315, "permit_name": "CITY OF CLINTON", "version_nmbr": 0, "permit_type_code": "NPD", "effective_date": 1782864000000, "expiration_date": 1940544000000, "permit_status_code": "EFF", "facility_type_indicator": "POTW", "major_minor_status_flag": "M", "permit_tracking": "Y", "pt_start_date": 1782864000000, "dmr_tracking": "Y", "dmr_nr_start_date": 1782864000000, "permit_design_flow": 17, "permit_avg_flow": 12, "perm_feature_nmbr": "006", "perm_feature_text": "COMBINED SEWER OVERFLOW AT FIRST AVENUE PUMPING STATION", "pf_lat": 41.84546, "pf_lon": -90.18411, "pf_character": "CSO", "perm_feature_type_code": "EXO", "pf_state_waterbody_name": "MISSISSIPPI RIVER NEAR CLINTON", "pf_state_auto_name": "", "pf_reach_id": "", "in_icis": "YES", "echo_dfr_link": "https://echo.epa.gov/detailed-facility-report?fid=110001123203", "name": "CLINTON CITY OF STP", "feature_kind": "CSO outfall"}}, {"type": "Feature", "id": 1881, "geometry": {"type": "Point", "coordinates": [-90.1760601711858, 41.8658402431385]}, "properties": {"OBJECTID": 1881, "npdes_pfid": "IA0035947010", "npdes_id": "IA0035947", "permitting_state": "IA", "agency_type_code": "ST6", "facility_uin": "110001123203", "facility_name": "CLINTON CITY OF STP", "location_address": "1901 BEAVER CHANNEL PARKWAY", "supplemental_address_text": "", "facility_city": "CLINTON", "county_code": "IA045", "state_code": "IA", "epa_region_code": "07", "facility_type_code": "CTG", "facility_lat": 41.8109, "facility_lon": -90.2315, "permit_name": "CITY OF CLINTON", "version_nmbr": 0, "permit_type_code": "NPD", "effective_date": 1782864000000, "expiration_date": 1940544000000, "permit_status_code": "EFF", "facility_type_indicator": "POTW", "major_minor_status_flag": "M", "permit_tracking": "Y", "pt_start_date": 1782864000000, "dmr_tracking": "Y", "dmr_nr_start_date": 1782864000000, "permit_design_flow": 17, "permit_avg_flow": 12, "perm_feature_nmbr": "010", "perm_feature_text": "COMBINED SEWER OVERFLOW AT 20TH AVENUE NORTH PUMPING STATION", "pf_lat": 41.86584, "pf_lon": -90.17606, "pf_character": "CSO", "perm_feature_type_code": "EXO", "pf_state_waterbody_name": "MISSISSIPPI RIVER NEAR CLINTON", "pf_state_auto_name": "", "pf_reach_id": "", "in_icis": "YES", "echo_dfr_link": "https://echo.epa.gov/detailed-facility-report?fid=110001123203", "name": "CLINTON CITY OF STP", "feature_kind": "CSO outfall"}}, {"type": "Feature", "id": 1882, "geometry": {"type": "Point", "coordinates": [-90.1730103907962, 41.8726200364007]}, "properties": {"OBJECTID": 1882, "npdes_pfid": "IA0035947012", "npdes_id": "IA0035947", "permitting_state": "IA", "agency_type_code": "ST6", "facility_uin": "110001123203", "facility_name": "CLINTON CITY OF STP", "location_address": "1901 BEAVER CHANNEL PARKWAY", "supplemental_address_text": "", "facility_city": "CLINTON", "county_code": "IA045", "state_code": "IA", "epa_region_code": "07", "facility_type_code": "CTG", "facility_lat": 41.8109, "facility_lon": -90.2315, "permit_name": "CITY OF CLINTON", "version_nmbr": 0, "permit_type_code": "NPD", "effective_date": 1782864000000, "expiration_date": 1940544000000, "permit_status_code": "EFF", "facility_type_indicator": "POTW", "major_minor_status_flag": "M", "permit_tracking": "Y", "pt_start_date": 1782864000000, "dmr_tracking": "Y", "dmr_nr_start_date": 1782864000000, "permit_design_flow": 17, "permit_avg_flow": 12, "perm_feature_nmbr": "012", "perm_feature_text": "COMBINED SEWER OVERFLOW AT 25TH AVENUE NORTH PUMPING STATION", "pf_lat": 41.87262, "pf_lon": -90.17301, "pf_character": "CSO", "perm_feature_type_code": "EXO", "pf_state_waterbody_name": "MISSISSIPPI RIVER NEAR CLINTON", "pf_state_auto_name": "", "pf_reach_id": "", "in_icis": "YES", "echo_dfr_link": "https://echo.epa.gov/detailed-facility-report?fid=110001123203", "name": "CLINTON CITY OF STP", "feature_kind": "CSO outfall"}}, {"type": "Feature", "id": 1883, "geometry": {"type": "Point", "coordinates": [-90.1844297746879, 41.8431101488628]}, "properties": {"OBJECTID": 1883, "npdes_pfid": "IA0035947013", "npdes_id": "IA0035947", "permitting_state": "IA", "agency_type_code": "ST6", "facility_uin": "110001123203", "facility_name": "CLINTON CITY OF STP", "location_address": "1901 BEAVER CHANNEL PARKWAY", "supplemental_address_text": "", "facility_city": "CLINTON", "county_code": "IA045", "state_code": "IA", "epa_region_code": "07", "facility_type_code": "CTG", "facility_lat": 41.8109, "facility_lon": -90.2315, "permit_name": "CITY OF CLINTON", "version_nmbr": 0, "permit_type_code": "NPD", "effective_date": 1782864000000, "expiration_date": 1940544000000, "permit_status_code": "EFF", "facility_type_indicator": "POTW", "major_minor_status_flag": "M", "permit_tracking": "Y", "pt_start_date": 1782864000000, "dmr_tracking": "Y", "dmr_nr_start_date": 1782864000000, "permit_design_flow": 17, "permit_avg_flow": 12, "perm_feature_nmbr": "013", "perm_feature_text": "COMBINED SEWER OVERFLOW AT 3RD AVENUE SOUTH STORMWATER PUMPING STATION", "pf_lat": 41.84311, "pf_lon": -90.18443, "pf_character": "CSO", "perm_feature_type_code": "EXO", "pf_state_waterbody_name": "MISSISSIPPI RIVER NEAR CLINTON", "pf_state_auto_name": "", "pf_reach_id": "", "in_icis": "YES", "echo_dfr_link": "https://echo.epa.gov/detailed-facility-report?fid=110001123203", "name": "CLINTON CITY OF STP", "feature_kind": "CSO outfall"}}, {"type": "Feature", "id": 1884, "geometry": {"type": "Point", "coordinates": [-90.1837497500179, 41.853280173138]}, "properties": {"OBJECTID": 1884, "npdes_pfid": "IA0035947014", "npdes_id": "IA0035947", "permitting_state": "IA", "agency_type_code": "ST6", "facility_uin": "110001123203", "facility_name": "CLINTON CITY OF STP", "location_address": "1901 BEAVER CHANNEL PARKWAY", "supplemental_address_text": "", "facility_city": "CLINTON", "county_code": "IA045", "state_code": "IA", "epa_region_code": "07", "facility_type_code": "CTG", "facility_lat": 41.8109, "facility_lon": -90.2315, "permit_name": "CITY OF CLINTON", "version_nmbr": 0, "permit_type_code": "NPD", "effective_date": 1782864000000, "expiration_date": 1940544000000, "permit_status_code": "EFF", "facility_type_indicator": "POTW", "major_minor_status_flag": "M", "permit_tracking": "Y", "pt_start_date": 1782864000000, "dmr_tracking": "Y", "dmr_nr_start_date": 1782864000000, "permit_design_flow": 17, "permit_avg_flow": 12, "perm_feature_nmbr": "014", "perm_feature_text": "COMBINED SEWER OVERFLOW AT 9TH AVENUE NORTH", "pf_lat": 41.85328, "pf_lon": -90.18375, "pf_character": "CSO", "perm_feature_type_code": "EXO", "pf_state_waterbody_name": "MISSISSIPPI RIVER NEAR CLINTON", "pf_state_auto_name": "", "pf_reach_id": "", "in_icis": "YES", "echo_dfr_link": "https://echo.epa.gov/detailed-facility-report?fid=110001123203", "name": "CLINTON CITY OF STP", "feature_kind": "CSO outfall"}}, {"type": "Feature", "id": 1885, "geometry": {"type": "Point", "coordinates": [-90.1837497500179, 41.853280173138]}, "properties": {"OBJECTID": 1885, "npdes_pfid": "IA0035947015", "npdes_id": "IA0035947", "permitting_state": "IA", "agency_type_code": "ST6", "facility_uin": "110001123203", "facility_name": "CLINTON CITY OF STP", "location_address": "1901 BEAVER CHANNEL PARKWAY", "supplemental_address_text": "", "facility_city": "CLINTON", "county_code": "IA045", "state_code": "IA", "epa_region_code": "07", "facility_type_code": "CTG", "facility_lat": 41.8109, "facility_lon": -90.2315, "permit_name": "CITY OF CLINTON", "version_nmbr": 0, "permit_type_code": "NPD", "effective_date": 1782864000000, "expiration_date": 1940544000000, "permit_status_code": "EFF", "facility_type_indicator": "POTW", "major_minor_status_flag": "M", "permit_tracking": "Y", "pt_start_date": 1782864000000, "dmr_tracking": "Y", "dmr_nr_start_date": 1782864000000, "permit_design_flow": 17, "permit_avg_flow": 12, "perm_feature_nmbr": "015", "perm_feature_text": "COMBINED SEWER OVERFLOW AT MARGARET STREET PUMPING STATION", "pf_lat": 41.85328, "pf_lon": -90.18375, "pf_character": "CSO", "perm_feature_type_code": "EXO", "pf_state_waterbody_name": "MISSISSIPPI RIVER NEAR CLINTON", "pf_state_auto_name": "", "pf_reach_id": "", "in_icis": "YES", "echo_dfr_link": "https://echo.epa.gov/detailed-facility-report?fid=110001123203", "name": "CLINTON CITY OF STP", "feature_kind": "CSO outfall"}}, {"type": "Feature", "id": 1886, "geometry": {"type": "Point", "coordinates": [-90.1837497500179, 41.853280173138]}, "properties": {"OBJECTID": 1886, "npdes_pfid": "IA0035947016", "npdes_id": "IA0035947", "permitting_state": "IA", "agency_type_code": "ST6", "facility_uin": "110001123203", "facility_name": "CLINTON CITY OF STP", "location_address": "1901 BEAVER CHANNEL PARKWAY", "supplemental_address_text": "", "facility_city": "CLINTON", "county_code": "IA045", "state_code": "IA", "epa_region_code": "07", "facility_type_code": "CTG", "facility_lat": 41.8109, "facility_lon": -90.2315, "permit_name": "CITY OF CLINTON", "version_nmbr": 0, "permit_type_code": "NPD", "effective_date": 1782864000000, "expiration_date": 1940544000000, "permit_status_code": "EFF", "facility_type_indicator": "POTW", "major_minor_status_flag": "M", "permit_tracking": "Y", "pt_start_date": 1782864000000, "dmr_tracking": "Y", "dmr_nr_start_date": 1782864000000, "permit_design_flow": 17, "permit_avg_flow": 12, "perm_feature_nmbr": "016", "perm_feature_text": "DISCHARGE FROM THE COMBINED SEWER WET WEATHER TREATMENT FACILITY", "pf_lat": 41.85328, "pf_lon": -90.18375, "pf_character": "TCS", "perm_feature_type_code": "EXO", "pf_state_waterbody_name": "MISSISSIPPI RIVER NEAR CLINTON", "pf_state_auto_name": "", "pf_reach_id": "", "in_icis": "YES", "echo_dfr_link": "https://echo.epa.gov/detailed-facility-report?fid=110001123203", "name": "CLINTON CITY OF STP", "feature_kind": "CSO outfall"}}, {"type": "Feature", "id": 1887, "geometry": {"type": "Point", "coordinates": [-91.3859300604589, 40.388539728031]}, "properties": {"OBJECTID": 1887, "npdes_pfid": "IA0042609002", "npdes_id": "IA0042609", "permitting_state": "IA", "agency_type_code": "ST6", "facility_uin": "110043869016", "facility_name": "KEOKUK CITY OF STP", "location_address": "1000 MISSISSIPPI DRIVE", "supplemental_address_text": "", "facility_city": "KEOKUK", "county_code": "IA111", "state_code": "IA", "epa_region_code": "07", "facility_type_code": "CTG", "facility_lat": 40.3867, "facility_lon": -91.39401, "permit_name": "CITY OF KEOKUK", "version_nmbr": 0, "permit_type_code": "NPD", "effective_date": 1743465600000, "expiration_date": 1901145600000, "permit_status_code": "EFF", "facility_type_indicator": "POTW", "major_minor_status_flag": "M", "permit_tracking": "Y", "pt_start_date": 1743465600000, "dmr_tracking": "Y", "dmr_nr_start_date": 1743465600000, "permit_design_flow": 7.5, "permit_avg_flow": 5, "perm_feature_nmbr": "002", "perm_feature_text": "COMBINED SEWER OVERFLOW IN INTERCEPTOR STRUCTURE AT 3RD AND DES MOINES STREET.", "pf_lat": 40.38854, "pf_lon": -91.38593, "pf_character": "CSO", "perm_feature_type_code": "EXO", "pf_state_waterbody_name": "MISSISSIPPI RIVER NEAR FORT MADISON", "pf_state_auto_name": "", "pf_reach_id": "", "in_icis": "YES", "echo_dfr_link": "https://echo.epa.gov/detailed-facility-report?fid=110043869016", "name": "KEOKUK CITY OF STP", "feature_kind": "CSO outfall"}}, {"type": "Feature", "id": 1888, "geometry": {"type": "Point", "coordinates": [-91.0994402483628, 40.8075000866631]}, "properties": {"OBJECTID": 1888, "npdes_pfid": "IA0043079012", "npdes_id": "IA0043079", "permitting_state": "IA", "agency_type_code": "ST6", "facility_uin": "110005759465", "facility_name": "BURLINGTON CITY OF STP", "location_address": "101 SOUTH STREET", "supplemental_address_text": "", "facility_city": "BURLINGTON", "county_code": "IA057", "state_code": "IA", "epa_region_code": "07", "facility_type_code": "CTG", "facility_lat": 40.79864, "facility_lon": -91.09842, "permit_name": "CITY OF BURLINGTON", "version_nmbr": 0, "permit_type_code": "NPD", "effective_date": 1735689600000, "expiration_date": 1801353600000, "permit_status_code": "EFF", "facility_type_indicator": "POTW", "major_minor_status_flag": "M", "permit_tracking": "Y", "pt_start_date": 1735689600000, "dmr_tracking": "Y", "dmr_nr_start_date": 1735689600000, "permit_design_flow": 28.3, "permit_avg_flow": 10.85, "perm_feature_nmbr": "012", "perm_feature_text": "COMBINED SEWER OVERFLOW OF MARKET STREET BOX SEWER", "pf_lat": 40.8075, "pf_lon": -91.09944, "pf_character": "CSO", "perm_feature_type_code": "EXO", "pf_state_waterbody_name": "FLINT RIVER", "pf_state_auto_name": "", "pf_reach_id": "", "in_icis": "YES", "echo_dfr_link": "https://echo.epa.gov/detailed-facility-report?fid=110005759465", "name": "BURLINGTON CITY OF STP", "feature_kind": "CSO outfall"}}, {"type": "Feature", "id": 1889, "geometry": {"type": "Point", "coordinates": [-91.0972196129805, 40.798329736622]}, "properties": {"OBJECTID": 1889, "npdes_pfid": "IA0043079013", "npdes_id": "IA0043079", "permitting_state": "IA", "agency_type_code": "ST6", "facility_uin": "110005759465", "facility_name": "BURLINGTON CITY OF STP", "location_address": "101 SOUTH STREET", "supplemental_address_text": "", "facility_city": "BURLINGTON", "county_code": "IA057", "state_code": "IA", "epa_region_code": "07", "facility_type_code": "CTG", "facility_lat": 40.79864, "facility_lon": -91.09842, "permit_name": "CITY OF BURLINGTON", "version_nmbr": 0, "permit_type_code": "NPD", "effective_date": 1735689600000, "expiration_date": 1801353600000, "permit_status_code": "EFF", "facility_type_indicator": "POTW", "major_minor_status_flag": "M", "permit_tracking": "Y", "pt_start_date": 1735689600000, "dmr_tracking": "Y", "dmr_nr_start_date": 1735689600000, "permit_design_flow": 28.3, "permit_avg_flow": 10.85, "perm_feature_nmbr": "013", "perm_feature_text": "COMBINED SEWER OVERFLOW OF BONN'S HOLLOW BOX SEWER  LOCATED E. OF MAIN STREET, S. OF SOUTH STREET", "pf_lat": 40.79833, "pf_lon": -91.09722, "pf_character": "CSO", "perm_feature_type_code": "EXO", "pf_state_waterbody_name": "FLINT RIVER", "pf_state_auto_name": "", "pf_reach_id": "", "in_icis": "YES", "echo_dfr_link": "https://echo.epa.gov/detailed-facility-report?fid=110005759465", "name": "BURLINGTON CITY OF STP", "feature_kind": "CSO outfall"}}, {"type": "Feature", "id": 1890, "geometry": {"type": "Point", "coordinates": [-91.0991698554623, 40.8036100165371]}, "properties": {"OBJECTID": 1890, "npdes_pfid": "IA0043079016", "npdes_id": "IA0043079", "permitting_state": "IA", "agency_type_code": "ST6", "facility_uin": "110005759465", "facility_name": "BURLINGTON CITY OF STP", "location_address": "101 SOUTH STREET", "supplemental_address_text": "", "facility_city": "BURLINGTON", "county_code": "IA057", "state_code": "IA", "epa_region_code": "07", "facility_type_code": "CTG", "facility_lat": 40.79864, "facility_lon": -91.09842, "permit_name": "CITY OF BURLINGTON", "version_nmbr": 0, "permit_type_code": "NPD", "effective_date": 1735689600000, "expiration_date": 1801353600000, "permit_status_code": "EFF", "facility_type_indicator": "POTW", "major_minor_status_flag": "M", "permit_tracking": "Y", "pt_start_date": 1735689600000, "dmr_tracking": "Y", "dmr_nr_start_date": 1735689600000, "permit_design_flow": 28.3, "permit_avg_flow": 10.85, "perm_feature_nmbr": "016", "perm_feature_text": "COMBINED SEWER OVERFLOW OF ANGULAR STREET BOX SEWER  AT ANGULAR & MAIN STREETS", "pf_lat": 40.80361, "pf_lon": -91.09917, "pf_character": "CSO", "perm_feature_type_code": "EXO", "pf_state_waterbody_name": "FLINT RIVER", "pf_state_auto_name": "", "pf_reach_id": "", "in_icis": "YES", "echo_dfr_link": "https://echo.epa.gov/detailed-facility-report?fid=110005759465", "name": "BURLINGTON CITY OF STP", "feature_kind": "CSO outfall"}}, {"type": "Feature", "id": 1891, "geometry": {"type": "Point", "coordinates": [-93.611069595637, 41.6097502526439]}, "properties": {"OBJECTID": 1891, "npdes_pfid": "IA0044130015", "npdes_id": "IA0044130", "permitting_state": "IA", "agency_type_code": "ST6", "facility_uin": "110011869246", "facility_name": "DES MOINES METROPOLITAN WRF", "location_address": "3000 VANDALIA ROAD", "supplemental_address_text": "", "facility_city": "DES MOINES", "county_code": "IA153", "state_code": "IA", "epa_region_code": "07", "facility_type_code": "CTG", "facility_lat": 41.57231, "facility_lon": -93.55766, "permit_name": "DES MOINES METROPOLITAN WRA", "version_nmbr": 0, "permit_type_code": "NPD", "effective_date": 1740787200000, "expiration_date": 1898467200000, "permit_status_code": "EFF", "facility_type_indicator": "POTW", "major_minor_status_flag": "M", "permit_tracking": "Y", "pt_start_date": 1740787200000, "dmr_tracking": "Y", "dmr_nr_start_date": 1740787200000, "permit_design_flow": 200, "permit_avg_flow": 134, "perm_feature_nmbr": "015", "perm_feature_text": "COMBINED SEWER OVERFLOW AT THE BIRDLAND PUMPING STATION.", "pf_lat": 41.60975, "pf_lon": -93.61107, "pf_character": "CSO", "perm_feature_type_code": "EXO", "pf_state_waterbody_name": "DES MOINES RIVER BELOW THE EAST FORK DES MOINES", "pf_state_auto_name": "", "pf_reach_id": "", "in_icis": "YES", "echo_dfr_link": "https://echo.epa.gov/detailed-facility-report?fid=110011869246", "name": "DES MOINES METROPOLITAN WRF", "feature_kind": "CSO outfall"}}, {"type": "Feature", "id": 1892, "geometry": {"type": "Point", "coordinates": [-93.6450600493575, 41.5824597626478]}, "properties": {"OBJECTID": 1892, "npdes_pfid": "IA0044130028", "npdes_id": "IA0044130", "permitting_state": "IA", "agency_type_code": "ST6", "facility_uin": "110011869246", "facility_name": "DES MOINES METROPOLITAN WRF", "location_address": "3000 VANDALIA ROAD", "supplemental_address_text": "", "facility_city": "DES MOINES", "county_code": "IA153", "state_code": "IA", "epa_region_code": "07", "facility_type_code": "CTG", "facility_lat": 41.57231, "facility_lon": -93.55766, "permit_name": "DES MOINES METROPOLITAN WRA", "version_nmbr": 0, "permit_type_code": "NPD", "effective_date": 1740787200000, "expiration_date": 1898467200000, "permit_status_code": "EFF", "facility_type_indicator": "POTW", "major_minor_status_flag": "M", "permit_tracking": "Y", "pt_start_date": 1740787200000, "dmr_tracking": "Y", "dmr_nr_start_date": 1740787200000, "permit_design_flow": 200, "permit_avg_flow": 134, "perm_feature_nmbr": "028", "perm_feature_text": "COMBINED SEWER OVERFLOW AT 22ND AND HIGH STREETS.", "pf_lat": 41.58246, "pf_lon": -93.64506, "pf_character": "CSO", "perm_feature_type_code": "EXO", "pf_state_waterbody_name": "NORTH RACCOON RIVER", "pf_state_auto_name": "", "pf_reach_id": "", "in_icis": "YES", "echo_dfr_link": "https://echo.epa.gov/detailed-facility-report?fid=110011869246", "name": "DES MOINES METROPOLITAN WRF", "feature_kind": "CSO outfall"}}, {"type": "Feature", "id": 1893, "geometry": {"type": "Point", "coordinates": [-93.5714296370946, 41.5757400029852]}, "properties": {"OBJECTID": 1893, "npdes_pfid": "IA0044130039", "npdes_id": "IA0044130", "permitting_state": "IA", "agency_type_code": "ST6", "facility_uin": "110011869246", "facility_name": "DES MOINES METROPOLITAN WRF", "location_address": "3000 VANDALIA ROAD", "supplemental_address_text": "", "facility_city": "DES MOINES", "county_code": "IA153", "state_code": "IA", "epa_region_code": "07", "facility_type_code": "CTG", "facility_lat": 41.57231, "facility_lon": -93.55766, "permit_name": "DES MOINES METROPOLITAN WRA", "version_nmbr": 0, "permit_type_code": "NPD", "effective_date": 1740787200000, "expiration_date": 1898467200000, "permit_status_code": "EFF", "facility_type_indicator": "POTW", "major_minor_status_flag": "M", "permit_tracking": "Y", "pt_start_date": 1740787200000, "dmr_tracking": "Y", "dmr_nr_start_date": 1740787200000, "permit_design_flow": 200, "permit_avg_flow": 134, "perm_feature_nmbr": "039", "perm_feature_text": "DISCHARGE FROM COMBINED SEWER SOLIDS SEPARATION FACILITY", "pf_lat": 41.57574, "pf_lon": -93.57143, "pf_character": "TCS", "perm_feature_type_code": "EXO", "pf_state_waterbody_name": "DES MOINES RIVER BELOW THE RACCOON TO WHITEBREAST", "pf_state_auto_name": "", "pf_reach_id": "", "in_icis": "YES", "echo_dfr_link": "https://echo.epa.gov/detailed-facility-report?fid=110011869246", "name": "DES MOINES METROPOLITAN WRF", "feature_kind": "CSO outfall"}}, {"type": "Feature", "id": 1894, "geometry": {"type": "Point", "coordinates": [-91.1841801257444, 41.182039894058]}, "properties": {"OBJECTID": 1894, "npdes_pfid": "IA0047961002", "npdes_id": "IA0047961", "permitting_state": "IA", "agency_type_code": "ST6", "facility_uin": "110039691438", "facility_name": "WAPELLO CITY OF STP", "location_address": "UNKNOWN", "supplemental_address_text": "1/2 MILE SW OF WATER ST AND 2ND ST", "facility_city": "WAPELLO", "county_code": "IA115", "state_code": "IA", "epa_region_code": "07", "facility_type_code": "CTG", "facility_lat": 41.1736, "facility_lon": -91.17777, "permit_name": "CITY OF WAPELLO", "version_nmbr": 0, "permit_type_code": "NPD", "effective_date": 1682899200000, "expiration_date": 1840665600000, "permit_status_code": "EFF", "facility_type_indicator": "POTW", "major_minor_status_flag": "M", "permit_tracking": "Y", "pt_start_date": 1682899200000, "dmr_tracking": "Y", "dmr_nr_start_date": 1682899200000, "permit_design_flow": 0.623, "permit_avg_flow": 0.415, "perm_feature_nmbr": "002", "perm_feature_text": "VAN BUREN STREET LIFT STATION COMBINED SEWER OVERFLOW", "pf_lat": 41.18204, "pf_lon": -91.18418, "pf_character": "CSO", "perm_feature_type_code": "EXO", "pf_state_waterbody_name": "IOWA RIVER BELOW NORTH LIBERTY", "pf_state_auto_name": "", "pf_reach_id": "", "in_icis": "YES", "echo_dfr_link": "https://echo.epa.gov/detailed-facility-report?fid=110039691438", "name": "WAPELLO CITY OF STP", "feature_kind": "CSO outfall"}}, {"type": "Feature", "id": 1895, "geometry": {"type": "Point", "coordinates": [-91.1841801257444, 41.182039894058]}, "properties": {"OBJECTID": 1895, "npdes_pfid": "IA0047961003", "npdes_id": "IA0047961", "permitting_state": "IA", "agency_type_code": "ST6", "facility_uin": "110039691438", "facility_name": "WAPELLO CITY OF STP", "location_address": "UNKNOWN", "supplemental_address_text": "1/2 MILE SW OF WATER ST AND 2ND ST", "facility_city": "WAPELLO", "county_code": "IA115", "state_code": "IA", "epa_region_code": "07", "facility_type_code": "CTG", "facility_lat": 41.1736, "facility_lon": -91.17777, "permit_name": "CITY OF WAPELLO", "version_nmbr": 0, "permit_type_code": "NPD", "effective_date": 1682899200000, "expiration_date": 1840665600000, "permit_status_code": "EFF", "facility_type_indicator": "POTW", "major_minor_status_flag": "M", "permit_tracking": "Y", "pt_start_date": 1682899200000, "dmr_tracking": "Y", "dmr_nr_start_date": 1682899200000, "permit_design_flow": 0.623, "permit_avg_flow": 0.415, "perm_feature_nmbr": "003", "perm_feature_text": "VERNON STREET LIFT STATION COMBINED SEWER OVERFLOW", "pf_lat": 41.18204, "pf_lon": -91.18418, "pf_character": "CSO", "perm_feature_type_code": "EXO", "pf_state_waterbody_name": "IOWA RIVER BELOW NORTH LIBERTY", "pf_state_auto_name": "", "pf_reach_id": "", "in_icis": "YES", "echo_dfr_link": "https://echo.epa.gov/detailed-facility-report?fid=110039691438", "name": "WAPELLO CITY OF STP", "feature_kind": "CSO outfall"}}, {"type": "Feature", "id": 1896, "geometry": {"type": "Point", "coordinates": [-92.4073495727989, 41.0097602154041]}, "properties": {"OBJECTID": 1896, "npdes_pfid": "IA0058611003", "npdes_id": "IA0058611", "permitting_state": "IA", "agency_type_code": "ST6", "facility_uin": "110001362034", "facility_name": "OTTUMWA CITY OF STP", "location_address": "2222 S EMMA ST", "supplemental_address_text": "", "facility_city": "OTTUMWA", "county_code": "IA179", "state_code": "IA", "epa_region_code": "07", "facility_type_code": "CTG", "facility_lat": 41.0023, "facility_lon": -92.38457, "permit_name": "CITY OF OTTUMWA", "version_nmbr": 0, "permit_type_code": "NPD", "effective_date": 1772323200000, "expiration_date": 1930003200000, "permit_status_code": "EFF", "facility_type_indicator": "POTW", "major_minor_status_flag": "M", "permit_tracking": "Y", "pt_start_date": 1772323200000, "dmr_tracking": "Y", "dmr_nr_start_date": 1772323200000, "permit_design_flow": 12.5, "permit_avg_flow": 10, "perm_feature_nmbr": "003", "perm_feature_text": "COMBINED SEWER OVERFLOW AT THE NORTH SIDE INTERCEPTOR DIVERSION CHAMBER", "pf_lat": 41.00976, "pf_lon": -92.40735, "pf_character": "CSO", "perm_feature_type_code": "EXO", "pf_state_waterbody_name": "DES MOINES RIVER BELOW WHITEBREAST CREEK", "pf_state_auto_name": "", "pf_reach_id": "", "in_icis": "YES", "echo_dfr_link": "https://echo.epa.gov/detailed-facility-report?fid=110001362034", "name": "OTTUMWA CITY OF STP", "feature_kind": "CSO outfall"}}, {"type": "Feature", "id": 1897, "geometry": {"type": "Point", "coordinates": [-92.4070701967455, 41.0095799026027]}, "properties": {"OBJECTID": 1897, "npdes_pfid": "IA0058611004", "npdes_id": "IA0058611", "permitting_state": "IA", "agency_type_code": "ST6", "facility_uin": "110001362034", "facility_name": "OTTUMWA CITY OF STP", "location_address": "2222 S EMMA ST", "supplemental_address_text": "", "facility_city": "OTTUMWA", "county_code": "IA179", "state_code": "IA", "epa_region_code": "07", "facility_type_code": "CTG", "facility_lat": 41.0023, "facility_lon": -92.38457, "permit_name": "CITY OF OTTUMWA", "version_nmbr": 0, "permit_type_code": "NPD", "effective_date": 1772323200000, "expiration_date": 1930003200000, "permit_status_code": "EFF", "facility_type_indicator": "POTW", "major_minor_status_flag": "M", "permit_tracking": "Y", "pt_start_date": 1772323200000, "dmr_tracking": "Y", "dmr_nr_start_date": 1772323200000, "permit_design_flow": 12.5, "permit_avg_flow": 10, "perm_feature_nmbr": "004", "perm_feature_text": "COMBINED SEWER OVERFLOW AT THE BLAKES BRANCH INTERCEPTER DIVERSION CHAMBER", "pf_lat": 41.00958, "pf_lon": -92.40707, "pf_character": "CSO", "perm_feature_type_code": "EXO", "pf_state_waterbody_name": "DES MOINES RIVER BELOW WHITEBREAST CREEK", "pf_state_auto_name": "", "pf_reach_id": "", "in_icis": "YES", "echo_dfr_link": "https://echo.epa.gov/detailed-facility-report?fid=110001362034", "name": "OTTUMWA CITY OF STP", "feature_kind": "CSO outfall"}}, {"type": "Feature", "id": 1898, "geometry": {"type": "Point", "coordinates": [-92.4020998182785, 41.0023900359744]}, "properties": {"OBJECTID": 1898, "npdes_pfid": "IA0058611005", "npdes_id": "IA0058611", "permitting_state": "IA", "agency_type_code": "ST6", "facility_uin": "110001362034", "facility_name": "OTTUMWA CITY OF STP", "location_address": "2222 S EMMA ST", "supplemental_address_text": "", "facility_city": "OTTUMWA", "county_code": "IA179", "state_code": "IA", "epa_region_code": "07", "facility_type_code": "CTG", "facility_lat": 41.0023, "facility_lon": -92.38457, "permit_name": "CITY OF OTTUMWA", "version_nmbr": 0, "permit_type_code": "NPD", "effective_date": 1772323200000, "expiration_date": 1930003200000, "permit_status_code": "EFF", "facility_type_indicator": "POTW", "major_minor_status_flag": "M", "permit_tracking": "Y", "pt_start_date": 1772323200000, "dmr_tracking": "Y", "dmr_nr_start_date": 1772323200000, "permit_design_flow": 12.5, "permit_avg_flow": 10, "perm_feature_nmbr": "005", "perm_feature_text": "COMBINED SEWER OVERFLOW AT THE FINLEY AVENUE STORM WATER PUMP STATION", "pf_lat": 41.00239, "pf_lon": -92.4021, "pf_character": "CSO", "perm_feature_type_code": "EXO", "pf_state_waterbody_name": "DES MOINES RIVER BELOW WHITEBREAST CREEK", "pf_state_auto_name": "", "pf_reach_id": "", "in_icis": "YES", "echo_dfr_link": "https://echo.epa.gov/detailed-facility-report?fid=110001362034", "name": "OTTUMWA CITY OF STP", "feature_kind": "CSO outfall"}}, {"type": "Feature", "id": 1899, "geometry": {"type": "Point", "coordinates": [-92.4029604043207, 40.9947701990353]}, "properties": {"OBJECTID": 1899, "npdes_pfid": "IA0058611006", "npdes_id": "IA0058611", "permitting_state": "IA", "agency_type_code": "ST6", "facility_uin": "110001362034", "facility_name": "OTTUMWA CITY OF STP", "location_address": "2222 S EMMA ST", "supplemental_address_text": "", "facility_city": "OTTUMWA", "county_code": "IA179", "state_code": "IA", "epa_region_code": "07", "facility_type_code": "CTG", "facility_lat": 41.0023, "facility_lon": -92.38457, "permit_name": "CITY OF OTTUMWA", "version_nmbr": 0, "permit_type_code": "NPD", "effective_date": 1772323200000, "expiration_date": 1930003200000, "permit_status_code": "EFF", "facility_type_indicator": "POTW", "major_minor_status_flag": "M", "permit_tracking": "Y", "pt_start_date": 1772323200000, "dmr_tracking": "Y", "dmr_nr_start_date": 1772323200000, "permit_design_flow": 12.5, "permit_avg_flow": 10, "perm_feature_nmbr": "006", "perm_feature_text": "COMBINED SEWER OVERFLOW AT THE MARY STREET INTERCEPTER DIVERSION CHAMBER", "pf_lat": 40.99477, "pf_lon": -92.40296, "pf_character": "CSO", "perm_feature_type_code": "EXO", "pf_state_waterbody_name": "DES MOINES RIVER BELOW WHITEBREAST CREEK", "pf_state_auto_name": "", "pf_reach_id": "", "in_icis": "YES", "echo_dfr_link": "https://echo.epa.gov/detailed-facility-report?fid=110001362034", "name": "OTTUMWA CITY OF STP", "feature_kind": "CSO outfall"}}, {"type": "Feature", "id": 1900, "geometry": {"type": "Point", "coordinates": [-92.4015302863884, 41.0054596884244]}, "properties": {"OBJECTID": 1900, "npdes_pfid": "IA0058611007", "npdes_id": "IA0058611", "permitting_state": "IA", "agency_type_code": "ST6", "facility_uin": "110001362034", "facility_name": "OTTUMWA CITY OF STP", "location_address": "2222 S EMMA ST", "supplemental_address_text": "", "facility_city": "OTTUMWA", "county_code": "IA179", "state_code": "IA", "epa_region_code": "07", "facility_type_code": "CTG", "facility_lat": 41.0023, "facility_lon": -92.38457, "permit_name": "CITY OF OTTUMWA", "version_nmbr": 0, "permit_type_code": "NPD", "effective_date": 1772323200000, "expiration_date": 1930003200000, "permit_status_code": "EFF", "facility_type_indicator": "POTW", "major_minor_status_flag": "M", "permit_tracking": "Y", "pt_start_date": 1772323200000, "dmr_tracking": "Y", "dmr_nr_start_date": 1772323200000, "permit_design_flow": 12.5, "permit_avg_flow": 10, "perm_feature_nmbr": "007", "perm_feature_text": "COMBINED SEWER OVERFLOW AT THE ORCHARD STREET STORM WATER PUMP STATION", "pf_lat": 41.00546, "pf_lon": -92.40153, "pf_character": "CSO", "perm_feature_type_code": "EXO", "pf_state_waterbody_name": "DES MOINES RIVER BELOW WHITEBREAST CREEK", "pf_state_auto_name": "", "pf_reach_id": "", "in_icis": "YES", "echo_dfr_link": "https://echo.epa.gov/detailed-facility-report?fid=110001362034", "name": "OTTUMWA CITY OF STP", "feature_kind": "CSO outfall"}}, {"type": "Feature", "id": 1901, "geometry": {"type": "Point", "coordinates": [-92.3900399355892, 41.0020598771176]}, "properties": {"OBJECTID": 1901, "npdes_pfid": "IA0058611008", "npdes_id": "IA0058611", "permitting_state": "IA", "agency_type_code": "ST6", "facility_uin": "110001362034", "facility_name": "OTTUMWA CITY OF STP", "location_address": "2222 S EMMA ST", "supplemental_address_text": "", "facility_city": "OTTUMWA", "county_code": "IA179", "state_code": "IA", "epa_region_code": "07", "facility_type_code": "CTG", "facility_lat": 41.0023, "facility_lon": -92.38457, "permit_name": "CITY OF OTTUMWA", "version_nmbr": 0, "permit_type_code": "NPD", "effective_date": 1772323200000, "expiration_date": 1930003200000, "permit_status_code": "EFF", "facility_type_indicator": "POTW", "major_minor_status_flag": "M", "permit_tracking": "Y", "pt_start_date": 1772323200000, "dmr_tracking": "Y", "dmr_nr_start_date": 1772323200000, "permit_design_flow": 12.5, "permit_avg_flow": 10, "perm_feature_nmbr": "008", "perm_feature_text": "COMBINED SEWER OVERFLOW AT THE WALNUT AVENUE PUMP STATION", "pf_lat": 41.00206, "pf_lon": -92.39004, "pf_character": "CSO", "perm_feature_type_code": "EXO", "pf_state_waterbody_name": "DES MOINES RIVER BELOW WHITEBREAST CREEK", "pf_state_auto_name": "", "pf_reach_id": "", "in_icis": "YES", "echo_dfr_link": "https://echo.epa.gov/detailed-facility-report?fid=110001362034", "name": "OTTUMWA CITY OF STP", "feature_kind": "CSO outfall"}}, {"type": "Feature", "id": 1902, "geometry": {"type": "Point", "coordinates": [-92.4286100006282, 41.0067999048214]}, "properties": {"OBJECTID": 1902, "npdes_pfid": "IA0058611009", "npdes_id": "IA0058611", "permitting_state": "IA", "agency_type_code": "ST6", "facility_uin": "110001362034", "facility_name": "OTTUMWA CITY OF STP", "location_address": "2222 S EMMA ST", "supplemental_address_text": "", "facility_city": "OTTUMWA", "county_code": "IA179", "state_code": "IA", "epa_region_code": "07", "facility_type_code": "CTG", "facility_lat": 41.0023, "facility_lon": -92.38457, "permit_name": "CITY OF OTTUMWA", "version_nmbr": 0, "permit_type_code": "NPD", "effective_date": 1772323200000, "expiration_date": 1930003200000, "permit_status_code": "EFF", "facility_type_indicator": "POTW", "major_minor_status_flag": "M", "permit_tracking": "Y", "pt_start_date": 1772323200000, "dmr_tracking": "Y", "dmr_nr_start_date": 1772323200000, "permit_design_flow": 12.5, "permit_avg_flow": 10, "perm_feature_nmbr": "009", "perm_feature_text": "COMBINED SEWER OVERFLOW AT THE RICHMOND AVENUE PUMP STATION", "pf_lat": 41.0068, "pf_lon": -92.42861, "pf_character": "CSO", "perm_feature_type_code": "EXO", "pf_state_waterbody_name": "DES MOINES RIVER BELOW WHITEBREAST CREEK", "pf_state_auto_name": "", "pf_reach_id": "", "in_icis": "YES", "echo_dfr_link": "https://echo.epa.gov/detailed-facility-report?fid=110001362034", "name": "OTTUMWA CITY OF STP", "feature_kind": "CSO outfall"}}, {"type": "Feature", "id": 1903, "geometry": {"type": "Point", "coordinates": [-92.3975004440238, 41.0483601913235]}, "properties": {"OBJECTID": 1903, "npdes_pfid": "IA0058611011", "npdes_id": "IA0058611", "permitting_state": "IA", "agency_type_code": "ST6", "facility_uin": "110001362034", "facility_name": "OTTUMWA CITY OF STP", "location_address": "2222 S EMMA ST", "supplemental_address_text": "", "facility_city": "OTTUMWA", "county_code": "IA179", "state_code": "IA", "epa_region_code": "07", "facility_type_code": "CTG", "facility_lat": 41.0023, "facility_lon": -92.38457, "permit_name": "CITY OF OTTUMWA", "version_nmbr": 0, "permit_type_code": "NPD", "effective_date": 1772323200000, "expiration_date": 1930003200000, "permit_status_code": "EFF", "facility_type_indicator": "POTW", "major_minor_status_flag": "M", "permit_tracking": "Y", "pt_start_date": 1772323200000, "dmr_tracking": "Y", "dmr_nr_start_date": 1772323200000, "permit_design_flow": 12.5, "permit_avg_flow": 10, "perm_feature_nmbr": "011", "perm_feature_text": "COMBINED SEWER OVERFLOW AT THE GRANDVIEW PUMP STATION", "pf_lat": 41.04836, "pf_lon": -92.3975, "pf_character": "CSO", "perm_feature_type_code": "EXO", "pf_state_waterbody_name": "DES MOINES RIVER BELOW WHITEBREAST CREEK", "pf_state_auto_name": "", "pf_reach_id": "", "in_icis": "YES", "echo_dfr_link": "https://echo.epa.gov/detailed-facility-report?fid=110001362034", "name": "OTTUMWA CITY OF STP", "feature_kind": "CSO outfall"}}, {"type": "Feature", "id": 1904, "geometry": {"type": "Point", "coordinates": [-92.384439838108, 41.00100023906]}, "properties": {"OBJECTID": 1904, "npdes_pfid": "IA0058611015", "npdes_id": "IA0058611", "permitting_state": "IA", "agency_type_code": "ST6", "facility_uin": "110001362034", "facility_name": "OTTUMWA CITY OF STP", "location_address": "2222 S EMMA ST", "supplemental_address_text": "", "facility_city": "OTTUMWA", "county_code": "IA179", "state_code": "IA", "epa_region_code": "07", "facility_type_code": "CTG", "facility_lat": 41.0023, "facility_lon": -92.38457, "permit_name": "CITY OF OTTUMWA", "version_nmbr": 0, "permit_type_code": "NPD", "effective_date": 1772323200000, "expiration_date": 1930003200000, "permit_status_code": "EFF", "facility_type_indicator": "POTW", "major_minor_status_flag": "M", "permit_tracking": "Y", "pt_start_date": 1772323200000, "dmr_tracking": "Y", "dmr_nr_start_date": 1772323200000, "permit_design_flow": 12.5, "permit_avg_flow": 10, "perm_feature_nmbr": "015", "perm_feature_text": "COMBINED SEWER OVERFLOW AT EAST MAIN STREET", "pf_lat": 41.001, "pf_lon": -92.38444, "pf_character": "CSO", "perm_feature_type_code": "EXO", "pf_state_waterbody_name": "DES MOINES RIVER BELOW WHITEBREAST CREEK", "pf_state_auto_name": "", "pf_reach_id": "", "in_icis": "YES", "echo_dfr_link": "https://echo.epa.gov/detailed-facility-report?fid=110001362034", "name": "OTTUMWA CITY OF STP", "feature_kind": "CSO outfall"}}]}