{"type": "FeatureCollection", "features": [{"type": "Feature", "id": 5959, "geometry": {"type": "Point", "coordinates": [-79.1565002427449, 37.4166111581422]}, "properties": {"OBJECTID": 5959, "npdes_pfid": "VA0024970011", "npdes_id": "VA0024970", "permitting_state": "VA", "agency_type_code": "ST6", "facility_uin": "110039930849", "facility_name": "LYNCHBURG REGIONAL WASTEWATER TREATMENT PLANT", "location_address": "2301 CONCORD TPKE", "supplemental_address_text": "", "facility_city": "LYNCHBURG", "county_code": "", "state_code": "VA", "epa_region_code": "03", "facility_type_code": "CTG", "facility_lat": 37.396376, "facility_lon": -79.113872, "permit_name": "Lynchburg City", "version_nmbr": 0, "permit_type_code": "NPD", "effective_date": 1764547200000, "expiration_date": 1922227200000, "permit_status_code": "EFF", "facility_type_indicator": "POTW", "major_minor_status_flag": "M", "permit_tracking": "Y", "pt_start_date": 1764547200000, "dmr_tracking": "Y", "dmr_nr_start_date": 1764547200000, "permit_design_flow": 22, "permit_avg_flow": null, "perm_feature_nmbr": "011", "perm_feature_text": "", "pf_lat": 37.416611, "pf_lon": -79.1565, "pf_character": "CSO", "perm_feature_type_code": "EXO", "pf_state_waterbody_name": "Trib Blackwater Creek", "pf_state_auto_name": "", "pf_reach_id": "", "in_icis": "YES", "echo_dfr_link": "https://echo.epa.gov/detailed-facility-report?fid=110039930849", "name": "LYNCHBURG REGIONAL WASTEWATER TREATMENT PLANT", "feature_kind": "CSO outfall"}}, {"type": "Feature", "id": 5960, "geometry": {"type": "Point", "coordinates": [-79.1590002541806, 37.399388707744]}, "properties": {"OBJECTID": 5960, "npdes_pfid": "VA0024970014", "npdes_id": "VA0024970", "permitting_state": "VA", "agency_type_code": "ST6", "facility_uin": "110039930849", "facility_name": "LYNCHBURG REGIONAL WASTEWATER TREATMENT PLANT", "location_address": "2301 CONCORD TPKE", "supplemental_address_text": "", "facility_city": "LYNCHBURG", "county_code": "", "state_code": "VA", "epa_region_code": "03", "facility_type_code": "CTG", "facility_lat": 37.396376, "facility_lon": -79.113872, "permit_name": "Lynchburg City", "version_nmbr": 0, "permit_type_code": "NPD", "effective_date": 1764547200000, "expiration_date": 1922227200000, "permit_status_code": "EFF", "facility_type_indicator": "POTW", "major_minor_status_flag": "M", "permit_tracking": "Y", "pt_start_date": 1764547200000, "dmr_tracking": "Y", "dmr_nr_start_date": 1764547200000, "permit_design_flow": 22, "permit_avg_flow": null, "perm_feature_nmbr": "014", "perm_feature_text": "", "pf_lat": 37.399389, "pf_lon": -79.159, "pf_character": "CSO", "perm_feature_type_code": "EXO", "pf_state_waterbody_name": "Fishing Creek", "pf_state_auto_name": "", "pf_reach_id": "", "in_icis": "YES", "echo_dfr_link": "https://echo.epa.gov/detailed-facility-report?fid=110039930849", "name": "LYNCHBURG REGIONAL WASTEWATER TREATMENT PLANT", "feature_kind": "CSO outfall"}}, {"type": "Feature", "id": 5961, "geometry": {"type": "Point", "coordinates": [-79.153888840214, 37.4013062355484]}, "properties": {"OBJECTID": 5961, "npdes_pfid": "VA0024970015", "npdes_id": "VA0024970", "permitting_state": "VA", "agency_type_code": "ST6", "facility_uin": "110039930849", "facility_name": "LYNCHBURG REGIONAL WASTEWATER TREATMENT PLANT", "location_address": "2301 CONCORD TPKE", "supplemental_address_text": "", "facility_city": "LYNCHBURG", "county_code": "", "state_code": "VA", "epa_region_code": "03", "facility_type_code": "CTG", "facility_lat": 37.396376, "facility_lon": -79.113872, "permit_name": "Lynchburg City", "version_nmbr": 0, "permit_type_code": "NPD", "effective_date": 1764547200000, "expiration_date": 1922227200000, "permit_status_code": "EFF", "facility_type_indicator": "POTW", "major_minor_status_flag": "M", "permit_tracking": "Y", "pt_start_date": 1764547200000, "dmr_tracking": "Y", "dmr_nr_start_date": 1764547200000, "permit_design_flow": 22, "permit_avg_flow": null, "perm_feature_nmbr": "015", "perm_feature_text": "", "pf_lat": 37.401306, "pf_lon": -79.153889, "pf_character": "CSO", "perm_feature_type_code": "EXO", "pf_state_waterbody_name": "Trib to Fishing Creek", "pf_state_auto_name": "", "pf_reach_id": "", "in_icis": "YES", "echo_dfr_link": "https://echo.epa.gov/detailed-facility-report?fid=110039930849", "name": "LYNCHBURG REGIONAL WASTEWATER TREATMENT PLANT", "feature_kind": "CSO outfall"}}, {"type": "Feature", "id": 5962, "geometry": {"type": "Point", "coordinates": [-79.1588888630854, 37.3993059253868]}, "properties": {"OBJECTID": 5962, "npdes_pfid": "VA0024970017", "npdes_id": "VA0024970", "permitting_state": "VA", "agency_type_code": "ST6", "facility_uin": "110039930849", "facility_name": "LYNCHBURG REGIONAL WASTEWATER TREATMENT PLANT", "location_address": "2301 CONCORD TPKE", "supplemental_address_text": "", "facility_city": "LYNCHBURG", "county_code": "", "state_code": "VA", "epa_region_code": "03", "facility_type_code": "CTG", "facility_lat": 37.396376, "facility_lon": -79.113872, "permit_name": "Lynchburg City", "version_nmbr": 0, "permit_type_code": "NPD", "effective_date": 1764547200000, "expiration_date": 1922227200000, "permit_status_code": "EFF", "facility_type_indicator": "POTW", "major_minor_status_flag": "M", "permit_tracking": "Y", "pt_start_date": 1764547200000, "dmr_tracking": "Y", "dmr_nr_start_date": 1764547200000, "permit_design_flow": 22, "permit_avg_flow": null, "perm_feature_nmbr": "017", "perm_feature_text": "", "pf_lat": 37.399306, "pf_lon": -79.158889, "pf_character": "CSO", "perm_feature_type_code": "EXO", "pf_state_waterbody_name": "Trib to Fishing Creek", "pf_state_auto_name": "", "pf_reach_id": "", "in_icis": "YES", "echo_dfr_link": "https://echo.epa.gov/detailed-facility-report?fid=110039930849", "name": "LYNCHBURG REGIONAL WASTEWATER TREATMENT PLANT", "feature_kind": "CSO outfall"}}, {"type": "Feature", "id": 5963, "geometry": {"type": "Point", "coordinates": [-79.1590002541806, 37.399388707744]}, "properties": {"OBJECTID": 5963, "npdes_pfid": "VA0024970033", "npdes_id": "VA0024970", "permitting_state": "VA", "agency_type_code": "ST6", "facility_uin": "110039930849", "facility_name": "LYNCHBURG REGIONAL WASTEWATER TREATMENT PLANT", "location_address": "2301 CONCORD TPKE", "supplemental_address_text": "", "facility_city": "LYNCHBURG", "county_code": "", "state_code": "VA", "epa_region_code": "03", "facility_type_code": "CTG", "facility_lat": 37.396376, "facility_lon": -79.113872, "permit_name": "Lynchburg City", "version_nmbr": 0, "permit_type_code": "NPD", "effective_date": 1764547200000, "expiration_date": 1922227200000, "permit_status_code": "EFF", "facility_type_indicator": "POTW", "major_minor_status_flag": "M", "permit_tracking": "Y", "pt_start_date": 1764547200000, "dmr_tracking": "Y", "dmr_nr_start_date": 1764547200000, "permit_design_flow": 22, "permit_avg_flow": null, "perm_feature_nmbr": "033", "perm_feature_text": "", "pf_lat": 37.399389, "pf_lon": -79.159, "pf_character": "CSO", "perm_feature_type_code": "EXO", "pf_state_waterbody_name": "Trib to Fishing Creek", "pf_state_auto_name": "", "pf_reach_id": "", "in_icis": "YES", "echo_dfr_link": "https://echo.epa.gov/detailed-facility-report?fid=110039930849", "name": "LYNCHBURG REGIONAL WASTEWATER TREATMENT PLANT", "feature_kind": "CSO outfall"}}, {"type": "Feature", "id": 5964, "geometry": {"type": "Point", "coordinates": [-79.1590002541806, 37.399388707744]}, "properties": {"OBJECTID": 5964, "npdes_pfid": "VA0024970034", "npdes_id": "VA0024970", "permitting_state": "VA", "agency_type_code": "ST6", "facility_uin": "110039930849", "facility_name": "LYNCHBURG REGIONAL WASTEWATER TREATMENT PLANT", "location_address": "2301 CONCORD TPKE", "supplemental_address_text": "", "facility_city": "LYNCHBURG", "county_code": "", "state_code": "VA", "epa_region_code": "03", "facility_type_code": "CTG", "facility_lat": 37.396376, "facility_lon": -79.113872, "permit_name": "Lynchburg City", "version_nmbr": 0, "permit_type_code": "NPD", "effective_date": 1764547200000, "expiration_date": 1922227200000, "permit_status_code": "EFF", "facility_type_indicator": "POTW", "major_minor_status_flag": "M", "permit_tracking": "Y", "pt_start_date": 1764547200000, "dmr_tracking": "Y", "dmr_nr_start_date": 1764547200000, "permit_design_flow": 22, "permit_avg_flow": null, "perm_feature_nmbr": "034", "perm_feature_text": "", "pf_lat": 37.399389, "pf_lon": -79.159, "pf_character": "CSO", "perm_feature_type_code": "EXO", "pf_state_waterbody_name": "Trib to Fishing Creek", "pf_state_auto_name": "", "pf_reach_id": "", "in_icis": "YES", "echo_dfr_link": "https://echo.epa.gov/detailed-facility-report?fid=110039930849", "name": "LYNCHBURG REGIONAL WASTEWATER TREATMENT PLANT", "feature_kind": "CSO outfall"}}, {"type": "Feature", "id": 5965, "geometry": {"type": "Point", "coordinates": [-79.1553890267385, 37.4223330217312]}, "properties": {"OBJECTID": 5965, "npdes_pfid": "VA0024970052", "npdes_id": "VA0024970", "permitting_state": "VA", "agency_type_code": "ST6", "facility_uin": "110039930849", "facility_name": "LYNCHBURG REGIONAL WASTEWATER TREATMENT PLANT", "location_address": "2301 CONCORD TPKE", "supplemental_address_text": "", "facility_city": "LYNCHBURG", "county_code": "", "state_code": "VA", "epa_region_code": "03", "facility_type_code": "CTG", "facility_lat": 37.396376, "facility_lon": -79.113872, "permit_name": "Lynchburg City", "version_nmbr": 0, "permit_type_code": "NPD", "effective_date": 1764547200000, "expiration_date": 1922227200000, "permit_status_code": "EFF", "facility_type_indicator": "POTW", "major_minor_status_flag": "M", "permit_tracking": "Y", "pt_start_date": 1764547200000, "dmr_tracking": "Y", "dmr_nr_start_date": 1764547200000, "permit_design_flow": 22, "permit_avg_flow": null, "perm_feature_nmbr": "052", "perm_feature_text": "", "pf_lat": 37.422333, "pf_lon": -79.155389, "pf_character": "CSO", "perm_feature_type_code": "EXO", "pf_state_waterbody_name": "Blackwater Creek", "pf_state_auto_name": "", "pf_reach_id": "", "in_icis": "YES", "echo_dfr_link": "https://echo.epa.gov/detailed-facility-report?fid=110039930849", "name": "LYNCHBURG REGIONAL WASTEWATER TREATMENT PLANT", "feature_kind": "CSO outfall"}}, {"type": "Feature", "id": 5966, "geometry": {"type": "Point", "coordinates": [-79.1358057535446, 37.4116937161229]}, "properties": {"OBJECTID": 5966, "npdes_pfid": "VA0024970056", "npdes_id": "VA0024970", "permitting_state": "VA", "agency_type_code": "ST6", "facility_uin": "110039930849", "facility_name": "LYNCHBURG REGIONAL WASTEWATER TREATMENT PLANT", "location_address": "2301 CONCORD TPKE", "supplemental_address_text": "", "facility_city": "LYNCHBURG", "county_code": "", "state_code": "VA", "epa_region_code": "03", "facility_type_code": "CTG", "facility_lat": 37.396376, "facility_lon": -79.113872, "permit_name": "Lynchburg City", "version_nmbr": 0, "permit_type_code": "NPD", "effective_date": 1764547200000, "expiration_date": 1922227200000, "permit_status_code": "EFF", "facility_type_indicator": "POTW", "major_minor_status_flag": "M", "permit_tracking": "Y", "pt_start_date": 1764547200000, "dmr_tracking": "Y", "dmr_nr_start_date": 1764547200000, "permit_design_flow": 22, "permit_avg_flow": null, "perm_feature_nmbr": "056", "perm_feature_text": "", "pf_lat": 37.411694, "pf_lon": -79.135806, "pf_character": "CSO", "perm_feature_type_code": "EXO", "pf_state_waterbody_name": "James River", "pf_state_auto_name": "", "pf_reach_id": "", "in_icis": "YES", "echo_dfr_link": "https://echo.epa.gov/detailed-facility-report?fid=110039930849", "name": "LYNCHBURG REGIONAL WASTEWATER TREATMENT PLANT", "feature_kind": "CSO outfall"}}, {"type": "Feature", "id": 5967, "geometry": {"type": "Point", "coordinates": [-79.1366941873607, 37.4131107602396]}, "properties": {"OBJECTID": 5967, "npdes_pfid": "VA0024970057", "npdes_id": "VA0024970", "permitting_state": "VA", "agency_type_code": "ST6", "facility_uin": "110039930849", "facility_name": "LYNCHBURG REGIONAL WASTEWATER TREATMENT PLANT", "location_address": "2301 CONCORD TPKE", "supplemental_address_text": "", "facility_city": "LYNCHBURG", "county_code": "", "state_code": "VA", "epa_region_code": "03", "facility_type_code": "CTG", "facility_lat": 37.396376, "facility_lon": -79.113872, "permit_name": "Lynchburg City", "version_nmbr": 0, "permit_type_code": "NPD", "effective_date": 1764547200000, "expiration_date": 1922227200000, "permit_status_code": "EFF", "facility_type_indicator": "POTW", "major_minor_status_flag": "M", "permit_tracking": "Y", "pt_start_date": 1764547200000, "dmr_tracking": "Y", "dmr_nr_start_date": 1764547200000, "permit_design_flow": 22, "permit_avg_flow": null, "perm_feature_nmbr": "057", "perm_feature_text": "", "pf_lat": 37.413111, "pf_lon": -79.136694, "pf_character": "CSO", "perm_feature_type_code": "EXO", "pf_state_waterbody_name": "James River", "pf_state_auto_name": "", "pf_reach_id": "", "in_icis": "YES", "echo_dfr_link": "https://echo.epa.gov/detailed-facility-report?fid=110039930849", "name": "LYNCHBURG REGIONAL WASTEWATER TREATMENT PLANT", "feature_kind": "CSO outfall"}}, {"type": "Feature", "id": 5968, "geometry": {"type": "Point", "coordinates": [-79.1486938829259, 37.395388645341]}, "properties": {"OBJECTID": 5968, "npdes_pfid": "VA0024970062", "npdes_id": "VA0024970", "permitting_state": "VA", "agency_type_code": "ST6", "facility_uin": "110039930849", "facility_name": "LYNCHBURG REGIONAL WASTEWATER TREATMENT PLANT", "location_address": "2301 CONCORD TPKE", "supplemental_address_text": "", "facility_city": "LYNCHBURG", "county_code": "", "state_code": "VA", "epa_region_code": "03", "facility_type_code": "CTG", "facility_lat": 37.396376, "facility_lon": -79.113872, "permit_name": "Lynchburg City", "version_nmbr": 0, "permit_type_code": "NPD", "effective_date": 1764547200000, "expiration_date": 1922227200000, "permit_status_code": "EFF", "facility_type_indicator": "POTW", "major_minor_status_flag": "M", "permit_tracking": "Y", "pt_start_date": 1764547200000, "dmr_tracking": "Y", "dmr_nr_start_date": 1764547200000, "permit_design_flow": 22, "permit_avg_flow": null, "perm_feature_nmbr": "062", "perm_feature_text": "", "pf_lat": 37.395389, "pf_lon": -79.148694, "pf_character": "CSO", "perm_feature_type_code": "EXO", "pf_state_waterbody_name": "Trib to Fishing Creek", "pf_state_auto_name": "", "pf_reach_id": "", "in_icis": "YES", "echo_dfr_link": "https://echo.epa.gov/detailed-facility-report?fid=110039930849", "name": "LYNCHBURG REGIONAL WASTEWATER TREATMENT PLANT", "feature_kind": "CSO outfall"}}, {"type": "Feature", "id": 5969, "geometry": {"type": "Point", "coordinates": [-79.1450000104776, 37.4001109085682]}, "properties": {"OBJECTID": 5969, "npdes_pfid": "VA0024970066", "npdes_id": "VA0024970", "permitting_state": "VA", "agency_type_code": "ST6", "facility_uin": "110039930849", "facility_name": "LYNCHBURG REGIONAL WASTEWATER TREATMENT PLANT", "location_address": "2301 CONCORD TPKE", "supplemental_address_text": "", "facility_city": "LYNCHBURG", "county_code": "", "state_code": "VA", "epa_region_code": "03", "facility_type_code": "CTG", "facility_lat": 37.396376, "facility_lon": -79.113872, "permit_name": "Lynchburg City", "version_nmbr": 0, "permit_type_code": "NPD", "effective_date": 1764547200000, "expiration_date": 1922227200000, "permit_status_code": "EFF", "facility_type_indicator": "POTW", "major_minor_status_flag": "M", "permit_tracking": "Y", "pt_start_date": 1764547200000, "dmr_tracking": "Y", "dmr_nr_start_date": 1764547200000, "permit_design_flow": 22, "permit_avg_flow": null, "perm_feature_nmbr": "066", "perm_feature_text": "", "pf_lat": 37.400111, "pf_lon": -79.145, "pf_character": "CSO", "perm_feature_type_code": "EXO", "pf_state_waterbody_name": "Trib to Fishing Creek", "pf_state_auto_name": "", "pf_reach_id": "", "in_icis": "YES", "echo_dfr_link": "https://echo.epa.gov/detailed-facility-report?fid=110039930849", "name": "LYNCHBURG REGIONAL WASTEWATER TREATMENT PLANT", "feature_kind": "CSO outfall"}}, {"type": "Feature", "id": 5970, "geometry": {"type": "Point", "coordinates": [-79.1543056585058, 37.3890002350191]}, "properties": {"OBJECTID": 5970, "npdes_pfid": "VA0024970070", "npdes_id": "VA0024970", "permitting_state": "VA", "agency_type_code": "ST6", "facility_uin": "110039930849", "facility_name": "LYNCHBURG REGIONAL WASTEWATER TREATMENT PLANT", "location_address": "2301 CONCORD TPKE", "supplemental_address_text": "", "facility_city": "LYNCHBURG", "county_code": "", "state_code": "VA", "epa_region_code": "03", "facility_type_code": "CTG", "facility_lat": 37.396376, "facility_lon": -79.113872, "permit_name": "Lynchburg City", "version_nmbr": 0, "permit_type_code": "NPD", "effective_date": 1764547200000, "expiration_date": 1922227200000, "permit_status_code": "EFF", "facility_type_indicator": "POTW", "major_minor_status_flag": "M", "permit_tracking": "Y", "pt_start_date": 1764547200000, "dmr_tracking": "Y", "dmr_nr_start_date": 1764547200000, "permit_design_flow": 22, "permit_avg_flow": null, "perm_feature_nmbr": "070", "perm_feature_text": "", "pf_lat": 37.389, "pf_lon": -79.154306, "pf_character": "CSO", "perm_feature_type_code": "EXO", "pf_state_waterbody_name": "Trib to Fishing Creek", "pf_state_auto_name": "", "pf_reach_id": "", "in_icis": "YES", "echo_dfr_link": "https://echo.epa.gov/detailed-facility-report?fid=110039930849", "name": "LYNCHBURG REGIONAL WASTEWATER TREATMENT PLANT", "feature_kind": "CSO outfall"}}, {"type": "Feature", "id": 5971, "geometry": {"type": "Point", "coordinates": [-79.131193802876, 37.4071941022786]}, "properties": {"OBJECTID": 5971, "npdes_pfid": "VA0024970100", "npdes_id": "VA0024970", "permitting_state": "VA", "agency_type_code": "ST6", "facility_uin": "110039930849", "facility_name": "LYNCHBURG REGIONAL WASTEWATER TREATMENT PLANT", "location_address": "2301 CONCORD TPKE", "supplemental_address_text": "", "facility_city": "LYNCHBURG", "county_code": "", "state_code": "VA", "epa_region_code": "03", "facility_type_code": "CTG", "facility_lat": 37.396376, "facility_lon": -79.113872, "permit_name": "Lynchburg City", "version_nmbr": 0, "permit_type_code": "NPD", "effective_date": 1764547200000, "expiration_date": 1922227200000, "permit_status_code": "EFF", "facility_type_indicator": "POTW", "major_minor_status_flag": "M", "permit_tracking": "Y", "pt_start_date": 1764547200000, "dmr_tracking": "Y", "dmr_nr_start_date": 1764547200000, "permit_design_flow": 22, "permit_avg_flow": null, "perm_feature_nmbr": "100", "perm_feature_text": "", "pf_lat": 37.407194, "pf_lon": -79.131194, "pf_character": "CSO", "perm_feature_type_code": "EXO", "pf_state_waterbody_name": "James River", "pf_state_auto_name": "", "pf_reach_id": "", "in_icis": "YES", "echo_dfr_link": "https://echo.epa.gov/detailed-facility-report?fid=110039930849", "name": "LYNCHBURG REGIONAL WASTEWATER TREATMENT PLANT", "feature_kind": "CSO outfall"}}, {"type": "Feature", "id": 5972, "geometry": {"type": "Point", "coordinates": [-79.1145004099512, 37.3976110078838]}, "properties": {"OBJECTID": 5972, "npdes_pfid": "VA0024970109", "npdes_id": "VA0024970", "permitting_state": "VA", "agency_type_code": "ST6", "facility_uin": "110039930849", "facility_name": "LYNCHBURG REGIONAL WASTEWATER TREATMENT PLANT", "location_address": "2301 CONCORD TPKE", "supplemental_address_text": "", "facility_city": "LYNCHBURG", "county_code": "", "state_code": "VA", "epa_region_code": "03", "facility_type_code": "CTG", "facility_lat": 37.396376, "facility_lon": -79.113872, "permit_name": "Lynchburg City", "version_nmbr": 0, "permit_type_code": "NPD", "effective_date": 1764547200000, "expiration_date": 1922227200000, "permit_status_code": "EFF", "facility_type_indicator": "POTW", "major_minor_status_flag": "M", "permit_tracking": "Y", "pt_start_date": 1764547200000, "dmr_tracking": "Y", "dmr_nr_start_date": 1764547200000, "permit_design_flow": 22, "permit_avg_flow": null, "perm_feature_nmbr": "109", "perm_feature_text": "", "pf_lat": 37.397611, "pf_lon": -79.1145, "pf_character": "CSO", "perm_feature_type_code": "EXO", "pf_state_waterbody_name": "James River", "pf_state_auto_name": "", "pf_reach_id": "", "in_icis": "YES", "echo_dfr_link": "https://echo.epa.gov/detailed-facility-report?fid=110039930849", "name": "LYNCHBURG REGIONAL WASTEWATER TREATMENT PLANT", "feature_kind": "CSO outfall"}}, {"type": "Feature", "id": 5973, "geometry": {"type": "Point", "coordinates": [-79.1584998925674, 37.4086940035892]}, "properties": {"OBJECTID": 5973, "npdes_pfid": "VA0024970116", "npdes_id": "VA0024970", "permitting_state": "VA", "agency_type_code": "ST6", "facility_uin": "110039930849", "facility_name": "LYNCHBURG REGIONAL WASTEWATER TREATMENT PLANT", "location_address": "2301 CONCORD TPKE", "supplemental_address_text": "", "facility_city": "LYNCHBURG", "county_code": "", "state_code": "VA", "epa_region_code": "03", "facility_type_code": "CTG", "facility_lat": 37.396376, "facility_lon": -79.113872, "permit_name": "Lynchburg City", "version_nmbr": 0, "permit_type_code": "NPD", "effective_date": 1764547200000, "expiration_date": 1922227200000, "permit_status_code": "EFF", "facility_type_indicator": "POTW", "major_minor_status_flag": "M", "permit_tracking": "Y", "pt_start_date": 1764547200000, "dmr_tracking": "Y", "dmr_nr_start_date": 1764547200000, "permit_design_flow": 22, "permit_avg_flow": null, "perm_feature_nmbr": "116", "perm_feature_text": "", "pf_lat": 37.408694, "pf_lon": -79.1585, "pf_character": "CSO", "perm_feature_type_code": "EXO", "pf_state_waterbody_name": "Meeting House Branch", "pf_state_auto_name": "", "pf_reach_id": "", "in_icis": "YES", "echo_dfr_link": "https://echo.epa.gov/detailed-facility-report?fid=110039930849", "name": "LYNCHBURG REGIONAL WASTEWATER TREATMENT PLANT", "feature_kind": "CSO outfall"}}, {"type": "Feature", "id": 5974, "geometry": {"type": "Point", "coordinates": [-79.1456108648708, 37.4276941966386]}, "properties": {"OBJECTID": 5974, "npdes_pfid": "VA0024970124", "npdes_id": "VA0024970", "permitting_state": "VA", "agency_type_code": "ST6", "facility_uin": "110039930849", "facility_name": "LYNCHBURG REGIONAL WASTEWATER TREATMENT PLANT", "location_address": "2301 CONCORD TPKE", "supplemental_address_text": "", "facility_city": "LYNCHBURG", "county_code": "", "state_code": "VA", "epa_region_code": "03", "facility_type_code": "CTG", "facility_lat": 37.396376, "facility_lon": -79.113872, "permit_name": "Lynchburg City", "version_nmbr": 0, "permit_type_code": "NPD", "effective_date": 1764547200000, "expiration_date": 1922227200000, "permit_status_code": "EFF", "facility_type_indicator": "POTW", "major_minor_status_flag": "M", "permit_tracking": "Y", "pt_start_date": 1764547200000, "dmr_tracking": "Y", "dmr_nr_start_date": 1764547200000, "permit_design_flow": 22, "permit_avg_flow": null, "perm_feature_nmbr": "124", "perm_feature_text": "", "pf_lat": 37.427694, "pf_lon": -79.145611, "pf_character": "CSO", "perm_feature_type_code": "EXO", "pf_state_waterbody_name": "James River", "pf_state_auto_name": "", "pf_reach_id": "", "in_icis": "YES", "echo_dfr_link": "https://echo.epa.gov/detailed-facility-report?fid=110039930849", "name": "LYNCHBURG REGIONAL WASTEWATER TREATMENT PLANT", "feature_kind": "CSO outfall"}}, {"type": "Feature", "id": 5975, "geometry": {"type": "Point", "coordinates": [-79.1236937685689, 37.3988891576474]}, "properties": {"OBJECTID": 5975, "npdes_pfid": "VA0024970133", "npdes_id": "VA0024970", "permitting_state": "VA", "agency_type_code": "ST6", "facility_uin": "110039930849", "facility_name": "LYNCHBURG REGIONAL WASTEWATER TREATMENT PLANT", "location_address": "2301 CONCORD TPKE", "supplemental_address_text": "", "facility_city": "LYNCHBURG", "county_code": "", "state_code": "VA", "epa_region_code": "03", "facility_type_code": "CTG", "facility_lat": 37.396376, "facility_lon": -79.113872, "permit_name": "Lynchburg City", "version_nmbr": 0, "permit_type_code": "NPD", "effective_date": 1764547200000, "expiration_date": 1922227200000, "permit_status_code": "EFF", "facility_type_indicator": "POTW", "major_minor_status_flag": "M", "permit_tracking": "Y", "pt_start_date": 1764547200000, "dmr_tracking": "Y", "dmr_nr_start_date": 1764547200000, "permit_design_flow": 22, "permit_avg_flow": null, "perm_feature_nmbr": "133", "perm_feature_text": "", "pf_lat": 37.398889, "pf_lon": -79.123694, "pf_character": "CSO", "perm_feature_type_code": "EXO", "pf_state_waterbody_name": "Fishing Creek", "pf_state_auto_name": "", "pf_reach_id": "", "in_icis": "YES", "echo_dfr_link": "https://echo.epa.gov/detailed-facility-report?fid=110039930849", "name": "LYNCHBURG REGIONAL WASTEWATER TREATMENT PLANT", "feature_kind": "CSO outfall"}}, {"type": "Feature", "id": 5976, "geometry": {"type": "Point", "coordinates": [-77.0389716920821, 38.8099171918141]}, "properties": {"OBJECTID": 5976, "npdes_pfid": "VA0025160019", "npdes_id": "VA0025160", "permitting_state": "VA", "agency_type_code": "ST6", "facility_uin": "110020668981", "facility_name": "ALEXANDRIA RENEW ENTERPRISES WRRF", "location_address": "1500 EISENHOWER AVE", "supplemental_address_text": "", "facility_city": "ALEXANDRIA", "county_code": "", "state_code": "VA", "epa_region_code": "03", "facility_type_code": "CTG", "facility_lat": 38.7967, "facility_lon": -77.0461, "permit_name": "Alexandria Sanitation Authority", "version_nmbr": 0, "permit_type_code": "NPD", "effective_date": 1625097600000, "expiration_date": 1782777600000, "permit_status_code": "ADC", "facility_type_indicator": "POTW", "major_minor_status_flag": "M", "permit_tracking": "Y", "pt_start_date": 1625097600000, "dmr_tracking": "Y", "dmr_nr_start_date": 1625097600000, "permit_design_flow": 54, "permit_avg_flow": null, "perm_feature_nmbr": "019", "perm_feature_text": "", "pf_lat": 38.809917, "pf_lon": -77.038972, "pf_character": "CSO", "perm_feature_type_code": "EXO", "pf_state_waterbody_name": "Potomac River (Oronoco Bay)", "pf_state_auto_name": "Potomac River", "pf_reach_id": "2070010000046", "in_icis": "YES", "echo_dfr_link": "https://echo.epa.gov/detailed-facility-report?fid=110020668981", "name": "ALEXANDRIA RENEW ENTERPRISES WRRF", "feature_kind": "CSO outfall"}}, {"type": "Feature", "id": 5977, "geometry": {"type": "Point", "coordinates": [-77.0462219947403, 38.7922219522646]}, "properties": {"OBJECTID": 5977, "npdes_pfid": "VA0025160020", "npdes_id": "VA0025160", "permitting_state": "VA", "agency_type_code": "ST6", "facility_uin": "110020668981", "facility_name": "ALEXANDRIA RENEW ENTERPRISES WRRF", "location_address": "1500 EISENHOWER AVE", "supplemental_address_text": "", "facility_city": "ALEXANDRIA", "county_code": "", "state_code": "VA", "epa_region_code": "03", "facility_type_code": "CTG", "facility_lat": 38.7967, "facility_lon": -77.0461, "permit_name": "Alexandria Sanitation Authority", "version_nmbr": 0, "permit_type_code": "NPD", "effective_date": 1625097600000, "expiration_date": 1782777600000, "permit_status_code": "ADC", "facility_type_indicator": "POTW", "major_minor_status_flag": "M", "permit_tracking": "Y", "pt_start_date": 1625097600000, "dmr_tracking": "Y", "dmr_nr_start_date": 1625097600000, "permit_design_flow": 54, "permit_avg_flow": null, "perm_feature_nmbr": "020", "perm_feature_text": "", "pf_lat": 38.792222, "pf_lon": -77.046222, "pf_character": "CSO", "perm_feature_type_code": "EXO", "pf_state_waterbody_name": "Hunting Creek", "pf_state_auto_name": "Cameron Run", "pf_reach_id": "2070010000106", "in_icis": "YES", "echo_dfr_link": "https://echo.epa.gov/detailed-facility-report?fid=110020668981", "name": "ALEXANDRIA RENEW ENTERPRISES WRRF", "feature_kind": "CSO outfall"}}, {"type": "Feature", "id": 5978, "geometry": {"type": "Point", "coordinates": [-77.0578893136504, 38.8040832049007]}, "properties": {"OBJECTID": 5978, "npdes_pfid": "VA0025160021", "npdes_id": "VA0025160", "permitting_state": "VA", "agency_type_code": "ST6", "facility_uin": "110020668981", "facility_name": "ALEXANDRIA RENEW ENTERPRISES WRRF", "location_address": "1500 EISENHOWER AVE", "supplemental_address_text": "", "facility_city": "ALEXANDRIA", "county_code": "", "state_code": "VA", "epa_region_code": "03", "facility_type_code": "CTG", "facility_lat": 38.7967, "facility_lon": -77.0461, "permit_name": "Alexandria Sanitation Authority", "version_nmbr": 0, "permit_type_code": "NPD", "effective_date": 1625097600000, "expiration_date": 1782777600000, "permit_status_code": "ADC", "facility_type_indicator": "POTW", "major_minor_status_flag": "M", "permit_tracking": "Y", "pt_start_date": 1625097600000, "dmr_tracking": "Y", "dmr_nr_start_date": 1625097600000, "permit_design_flow": 54, "permit_avg_flow": null, "perm_feature_nmbr": "021", "perm_feature_text": "", "pf_lat": 38.804083, "pf_lon": -77.057889, "pf_character": "CSO", "perm_feature_type_code": "EXO", "pf_state_waterbody_name": "Hooff Run", "pf_state_auto_name": "Cameron Run", "pf_reach_id": "2070010000106", "in_icis": "YES", "echo_dfr_link": "https://echo.epa.gov/detailed-facility-report?fid=110020668981", "name": "ALEXANDRIA RENEW ENTERPRISES WRRF", "feature_kind": "CSO outfall"}}, {"type": "Feature", "id": 5979, "geometry": {"type": "Point", "coordinates": [-77.0582216903055, 38.8032501392346]}, "properties": {"OBJECTID": 5979, "npdes_pfid": "VA0025160022", "npdes_id": "VA0025160", "permitting_state": "VA", "agency_type_code": "ST6", "facility_uin": "110020668981", "facility_name": "ALEXANDRIA RENEW ENTERPRISES WRRF", "location_address": "1500 EISENHOWER AVE", "supplemental_address_text": "", "facility_city": "ALEXANDRIA", "county_code": "", "state_code": "VA", "epa_region_code": "03", "facility_type_code": "CTG", "facility_lat": 38.7967, "facility_lon": -77.0461, "permit_name": "Alexandria Sanitation Authority", "version_nmbr": 0, "permit_type_code": "NPD", "effective_date": 1625097600000, "expiration_date": 1782777600000, "permit_status_code": "ADC", "facility_type_indicator": "POTW", "major_minor_status_flag": "M", "permit_tracking": "Y", "pt_start_date": 1625097600000, "dmr_tracking": "Y", "dmr_nr_start_date": 1625097600000, "permit_design_flow": 54, "permit_avg_flow": null, "perm_feature_nmbr": "022", "perm_feature_text": "", "pf_lat": 38.80325, "pf_lon": -77.058222, "pf_character": "CSO", "perm_feature_type_code": "EXO", "pf_state_waterbody_name": "Hooff Run", "pf_state_auto_name": "Cameron Run", "pf_reach_id": "2070010000106", "in_icis": "YES", "echo_dfr_link": "https://echo.epa.gov/detailed-facility-report?fid=110020668981", "name": "ALEXANDRIA RENEW ENTERPRISES WRRF", "feature_kind": "CSO outfall"}}, {"type": "Feature", "id": 5980, "geometry": {"type": "Point", "coordinates": [-77.4166665566596, 37.5230560088186]}, "properties": {"OBJECTID": 5980, "npdes_pfid": "VA0063177004", "npdes_id": "VA0063177", "permitting_state": "VA", "agency_type_code": "ST6", "facility_uin": "110000540424", "facility_name": "RICHMOND WWTP", "location_address": "1400 BRANDER ST", "supplemental_address_text": "", "facility_city": "RICHMOND", "county_code": "VA159", "state_code": "VA", "epa_region_code": "03", "facility_type_code": "CTG", "facility_lat": 37.516944, "facility_lon": -77.418333, "permit_name": "Richmond City", "version_nmbr": 0, "permit_type_code": "NPD", "effective_date": 1756684800000, "expiration_date": 1914364800000, "permit_status_code": "EFF", "facility_type_indicator": "POTW", "major_minor_status_flag": "M", "permit_tracking": "Y", "pt_start_date": 1756684800000, "dmr_tracking": "Y", "dmr_nr_start_date": 1756684800000, "permit_design_flow": 75, "permit_avg_flow": null, "perm_feature_nmbr": "004", "perm_feature_text": "", "pf_lat": 37.523056, "pf_lon": -77.416667, "pf_character": "CSO", "perm_feature_type_code": "EXO", "pf_state_waterbody_name": "Gillies Creek", "pf_state_auto_name": "", "pf_reach_id": "", "in_icis": "YES", "echo_dfr_link": "https://echo.epa.gov/detailed-facility-report?fid=110000540424", "name": "RICHMOND WWTP", "feature_kind": "CSO outfall"}}, {"type": "Feature", "id": 5981, "geometry": {"type": "Point", "coordinates": [-77.4202777841018, 37.5255559936873]}, "properties": {"OBJECTID": 5981, "npdes_pfid": "VA0063177005", "npdes_id": "VA0063177", "permitting_state": "VA", "agency_type_code": "ST6", "facility_uin": "110000540424", "facility_name": "RICHMOND WWTP", "location_address": "1400 BRANDER ST", "supplemental_address_text": "", "facility_city": "RICHMOND", "county_code": "VA159", "state_code": "VA", "epa_region_code": "03", "facility_type_code": "CTG", "facility_lat": 37.516944, "facility_lon": -77.418333, "permit_name": "Richmond City", "version_nmbr": 0, "permit_type_code": "NPD", "effective_date": 1756684800000, "expiration_date": 1914364800000, "permit_status_code": "EFF", "facility_type_indicator": "POTW", "major_minor_status_flag": "M", "permit_tracking": "Y", "pt_start_date": 1756684800000, "dmr_tracking": "Y", "dmr_nr_start_date": 1756684800000, "permit_design_flow": 75, "permit_avg_flow": null, "perm_feature_nmbr": "005", "perm_feature_text": "", "pf_lat": 37.525556, "pf_lon": -77.420278, "pf_character": "CSO", "perm_feature_type_code": "EXO", "pf_state_waterbody_name": "James River", "pf_state_auto_name": "", "pf_reach_id": "", "in_icis": "YES", "echo_dfr_link": "https://echo.epa.gov/detailed-facility-report?fid=110000540424", "name": "RICHMOND WWTP", "feature_kind": "CSO outfall"}}, {"type": "Feature", "id": 5982, "geometry": {"type": "Point", "coordinates": [-77.4317501685953, 37.5310002419375]}, "properties": {"OBJECTID": 5982, "npdes_pfid": "VA0063177006", "npdes_id": "VA0063177", "permitting_state": "VA", "agency_type_code": "ST6", "facility_uin": "110000540424", "facility_name": "RICHMOND WWTP", "location_address": "1400 BRANDER ST", "supplemental_address_text": "", "facility_city": "RICHMOND", "county_code": "VA159", "state_code": "VA", "epa_region_code": "03", "facility_type_code": "CTG", "facility_lat": 37.516944, "facility_lon": -77.418333, "permit_name": "Richmond City", "version_nmbr": 0, "permit_type_code": "NPD", "effective_date": 1756684800000, "expiration_date": 1914364800000, "permit_status_code": "EFF", "facility_type_indicator": "POTW", "major_minor_status_flag": "M", "permit_tracking": "Y", "pt_start_date": 1756684800000, "dmr_tracking": "Y", "dmr_nr_start_date": 1756684800000, "permit_design_flow": 75, "permit_avg_flow": null, "perm_feature_nmbr": "006", "perm_feature_text": "", "pf_lat": 37.531, "pf_lon": -77.43175, "pf_character": "CSO", "perm_feature_type_code": "EXO", "pf_state_waterbody_name": "James River", "pf_state_auto_name": "", "pf_reach_id": "", "in_icis": "YES", "echo_dfr_link": "https://echo.epa.gov/detailed-facility-report?fid=110000540424", "name": "RICHMOND WWTP", "feature_kind": "CSO outfall"}}, {"type": "Feature", "id": 5983, "geometry": {"type": "Point", "coordinates": [-77.435916554883, 37.5335277426699]}, "properties": {"OBJECTID": 5983, "npdes_pfid": "VA0063177007", "npdes_id": "VA0063177", "permitting_state": "VA", "agency_type_code": "ST6", "facility_uin": "110000540424", "facility_name": "RICHMOND WWTP", "location_address": "1400 BRANDER ST", "supplemental_address_text": "", "facility_city": "RICHMOND", "county_code": "VA159", "state_code": "VA", "epa_region_code": "03", "facility_type_code": "CTG", "facility_lat": 37.516944, "facility_lon": -77.418333, "permit_name": "Richmond City", "version_nmbr": 0, "permit_type_code": "NPD", "effective_date": 1756684800000, "expiration_date": 1914364800000, "permit_status_code": "EFF", "facility_type_indicator": "POTW", "major_minor_status_flag": "M", "permit_tracking": "Y", "pt_start_date": 1756684800000, "dmr_tracking": "Y", "dmr_nr_start_date": 1756684800000, "permit_design_flow": 75, "permit_avg_flow": null, "perm_feature_nmbr": "007", "perm_feature_text": "", "pf_lat": 37.533528, "pf_lon": -77.435917, "pf_character": "CSO", "perm_feature_type_code": "EXO", "pf_state_waterbody_name": "James River", "pf_state_auto_name": "", "pf_reach_id": "", "in_icis": "YES", "echo_dfr_link": "https://echo.epa.gov/detailed-facility-report?fid=110000540424", "name": "RICHMOND WWTP", "feature_kind": "CSO outfall"}}, {"type": "Feature", "id": 5984, "geometry": {"type": "Point", "coordinates": [-77.4425281553741, 37.5351668680165]}, "properties": {"OBJECTID": 5984, "npdes_pfid": "VA0063177009", "npdes_id": "VA0063177", "permitting_state": "VA", "agency_type_code": "ST6", "facility_uin": "110000540424", "facility_name": "RICHMOND WWTP", "location_address": "1400 BRANDER ST", "supplemental_address_text": "", "facility_city": "RICHMOND", "county_code": "VA159", "state_code": "VA", "epa_region_code": "03", "facility_type_code": "CTG", "facility_lat": 37.516944, "facility_lon": -77.418333, "permit_name": "Richmond City", "version_nmbr": 0, "permit_type_code": "NPD", "effective_date": 1756684800000, "expiration_date": 1914364800000, "permit_status_code": "EFF", "facility_type_indicator": "POTW", "major_minor_status_flag": "M", "permit_tracking": "Y", "pt_start_date": 1756684800000, "dmr_tracking": "Y", "dmr_nr_start_date": 1756684800000, "permit_design_flow": 75, "permit_avg_flow": null, "perm_feature_nmbr": "009", "perm_feature_text": "", "pf_lat": 37.535167, "pf_lon": -77.442528, "pf_character": "CSO", "perm_feature_type_code": "EXO", "pf_state_waterbody_name": "Haxall Canal", "pf_state_auto_name": "", "pf_reach_id": "", "in_icis": "YES", "echo_dfr_link": "https://echo.epa.gov/detailed-facility-report?fid=110000540424", "name": "RICHMOND WWTP", "feature_kind": "CSO outfall"}}, {"type": "Feature", "id": 5985, "geometry": {"type": "Point", "coordinates": [-77.4447218412979, 37.5355558077255]}, "properties": {"OBJECTID": 5985, "npdes_pfid": "VA0063177010", "npdes_id": "VA0063177", "permitting_state": "VA", "agency_type_code": "ST6", "facility_uin": "110000540424", "facility_name": "RICHMOND WWTP", "location_address": "1400 BRANDER ST", "supplemental_address_text": "", "facility_city": "RICHMOND", "county_code": "VA159", "state_code": "VA", "epa_region_code": "03", "facility_type_code": "CTG", "facility_lat": 37.516944, "facility_lon": -77.418333, "permit_name": "Richmond City", "version_nmbr": 0, "permit_type_code": "NPD", "effective_date": 1756684800000, "expiration_date": 1914364800000, "permit_status_code": "EFF", "facility_type_indicator": "POTW", "major_minor_status_flag": "M", "permit_tracking": "Y", "pt_start_date": 1756684800000, "dmr_tracking": "Y", "dmr_nr_start_date": 1756684800000, "permit_design_flow": 75, "permit_avg_flow": null, "perm_feature_nmbr": "010", "perm_feature_text": "", "pf_lat": 37.535556, "pf_lon": -77.444722, "pf_character": "CSO", "perm_feature_type_code": "EXO", "pf_state_waterbody_name": "Haxall Canal", "pf_state_auto_name": "", "pf_reach_id": "", "in_icis": "YES", "echo_dfr_link": "https://echo.epa.gov/detailed-facility-report?fid=110000540424", "name": "RICHMOND WWTP", "feature_kind": "CSO outfall"}}, {"type": "Feature", "id": 5986, "geometry": {"type": "Point", "coordinates": [-77.4529719688673, 37.5338333450431]}, "properties": {"OBJECTID": 5986, "npdes_pfid": "VA0063177011", "npdes_id": "VA0063177", "permitting_state": "VA", "agency_type_code": "ST6", "facility_uin": "110000540424", "facility_name": "RICHMOND WWTP", "location_address": "1400 BRANDER ST", "supplemental_address_text": "", "facility_city": "RICHMOND", "county_code": "VA159", "state_code": "VA", "epa_region_code": "03", "facility_type_code": "CTG", "facility_lat": 37.516944, "facility_lon": -77.418333, "permit_name": "Richmond City", "version_nmbr": 0, "permit_type_code": "NPD", "effective_date": 1756684800000, "expiration_date": 1914364800000, "permit_status_code": "EFF", "facility_type_indicator": "POTW", "major_minor_status_flag": "M", "permit_tracking": "Y", "pt_start_date": 1756684800000, "dmr_tracking": "Y", "dmr_nr_start_date": 1756684800000, "permit_design_flow": 75, "permit_avg_flow": null, "perm_feature_nmbr": "011", "perm_feature_text": "", "pf_lat": 37.533833, "pf_lon": -77.452972, "pf_character": "CSO", "perm_feature_type_code": "EXO", "pf_state_waterbody_name": "James River", "pf_state_auto_name": "", "pf_reach_id": "", "in_icis": "YES", "echo_dfr_link": "https://echo.epa.gov/detailed-facility-report?fid=110000540424", "name": "RICHMOND WWTP", "feature_kind": "CSO outfall"}}, {"type": "Feature", "id": 5987, "geometry": {"type": "Point", "coordinates": [-77.3970563340073, 37.506889222891]}, "properties": {"OBJECTID": 5987, "npdes_pfid": "VA0063177012", "npdes_id": "VA0063177", "permitting_state": "VA", "agency_type_code": "ST6", "facility_uin": "110000540424", "facility_name": "RICHMOND WWTP", "location_address": "1400 BRANDER ST", "supplemental_address_text": "", "facility_city": "RICHMOND", "county_code": "VA159", "state_code": "VA", "epa_region_code": "03", "facility_type_code": "CTG", "facility_lat": 37.516944, "facility_lon": -77.418333, "permit_name": "Richmond City", "version_nmbr": 0, "permit_type_code": "NPD", "effective_date": 1756684800000, "expiration_date": 1914364800000, "permit_status_code": "EFF", "facility_type_indicator": "POTW", "major_minor_status_flag": "M", "permit_tracking": "Y", "pt_start_date": 1756684800000, "dmr_tracking": "Y", "dmr_nr_start_date": 1756684800000, "permit_design_flow": 75, "permit_avg_flow": null, "perm_feature_nmbr": "012", "perm_feature_text": "", "pf_lat": 37.506889, "pf_lon": -77.397056, "pf_character": "CSO", "perm_feature_type_code": "EXO", "pf_state_waterbody_name": "Almond Creek", "pf_state_auto_name": "", "pf_reach_id": "", "in_icis": "YES", "echo_dfr_link": "https://echo.epa.gov/detailed-facility-report?fid=110000540424", "name": "RICHMOND WWTP", "feature_kind": "CSO outfall"}}, {"type": "Feature", "id": 5988, "geometry": {"type": "Point", "coordinates": [-77.4329170801493, 37.5250558609271]}, "properties": {"OBJECTID": 5988, "npdes_pfid": "VA0063177014", "npdes_id": "VA0063177", "permitting_state": "VA", "agency_type_code": "ST6", "facility_uin": "110000540424", "facility_name": "RICHMOND WWTP", "location_address": "1400 BRANDER ST", "supplemental_address_text": "", "facility_city": "RICHMOND", "county_code": "VA159", "state_code": "VA", "epa_region_code": "03", "facility_type_code": "CTG", "facility_lat": 37.516944, "facility_lon": -77.418333, "permit_name": "Richmond City", "version_nmbr": 0, "permit_type_code": "NPD", "effective_date": 1756684800000, "expiration_date": 1914364800000, "permit_status_code": "EFF", "facility_type_indicator": "POTW", "major_minor_status_flag": "M", "permit_tracking": "Y", "pt_start_date": 1756684800000, "dmr_tracking": "Y", "dmr_nr_start_date": 1756684800000, "permit_design_flow": 75, "permit_avg_flow": null, "perm_feature_nmbr": "014", "perm_feature_text": "", "pf_lat": 37.525056, "pf_lon": -77.432917, "pf_character": "CSO", "perm_feature_type_code": "EXO", "pf_state_waterbody_name": "Manchester Canal/Cotton Mill Creek", "pf_state_auto_name": "", "pf_reach_id": "", "in_icis": "YES", "echo_dfr_link": "https://echo.epa.gov/detailed-facility-report?fid=110000540424", "name": "RICHMOND WWTP", "feature_kind": "CSO outfall"}}, {"type": "Feature", "id": 5989, "geometry": {"type": "Point", "coordinates": [-77.4573611373455, 37.5244716560214]}, "properties": {"OBJECTID": 5989, "npdes_pfid": "VA0063177015", "npdes_id": "VA0063177", "permitting_state": "VA", "agency_type_code": "ST6", "facility_uin": "110000540424", "facility_name": "RICHMOND WWTP", "location_address": "1400 BRANDER ST", "supplemental_address_text": "", "facility_city": "RICHMOND", "county_code": "VA159", "state_code": "VA", "epa_region_code": "03", "facility_type_code": "CTG", "facility_lat": 37.516944, "facility_lon": -77.418333, "permit_name": "Richmond City", "version_nmbr": 0, "permit_type_code": "NPD", "effective_date": 1756684800000, "expiration_date": 1914364800000, "permit_status_code": "EFF", "facility_type_indicator": "POTW", "major_minor_status_flag": "M", "permit_tracking": "Y", "pt_start_date": 1756684800000, "dmr_tracking": "Y", "dmr_nr_start_date": 1756684800000, "permit_design_flow": 75, "permit_avg_flow": null, "perm_feature_nmbr": "015", "perm_feature_text": "", "pf_lat": 37.524472, "pf_lon": -77.457361, "pf_character": "CSO", "perm_feature_type_code": "EXO", "pf_state_waterbody_name": "James River", "pf_state_auto_name": "", "pf_reach_id": "", "in_icis": "YES", "echo_dfr_link": "https://echo.epa.gov/detailed-facility-report?fid=110000540424", "name": "RICHMOND WWTP", "feature_kind": "CSO outfall"}}, {"type": "Feature", "id": 5990, "geometry": {"type": "Point", "coordinates": [-77.4616667625023, 37.5244438705522]}, "properties": {"OBJECTID": 5990, "npdes_pfid": "VA0063177016", "npdes_id": "VA0063177", "permitting_state": "VA", "agency_type_code": "ST6", "facility_uin": "110000540424", "facility_name": "RICHMOND WWTP", "location_address": "1400 BRANDER ST", "supplemental_address_text": "", "facility_city": "RICHMOND", "county_code": "VA159", "state_code": "VA", "epa_region_code": "03", "facility_type_code": "CTG", "facility_lat": 37.516944, "facility_lon": -77.418333, "permit_name": "Richmond City", "version_nmbr": 0, "permit_type_code": "NPD", "effective_date": 1756684800000, "expiration_date": 1914364800000, "permit_status_code": "EFF", "facility_type_indicator": "POTW", "major_minor_status_flag": "M", "permit_tracking": "Y", "pt_start_date": 1756684800000, "dmr_tracking": "Y", "dmr_nr_start_date": 1756684800000, "permit_design_flow": 75, "permit_avg_flow": null, "perm_feature_nmbr": "016", "perm_feature_text": "", "pf_lat": 37.524444, "pf_lon": -77.461667, "pf_character": "CSO", "perm_feature_type_code": "EXO", "pf_state_waterbody_name": "James River", "pf_state_auto_name": "", "pf_reach_id": "", "in_icis": "YES", "echo_dfr_link": "https://echo.epa.gov/detailed-facility-report?fid=110000540424", "name": "RICHMOND WWTP", "feature_kind": "CSO outfall"}}, {"type": "Feature", "id": 5991, "geometry": {"type": "Point", "coordinates": [-77.4691667968094, 37.5241111565654]}, "properties": {"OBJECTID": 5991, "npdes_pfid": "VA0063177017", "npdes_id": "VA0063177", "permitting_state": "VA", "agency_type_code": "ST6", "facility_uin": "110000540424", "facility_name": "RICHMOND WWTP", "location_address": "1400 BRANDER ST", "supplemental_address_text": "", "facility_city": "RICHMOND", "county_code": "VA159", "state_code": "VA", "epa_region_code": "03", "facility_type_code": "CTG", "facility_lat": 37.516944, "facility_lon": -77.418333, "permit_name": "Richmond City", "version_nmbr": 0, "permit_type_code": "NPD", "effective_date": 1756684800000, "expiration_date": 1914364800000, "permit_status_code": "EFF", "facility_type_indicator": "POTW", "major_minor_status_flag": "M", "permit_tracking": "Y", "pt_start_date": 1756684800000, "dmr_tracking": "Y", "dmr_nr_start_date": 1756684800000, "permit_design_flow": 75, "permit_avg_flow": null, "perm_feature_nmbr": "017", "perm_feature_text": "", "pf_lat": 37.524111, "pf_lon": -77.469167, "pf_character": "CSO", "perm_feature_type_code": "EXO", "pf_state_waterbody_name": "James River", "pf_state_auto_name": "", "pf_reach_id": "", "in_icis": "YES", "echo_dfr_link": "https://echo.epa.gov/detailed-facility-report?fid=110000540424", "name": "RICHMOND WWTP", "feature_kind": "CSO outfall"}}, {"type": "Feature", "id": 5992, "geometry": {"type": "Point", "coordinates": [-77.4744443991036, 37.5258331313371]}, "properties": {"OBJECTID": 5992, "npdes_pfid": "VA0063177018", "npdes_id": "VA0063177", "permitting_state": "VA", "agency_type_code": "ST6", "facility_uin": "110000540424", "facility_name": "RICHMOND WWTP", "location_address": "1400 BRANDER ST", "supplemental_address_text": "", "facility_city": "RICHMOND", "county_code": "VA159", "state_code": "VA", "epa_region_code": "03", "facility_type_code": "CTG", "facility_lat": 37.516944, "facility_lon": -77.418333, "permit_name": "Richmond City", "version_nmbr": 0, "permit_type_code": "NPD", "effective_date": 1756684800000, "expiration_date": 1914364800000, "permit_status_code": "EFF", "facility_type_indicator": "POTW", "major_minor_status_flag": "M", "permit_tracking": "Y", "pt_start_date": 1756684800000, "dmr_tracking": "Y", "dmr_nr_start_date": 1756684800000, "permit_design_flow": 75, "permit_avg_flow": null, "perm_feature_nmbr": "018", "perm_feature_text": "", "pf_lat": 37.525833, "pf_lon": -77.474444, "pf_character": "CSO", "perm_feature_type_code": "EXO", "pf_state_waterbody_name": "James River", "pf_state_auto_name": "", "pf_reach_id": "", "in_icis": "YES", "echo_dfr_link": "https://echo.epa.gov/detailed-facility-report?fid=110000540424", "name": "RICHMOND WWTP", "feature_kind": "CSO outfall"}}, {"type": "Feature", "id": 5993, "geometry": {"type": "Point", "coordinates": [-77.4750561518121, 37.5313058546673]}, "properties": {"OBJECTID": 5993, "npdes_pfid": "VA0063177019", "npdes_id": "VA0063177", "permitting_state": "VA", "agency_type_code": "ST6", "facility_uin": "110000540424", "facility_name": "RICHMOND WWTP", "location_address": "1400 BRANDER ST", "supplemental_address_text": "", "facility_city": "RICHMOND", "county_code": "VA159", "state_code": "VA", "epa_region_code": "03", "facility_type_code": "CTG", "facility_lat": 37.516944, "facility_lon": -77.418333, "permit_name": "Richmond City", "version_nmbr": 0, "permit_type_code": "NPD", "effective_date": 1756684800000, "expiration_date": 1914364800000, "permit_status_code": "EFF", "facility_type_indicator": "POTW", "major_minor_status_flag": "M", "permit_tracking": "Y", "pt_start_date": 1756684800000, "dmr_tracking": "Y", "dmr_nr_start_date": 1756684800000, "permit_design_flow": 75, "permit_avg_flow": null, "perm_feature_nmbr": "019", "perm_feature_text": "", "pf_lat": 37.531306, "pf_lon": -77.475056, "pf_character": "CSO", "perm_feature_type_code": "EXO", "pf_state_waterbody_name": "James River and Kanawha Canal", "pf_state_auto_name": "", "pf_reach_id": "", "in_icis": "YES", "echo_dfr_link": "https://echo.epa.gov/detailed-facility-report?fid=110000540424", "name": "RICHMOND WWTP", "feature_kind": "CSO outfall"}}, {"type": "Feature", "id": 5994, "geometry": {"type": "Point", "coordinates": [-77.4949996494348, 37.5408326500429]}, "properties": {"OBJECTID": 5994, "npdes_pfid": "VA0063177020", "npdes_id": "VA0063177", "permitting_state": "VA", "agency_type_code": "ST6", "facility_uin": "110000540424", "facility_name": "RICHMOND WWTP", "location_address": "1400 BRANDER ST", "supplemental_address_text": "", "facility_city": "RICHMOND", "county_code": "VA159", "state_code": "VA", "epa_region_code": "03", "facility_type_code": "CTG", "facility_lat": 37.516944, "facility_lon": -77.418333, "permit_name": "Richmond City", "version_nmbr": 0, "permit_type_code": "NPD", "effective_date": 1756684800000, "expiration_date": 1914364800000, "permit_status_code": "EFF", "facility_type_indicator": "POTW", "major_minor_status_flag": "M", "permit_tracking": "Y", "pt_start_date": 1756684800000, "dmr_tracking": "Y", "dmr_nr_start_date": 1756684800000, "permit_design_flow": 75, "permit_avg_flow": null, "perm_feature_nmbr": "020", "perm_feature_text": "", "pf_lat": 37.540833, "pf_lon": -77.495, "pf_character": "CSO", "perm_feature_type_code": "EXO", "pf_state_waterbody_name": "James River and Kanawha Canal", "pf_state_auto_name": "", "pf_reach_id": "", "in_icis": "YES", "echo_dfr_link": "https://echo.epa.gov/detailed-facility-report?fid=110000540424", "name": "RICHMOND WWTP", "feature_kind": "CSO outfall"}}, {"type": "Feature", "id": 5995, "geometry": {"type": "Point", "coordinates": [-77.423193715514, 37.5223057832815]}, "properties": {"OBJECTID": 5995, "npdes_pfid": "VA0063177021", "npdes_id": "VA0063177", "permitting_state": "VA", "agency_type_code": "ST6", "facility_uin": "110000540424", "facility_name": "RICHMOND WWTP", "location_address": "1400 BRANDER ST", "supplemental_address_text": "", "facility_city": "RICHMOND", "county_code": "VA159", "state_code": "VA", "epa_region_code": "03", "facility_type_code": "CTG", "facility_lat": 37.516944, "facility_lon": -77.418333, "permit_name": "Richmond City", "version_nmbr": 0, "permit_type_code": "NPD", "effective_date": 1756684800000, "expiration_date": 1914364800000, "permit_status_code": "EFF", "facility_type_indicator": "POTW", "major_minor_status_flag": "M", "permit_tracking": "Y", "pt_start_date": 1756684800000, "dmr_tracking": "Y", "dmr_nr_start_date": 1756684800000, "permit_design_flow": 75, "permit_avg_flow": null, "perm_feature_nmbr": "021", "perm_feature_text": "", "pf_lat": 37.522306, "pf_lon": -77.423194, "pf_character": "CSO", "perm_feature_type_code": "EXO", "pf_state_waterbody_name": "James River", "pf_state_auto_name": "", "pf_reach_id": "", "in_icis": "YES", "echo_dfr_link": "https://echo.epa.gov/detailed-facility-report?fid=110000540424", "name": "RICHMOND WWTP", "feature_kind": "CSO outfall"}}, {"type": "Feature", "id": 5996, "geometry": {"type": "Point", "coordinates": [-77.4029169429209, 37.5227218637134]}, "properties": {"OBJECTID": 5996, "npdes_pfid": "VA0063177024", "npdes_id": "VA0063177", "permitting_state": "VA", "agency_type_code": "ST6", "facility_uin": "110000540424", "facility_name": "RICHMOND WWTP", "location_address": "1400 BRANDER ST", "supplemental_address_text": "", "facility_city": "RICHMOND", "county_code": "VA159", "state_code": "VA", "epa_region_code": "03", "facility_type_code": "CTG", "facility_lat": 37.516944, "facility_lon": -77.418333, "permit_name": "Richmond City", "version_nmbr": 0, "permit_type_code": "NPD", "effective_date": 1756684800000, "expiration_date": 1914364800000, "permit_status_code": "EFF", "facility_type_indicator": "POTW", "major_minor_status_flag": "M", "permit_tracking": "Y", "pt_start_date": 1756684800000, "dmr_tracking": "Y", "dmr_nr_start_date": 1756684800000, "permit_design_flow": 75, "permit_avg_flow": null, "perm_feature_nmbr": "024", "perm_feature_text": "", "pf_lat": 37.522722, "pf_lon": -77.402917, "pf_character": "CSO", "perm_feature_type_code": "EXO", "pf_state_waterbody_name": "Gillies Creek", "pf_state_auto_name": "", "pf_reach_id": "", "in_icis": "YES", "echo_dfr_link": "https://echo.epa.gov/detailed-facility-report?fid=110000540424", "name": "RICHMOND WWTP", "feature_kind": "CSO outfall"}}, {"type": "Feature", "id": 5997, "geometry": {"type": "Point", "coordinates": [-77.3941673520536, 37.5283330231426]}, "properties": {"OBJECTID": 5997, "npdes_pfid": "VA0063177025", "npdes_id": "VA0063177", "permitting_state": "VA", "agency_type_code": "ST6", "facility_uin": "110000540424", "facility_name": "RICHMOND WWTP", "location_address": "1400 BRANDER ST", "supplemental_address_text": "", "facility_city": "RICHMOND", "county_code": "VA159", "state_code": "VA", "epa_region_code": "03", "facility_type_code": "CTG", "facility_lat": 37.516944, "facility_lon": -77.418333, "permit_name": "Richmond City", "version_nmbr": 0, "permit_type_code": "NPD", "effective_date": 1756684800000, "expiration_date": 1914364800000, "permit_status_code": "EFF", "facility_type_indicator": "POTW", "major_minor_status_flag": "M", "permit_tracking": "Y", "pt_start_date": 1756684800000, "dmr_tracking": "Y", "dmr_nr_start_date": 1756684800000, "permit_design_flow": 75, "permit_avg_flow": null, "perm_feature_nmbr": "025", "perm_feature_text": "", "pf_lat": 37.528333, "pf_lon": -77.394167, "pf_character": "CSO", "perm_feature_type_code": "EXO", "pf_state_waterbody_name": "Gillies Creek", "pf_state_auto_name": "", "pf_reach_id": "", "in_icis": "YES", "echo_dfr_link": "https://echo.epa.gov/detailed-facility-report?fid=110000540424", "name": "RICHMOND WWTP", "feature_kind": "CSO outfall"}}, {"type": "Feature", "id": 5998, "geometry": {"type": "Point", "coordinates": [-77.3994440560325, 37.5241667277413]}, "properties": {"OBJECTID": 5998, "npdes_pfid": "VA0063177026", "npdes_id": "VA0063177", "permitting_state": "VA", "agency_type_code": "ST6", "facility_uin": "110000540424", "facility_name": "RICHMOND WWTP", "location_address": "1400 BRANDER ST", "supplemental_address_text": "", "facility_city": "RICHMOND", "county_code": "VA159", "state_code": "VA", "epa_region_code": "03", "facility_type_code": "CTG", "facility_lat": 37.516944, "facility_lon": -77.418333, "permit_name": "Richmond City", "version_nmbr": 0, "permit_type_code": "NPD", "effective_date": 1756684800000, "expiration_date": 1914364800000, "permit_status_code": "EFF", "facility_type_indicator": "POTW", "major_minor_status_flag": "M", "permit_tracking": "Y", "pt_start_date": 1756684800000, "dmr_tracking": "Y", "dmr_nr_start_date": 1756684800000, "permit_design_flow": 75, "permit_avg_flow": null, "perm_feature_nmbr": "026", "perm_feature_text": "", "pf_lat": 37.524167, "pf_lon": -77.399444, "pf_character": "CSO", "perm_feature_type_code": "EXO", "pf_state_waterbody_name": "Gillies Creek", "pf_state_auto_name": "", "pf_reach_id": "", "in_icis": "YES", "echo_dfr_link": "https://echo.epa.gov/detailed-facility-report?fid=110000540424", "name": "RICHMOND WWTP", "feature_kind": "CSO outfall"}}, {"type": "Feature", "id": 5999, "geometry": {"type": "Point", "coordinates": [-77.4000279609671, 37.5386672523696]}, "properties": {"OBJECTID": 5999, "npdes_pfid": "VA0063177031", "npdes_id": "VA0063177", "permitting_state": "VA", "agency_type_code": "ST6", "facility_uin": "110000540424", "facility_name": "RICHMOND WWTP", "location_address": "1400 BRANDER ST", "supplemental_address_text": "", "facility_city": "RICHMOND", "county_code": "VA159", "state_code": "VA", "epa_region_code": "03", "facility_type_code": "CTG", "facility_lat": 37.516944, "facility_lon": -77.418333, "permit_name": "Richmond City", "version_nmbr": 0, "permit_type_code": "NPD", "effective_date": 1756684800000, "expiration_date": 1914364800000, "permit_status_code": "EFF", "facility_type_indicator": "POTW", "major_minor_status_flag": "M", "permit_tracking": "Y", "pt_start_date": 1756684800000, "dmr_tracking": "Y", "dmr_nr_start_date": 1756684800000, "permit_design_flow": 75, "permit_avg_flow": null, "perm_feature_nmbr": "031", "perm_feature_text": "", "pf_lat": 37.538667, "pf_lon": -77.400028, "pf_character": "CSO", "perm_feature_type_code": "EXO", "pf_state_waterbody_name": "Stoney Run", "pf_state_auto_name": "", "pf_reach_id": "", "in_icis": "YES", "echo_dfr_link": "https://echo.epa.gov/detailed-facility-report?fid=110000540424", "name": "RICHMOND WWTP", "feature_kind": "CSO outfall"}}, {"type": "Feature", "id": 6000, "geometry": {"type": "Point", "coordinates": [-77.4770279538608, 37.5385831994815]}, "properties": {"OBJECTID": 6000, "npdes_pfid": "VA0063177033", "npdes_id": "VA0063177", "permitting_state": "VA", "agency_type_code": "ST6", "facility_uin": "110000540424", "facility_name": "RICHMOND WWTP", "location_address": "1400 BRANDER ST", "supplemental_address_text": "", "facility_city": "RICHMOND", "county_code": "VA159", "state_code": "VA", "epa_region_code": "03", "facility_type_code": "CTG", "facility_lat": 37.516944, "facility_lon": -77.418333, "permit_name": "Richmond City", "version_nmbr": 0, "permit_type_code": "NPD", "effective_date": 1756684800000, "expiration_date": 1914364800000, "permit_status_code": "EFF", "facility_type_indicator": "POTW", "major_minor_status_flag": "M", "permit_tracking": "Y", "pt_start_date": 1756684800000, "dmr_tracking": "Y", "dmr_nr_start_date": 1756684800000, "permit_design_flow": 75, "permit_avg_flow": null, "perm_feature_nmbr": "033", "perm_feature_text": "", "pf_lat": 37.538583, "pf_lon": -77.477028, "pf_character": "CSO", "perm_feature_type_code": "EXO", "pf_state_waterbody_name": "Dooley's Branch", "pf_state_auto_name": "", "pf_reach_id": "", "in_icis": "YES", "echo_dfr_link": "https://echo.epa.gov/detailed-facility-report?fid=110000540424", "name": "RICHMOND WWTP", "feature_kind": "CSO outfall"}}, {"type": "Feature", "id": 6001, "geometry": {"type": "Point", "coordinates": [-77.4268058412715, 37.5322782504766]}, "properties": {"OBJECTID": 6001, "npdes_pfid": "VA0063177034", "npdes_id": "VA0063177", "permitting_state": "VA", "agency_type_code": "ST6", "facility_uin": "110000540424", "facility_name": "RICHMOND WWTP", "location_address": "1400 BRANDER ST", "supplemental_address_text": "", "facility_city": "RICHMOND", "county_code": "VA159", "state_code": "VA", "epa_region_code": "03", "facility_type_code": "CTG", "facility_lat": 37.516944, "facility_lon": -77.418333, "permit_name": "Richmond City", "version_nmbr": 0, "permit_type_code": "NPD", "effective_date": 1756684800000, "expiration_date": 1914364800000, "permit_status_code": "EFF", "facility_type_indicator": "POTW", "major_minor_status_flag": "M", "permit_tracking": "Y", "pt_start_date": 1756684800000, "dmr_tracking": "Y", "dmr_nr_start_date": 1756684800000, "permit_design_flow": 75, "permit_avg_flow": null, "perm_feature_nmbr": "034", "perm_feature_text": "", "pf_lat": 37.532278, "pf_lon": -77.426806, "pf_character": "CSO", "perm_feature_type_code": "EXO", "pf_state_waterbody_name": "Richmond Dock Canal", "pf_state_auto_name": "", "pf_reach_id": "", "in_icis": "YES", "echo_dfr_link": "https://echo.epa.gov/detailed-facility-report?fid=110000540424", "name": "RICHMOND WWTP", "feature_kind": "CSO outfall"}}, {"type": "Feature", "id": 6002, "geometry": {"type": "Point", "coordinates": [-77.421277609013, 37.5290831880687]}, "properties": {"OBJECTID": 6002, "npdes_pfid": "VA0063177035", "npdes_id": "VA0063177", "permitting_state": "VA", "agency_type_code": "ST6", "facility_uin": "110000540424", "facility_name": "RICHMOND WWTP", "location_address": "1400 BRANDER ST", "supplemental_address_text": "", "facility_city": "RICHMOND", "county_code": "VA159", "state_code": "VA", "epa_region_code": "03", "facility_type_code": "CTG", "facility_lat": 37.516944, "facility_lon": -77.418333, "permit_name": "Richmond City", "version_nmbr": 0, "permit_type_code": "NPD", "effective_date": 1756684800000, "expiration_date": 1914364800000, "permit_status_code": "EFF", "facility_type_indicator": "POTW", "major_minor_status_flag": "M", "permit_tracking": "Y", "pt_start_date": 1756684800000, "dmr_tracking": "Y", "dmr_nr_start_date": 1756684800000, "permit_design_flow": 75, "permit_avg_flow": null, "perm_feature_nmbr": "035", "perm_feature_text": "", "pf_lat": 37.529083, "pf_lon": -77.421278, "pf_character": "CSO", "perm_feature_type_code": "EXO", "pf_state_waterbody_name": "Richmond Dock Canal", "pf_state_auto_name": "", "pf_reach_id": "", "in_icis": "YES", "echo_dfr_link": "https://echo.epa.gov/detailed-facility-report?fid=110000540424", "name": "RICHMOND WWTP", "feature_kind": "CSO outfall"}}, {"type": "Feature", "id": 6003, "geometry": {"type": "Point", "coordinates": [-77.4043892816715, 37.5234720850666]}, "properties": {"OBJECTID": 6003, "npdes_pfid": "VA0063177039", "npdes_id": "VA0063177", "permitting_state": "VA", "agency_type_code": "ST6", "facility_uin": "110000540424", "facility_name": "RICHMOND WWTP", "location_address": "1400 BRANDER ST", "supplemental_address_text": "", "facility_city": "RICHMOND", "county_code": "VA159", "state_code": "VA", "epa_region_code": "03", "facility_type_code": "CTG", "facility_lat": 37.516944, "facility_lon": -77.418333, "permit_name": "Richmond City", "version_nmbr": 0, "permit_type_code": "NPD", "effective_date": 1756684800000, "expiration_date": 1914364800000, "permit_status_code": "EFF", "facility_type_indicator": "POTW", "major_minor_status_flag": "M", "permit_tracking": "Y", "pt_start_date": 1756684800000, "dmr_tracking": "Y", "dmr_nr_start_date": 1756684800000, "permit_design_flow": 75, "permit_avg_flow": null, "perm_feature_nmbr": "039", "perm_feature_text": "", "pf_lat": 37.523472, "pf_lon": -77.404389, "pf_character": "CSO", "perm_feature_type_code": "EXO", "pf_state_waterbody_name": "Gillies Creek", "pf_state_auto_name": "", "pf_reach_id": "", "in_icis": "YES", "echo_dfr_link": "https://echo.epa.gov/detailed-facility-report?fid=110000540424", "name": "RICHMOND WWTP", "feature_kind": "CSO outfall"}}, {"type": "Feature", "id": 6004, "geometry": {"type": "Point", "coordinates": [-77.440833034433, 37.5283330231426]}, "properties": {"OBJECTID": 6004, "npdes_pfid": "VA0063177040", "npdes_id": "VA0063177", "permitting_state": "VA", "agency_type_code": "ST6", "facility_uin": "110000540424", "facility_name": "RICHMOND WWTP", "location_address": "1400 BRANDER ST", "supplemental_address_text": "", "facility_city": "RICHMOND", "county_code": "VA159", "state_code": "VA", "epa_region_code": "03", "facility_type_code": "CTG", "facility_lat": 37.516944, "facility_lon": -77.418333, "permit_name": "Richmond City", "version_nmbr": 0, "permit_type_code": "NPD", "effective_date": 1756684800000, "expiration_date": 1914364800000, "permit_status_code": "EFF", "facility_type_indicator": "POTW", "major_minor_status_flag": "M", "permit_tracking": "Y", "pt_start_date": 1756684800000, "dmr_tracking": "Y", "dmr_nr_start_date": 1756684800000, "permit_design_flow": 75, "permit_avg_flow": null, "perm_feature_nmbr": "040", "perm_feature_text": "", "pf_lat": 37.528333, "pf_lon": -77.440833, "pf_character": "CSO", "perm_feature_type_code": "EXO", "pf_state_waterbody_name": "James River", "pf_state_auto_name": "", "pf_reach_id": "", "in_icis": "YES", "echo_dfr_link": "https://echo.epa.gov/detailed-facility-report?fid=110000540424", "name": "RICHMOND WWTP", "feature_kind": "CSO outfall"}}]}