{"type": "FeatureCollection", "features": [{"type": "Feature", "id": 1605, "geometry": {"type": "Point", "coordinates": [-122.446666822371, 37.8080557453695]}, "properties": {"OBJECTID": 1605, "npdes_pfid": "CA0037664009", "npdes_id": "CA0037664", "permitting_state": "CA", "agency_type_code": "ST6", "facility_uin": "110043091301", "facility_name": "SOUTHEAST WPCP, NORTH POINT WWF, BAYSIDE WWF", "location_address": "750 PHELPS STREET", "supplemental_address_text": "", "facility_city": "SAN FRANCISCO", "county_code": "CA075", "state_code": "CA", "epa_region_code": "09", "facility_type_code": "MWD", "facility_lat": 37.740278, "facility_lon": -122.390278, "permit_name": "San Francisco, City and County of", "version_nmbr": 0, "permit_type_code": "NPD", "effective_date": 1380585600000, "expiration_date": 1538265600000, "permit_status_code": "EXP", "facility_type_indicator": "POTW", "major_minor_status_flag": "M", "permit_tracking": "Y", "pt_start_date": 1380585600000, "dmr_tracking": "N", "dmr_nr_start_date": 1759276800000, "permit_design_flow": 400, "permit_avg_flow": null, "perm_feature_nmbr": "009", "perm_feature_text": "", "pf_lat": 37.808056, "pf_lon": -122.446667, "pf_character": "TCS", "perm_feature_type_code": "EXO", "pf_state_waterbody_name": "Pacific Ocean", "pf_state_auto_name": "", "pf_reach_id": "", "in_icis": "YES", "echo_dfr_link": "https://echo.epa.gov/detailed-facility-report?fid=110043091301", "name": "SOUTHEAST WPCP, NORTH POINT WWF, BAYSIDE WWF", "feature_kind": "CSO outfall"}}, {"type": "Feature", "id": 1606, "geometry": {"type": "Point", "coordinates": [-122.440000424648, 37.8069442984069]}, "properties": {"OBJECTID": 1606, "npdes_pfid": "CA0037664010", "npdes_id": "CA0037664", "permitting_state": "CA", "agency_type_code": "ST6", "facility_uin": "110043091301", "facility_name": "SOUTHEAST WPCP, NORTH POINT WWF, BAYSIDE WWF", "location_address": "750 PHELPS STREET", "supplemental_address_text": "", "facility_city": "SAN FRANCISCO", "county_code": "CA075", "state_code": "CA", "epa_region_code": "09", "facility_type_code": "MWD", "facility_lat": 37.740278, "facility_lon": -122.390278, "permit_name": "San Francisco, City and County of", "version_nmbr": 0, "permit_type_code": "NPD", "effective_date": 1380585600000, "expiration_date": 1538265600000, "permit_status_code": "EXP", "facility_type_indicator": "POTW", "major_minor_status_flag": "M", "permit_tracking": "Y", "pt_start_date": 1380585600000, "dmr_tracking": "N", "dmr_nr_start_date": 1759276800000, "permit_design_flow": 400, "permit_avg_flow": null, "perm_feature_nmbr": "010", "perm_feature_text": "Equivalent-to-Primary-Treated Effluent (Wet Weather)", "pf_lat": 37.806944, "pf_lon": -122.44, "pf_character": "TCS", "perm_feature_type_code": "EXO", "pf_state_waterbody_name": "Marina Beach North Shore Drainage Basin", "pf_state_auto_name": "Angel Island-San Francisco Bay Estuaries", "pf_reach_id": "18050002001020", "in_icis": "YES", "echo_dfr_link": "https://echo.epa.gov/detailed-facility-report?fid=110043091301", "name": "SOUTHEAST WPCP, NORTH POINT WWF, BAYSIDE WWF", "feature_kind": "CSO outfall"}}, {"type": "Feature", "id": 1607, "geometry": {"type": "Point", "coordinates": [-122.380000150191, 37.8061103473322]}, "properties": {"OBJECTID": 1607, "npdes_pfid": "CA0037664011", "npdes_id": "CA0037664", "permitting_state": "CA", "agency_type_code": "ST6", "facility_uin": "110043091301", "facility_name": "SOUTHEAST WPCP, NORTH POINT WWF, BAYSIDE WWF", "location_address": "750 PHELPS STREET", "supplemental_address_text": "", "facility_city": "SAN FRANCISCO", "county_code": "CA075", "state_code": "CA", "epa_region_code": "09", "facility_type_code": "MWD", "facility_lat": 37.740278, "facility_lon": -122.390278, "permit_name": "San Francisco, City and County of", "version_nmbr": 0, "permit_type_code": "NPD", "effective_date": 1380585600000, "expiration_date": 1538265600000, "permit_status_code": "EXP", "facility_type_indicator": "POTW", "major_minor_status_flag": "M", "permit_tracking": "Y", "pt_start_date": 1380585600000, "dmr_tracking": "N", "dmr_nr_start_date": 1759276800000, "permit_design_flow": 400, "permit_avg_flow": null, "perm_feature_nmbr": "011", "perm_feature_text": "", "pf_lat": 37.80611, "pf_lon": -122.38, "pf_character": "TCS", "perm_feature_type_code": "EXO", "pf_state_waterbody_name": "Pacific Ocean", "pf_state_auto_name": "", "pf_reach_id": "", "in_icis": "YES", "echo_dfr_link": "https://echo.epa.gov/detailed-facility-report?fid=110043091301", "name": "SOUTHEAST WPCP, NORTH POINT WWF, BAYSIDE WWF", "feature_kind": "CSO outfall"}}, {"type": "Feature", "id": 1608, "geometry": {"type": "Point", "coordinates": [-122.406699877066, 37.8083339593605]}, "properties": {"OBJECTID": 1608, "npdes_pfid": "CA0037664013", "npdes_id": "CA0037664", "permitting_state": "CA", "agency_type_code": "ST6", "facility_uin": "110043091301", "facility_name": "SOUTHEAST WPCP, NORTH POINT WWF, BAYSIDE WWF", "location_address": "750 PHELPS STREET", "supplemental_address_text": "", "facility_city": "SAN FRANCISCO", "county_code": "CA075", "state_code": "CA", "epa_region_code": "09", "facility_type_code": "MWD", "facility_lat": 37.740278, "facility_lon": -122.390278, "permit_name": "San Francisco, City and County of", "version_nmbr": 0, "permit_type_code": "NPD", "effective_date": 1380585600000, "expiration_date": 1538265600000, "permit_status_code": "EXP", "facility_type_indicator": "POTW", "major_minor_status_flag": "M", "permit_tracking": "Y", "pt_start_date": 1380585600000, "dmr_tracking": "N", "dmr_nr_start_date": 1759276800000, "permit_design_flow": 400, "permit_avg_flow": null, "perm_feature_nmbr": "013", "perm_feature_text": "", "pf_lat": 37.808334, "pf_lon": -122.4067, "pf_character": "TCS", "perm_feature_type_code": "EXO", "pf_state_waterbody_name": "Pacific Ocean", "pf_state_auto_name": "Richardson Bay-San Francisco Bay", "pf_reach_id": "18050002001020", "in_icis": "YES", "echo_dfr_link": "https://echo.epa.gov/detailed-facility-report?fid=110043091301", "name": "SOUTHEAST WPCP, NORTH POINT WWF, BAYSIDE WWF", "feature_kind": "CSO outfall"}}, {"type": "Feature", "id": 1609, "geometry": {"type": "Point", "coordinates": [-122.403100327722, 37.8066667889246]}, "properties": {"OBJECTID": 1609, "npdes_pfid": "CA0037664015", "npdes_id": "CA0037664", "permitting_state": "CA", "agency_type_code": "ST6", "facility_uin": "110043091301", "facility_name": "SOUTHEAST WPCP, NORTH POINT WWF, BAYSIDE WWF", "location_address": "750 PHELPS STREET", "supplemental_address_text": "", "facility_city": "SAN FRANCISCO", "county_code": "CA075", "state_code": "CA", "epa_region_code": "09", "facility_type_code": "MWD", "facility_lat": 37.740278, "facility_lon": -122.390278, "permit_name": "San Francisco, City and County of", "version_nmbr": 0, "permit_type_code": "NPD", "effective_date": 1380585600000, "expiration_date": 1538265600000, "permit_status_code": "EXP", "facility_type_indicator": "POTW", "major_minor_status_flag": "M", "permit_tracking": "Y", "pt_start_date": 1380585600000, "dmr_tracking": "N", "dmr_nr_start_date": 1759276800000, "permit_design_flow": 400, "permit_avg_flow": null, "perm_feature_nmbr": "015", "perm_feature_text": "", "pf_lat": 37.806667, "pf_lon": -122.4031, "pf_character": "TCS", "perm_feature_type_code": "EXO", "pf_state_waterbody_name": "Pacific Ocean", "pf_state_auto_name": "Richardson Bay-San Francisco Bay", "pf_reach_id": "18050002001020", "in_icis": "YES", "echo_dfr_link": "https://echo.epa.gov/detailed-facility-report?fid=110043091301", "name": "SOUTHEAST WPCP, NORTH POINT WWF, BAYSIDE WWF", "feature_kind": "CSO outfall"}}, {"type": "Feature", "id": 1610, "geometry": {"type": "Point", "coordinates": [-122.3947001815, 37.7983317918256]}, "properties": {"OBJECTID": 1610, "npdes_pfid": "CA0037664017", "npdes_id": "CA0037664", "permitting_state": "CA", "agency_type_code": "ST6", "facility_uin": "110043091301", "facility_name": "SOUTHEAST WPCP, NORTH POINT WWF, BAYSIDE WWF", "location_address": "750 PHELPS STREET", "supplemental_address_text": "", "facility_city": "SAN FRANCISCO", "county_code": "CA075", "state_code": "CA", "epa_region_code": "09", "facility_type_code": "MWD", "facility_lat": 37.740278, "facility_lon": -122.390278, "permit_name": "San Francisco, City and County of", "version_nmbr": 0, "permit_type_code": "NPD", "effective_date": 1380585600000, "expiration_date": 1538265600000, "permit_status_code": "EXP", "facility_type_indicator": "POTW", "major_minor_status_flag": "M", "permit_tracking": "Y", "pt_start_date": 1380585600000, "dmr_tracking": "N", "dmr_nr_start_date": 1759276800000, "permit_design_flow": 400, "permit_avg_flow": null, "perm_feature_nmbr": "017", "perm_feature_text": "", "pf_lat": 37.798332, "pf_lon": -122.3947, "pf_character": "TCS", "perm_feature_type_code": "EXO", "pf_state_waterbody_name": "Pacific Ocean", "pf_state_auto_name": "Angel Island-San Francisco Bay Estuaries", "pf_reach_id": "18050002001020", "in_icis": "YES", "echo_dfr_link": "https://echo.epa.gov/detailed-facility-report?fid=110043091301", "name": "SOUTHEAST WPCP, NORTH POINT WWF, BAYSIDE WWF", "feature_kind": "CSO outfall"}}, {"type": "Feature", "id": 1611, "geometry": {"type": "Point", "coordinates": [-122.390000195934, 37.7930561888516]}, "properties": {"OBJECTID": 1611, "npdes_pfid": "CA0037664018", "npdes_id": "CA0037664", "permitting_state": "CA", "agency_type_code": "ST6", "facility_uin": "110043091301", "facility_name": "SOUTHEAST WPCP, NORTH POINT WWF, BAYSIDE WWF", "location_address": "750 PHELPS STREET", "supplemental_address_text": "", "facility_city": "SAN FRANCISCO", "county_code": "CA075", "state_code": "CA", "epa_region_code": "09", "facility_type_code": "MWD", "facility_lat": 37.740278, "facility_lon": -122.390278, "permit_name": "San Francisco, City and County of", "version_nmbr": 0, "permit_type_code": "NPD", "effective_date": 1380585600000, "expiration_date": 1538265600000, "permit_status_code": "EXP", "facility_type_indicator": "POTW", "major_minor_status_flag": "M", "permit_tracking": "Y", "pt_start_date": 1380585600000, "dmr_tracking": "N", "dmr_nr_start_date": 1759276800000, "permit_design_flow": 400, "permit_avg_flow": null, "perm_feature_nmbr": "018", "perm_feature_text": "", "pf_lat": 37.793056, "pf_lon": -122.39, "pf_character": "TCS", "perm_feature_type_code": "EXO", "pf_state_waterbody_name": "Pacific Ocean", "pf_state_auto_name": "Richardson Bay-San Francisco Bay", "pf_reach_id": "18050002001020", "in_icis": "YES", "echo_dfr_link": "https://echo.epa.gov/detailed-facility-report?fid=110043091301", "name": "SOUTHEAST WPCP, NORTH POINT WWF, BAYSIDE WWF", "feature_kind": "CSO outfall"}}, {"type": "Feature", "id": 1612, "geometry": {"type": "Point", "coordinates": [-122.390000195934, 37.7852776785654]}, "properties": {"OBJECTID": 1612, "npdes_pfid": "CA0037664019", "npdes_id": "CA0037664", "permitting_state": "CA", "agency_type_code": "ST6", "facility_uin": "110043091301", "facility_name": "SOUTHEAST WPCP, NORTH POINT WWF, BAYSIDE WWF", "location_address": "750 PHELPS STREET", "supplemental_address_text": "", "facility_city": "SAN FRANCISCO", "county_code": "CA075", "state_code": "CA", "epa_region_code": "09", "facility_type_code": "MWD", "facility_lat": 37.740278, "facility_lon": -122.390278, "permit_name": "San Francisco, City and County of", "version_nmbr": 0, "permit_type_code": "NPD", "effective_date": 1380585600000, "expiration_date": 1538265600000, "permit_status_code": "EXP", "facility_type_indicator": "POTW", "major_minor_status_flag": "M", "permit_tracking": "Y", "pt_start_date": 1380585600000, "dmr_tracking": "N", "dmr_nr_start_date": 1759276800000, "permit_design_flow": 400, "permit_avg_flow": null, "perm_feature_nmbr": "019", "perm_feature_text": "", "pf_lat": 37.785278, "pf_lon": -122.39, "pf_character": "TCS", "perm_feature_type_code": "EXO", "pf_state_waterbody_name": "Pacific Ocean", "pf_state_auto_name": "San Francisco Bay Estuaries", "pf_reach_id": "18050004001799", "in_icis": "YES", "echo_dfr_link": "https://echo.epa.gov/detailed-facility-report?fid=110043091301", "name": "SOUTHEAST WPCP, NORTH POINT WWF, BAYSIDE WWF", "feature_kind": "CSO outfall"}}, {"type": "Feature", "id": 1613, "geometry": {"type": "Point", "coordinates": [-122.389400121324, 37.7772221494519]}, "properties": {"OBJECTID": 1613, "npdes_pfid": "CA0037664022", "npdes_id": "CA0037664", "permitting_state": "CA", "agency_type_code": "ST6", "facility_uin": "110043091301", "facility_name": "SOUTHEAST WPCP, NORTH POINT WWF, BAYSIDE WWF", "location_address": "750 PHELPS STREET", "supplemental_address_text": "", "facility_city": "SAN FRANCISCO", "county_code": "CA075", "state_code": "CA", "epa_region_code": "09", "facility_type_code": "MWD", "facility_lat": 37.740278, "facility_lon": -122.390278, "permit_name": "San Francisco, City and County of", "version_nmbr": 0, "permit_type_code": "NPD", "effective_date": 1380585600000, "expiration_date": 1538265600000, "permit_status_code": "EXP", "facility_type_indicator": "POTW", "major_minor_status_flag": "M", "permit_tracking": "Y", "pt_start_date": 1380585600000, "dmr_tracking": "N", "dmr_nr_start_date": 1759276800000, "permit_design_flow": 400, "permit_avg_flow": null, "perm_feature_nmbr": "022", "perm_feature_text": "", "pf_lat": 37.777222, "pf_lon": -122.3894, "pf_character": "TCS", "perm_feature_type_code": "EXO", "pf_state_waterbody_name": "Pacific Ocean", "pf_state_auto_name": "", "pf_reach_id": "", "in_icis": "YES", "echo_dfr_link": "https://echo.epa.gov/detailed-facility-report?fid=110043091301", "name": "SOUTHEAST WPCP, NORTH POINT WWF, BAYSIDE WWF", "feature_kind": "CSO outfall"}}, {"type": "Feature", "id": 1614, "geometry": {"type": "Point", "coordinates": [-122.391399771146, 37.7755549869005]}, "properties": {"OBJECTID": 1614, "npdes_pfid": "CA0037664023", "npdes_id": "CA0037664", "permitting_state": "CA", "agency_type_code": "ST6", "facility_uin": "110043091301", "facility_name": "SOUTHEAST WPCP, NORTH POINT WWF, BAYSIDE WWF", "location_address": "750 PHELPS STREET", "supplemental_address_text": "", "facility_city": "SAN FRANCISCO", "county_code": "CA075", "state_code": "CA", "epa_region_code": "09", "facility_type_code": "MWD", "facility_lat": 37.740278, "facility_lon": -122.390278, "permit_name": "San Francisco, City and County of", "version_nmbr": 0, "permit_type_code": "NPD", "effective_date": 1380585600000, "expiration_date": 1538265600000, "permit_status_code": "EXP", "facility_type_indicator": "POTW", "major_minor_status_flag": "M", "permit_tracking": "Y", "pt_start_date": 1380585600000, "dmr_tracking": "N", "dmr_nr_start_date": 1759276800000, "permit_design_flow": 400, "permit_avg_flow": null, "perm_feature_nmbr": "023", "perm_feature_text": "", "pf_lat": 37.775555, "pf_lon": -122.3914, "pf_character": "TCS", "perm_feature_type_code": "EXO", "pf_state_waterbody_name": "Pacific Ocean", "pf_state_auto_name": "San Francisco Bay Estuaries", "pf_reach_id": "18050004001799", "in_icis": "YES", "echo_dfr_link": "https://echo.epa.gov/detailed-facility-report?fid=110043091301", "name": "SOUTHEAST WPCP, NORTH POINT WWF, BAYSIDE WWF", "feature_kind": "CSO outfall"}}, {"type": "Feature", "id": 1615, "geometry": {"type": "Point", "coordinates": [-122.393899782582, 37.7738877867531]}, "properties": {"OBJECTID": 1615, "npdes_pfid": "CA0037664024", "npdes_id": "CA0037664", "permitting_state": "CA", "agency_type_code": "ST6", "facility_uin": "110043091301", "facility_name": "SOUTHEAST WPCP, NORTH POINT WWF, BAYSIDE WWF", "location_address": "750 PHELPS STREET", "supplemental_address_text": "", "facility_city": "SAN FRANCISCO", "county_code": "CA075", "state_code": "CA", "epa_region_code": "09", "facility_type_code": "MWD", "facility_lat": 37.740278, "facility_lon": -122.390278, "permit_name": "San Francisco, City and County of", "version_nmbr": 0, "permit_type_code": "NPD", "effective_date": 1380585600000, "expiration_date": 1538265600000, "permit_status_code": "EXP", "facility_type_indicator": "POTW", "major_minor_status_flag": "M", "permit_tracking": "Y", "pt_start_date": 1380585600000, "dmr_tracking": "N", "dmr_nr_start_date": 1759276800000, "permit_design_flow": 400, "permit_avg_flow": null, "perm_feature_nmbr": "024", "perm_feature_text": "", "pf_lat": 37.773888, "pf_lon": -122.3939, "pf_character": "TCS", "perm_feature_type_code": "EXO", "pf_state_waterbody_name": "Pacific Ocean", "pf_state_auto_name": "San Francisco Bay Estuaries", "pf_reach_id": "18050004001799", "in_icis": "YES", "echo_dfr_link": "https://echo.epa.gov/detailed-facility-report?fid=110043091301", "name": "SOUTHEAST WPCP, NORTH POINT WWF, BAYSIDE WWF", "feature_kind": "CSO outfall"}}, {"type": "Feature", "id": 1616, "geometry": {"type": "Point", "coordinates": [-122.396111434812, 37.7719443292462]}, "properties": {"OBJECTID": 1616, "npdes_pfid": "CA0037664025", "npdes_id": "CA0037664", "permitting_state": "CA", "agency_type_code": "ST6", "facility_uin": "110043091301", "facility_name": "SOUTHEAST WPCP, NORTH POINT WWF, BAYSIDE WWF", "location_address": "750 PHELPS STREET", "supplemental_address_text": "", "facility_city": "SAN FRANCISCO", "county_code": "CA075", "state_code": "CA", "epa_region_code": "09", "facility_type_code": "MWD", "facility_lat": 37.740278, "facility_lon": -122.390278, "permit_name": "San Francisco, City and County of", "version_nmbr": 0, "permit_type_code": "NPD", "effective_date": 1380585600000, "expiration_date": 1538265600000, "permit_status_code": "EXP", "facility_type_indicator": "POTW", "major_minor_status_flag": "M", "permit_tracking": "Y", "pt_start_date": 1380585600000, "dmr_tracking": "N", "dmr_nr_start_date": 1759276800000, "permit_design_flow": 400, "permit_avg_flow": null, "perm_feature_nmbr": "025", "perm_feature_text": "Equivalent-to-Primary-Treated Effluent (Wet Weather)", "pf_lat": 37.771944, "pf_lon": -122.396111, "pf_character": "TCS", "perm_feature_type_code": "EXO", "pf_state_waterbody_name": "Mission Creek Central Drainage Basin", "pf_state_auto_name": "San Francisco Bay Estuaries", "pf_reach_id": "18050004001799", "in_icis": "YES", "echo_dfr_link": "https://echo.epa.gov/detailed-facility-report?fid=110043091301", "name": "SOUTHEAST WPCP, NORTH POINT WWF, BAYSIDE WWF", "feature_kind": "CSO outfall"}}, {"type": "Feature", "id": 1617, "geometry": {"type": "Point", "coordinates": [-122.397500230241, 37.7702791779614]}, "properties": {"OBJECTID": 1617, "npdes_pfid": "CA0037664026", "npdes_id": "CA0037664", "permitting_state": "CA", "agency_type_code": "ST6", "facility_uin": "110043091301", "facility_name": "SOUTHEAST WPCP, NORTH POINT WWF, BAYSIDE WWF", "location_address": "750 PHELPS STREET", "supplemental_address_text": "", "facility_city": "SAN FRANCISCO", "county_code": "CA075", "state_code": "CA", "epa_region_code": "09", "facility_type_code": "MWD", "facility_lat": 37.740278, "facility_lon": -122.390278, "permit_name": "San Francisco, City and County of", "version_nmbr": 0, "permit_type_code": "NPD", "effective_date": 1380585600000, "expiration_date": 1538265600000, "permit_status_code": "EXP", "facility_type_indicator": "POTW", "major_minor_status_flag": "M", "permit_tracking": "Y", "pt_start_date": 1380585600000, "dmr_tracking": "N", "dmr_nr_start_date": 1759276800000, "permit_design_flow": 400, "permit_avg_flow": null, "perm_feature_nmbr": "026", "perm_feature_text": "", "pf_lat": 37.770279, "pf_lon": -122.3975, "pf_character": "TCS", "perm_feature_type_code": "EXO", "pf_state_waterbody_name": "Pacific Ocean", "pf_state_auto_name": "San Francisco Bay Estuaries", "pf_reach_id": "18050004001799", "in_icis": "YES", "echo_dfr_link": "https://echo.epa.gov/detailed-facility-report?fid=110043091301", "name": "SOUTHEAST WPCP, NORTH POINT WWF, BAYSIDE WWF", "feature_kind": "CSO outfall"}}, {"type": "Feature", "id": 1618, "geometry": {"type": "Point", "coordinates": [-122.395000218805, 37.77138904629]}, "properties": {"OBJECTID": 1618, "npdes_pfid": "CA0037664027", "npdes_id": "CA0037664", "permitting_state": "CA", "agency_type_code": "ST6", "facility_uin": "110043091301", "facility_name": "SOUTHEAST WPCP, NORTH POINT WWF, BAYSIDE WWF", "location_address": "750 PHELPS STREET", "supplemental_address_text": "", "facility_city": "SAN FRANCISCO", "county_code": "CA075", "state_code": "CA", "epa_region_code": "09", "facility_type_code": "MWD", "facility_lat": 37.740278, "facility_lon": -122.390278, "permit_name": "San Francisco, City and County of", "version_nmbr": 0, "permit_type_code": "NPD", "effective_date": 1380585600000, "expiration_date": 1538265600000, "permit_status_code": "EXP", "facility_type_indicator": "POTW", "major_minor_status_flag": "M", "permit_tracking": "Y", "pt_start_date": 1380585600000, "dmr_tracking": "N", "dmr_nr_start_date": 1759276800000, "permit_design_flow": 400, "permit_avg_flow": null, "perm_feature_nmbr": "027", "perm_feature_text": "", "pf_lat": 37.771389, "pf_lon": -122.395, "pf_character": "TCS", "perm_feature_type_code": "EXO", "pf_state_waterbody_name": "Pacific Ocean", "pf_state_auto_name": "San Francisco Bay Estuaries", "pf_reach_id": "18050004001799", "in_icis": "YES", "echo_dfr_link": "https://echo.epa.gov/detailed-facility-report?fid=110043091301", "name": "SOUTHEAST WPCP, NORTH POINT WWF, BAYSIDE WWF", "feature_kind": "CSO outfall"}}, {"type": "Feature", "id": 1619, "geometry": {"type": "Point", "coordinates": [-122.391099733842, 37.7750018612065]}, "properties": {"OBJECTID": 1619, "npdes_pfid": "CA0037664028", "npdes_id": "CA0037664", "permitting_state": "CA", "agency_type_code": "ST6", "facility_uin": "110043091301", "facility_name": "SOUTHEAST WPCP, NORTH POINT WWF, BAYSIDE WWF", "location_address": "750 PHELPS STREET", "supplemental_address_text": "", "facility_city": "SAN FRANCISCO", "county_code": "CA075", "state_code": "CA", "epa_region_code": "09", "facility_type_code": "MWD", "facility_lat": 37.740278, "facility_lon": -122.390278, "permit_name": "San Francisco, City and County of", "version_nmbr": 0, "permit_type_code": "NPD", "effective_date": 1380585600000, "expiration_date": 1538265600000, "permit_status_code": "EXP", "facility_type_indicator": "POTW", "major_minor_status_flag": "M", "permit_tracking": "Y", "pt_start_date": 1380585600000, "dmr_tracking": "N", "dmr_nr_start_date": 1759276800000, "permit_design_flow": 400, "permit_avg_flow": null, "perm_feature_nmbr": "028", "perm_feature_text": "", "pf_lat": 37.775002, "pf_lon": -122.3911, "pf_character": "TCS", "perm_feature_type_code": "EXO", "pf_state_waterbody_name": "Pacific Ocean", "pf_state_auto_name": "San Francisco Bay Estuaries", "pf_reach_id": "18050004001799", "in_icis": "YES", "echo_dfr_link": "https://echo.epa.gov/detailed-facility-report?fid=110043091301", "name": "SOUTHEAST WPCP, NORTH POINT WWF, BAYSIDE WWF", "feature_kind": "CSO outfall"}}, {"type": "Feature", "id": 1620, "geometry": {"type": "Point", "coordinates": [-122.385277752485, 37.7647217748205]}, "properties": {"OBJECTID": 1620, "npdes_pfid": "CA0037664029", "npdes_id": "CA0037664", "permitting_state": "CA", "agency_type_code": "ST6", "facility_uin": "110043091301", "facility_name": "SOUTHEAST WPCP, NORTH POINT WWF, BAYSIDE WWF", "location_address": "750 PHELPS STREET", "supplemental_address_text": "", "facility_city": "SAN FRANCISCO", "county_code": "CA075", "state_code": "CA", "epa_region_code": "09", "facility_type_code": "MWD", "facility_lat": 37.740278, "facility_lon": -122.390278, "permit_name": "San Francisco, City and County of", "version_nmbr": 0, "permit_type_code": "NPD", "effective_date": 1380585600000, "expiration_date": 1538265600000, "permit_status_code": "EXP", "facility_type_indicator": "POTW", "major_minor_status_flag": "M", "permit_tracking": "Y", "pt_start_date": 1380585600000, "dmr_tracking": "N", "dmr_nr_start_date": 1759276800000, "permit_design_flow": 400, "permit_avg_flow": null, "perm_feature_nmbr": "029", "perm_feature_text": "Equivalent-to-Primary-Treated Effluent (Wet Weather)", "pf_lat": 37.764722, "pf_lon": -122.385278, "pf_character": "TCS", "perm_feature_type_code": "EXO", "pf_state_waterbody_name": "Central Basin Central Drainage Basin", "pf_state_auto_name": "San Francisco Bay Estuaries", "pf_reach_id": "18050004001799", "in_icis": "YES", "echo_dfr_link": "https://echo.epa.gov/detailed-facility-report?fid=110043091301", "name": "SOUTHEAST WPCP, NORTH POINT WWF, BAYSIDE WWF", "feature_kind": "CSO outfall"}}, {"type": "Feature", "id": 1621, "geometry": {"type": "Point", "coordinates": [-122.380000150191, 37.7611120085368]}, "properties": {"OBJECTID": 1621, "npdes_pfid": "CA0037664030", "npdes_id": "CA0037664", "permitting_state": "CA", "agency_type_code": "ST6", "facility_uin": "110043091301", "facility_name": "SOUTHEAST WPCP, NORTH POINT WWF, BAYSIDE WWF", "location_address": "750 PHELPS STREET", "supplemental_address_text": "", "facility_city": "SAN FRANCISCO", "county_code": "CA075", "state_code": "CA", "epa_region_code": "09", "facility_type_code": "MWD", "facility_lat": 37.740278, "facility_lon": -122.390278, "permit_name": "San Francisco, City and County of", "version_nmbr": 0, "permit_type_code": "NPD", "effective_date": 1380585600000, "expiration_date": 1538265600000, "permit_status_code": "EXP", "facility_type_indicator": "POTW", "major_minor_status_flag": "M", "permit_tracking": "Y", "pt_start_date": 1380585600000, "dmr_tracking": "N", "dmr_nr_start_date": 1759276800000, "permit_design_flow": 400, "permit_avg_flow": null, "perm_feature_nmbr": "030", "perm_feature_text": "", "pf_lat": 37.761112, "pf_lon": -122.38, "pf_character": "TCS", "perm_feature_type_code": "EXO", "pf_state_waterbody_name": "Pacific Ocean", "pf_state_auto_name": "Oakland Inner Harbor-San Francisco Bay", "pf_reach_id": "18050004001799", "in_icis": "YES", "echo_dfr_link": "https://echo.epa.gov/detailed-facility-report?fid=110043091301", "name": "SOUTHEAST WPCP, NORTH POINT WWF, BAYSIDE WWF", "feature_kind": "CSO outfall"}}, {"type": "Feature", "id": 1622, "geometry": {"type": "Point", "coordinates": [-122.380300187496, 37.7577783397915]}, "properties": {"OBJECTID": 1622, "npdes_pfid": "CA0037664030A", "npdes_id": "CA0037664", "permitting_state": "CA", "agency_type_code": "ST6", "facility_uin": "110043091301", "facility_name": "SOUTHEAST WPCP, NORTH POINT WWF, BAYSIDE WWF", "location_address": "750 PHELPS STREET", "supplemental_address_text": "", "facility_city": "SAN FRANCISCO", "county_code": "CA075", "state_code": "CA", "epa_region_code": "09", "facility_type_code": "MWD", "facility_lat": 37.740278, "facility_lon": -122.390278, "permit_name": "San Francisco, City and County of", "version_nmbr": 0, "permit_type_code": "NPD", "effective_date": 1380585600000, "expiration_date": 1538265600000, "permit_status_code": "EXP", "facility_type_indicator": "POTW", "major_minor_status_flag": "M", "permit_tracking": "Y", "pt_start_date": 1380585600000, "dmr_tracking": "N", "dmr_nr_start_date": 1759276800000, "permit_design_flow": 400, "permit_avg_flow": null, "perm_feature_nmbr": "030A", "perm_feature_text": "", "pf_lat": 37.757778, "pf_lon": -122.3803, "pf_character": "TCS", "perm_feature_type_code": "EXO", "pf_state_waterbody_name": "Pacific Ocean", "pf_state_auto_name": "", "pf_reach_id": "", "in_icis": "YES", "echo_dfr_link": "https://echo.epa.gov/detailed-facility-report?fid=110043091301", "name": "SOUTHEAST WPCP, NORTH POINT WWF, BAYSIDE WWF", "feature_kind": "CSO outfall"}}, {"type": "Feature", "id": 1623, "geometry": {"type": "Point", "coordinates": [-122.38609971097, 37.7477757218703]}, "properties": {"OBJECTID": 1623, "npdes_pfid": "CA0037664031", "npdes_id": "CA0037664", "permitting_state": "CA", "agency_type_code": "ST6", "facility_uin": "110043091301", "facility_name": "SOUTHEAST WPCP, NORTH POINT WWF, BAYSIDE WWF", "location_address": "750 PHELPS STREET", "supplemental_address_text": "", "facility_city": "SAN FRANCISCO", "county_code": "CA075", "state_code": "CA", "epa_region_code": "09", "facility_type_code": "MWD", "facility_lat": 37.740278, "facility_lon": -122.390278, "permit_name": "San Francisco, City and County of", "version_nmbr": 0, "permit_type_code": "NPD", "effective_date": 1380585600000, "expiration_date": 1538265600000, "permit_status_code": "EXP", "facility_type_indicator": "POTW", "major_minor_status_flag": "M", "permit_tracking": "Y", "pt_start_date": 1380585600000, "dmr_tracking": "N", "dmr_nr_start_date": 1759276800000, "permit_design_flow": 400, "permit_avg_flow": null, "perm_feature_nmbr": "031", "perm_feature_text": "", "pf_lat": 37.747776, "pf_lon": -122.3861, "pf_character": "TCS", "perm_feature_type_code": "EXO", "pf_state_waterbody_name": "Pacific Ocean", "pf_state_auto_name": "San Francisco Bay Estuaries", "pf_reach_id": "18050004001799", "in_icis": "YES", "echo_dfr_link": "https://echo.epa.gov/detailed-facility-report?fid=110043091301", "name": "SOUTHEAST WPCP, NORTH POINT WWF, BAYSIDE WWF", "feature_kind": "CSO outfall"}}, {"type": "Feature", "id": 1624, "geometry": {"type": "Point", "coordinates": [-122.387500184498, 37.7477778527999]}, "properties": {"OBJECTID": 1624, "npdes_pfid": "CA0037664031A", "npdes_id": "CA0037664", "permitting_state": "CA", "agency_type_code": "ST6", "facility_uin": "110043091301", "facility_name": "SOUTHEAST WPCP, NORTH POINT WWF, BAYSIDE WWF", "location_address": "750 PHELPS STREET", "supplemental_address_text": "", "facility_city": "SAN FRANCISCO", "county_code": "CA075", "state_code": "CA", "epa_region_code": "09", "facility_type_code": "MWD", "facility_lat": 37.740278, "facility_lon": -122.390278, "permit_name": "San Francisco, City and County of", "version_nmbr": 0, "permit_type_code": "NPD", "effective_date": 1380585600000, "expiration_date": 1538265600000, "permit_status_code": "EXP", "facility_type_indicator": "POTW", "major_minor_status_flag": "M", "permit_tracking": "Y", "pt_start_date": 1380585600000, "dmr_tracking": "N", "dmr_nr_start_date": 1759276800000, "permit_design_flow": 400, "permit_avg_flow": null, "perm_feature_nmbr": "031A", "perm_feature_text": "Equivalent-to-Primary-Treated Effluent (Wet Weather)", "pf_lat": 37.747778, "pf_lon": -122.3875, "pf_character": "TCS", "perm_feature_type_code": "EXO", "pf_state_waterbody_name": "Islais Creek Central Drainage Basin", "pf_state_auto_name": "San Francisco Bay Estuaries", "pf_reach_id": "18050004001799", "in_icis": "YES", "echo_dfr_link": "https://echo.epa.gov/detailed-facility-report?fid=110043091301", "name": "SOUTHEAST WPCP, NORTH POINT WWF, BAYSIDE WWF", "feature_kind": "CSO outfall"}}, {"type": "Feature", "id": 1625, "geometry": {"type": "Point", "coordinates": [-122.390799696537, 37.7486110415733]}, "properties": {"OBJECTID": 1625, "npdes_pfid": "CA0037664032", "npdes_id": "CA0037664", "permitting_state": "CA", "agency_type_code": "ST6", "facility_uin": "110043091301", "facility_name": "SOUTHEAST WPCP, NORTH POINT WWF, BAYSIDE WWF", "location_address": "750 PHELPS STREET", "supplemental_address_text": "", "facility_city": "SAN FRANCISCO", "county_code": "CA075", "state_code": "CA", "epa_region_code": "09", "facility_type_code": "MWD", "facility_lat": 37.740278, "facility_lon": -122.390278, "permit_name": "San Francisco, City and County of", "version_nmbr": 0, "permit_type_code": "NPD", "effective_date": 1380585600000, "expiration_date": 1538265600000, "permit_status_code": "EXP", "facility_type_indicator": "POTW", "major_minor_status_flag": "M", "permit_tracking": "Y", "pt_start_date": 1380585600000, "dmr_tracking": "N", "dmr_nr_start_date": 1759276800000, "permit_design_flow": 400, "permit_avg_flow": null, "perm_feature_nmbr": "032", "perm_feature_text": "", "pf_lat": 37.748611, "pf_lon": -122.3908, "pf_character": "TCS", "perm_feature_type_code": "EXO", "pf_state_waterbody_name": "Pacific Ocean", "pf_state_auto_name": "San Francisco Bay Estuaries", "pf_reach_id": "18050004001799", "in_icis": "YES", "echo_dfr_link": "https://echo.epa.gov/detailed-facility-report?fid=110043091301", "name": "SOUTHEAST WPCP, NORTH POINT WWF, BAYSIDE WWF", "feature_kind": "CSO outfall"}}, {"type": "Feature", "id": 1626, "geometry": {"type": "Point", "coordinates": [-122.390799696537, 37.7477757218703]}, "properties": {"OBJECTID": 1626, "npdes_pfid": "CA0037664033", "npdes_id": "CA0037664", "permitting_state": "CA", "agency_type_code": "ST6", "facility_uin": "110043091301", "facility_name": "SOUTHEAST WPCP, NORTH POINT WWF, BAYSIDE WWF", "location_address": "750 PHELPS STREET", "supplemental_address_text": "", "facility_city": "SAN FRANCISCO", "county_code": "CA075", "state_code": "CA", "epa_region_code": "09", "facility_type_code": "MWD", "facility_lat": 37.740278, "facility_lon": -122.390278, "permit_name": "San Francisco, City and County of", "version_nmbr": 0, "permit_type_code": "NPD", "effective_date": 1380585600000, "expiration_date": 1538265600000, "permit_status_code": "EXP", "facility_type_indicator": "POTW", "major_minor_status_flag": "M", "permit_tracking": "Y", "pt_start_date": 1380585600000, "dmr_tracking": "N", "dmr_nr_start_date": 1759276800000, "permit_design_flow": 400, "permit_avg_flow": null, "perm_feature_nmbr": "033", "perm_feature_text": "", "pf_lat": 37.747776, "pf_lon": -122.3908, "pf_character": "TCS", "perm_feature_type_code": "EXO", "pf_state_waterbody_name": "Pacific Ocean", "pf_state_auto_name": "San Francisco Bay Estuaries", "pf_reach_id": "18050004001799", "in_icis": "YES", "echo_dfr_link": "https://echo.epa.gov/detailed-facility-report?fid=110043091301", "name": "SOUTHEAST WPCP, NORTH POINT WWF, BAYSIDE WWF", "feature_kind": "CSO outfall"}}, {"type": "Feature", "id": 1627, "geometry": {"type": "Point", "coordinates": [-122.38609971097, 37.7472230987214]}, "properties": {"OBJECTID": 1627, "npdes_pfid": "CA0037664035", "npdes_id": "CA0037664", "permitting_state": "CA", "agency_type_code": "ST6", "facility_uin": "110043091301", "facility_name": "SOUTHEAST WPCP, NORTH POINT WWF, BAYSIDE WWF", "location_address": "750 PHELPS STREET", "supplemental_address_text": "", "facility_city": "SAN FRANCISCO", "county_code": "CA075", "state_code": "CA", "epa_region_code": "09", "facility_type_code": "MWD", "facility_lat": 37.740278, "facility_lon": -122.390278, "permit_name": "San Francisco, City and County of", "version_nmbr": 0, "permit_type_code": "NPD", "effective_date": 1380585600000, "expiration_date": 1538265600000, "permit_status_code": "EXP", "facility_type_indicator": "POTW", "major_minor_status_flag": "M", "permit_tracking": "Y", "pt_start_date": 1380585600000, "dmr_tracking": "N", "dmr_nr_start_date": 1759276800000, "permit_design_flow": 400, "permit_avg_flow": null, "perm_feature_nmbr": "035", "perm_feature_text": "", "pf_lat": 37.747223, "pf_lon": -122.3861, "pf_character": "TCS", "perm_feature_type_code": "EXO", "pf_state_waterbody_name": "Pacific Ocean", "pf_state_auto_name": "", "pf_reach_id": "", "in_icis": "YES", "echo_dfr_link": "https://echo.epa.gov/detailed-facility-report?fid=110043091301", "name": "SOUTHEAST WPCP, NORTH POINT WWF, BAYSIDE WWF", "feature_kind": "CSO outfall"}}, {"type": "Feature", "id": 1628, "geometry": {"type": "Point", "coordinates": [-122.373899691096, 37.7358323183112]}, "properties": {"OBJECTID": 1628, "npdes_pfid": "CA0037664037", "npdes_id": "CA0037664", "permitting_state": "CA", "agency_type_code": "ST6", "facility_uin": "110043091301", "facility_name": "SOUTHEAST WPCP, NORTH POINT WWF, BAYSIDE WWF", "location_address": "750 PHELPS STREET", "supplemental_address_text": "", "facility_city": "SAN FRANCISCO", "county_code": "CA075", "state_code": "CA", "epa_region_code": "09", "facility_type_code": "MWD", "facility_lat": 37.740278, "facility_lon": -122.390278, "permit_name": "San Francisco, City and County of", "version_nmbr": 0, "permit_type_code": "NPD", "effective_date": 1380585600000, "expiration_date": 1538265600000, "permit_status_code": "EXP", "facility_type_indicator": "POTW", "major_minor_status_flag": "M", "permit_tracking": "Y", "pt_start_date": 1380585600000, "dmr_tracking": "N", "dmr_nr_start_date": 1759276800000, "permit_design_flow": 400, "permit_avg_flow": null, "perm_feature_nmbr": "037", "perm_feature_text": "", "pf_lat": 37.735832, "pf_lon": -122.3739, "pf_character": "TCS", "perm_feature_type_code": "EXO", "pf_state_waterbody_name": "Pacific Ocean", "pf_state_auto_name": "", "pf_reach_id": "", "in_icis": "YES", "echo_dfr_link": "https://echo.epa.gov/detailed-facility-report?fid=110043091301", "name": "SOUTHEAST WPCP, NORTH POINT WWF, BAYSIDE WWF", "feature_kind": "CSO outfall"}}, {"type": "Feature", "id": 1629, "geometry": {"type": "Point", "coordinates": [-122.373899691096, 37.7333337131898]}, "properties": {"OBJECTID": 1629, "npdes_pfid": "CA0037664038", "npdes_id": "CA0037664", "permitting_state": "CA", "agency_type_code": "ST6", "facility_uin": "110043091301", "facility_name": "SOUTHEAST WPCP, NORTH POINT WWF, BAYSIDE WWF", "location_address": "750 PHELPS STREET", "supplemental_address_text": "", "facility_city": "SAN FRANCISCO", "county_code": "CA075", "state_code": "CA", "epa_region_code": "09", "facility_type_code": "MWD", "facility_lat": 37.740278, "facility_lon": -122.390278, "permit_name": "San Francisco, City and County of", "version_nmbr": 0, "permit_type_code": "NPD", "effective_date": 1380585600000, "expiration_date": 1538265600000, "permit_status_code": "EXP", "facility_type_indicator": "POTW", "major_minor_status_flag": "M", "permit_tracking": "Y", "pt_start_date": 1380585600000, "dmr_tracking": "N", "dmr_nr_start_date": 1759276800000, "permit_design_flow": 400, "permit_avg_flow": null, "perm_feature_nmbr": "038", "perm_feature_text": "", "pf_lat": 37.733334, "pf_lon": -122.3739, "pf_character": "TCS", "perm_feature_type_code": "EXO", "pf_state_waterbody_name": "Pacific Ocean", "pf_state_auto_name": "", "pf_reach_id": "", "in_icis": "YES", "echo_dfr_link": "https://echo.epa.gov/detailed-facility-report?fid=110043091301", "name": "SOUTHEAST WPCP, NORTH POINT WWF, BAYSIDE WWF", "feature_kind": "CSO outfall"}}, {"type": "Feature", "id": 1630, "geometry": {"type": "Point", "coordinates": [-122.382200124322, 37.7230570734285]}, "properties": {"OBJECTID": 1630, "npdes_pfid": "CA0037664040", "npdes_id": "CA0037664", "permitting_state": "CA", "agency_type_code": "ST6", "facility_uin": "110043091301", "facility_name": "SOUTHEAST WPCP, NORTH POINT WWF, BAYSIDE WWF", "location_address": "750 PHELPS STREET", "supplemental_address_text": "", "facility_city": "SAN FRANCISCO", "county_code": "CA075", "state_code": "CA", "epa_region_code": "09", "facility_type_code": "MWD", "facility_lat": 37.740278, "facility_lon": -122.390278, "permit_name": "San Francisco, City and County of", "version_nmbr": 0, "permit_type_code": "NPD", "effective_date": 1380585600000, "expiration_date": 1538265600000, "permit_status_code": "EXP", "facility_type_indicator": "POTW", "major_minor_status_flag": "M", "permit_tracking": "Y", "pt_start_date": 1380585600000, "dmr_tracking": "N", "dmr_nr_start_date": 1759276800000, "permit_design_flow": 400, "permit_avg_flow": null, "perm_feature_nmbr": "040", "perm_feature_text": "", "pf_lat": 37.723057, "pf_lon": -122.3822, "pf_character": "TCS", "perm_feature_type_code": "EXO", "pf_state_waterbody_name": "Pacific Ocean", "pf_state_auto_name": "San Francisco Bay Estuaries", "pf_reach_id": "18050004001800", "in_icis": "YES", "echo_dfr_link": "https://echo.epa.gov/detailed-facility-report?fid=110043091301", "name": "SOUTHEAST WPCP, NORTH POINT WWF, BAYSIDE WWF", "feature_kind": "CSO outfall"}}, {"type": "Feature", "id": 1631, "geometry": {"type": "Point", "coordinates": [-122.385556230223, 37.7238891193709]}, "properties": {"OBJECTID": 1631, "npdes_pfid": "CA0037664041", "npdes_id": "CA0037664", "permitting_state": "CA", "agency_type_code": "ST6", "facility_uin": "110043091301", "facility_name": "SOUTHEAST WPCP, NORTH POINT WWF, BAYSIDE WWF", "location_address": "750 PHELPS STREET", "supplemental_address_text": "", "facility_city": "SAN FRANCISCO", "county_code": "CA075", "state_code": "CA", "epa_region_code": "09", "facility_type_code": "MWD", "facility_lat": 37.740278, "facility_lon": -122.390278, "permit_name": "San Francisco, City and County of", "version_nmbr": 0, "permit_type_code": "NPD", "effective_date": 1380585600000, "expiration_date": 1538265600000, "permit_status_code": "EXP", "facility_type_indicator": "POTW", "major_minor_status_flag": "M", "permit_tracking": "Y", "pt_start_date": 1380585600000, "dmr_tracking": "N", "dmr_nr_start_date": 1759276800000, "permit_design_flow": 400, "permit_avg_flow": null, "perm_feature_nmbr": "041", "perm_feature_text": "Equivalent-to-Primary-Treated Effluent (Wet Weather)", "pf_lat": 37.723889, "pf_lon": -122.385556, "pf_character": "TCS", "perm_feature_type_code": "EXO", "pf_state_waterbody_name": "Yosemite Creek Sountheast Drainage Basin", "pf_state_auto_name": "San Francisco Bay Estuaries", "pf_reach_id": "18050004001800", "in_icis": "YES", "echo_dfr_link": "https://echo.epa.gov/detailed-facility-report?fid=110043091301", "name": "SOUTHEAST WPCP, NORTH POINT WWF, BAYSIDE WWF", "feature_kind": "CSO outfall"}}, {"type": "Feature", "id": 1632, "geometry": {"type": "Point", "coordinates": [-122.381900087017, 37.7222207548091]}, "properties": {"OBJECTID": 1632, "npdes_pfid": "CA0037664042", "npdes_id": "CA0037664", "permitting_state": "CA", "agency_type_code": "ST6", "facility_uin": "110043091301", "facility_name": "SOUTHEAST WPCP, NORTH POINT WWF, BAYSIDE WWF", "location_address": "750 PHELPS STREET", "supplemental_address_text": "", "facility_city": "SAN FRANCISCO", "county_code": "CA075", "state_code": "CA", "epa_region_code": "09", "facility_type_code": "MWD", "facility_lat": 37.740278, "facility_lon": -122.390278, "permit_name": "San Francisco, City and County of", "version_nmbr": 0, "permit_type_code": "NPD", "effective_date": 1380585600000, "expiration_date": 1538265600000, "permit_status_code": "EXP", "facility_type_indicator": "POTW", "major_minor_status_flag": "M", "permit_tracking": "Y", "pt_start_date": 1380585600000, "dmr_tracking": "N", "dmr_nr_start_date": 1759276800000, "permit_design_flow": 400, "permit_avg_flow": null, "perm_feature_nmbr": "042", "perm_feature_text": "", "pf_lat": 37.722221, "pf_lon": -122.3819, "pf_character": "TCS", "perm_feature_type_code": "EXO", "pf_state_waterbody_name": "Pacific Ocean", "pf_state_auto_name": "San Francisco Bay Estuaries", "pf_reach_id": "18050004001800", "in_icis": "YES", "echo_dfr_link": "https://echo.epa.gov/detailed-facility-report?fid=110043091301", "name": "SOUTHEAST WPCP, NORTH POINT WWF, BAYSIDE WWF", "feature_kind": "CSO outfall"}}, {"type": "Feature", "id": 1633, "geometry": {"type": "Point", "coordinates": [-122.386944127337, 37.747221678091]}, "properties": {"OBJECTID": 1633, "npdes_pfid": "CA0037664043", "npdes_id": "CA0037664", "permitting_state": "CA", "agency_type_code": "ST6", "facility_uin": "110043091301", "facility_name": "SOUTHEAST WPCP, NORTH POINT WWF, BAYSIDE WWF", "location_address": "750 PHELPS STREET", "supplemental_address_text": "", "facility_city": "SAN FRANCISCO", "county_code": "CA075", "state_code": "CA", "epa_region_code": "09", "facility_type_code": "MWD", "facility_lat": 37.740278, "facility_lon": -122.390278, "permit_name": "San Francisco, City and County of", "version_nmbr": 0, "permit_type_code": "NPD", "effective_date": 1380585600000, "expiration_date": 1538265600000, "permit_status_code": "EXP", "facility_type_indicator": "POTW", "major_minor_status_flag": "M", "permit_tracking": "Y", "pt_start_date": 1380585600000, "dmr_tracking": "N", "dmr_nr_start_date": 1759276800000, "permit_design_flow": 400, "permit_avg_flow": null, "perm_feature_nmbr": "043", "perm_feature_text": "Equivalent-to-Primary-Treated Effluent (Wet Weather)", "pf_lat": 37.747222, "pf_lon": -122.386944, "pf_character": "TCS", "perm_feature_type_code": "EXO", "pf_state_waterbody_name": "Candlestick Cove Southeast Drainage Basin", "pf_state_auto_name": "San Francisco Bay Estuaries", "pf_reach_id": "18050004001799", "in_icis": "YES", "echo_dfr_link": "https://echo.epa.gov/detailed-facility-report?fid=110043091301", "name": "SOUTHEAST WPCP, NORTH POINT WWF, BAYSIDE WWF", "feature_kind": "CSO outfall"}}, {"type": "Feature", "id": 1634, "geometry": {"type": "Point", "coordinates": [-122.508060383834, 37.737780276659]}, "properties": {"OBJECTID": 1634, "npdes_pfid": "CA0037681002", "npdes_id": "CA0037681", "permitting_state": "CA", "agency_type_code": "ST6", "facility_uin": "110055972023", "facility_name": "OCEANSIDE WPCP", "location_address": "3500 GREAT HIGHWAY", "supplemental_address_text": "", "facility_city": "SAN FRANCISCO", "county_code": "CA075", "state_code": "CA", "epa_region_code": "09", "facility_type_code": "MWD", "facility_lat": 37.728028, "facility_lon": -122.5045, "permit_name": "SAN FRANCISCO, CITY & COUNTY", "version_nmbr": 0, "permit_type_code": "NPD", "effective_date": 1580515200000, "expiration_date": 1730332800000, "permit_status_code": "EXP", "facility_type_indicator": "POTW", "major_minor_status_flag": "M", "permit_tracking": "Y", "pt_start_date": 1580515200000, "dmr_tracking": "N", "dmr_nr_start_date": 1759276800000, "permit_design_flow": 43, "permit_avg_flow": null, "perm_feature_nmbr": "002", "perm_feature_text": "", "pf_lat": 37.73778, "pf_lon": -122.50806, "pf_character": "TCS", "perm_feature_type_code": "EXO", "pf_state_waterbody_name": "Pacific Ocean", "pf_state_auto_name": "San Pedro Creek-Frontal Pacific Ocean", "pf_reach_id": "18050006000289", "in_icis": "YES", "echo_dfr_link": "https://echo.epa.gov/detailed-facility-report?fid=110055972023", "name": "OCEANSIDE WPCP", "feature_kind": "CSO outfall"}}, {"type": "Feature", "id": 1635, "geometry": {"type": "Point", "coordinates": [-122.511579983117, 37.7639001299508]}, "properties": {"OBJECTID": 1635, "npdes_pfid": "CA0037681003", "npdes_id": "CA0037681", "permitting_state": "CA", "agency_type_code": "ST6", "facility_uin": "110055972023", "facility_name": "OCEANSIDE WPCP", "location_address": "3500 GREAT HIGHWAY", "supplemental_address_text": "", "facility_city": "SAN FRANCISCO", "county_code": "CA075", "state_code": "CA", "epa_region_code": "09", "facility_type_code": "MWD", "facility_lat": 37.728028, "facility_lon": -122.5045, "permit_name": "SAN FRANCISCO, CITY & COUNTY", "version_nmbr": 0, "permit_type_code": "NPD", "effective_date": 1580515200000, "expiration_date": 1730332800000, "permit_status_code": "EXP", "facility_type_indicator": "POTW", "major_minor_status_flag": "M", "permit_tracking": "Y", "pt_start_date": 1580515200000, "dmr_tracking": "N", "dmr_nr_start_date": 1759276800000, "permit_design_flow": 43, "permit_avg_flow": null, "perm_feature_nmbr": "003", "perm_feature_text": "", "pf_lat": 37.7639, "pf_lon": -122.51158, "pf_character": "TCS", "perm_feature_type_code": "EXO", "pf_state_waterbody_name": "Pacific Ocean", "pf_state_auto_name": "San Pedro Creek-Frontal Pacific Ocean", "pf_reach_id": "18050006000289", "in_icis": "YES", "echo_dfr_link": "https://echo.epa.gov/detailed-facility-report?fid=110055972023", "name": "OCEANSIDE WPCP", "feature_kind": "CSO outfall"}}, {"type": "Feature", "id": 1636, "geometry": {"type": "Point", "coordinates": [-122.510200170841, 37.784750184]}, "properties": {"OBJECTID": 1636, "npdes_pfid": "CA0037681004", "npdes_id": "CA0037681", "permitting_state": "CA", "agency_type_code": "ST6", "facility_uin": "110055972023", "facility_name": "OCEANSIDE WPCP", "location_address": "3500 GREAT HIGHWAY", "supplemental_address_text": "", "facility_city": "SAN FRANCISCO", "county_code": "CA075", "state_code": "CA", "epa_region_code": "09", "facility_type_code": "MWD", "facility_lat": 37.728028, "facility_lon": -122.5045, "permit_name": "SAN FRANCISCO, CITY & COUNTY", "version_nmbr": 0, "permit_type_code": "NPD", "effective_date": 1580515200000, "expiration_date": 1730332800000, "permit_status_code": "EXP", "facility_type_indicator": "POTW", "major_minor_status_flag": "M", "permit_tracking": "Y", "pt_start_date": 1580515200000, "dmr_tracking": "N", "dmr_nr_start_date": 1759276800000, "permit_design_flow": 43, "permit_avg_flow": null, "perm_feature_nmbr": "004", "perm_feature_text": "", "pf_lat": 37.78475, "pf_lon": -122.5102, "pf_character": "TCS", "perm_feature_type_code": "EXO", "pf_state_waterbody_name": "Pacific Ocean", "pf_state_auto_name": "Lobos Creek-Frontal San Francisco Bay Estuaries", "pf_reach_id": "18050002001020", "in_icis": "YES", "echo_dfr_link": "https://echo.epa.gov/detailed-facility-report?fid=110055972023", "name": "OCEANSIDE WPCP", "feature_kind": "CSO outfall"}}, {"type": "Feature", "id": 1637, "geometry": {"type": "Point", "coordinates": [-122.491729910284, 37.7877298044068]}, "properties": {"OBJECTID": 1637, "npdes_pfid": "CA0037681005", "npdes_id": "CA0037681", "permitting_state": "CA", "agency_type_code": "ST6", "facility_uin": "110055972023", "facility_name": "OCEANSIDE WPCP", "location_address": "3500 GREAT HIGHWAY", "supplemental_address_text": "", "facility_city": "SAN FRANCISCO", "county_code": "CA075", "state_code": "CA", "epa_region_code": "09", "facility_type_code": "MWD", "facility_lat": 37.728028, "facility_lon": -122.5045, "permit_name": "SAN FRANCISCO, CITY & COUNTY", "version_nmbr": 0, "permit_type_code": "NPD", "effective_date": 1580515200000, "expiration_date": 1730332800000, "permit_status_code": "EXP", "facility_type_indicator": "POTW", "major_minor_status_flag": "M", "permit_tracking": "Y", "pt_start_date": 1580515200000, "dmr_tracking": "N", "dmr_nr_start_date": 1759276800000, "permit_design_flow": 43, "permit_avg_flow": null, "perm_feature_nmbr": "005", "perm_feature_text": "", "pf_lat": 37.78773, "pf_lon": -122.49173, "pf_character": "TCS", "perm_feature_type_code": "EXO", "pf_state_waterbody_name": "Pacific Ocean", "pf_state_auto_name": "Lobos Creek-Frontal San Francisco Bay Estuaries", "pf_reach_id": "18050002001020", "in_icis": "YES", "echo_dfr_link": "https://echo.epa.gov/detailed-facility-report?fid=110055972023", "name": "OCEANSIDE WPCP", "feature_kind": "CSO outfall"}}, {"type": "Feature", "id": 1638, "geometry": {"type": "Point", "coordinates": [-122.487869849508, 37.7894201194009]}, "properties": {"OBJECTID": 1638, "npdes_pfid": "CA0037681006", "npdes_id": "CA0037681", "permitting_state": "CA", "agency_type_code": "ST6", "facility_uin": "110055972023", "facility_name": "OCEANSIDE WPCP", "location_address": "3500 GREAT HIGHWAY", "supplemental_address_text": "", "facility_city": "SAN FRANCISCO", "county_code": "CA075", "state_code": "CA", "epa_region_code": "09", "facility_type_code": "MWD", "facility_lat": 37.728028, "facility_lon": -122.5045, "permit_name": "SAN FRANCISCO, CITY & COUNTY", "version_nmbr": 0, "permit_type_code": "NPD", "effective_date": 1580515200000, "expiration_date": 1730332800000, "permit_status_code": "EXP", "facility_type_indicator": "POTW", "major_minor_status_flag": "M", "permit_tracking": "Y", "pt_start_date": 1580515200000, "dmr_tracking": "N", "dmr_nr_start_date": 1759276800000, "permit_design_flow": 43, "permit_avg_flow": null, "perm_feature_nmbr": "006", "perm_feature_text": "", "pf_lat": 37.78942, "pf_lon": -122.48787, "pf_character": "TCS", "perm_feature_type_code": "EXO", "pf_state_waterbody_name": "Pacific Ocean", "pf_state_auto_name": "Lobos Creek-Frontal San Francisco Bay Estuaries", "pf_reach_id": "18050002001020", "in_icis": "YES", "echo_dfr_link": "https://echo.epa.gov/detailed-facility-report?fid=110055972023", "name": "OCEANSIDE WPCP", "feature_kind": "CSO outfall"}}, {"type": "Feature", "id": 1639, "geometry": {"type": "Point", "coordinates": [-122.487000280313, 37.7894698130828]}, "properties": {"OBJECTID": 1639, "npdes_pfid": "CA0037681007", "npdes_id": "CA0037681", "permitting_state": "CA", "agency_type_code": "ST6", "facility_uin": "110055972023", "facility_name": "OCEANSIDE WPCP", "location_address": "3500 GREAT HIGHWAY", "supplemental_address_text": "", "facility_city": "SAN FRANCISCO", "county_code": "CA075", "state_code": "CA", "epa_region_code": "09", "facility_type_code": "MWD", "facility_lat": 37.728028, "facility_lon": -122.5045, "permit_name": "SAN FRANCISCO, CITY & COUNTY", "version_nmbr": 0, "permit_type_code": "NPD", "effective_date": 1580515200000, "expiration_date": 1730332800000, "permit_status_code": "EXP", "facility_type_indicator": "POTW", "major_minor_status_flag": "M", "permit_tracking": "Y", "pt_start_date": 1580515200000, "dmr_tracking": "N", "dmr_nr_start_date": 1759276800000, "permit_design_flow": 43, "permit_avg_flow": null, "perm_feature_nmbr": "007", "perm_feature_text": "", "pf_lat": 37.78947, "pf_lon": -122.487, "pf_character": "TCS", "perm_feature_type_code": "EXO", "pf_state_waterbody_name": "Pacific Ocean", "pf_state_auto_name": "Lobos Creek-Frontal San Francisco Bay Estuaries", "pf_reach_id": "18050002001020", "in_icis": "YES", "echo_dfr_link": "https://echo.epa.gov/detailed-facility-report?fid=110055972023", "name": "OCEANSIDE WPCP", "feature_kind": "CSO outfall"}}, {"type": "Feature", "id": 1640, "geometry": {"type": "Point", "coordinates": [-122.5044437665, 37.7152783062791]}, "properties": {"OBJECTID": 1640, "npdes_pfid": "CA0037681CSD", "npdes_id": "CA0037681", "permitting_state": "CA", "agency_type_code": "ST6", "facility_uin": "110055972023", "facility_name": "OCEANSIDE WPCP", "location_address": "3500 GREAT HIGHWAY", "supplemental_address_text": "", "facility_city": "SAN FRANCISCO", "county_code": "CA075", "state_code": "CA", "epa_region_code": "09", "facility_type_code": "MWD", "facility_lat": 37.728028, "facility_lon": -122.5045, "permit_name": "SAN FRANCISCO, CITY & COUNTY", "version_nmbr": 0, "permit_type_code": "NPD", "effective_date": 1580515200000, "expiration_date": 1730332800000, "permit_status_code": "EXP", "facility_type_indicator": "POTW", "major_minor_status_flag": "M", "permit_tracking": "Y", "pt_start_date": 1580515200000, "dmr_tracking": "N", "dmr_nr_start_date": 1759276800000, "permit_design_flow": 43, "permit_avg_flow": null, "perm_feature_nmbr": "CSD", "perm_feature_text": "CENTRAL MONITORING LOCATION FOR 7 SEPARATE OUTFALLS. Equivalent-to-ptimary-treated effluent", "pf_lat": 37.715278, "pf_lon": -122.504444, "pf_character": "TCS", "perm_feature_type_code": "EXO", "pf_state_waterbody_name": "PACIFIC OCEAN", "pf_state_auto_name": "San Pedro Creek-Frontal Pacific Ocean", "pf_reach_id": "18050006000289", "in_icis": "YES", "echo_dfr_link": "https://echo.epa.gov/detailed-facility-report?fid=110055972023", "name": "OCEANSIDE WPCP", "feature_kind": "CSO outfall"}}, {"type": "Feature", "id": 1641, "geometry": {"type": "Point", "coordinates": [-121.523888616435, 38.5191666790334]}, "properties": {"OBJECTID": 1641, "npdes_pfid": "CA0079111002", "npdes_id": "CA0079111", "permitting_state": "CA", "agency_type_code": "ST6", "facility_uin": "110009542192", "facility_name": "SACRAMENTO COMBINED WWCTS", "location_address": "1395 35TH AVE", "supplemental_address_text": "CONTROL COMBINED WASTEWATER COLLECTION AND TREATME", "facility_city": "SACRAMENTO", "county_code": "CA067", "state_code": "CA", "epa_region_code": "09", "facility_type_code": "MWD", "facility_lat": 38.521722, "facility_lon": -121.506861, "permit_name": "Sacramento, City of", "version_nmbr": 0, "permit_type_code": "NPD", "effective_date": 1601510400000, "expiration_date": 1759190400000, "permit_status_code": "EXP", "facility_type_indicator": "POTW", "major_minor_status_flag": "M", "permit_tracking": "Y", "pt_start_date": 1601510400000, "dmr_tracking": "N", "dmr_nr_start_date": 1759276800000, "permit_design_flow": 380, "permit_avg_flow": null, "perm_feature_nmbr": "002", "perm_feature_text": "Combined municipal and industrial wastewater and stormwater", "pf_lat": 38.519167, "pf_lon": -121.523889, "pf_character": "TCS", "perm_feature_type_code": "EXO", "pf_state_waterbody_name": "Sacramento River", "pf_state_auto_name": "Sacramento River", "pf_reach_id": "18020163016554", "in_icis": "YES", "echo_dfr_link": "https://echo.epa.gov/detailed-facility-report?fid=110009542192", "name": "SACRAMENTO COMBINED WWCTS", "feature_kind": "CSO outfall"}}, {"type": "Feature", "id": 1642, "geometry": {"type": "Point", "coordinates": [-121.523611037012, 38.523056100247]}, "properties": {"OBJECTID": 1642, "npdes_pfid": "CA0079111003", "npdes_id": "CA0079111", "permitting_state": "CA", "agency_type_code": "ST6", "facility_uin": "110009542192", "facility_name": "SACRAMENTO COMBINED WWCTS", "location_address": "1395 35TH AVE", "supplemental_address_text": "CONTROL COMBINED WASTEWATER COLLECTION AND TREATME", "facility_city": "SACRAMENTO", "county_code": "CA067", "state_code": "CA", "epa_region_code": "09", "facility_type_code": "MWD", "facility_lat": 38.521722, "facility_lon": -121.506861, "permit_name": "Sacramento, City of", "version_nmbr": 0, "permit_type_code": "NPD", "effective_date": 1601510400000, "expiration_date": 1759190400000, "permit_status_code": "EXP", "facility_type_indicator": "POTW", "major_minor_status_flag": "M", "permit_tracking": "Y", "pt_start_date": 1601510400000, "dmr_tracking": "N", "dmr_nr_start_date": 1759276800000, "permit_design_flow": 380, "permit_avg_flow": null, "perm_feature_nmbr": "003", "perm_feature_text": "Combined Municipal and Industrial Wastewater and Stormwater (Storm Sump 104)", "pf_lat": 38.523056, "pf_lon": -121.523611, "pf_character": "TCS", "perm_feature_type_code": "EXO", "pf_state_waterbody_name": "Sacramento River", "pf_state_auto_name": "Sacramento River", "pf_reach_id": "18020163016554", "in_icis": "YES", "echo_dfr_link": "https://echo.epa.gov/detailed-facility-report?fid=110009542192", "name": "SACRAMENTO COMBINED WWCTS", "feature_kind": "CSO outfall"}}, {"type": "Feature", "id": 1643, "geometry": {"type": "Point", "coordinates": [-121.510278241565, 38.5477778952248]}, "properties": {"OBJECTID": 1643, "npdes_pfid": "CA0079111004", "npdes_id": "CA0079111", "permitting_state": "CA", "agency_type_code": "ST6", "facility_uin": "110009542192", "facility_name": "SACRAMENTO COMBINED WWCTS", "location_address": "1395 35TH AVE", "supplemental_address_text": "CONTROL COMBINED WASTEWATER COLLECTION AND TREATME", "facility_city": "SACRAMENTO", "county_code": "CA067", "state_code": "CA", "epa_region_code": "09", "facility_type_code": "MWD", "facility_lat": 38.521722, "facility_lon": -121.506861, "permit_name": "Sacramento, City of", "version_nmbr": 0, "permit_type_code": "NPD", "effective_date": 1601510400000, "expiration_date": 1759190400000, "permit_status_code": "EXP", "facility_type_indicator": "POTW", "major_minor_status_flag": "M", "permit_tracking": "Y", "pt_start_date": 1601510400000, "dmr_tracking": "N", "dmr_nr_start_date": 1759276800000, "permit_design_flow": 380, "permit_avg_flow": null, "perm_feature_nmbr": "004", "perm_feature_text": "Combined Municipal and Industrial Wastewater and Stormwater (Sump 2/2A Gate #4)", "pf_lat": 38.547778, "pf_lon": -121.510278, "pf_character": "CSO", "perm_feature_type_code": "EXO", "pf_state_waterbody_name": "Sacramento River", "pf_state_auto_name": "Sacramento River", "pf_reach_id": "18020163016554", "in_icis": "YES", "echo_dfr_link": "https://echo.epa.gov/detailed-facility-report?fid=110009542192", "name": "SACRAMENTO COMBINED WWCTS", "feature_kind": "CSO outfall"}}, {"type": "Feature", "id": 1644, "geometry": {"type": "Point", "coordinates": [-121.510278241565, 38.5474996800135]}, "properties": {"OBJECTID": 1644, "npdes_pfid": "CA0079111005", "npdes_id": "CA0079111", "permitting_state": "CA", "agency_type_code": "ST6", "facility_uin": "110009542192", "facility_name": "SACRAMENTO COMBINED WWCTS", "location_address": "1395 35TH AVE", "supplemental_address_text": "CONTROL COMBINED WASTEWATER COLLECTION AND TREATME", "facility_city": "SACRAMENTO", "county_code": "CA067", "state_code": "CA", "epa_region_code": "09", "facility_type_code": "MWD", "facility_lat": 38.521722, "facility_lon": -121.506861, "permit_name": "Sacramento, City of", "version_nmbr": 0, "permit_type_code": "NPD", "effective_date": 1601510400000, "expiration_date": 1759190400000, "permit_status_code": "EXP", "facility_type_indicator": "POTW", "major_minor_status_flag": "M", "permit_tracking": "Y", "pt_start_date": 1601510400000, "dmr_tracking": "N", "dmr_nr_start_date": 1759276800000, "permit_design_flow": 380, "permit_avg_flow": null, "perm_feature_nmbr": "005", "perm_feature_text": "Combined Municipal and Industrial Wastewater and Stormwater (Sump 2/2A Gate #5)", "pf_lat": 38.5475, "pf_lon": -121.510278, "pf_character": "CSO", "perm_feature_type_code": "EXO", "pf_state_waterbody_name": "Sacramento River", "pf_state_auto_name": "Sacramento River", "pf_reach_id": "18020163016554", "in_icis": "YES", "echo_dfr_link": "https://echo.epa.gov/detailed-facility-report?fid=110009542192", "name": "SACRAMENTO COMBINED WWCTS", "feature_kind": "CSO outfall"}}, {"type": "Feature", "id": 1645, "geometry": {"type": "Point", "coordinates": [-121.513333411846, 38.5716666644425]}, "properties": {"OBJECTID": 1645, "npdes_pfid": "CA0079111006", "npdes_id": "CA0079111", "permitting_state": "CA", "agency_type_code": "ST6", "facility_uin": "110009542192", "facility_name": "SACRAMENTO COMBINED WWCTS", "location_address": "1395 35TH AVE", "supplemental_address_text": "CONTROL COMBINED WASTEWATER COLLECTION AND TREATME", "facility_city": "SACRAMENTO", "county_code": "CA067", "state_code": "CA", "epa_region_code": "09", "facility_type_code": "MWD", "facility_lat": 38.521722, "facility_lon": -121.506861, "permit_name": "Sacramento, City of", "version_nmbr": 0, "permit_type_code": "NPD", "effective_date": 1601510400000, "expiration_date": 1759190400000, "permit_status_code": "EXP", "facility_type_indicator": "POTW", "major_minor_status_flag": "M", "permit_tracking": "Y", "pt_start_date": 1601510400000, "dmr_tracking": "N", "dmr_nr_start_date": 1759276800000, "permit_design_flow": 380, "permit_avg_flow": null, "perm_feature_nmbr": "006", "perm_feature_text": "Combined municipal and industrial wastewater and stormwater", "pf_lat": 38.571667, "pf_lon": -121.513333, "pf_character": "TCS", "perm_feature_type_code": "EXO", "pf_state_waterbody_name": "Sacramento River", "pf_state_auto_name": "Sacramento River", "pf_reach_id": "18020163016384", "in_icis": "YES", "echo_dfr_link": "https://echo.epa.gov/detailed-facility-report?fid=110009542192", "name": "SACRAMENTO COMBINED WWCTS", "feature_kind": "CSO outfall"}}, {"type": "Feature", "id": 1646, "geometry": {"type": "Point", "coordinates": [-121.513055832423, 38.5719440837999]}, "properties": {"OBJECTID": 1646, "npdes_pfid": "CA0079111007", "npdes_id": "CA0079111", "permitting_state": "CA", "agency_type_code": "ST6", "facility_uin": "110009542192", "facility_name": "SACRAMENTO COMBINED WWCTS", "location_address": "1395 35TH AVE", "supplemental_address_text": "CONTROL COMBINED WASTEWATER COLLECTION AND TREATME", "facility_city": "SACRAMENTO", "county_code": "CA067", "state_code": "CA", "epa_region_code": "09", "facility_type_code": "MWD", "facility_lat": 38.521722, "facility_lon": -121.506861, "permit_name": "Sacramento, City of", "version_nmbr": 0, "permit_type_code": "NPD", "effective_date": 1601510400000, "expiration_date": 1759190400000, "permit_status_code": "EXP", "facility_type_indicator": "POTW", "major_minor_status_flag": "M", "permit_tracking": "Y", "pt_start_date": 1601510400000, "dmr_tracking": "N", "dmr_nr_start_date": 1759276800000, "permit_design_flow": 380, "permit_avg_flow": null, "perm_feature_nmbr": "007", "perm_feature_text": "Combined Municipal and Industrial Wastewater and Stormwater (Combined Sump 1A Bypass)", "pf_lat": 38.571944, "pf_lon": -121.513056, "pf_character": "CSO", "perm_feature_type_code": "EXO", "pf_state_waterbody_name": "Sacramento River", "pf_state_auto_name": "Sacramento River", "pf_reach_id": "18020163016384", "in_icis": "YES", "echo_dfr_link": "https://echo.epa.gov/detailed-facility-report?fid=110009542192", "name": "SACRAMENTO COMBINED WWCTS", "feature_kind": "CSO outfall"}}]}