{"type": "FeatureCollection", "features": [{"type": "Feature", "id": 6053, "geometry": {"type": "Point", "coordinates": [-122.489776972856, 48.7507705918815]}, "properties": {"OBJECTID": 6053, "npdes_pfid": "WA0023744003", "npdes_id": "WA0023744", "permitting_state": "WA", "agency_type_code": "ST6", "facility_uin": "110061176016", "facility_name": "BELLINGHAM STP", "location_address": "200 MCKENZIE AVE", "supplemental_address_text": "", "facility_city": "BELLINGHAM", "county_code": "WA073", "state_code": "WA", "epa_region_code": "10", "facility_type_code": "MWD", "facility_lat": 48.7190475, "facility_lon": -122.513931, "permit_name": "City of Bellingham Public Works", "version_nmbr": 0, "permit_type_code": "NPD", "effective_date": 1404345600000, "expiration_date": 1561852800000, "permit_status_code": "ADC", "facility_type_indicator": "POTW", "major_minor_status_flag": "M", "permit_tracking": "Y", "pt_start_date": 1404345600000, "dmr_tracking": "Y", "dmr_nr_start_date": 1404345600000, "permit_design_flow": null, "permit_avg_flow": null, "perm_feature_nmbr": "003", "perm_feature_text": "003", "pf_lat": 48.7507706, "pf_lon": -122.489777, "pf_character": "CSO", "perm_feature_type_code": "EXO", "pf_state_waterbody_name": "", "pf_state_auto_name": "Squalicum Creek-Frontal Bellingham Bay", "pf_reach_id": "17110004015672", "in_icis": "YES", "echo_dfr_link": "https://echo.epa.gov/detailed-facility-report?fid=110061176016", "name": "BELLINGHAM STP", "feature_kind": "CSO outfall"}}, {"type": "Feature", "id": 6054, "geometry": {"type": "Point", "coordinates": [-117.447776726535, 47.6749036791432]}, "properties": {"OBJECTID": 6054, "npdes_pfid": "WA0024473012", "npdes_id": "WA0024473", "permitting_state": "WA", "agency_type_code": "ST6", "facility_uin": "110000562347", "facility_name": "SPOKANE RIVERSIDE PARK WATER RECLAMATION FACILITY", "location_address": "4401 N AUBREY L WHITE PKWY", "supplemental_address_text": "", "facility_city": "SPOKANE", "county_code": "WA063", "state_code": "WA", "epa_region_code": "10", "facility_type_code": "MWD", "facility_lat": 47.6973877, "facility_lon": -117.475502, "permit_name": "City of Spokane", "version_nmbr": 0, "permit_type_code": "NPD", "effective_date": 1661990400000, "expiration_date": 1819670400000, "permit_status_code": "EFF", "facility_type_indicator": "POTW", "major_minor_status_flag": "M", "permit_tracking": "Y", "pt_start_date": 1661990400000, "dmr_tracking": "Y", "dmr_nr_start_date": 1661990400000, "permit_design_flow": null, "permit_avg_flow": null, "perm_feature_nmbr": "012", "perm_feature_text": "CSO OUTFALL - PETTET DR @ MANSFIELD AVE", "pf_lat": 47.6749039, "pf_lon": -117.447777, "pf_character": "CSO", "perm_feature_type_code": "EXO", "pf_state_waterbody_name": "Spokane River", "pf_state_auto_name": "Spokane River", "pf_reach_id": "", "in_icis": "YES", "echo_dfr_link": "https://echo.epa.gov/detailed-facility-report?fid=110000562347", "name": "SPOKANE RIVERSIDE PARK WATER RECLAMATION FACILITY", "feature_kind": "CSO outfall"}}, {"type": "Feature", "id": 6055, "geometry": {"type": "Point", "coordinates": [-117.44689188598, 47.6492957387918]}, "properties": {"OBJECTID": 6055, "npdes_pfid": "WA0024473019", "npdes_id": "WA0024473", "permitting_state": "WA", "agency_type_code": "ST6", "facility_uin": "110000562347", "facility_name": "SPOKANE RIVERSIDE PARK WATER RECLAMATION FACILITY", "location_address": "4401 N AUBREY L WHITE PKWY", "supplemental_address_text": "", "facility_city": "SPOKANE", "county_code": "WA063", "state_code": "WA", "epa_region_code": "10", "facility_type_code": "MWD", "facility_lat": 47.6973877, "facility_lon": -117.475502, "permit_name": "City of Spokane", "version_nmbr": 0, "permit_type_code": "NPD", "effective_date": 1661990400000, "expiration_date": 1819670400000, "permit_status_code": "EFF", "facility_type_indicator": "POTW", "major_minor_status_flag": "M", "permit_tracking": "Y", "pt_start_date": 1661990400000, "dmr_tracking": "Y", "dmr_nr_start_date": 1661990400000, "permit_design_flow": null, "permit_avg_flow": null, "perm_feature_nmbr": "019", "perm_feature_text": "CSO OUTFALL - AT HIGH BRIDGE (EAST SIDE)", "pf_lat": 47.6492958, "pf_lon": -117.446892, "pf_character": "CSO", "perm_feature_type_code": "EXO", "pf_state_waterbody_name": "Spokane River", "pf_state_auto_name": "Hangman Creek", "pf_reach_id": "", "in_icis": "YES", "echo_dfr_link": "https://echo.epa.gov/detailed-facility-report?fid=110000562347", "name": "SPOKANE RIVERSIDE PARK WATER RECLAMATION FACILITY", "feature_kind": "CSO outfall"}}, {"type": "Feature", "id": 6056, "geometry": {"type": "Point", "coordinates": [-122.223790308805, 48.0018799663586]}, "properties": {"OBJECTID": 6056, "npdes_pfid": "WA0024490005", "npdes_id": "WA0024490", "permitting_state": "WA", "agency_type_code": "ST6", "facility_uin": "110016662011", "facility_name": "EVERETT WATER POLLUTION CONTROL FACILITY", "location_address": "4027 4TH ST SE", "supplemental_address_text": "", "facility_city": "EVERETT", "county_code": "WA061", "state_code": "WA", "epa_region_code": "10", "facility_type_code": "MWD", "facility_lat": 47.9928246, "facility_lon": -122.174393, "permit_name": "City of Everett", "version_nmbr": 0, "permit_type_code": "NPD", "effective_date": 1446508800000, "expiration_date": 1604016000000, "permit_status_code": "TRM", "facility_type_indicator": "POTW", "major_minor_status_flag": "M", "permit_tracking": "N", "pt_start_date": 1735603200000, "dmr_tracking": "Y", "dmr_nr_start_date": 1446508800000, "permit_design_flow": null, "permit_avg_flow": null, "perm_feature_nmbr": "005", "perm_feature_text": "PS01 - 13th St overflow", "pf_lat": 48.00188, "pf_lon": -122.22379, "pf_character": "CSO", "perm_feature_type_code": "EXO", "pf_state_waterbody_name": "Port Gardner Bay", "pf_state_auto_name": "", "pf_reach_id": "", "in_icis": "YES", "echo_dfr_link": "https://echo.epa.gov/detailed-facility-report?fid=110016662011", "name": "EVERETT WATER POLLUTION CONTROL FACILITY", "feature_kind": "CSO outfall"}}, {"type": "Feature", "id": 6057, "geometry": {"type": "Point", "coordinates": [-122.224459553692, 47.9793896999851]}, "properties": {"OBJECTID": 6057, "npdes_pfid": "WA0024490007", "npdes_id": "WA0024490", "permitting_state": "WA", "agency_type_code": "ST6", "facility_uin": "110016662011", "facility_name": "EVERETT WATER POLLUTION CONTROL FACILITY", "location_address": "4027 4TH ST SE", "supplemental_address_text": "", "facility_city": "EVERETT", "county_code": "WA061", "state_code": "WA", "epa_region_code": "10", "facility_type_code": "MWD", "facility_lat": 47.9928246, "facility_lon": -122.174393, "permit_name": "City of Everett", "version_nmbr": 0, "permit_type_code": "NPD", "effective_date": 1446508800000, "expiration_date": 1604016000000, "permit_status_code": "TRM", "facility_type_indicator": "POTW", "major_minor_status_flag": "M", "permit_tracking": "N", "pt_start_date": 1735603200000, "dmr_tracking": "Y", "dmr_nr_start_date": 1446508800000, "permit_design_flow": null, "permit_avg_flow": null, "perm_feature_nmbr": "007", "perm_feature_text": "PS07 - 24-inch South Bond St.", "pf_lat": 47.97939, "pf_lon": -122.22446, "pf_character": "CSO", "perm_feature_type_code": "EXO", "pf_state_waterbody_name": "Port Gardner Bay", "pf_state_auto_name": "Skagit Bay-Whidbey Basin", "pf_reach_id": "17110019000281", "in_icis": "YES", "echo_dfr_link": "https://echo.epa.gov/detailed-facility-report?fid=110016662011", "name": "EVERETT WATER POLLUTION CONTROL FACILITY", "feature_kind": "CSO outfall"}}, {"type": "Feature", "id": 6058, "geometry": {"type": "Point", "coordinates": [-122.221099854529, 47.9798202507214]}, "properties": {"OBJECTID": 6058, "npdes_pfid": "WA0024490008", "npdes_id": "WA0024490", "permitting_state": "WA", "agency_type_code": "ST6", "facility_uin": "110016662011", "facility_name": "EVERETT WATER POLLUTION CONTROL FACILITY", "location_address": "4027 4TH ST SE", "supplemental_address_text": "", "facility_city": "EVERETT", "county_code": "WA061", "state_code": "WA", "epa_region_code": "10", "facility_type_code": "MWD", "facility_lat": 47.9928246, "facility_lon": -122.174393, "permit_name": "City of Everett", "version_nmbr": 0, "permit_type_code": "NPD", "effective_date": 1446508800000, "expiration_date": 1604016000000, "permit_status_code": "TRM", "facility_type_indicator": "POTW", "major_minor_status_flag": "M", "permit_tracking": "N", "pt_start_date": 1735603200000, "dmr_tracking": "Y", "dmr_nr_start_date": 1446508800000, "permit_design_flow": null, "permit_avg_flow": null, "perm_feature_nmbr": "008", "perm_feature_text": "PS06 - West Hewitt & Bond St.", "pf_lat": 47.97982, "pf_lon": -122.2211, "pf_character": "CSO", "perm_feature_type_code": "EXO", "pf_state_waterbody_name": "Port Gardner Bay", "pf_state_auto_name": "", "pf_reach_id": "", "in_icis": "YES", "echo_dfr_link": "https://echo.epa.gov/detailed-facility-report?fid=110016662011", "name": "EVERETT WATER POLLUTION CONTROL FACILITY", "feature_kind": "CSO outfall"}}, {"type": "Feature", "id": 6059, "geometry": {"type": "Point", "coordinates": [-122.219049899051, 47.9829500542215]}, "properties": {"OBJECTID": 6059, "npdes_pfid": "WA0024490009", "npdes_id": "WA0024490", "permitting_state": "WA", "agency_type_code": "ST6", "facility_uin": "110016662011", "facility_name": "EVERETT WATER POLLUTION CONTROL FACILITY", "location_address": "4027 4TH ST SE", "supplemental_address_text": "", "facility_city": "EVERETT", "county_code": "WA061", "state_code": "WA", "epa_region_code": "10", "facility_type_code": "MWD", "facility_lat": 47.9928246, "facility_lon": -122.174393, "permit_name": "City of Everett", "version_nmbr": 0, "permit_type_code": "NPD", "effective_date": 1446508800000, "expiration_date": 1604016000000, "permit_status_code": "TRM", "facility_type_indicator": "POTW", "major_minor_status_flag": "M", "permit_tracking": "N", "pt_start_date": 1735603200000, "dmr_tracking": "Y", "dmr_nr_start_date": 1446508800000, "permit_design_flow": null, "permit_avg_flow": null, "perm_feature_nmbr": "009", "perm_feature_text": "PS05 - Everett & Federal Ave.", "pf_lat": 47.98295, "pf_lon": -122.21905, "pf_character": "CSO", "perm_feature_type_code": "EXO", "pf_state_waterbody_name": "Port Gardner Bay", "pf_state_auto_name": "", "pf_reach_id": "", "in_icis": "YES", "echo_dfr_link": "https://echo.epa.gov/detailed-facility-report?fid=110016662011", "name": "EVERETT WATER POLLUTION CONTROL FACILITY", "feature_kind": "CSO outfall"}}, {"type": "Feature", "id": 6060, "geometry": {"type": "Point", "coordinates": [-122.219679618065, 47.9852000281757]}, "properties": {"OBJECTID": 6060, "npdes_pfid": "WA0024490011", "npdes_id": "WA0024490", "permitting_state": "WA", "agency_type_code": "ST6", "facility_uin": "110016662011", "facility_name": "EVERETT WATER POLLUTION CONTROL FACILITY", "location_address": "4027 4TH ST SE", "supplemental_address_text": "", "facility_city": "EVERETT", "county_code": "WA061", "state_code": "WA", "epa_region_code": "10", "facility_type_code": "MWD", "facility_lat": 47.9928246, "facility_lon": -122.174393, "permit_name": "City of Everett", "version_nmbr": 0, "permit_type_code": "NPD", "effective_date": 1446508800000, "expiration_date": 1604016000000, "permit_status_code": "TRM", "facility_type_indicator": "POTW", "major_minor_status_flag": "M", "permit_tracking": "N", "pt_start_date": 1735603200000, "dmr_tracking": "Y", "dmr_nr_start_date": 1446508800000, "permit_design_flow": null, "permit_avg_flow": null, "perm_feature_nmbr": "011", "perm_feature_text": "PS04 - Lift Station #5", "pf_lat": 47.9852, "pf_lon": -122.21968, "pf_character": "CSO", "perm_feature_type_code": "EXO", "pf_state_waterbody_name": "Port Gardner Bay", "pf_state_auto_name": "", "pf_reach_id": "", "in_icis": "YES", "echo_dfr_link": "https://echo.epa.gov/detailed-facility-report?fid=110016662011", "name": "EVERETT WATER POLLUTION CONTROL FACILITY", "feature_kind": "CSO outfall"}}, {"type": "Feature", "id": 6061, "geometry": {"type": "Point", "coordinates": [-122.214129826239, 47.9973098413005]}, "properties": {"OBJECTID": 6061, "npdes_pfid": "WA0024490012", "npdes_id": "WA0024490", "permitting_state": "WA", "agency_type_code": "ST6", "facility_uin": "110016662011", "facility_name": "EVERETT WATER POLLUTION CONTROL FACILITY", "location_address": "4027 4TH ST SE", "supplemental_address_text": "", "facility_city": "EVERETT", "county_code": "WA061", "state_code": "WA", "epa_region_code": "10", "facility_type_code": "MWD", "facility_lat": 47.9928246, "facility_lon": -122.174393, "permit_name": "City of Everett", "version_nmbr": 0, "permit_type_code": "NPD", "effective_date": 1446508800000, "expiration_date": 1604016000000, "permit_status_code": "TRM", "facility_type_indicator": "POTW", "major_minor_status_flag": "M", "permit_tracking": "N", "pt_start_date": 1735603200000, "dmr_tracking": "Y", "dmr_nr_start_date": 1446508800000, "permit_design_flow": null, "permit_avg_flow": null, "perm_feature_nmbr": "012", "perm_feature_text": "PS03 - 15th & Grand St.", "pf_lat": 47.99731, "pf_lon": -122.21413, "pf_character": "CSO", "perm_feature_type_code": "EXO", "pf_state_waterbody_name": "Port Gardner Bay", "pf_state_auto_name": "Possession Sound", "pf_reach_id": "17110019000281", "in_icis": "YES", "echo_dfr_link": "https://echo.epa.gov/detailed-facility-report?fid=110016662011", "name": "EVERETT WATER POLLUTION CONTROL FACILITY", "feature_kind": "CSO outfall"}}, {"type": "Feature", "id": 6062, "geometry": {"type": "Point", "coordinates": [-122.216119594594, 47.9991300053808]}, "properties": {"OBJECTID": 6062, "npdes_pfid": "WA0024490013", "npdes_id": "WA0024490", "permitting_state": "WA", "agency_type_code": "ST6", "facility_uin": "110016662011", "facility_name": "EVERETT WATER POLLUTION CONTROL FACILITY", "location_address": "4027 4TH ST SE", "supplemental_address_text": "", "facility_city": "EVERETT", "county_code": "WA061", "state_code": "WA", "epa_region_code": "10", "facility_type_code": "MWD", "facility_lat": 47.9928246, "facility_lon": -122.174393, "permit_name": "City of Everett", "version_nmbr": 0, "permit_type_code": "NPD", "effective_date": 1446508800000, "expiration_date": 1604016000000, "permit_status_code": "TRM", "facility_type_indicator": "POTW", "major_minor_status_flag": "M", "permit_tracking": "N", "pt_start_date": 1735603200000, "dmr_tracking": "Y", "dmr_nr_start_date": 1446508800000, "permit_design_flow": null, "permit_avg_flow": null, "perm_feature_nmbr": "013", "perm_feature_text": "PS02 - Lift Station #7", "pf_lat": 47.99913, "pf_lon": -122.21612, "pf_character": "CSO", "perm_feature_type_code": "EXO", "pf_state_waterbody_name": "Port Gardner Bay", "pf_state_auto_name": "Possession Sound", "pf_reach_id": "17110019000281", "in_icis": "YES", "echo_dfr_link": "https://echo.epa.gov/detailed-facility-report?fid=110016662011", "name": "EVERETT WATER POLLUTION CONTROL FACILITY", "feature_kind": "CSO outfall"}}, {"type": "Feature", "id": 6063, "geometry": {"type": "Point", "coordinates": [-122.18132964027, 47.9952900332093]}, "properties": {"OBJECTID": 6063, "npdes_pfid": "WA0024490016", "npdes_id": "WA0024490", "permitting_state": "WA", "agency_type_code": "ST6", "facility_uin": "110016662011", "facility_name": "EVERETT WATER POLLUTION CONTROL FACILITY", "location_address": "4027 4TH ST SE", "supplemental_address_text": "", "facility_city": "EVERETT", "county_code": "WA061", "state_code": "WA", "epa_region_code": "10", "facility_type_code": "MWD", "facility_lat": 47.9928246, "facility_lon": -122.174393, "permit_name": "City of Everett", "version_nmbr": 0, "permit_type_code": "NPD", "effective_date": 1446508800000, "expiration_date": 1604016000000, "permit_status_code": "TRM", "facility_type_indicator": "POTW", "major_minor_status_flag": "M", "permit_tracking": "N", "pt_start_date": 1735603200000, "dmr_tracking": "Y", "dmr_nr_start_date": 1446508800000, "permit_design_flow": null, "permit_avg_flow": null, "perm_feature_nmbr": "016", "perm_feature_text": "SR02 - Hayes Street", "pf_lat": 47.99529, "pf_lon": -122.18133, "pf_character": "CSO", "perm_feature_type_code": "EXO", "pf_state_waterbody_name": "Snohomish River", "pf_state_auto_name": "Snohomish River", "pf_reach_id": "17110011000020", "in_icis": "YES", "echo_dfr_link": "https://echo.epa.gov/detailed-facility-report?fid=110016662011", "name": "EVERETT WATER POLLUTION CONTROL FACILITY", "feature_kind": "CSO outfall"}}, {"type": "Feature", "id": 6064, "geometry": {"type": "Point", "coordinates": [-122.18132964027, 47.9952900332093]}, "properties": {"OBJECTID": 6064, "npdes_pfid": "WA0024490017", "npdes_id": "WA0024490", "permitting_state": "WA", "agency_type_code": "ST6", "facility_uin": "110016662011", "facility_name": "EVERETT WATER POLLUTION CONTROL FACILITY", "location_address": "4027 4TH ST SE", "supplemental_address_text": "", "facility_city": "EVERETT", "county_code": "WA061", "state_code": "WA", "epa_region_code": "10", "facility_type_code": "MWD", "facility_lat": 47.9928246, "facility_lon": -122.174393, "permit_name": "City of Everett", "version_nmbr": 0, "permit_type_code": "NPD", "effective_date": 1446508800000, "expiration_date": 1604016000000, "permit_status_code": "TRM", "facility_type_indicator": "POTW", "major_minor_status_flag": "M", "permit_tracking": "N", "pt_start_date": 1735603200000, "dmr_tracking": "Y", "dmr_nr_start_date": 1446508800000, "permit_design_flow": null, "permit_avg_flow": null, "perm_feature_nmbr": "017", "perm_feature_text": "SR01 - Lift Station #9", "pf_lat": 47.99529, "pf_lon": -122.18133, "pf_character": "CSO", "perm_feature_type_code": "EXO", "pf_state_waterbody_name": "Snohomish River", "pf_state_auto_name": "Snohomish River", "pf_reach_id": "17110011000020", "in_icis": "YES", "echo_dfr_link": "https://echo.epa.gov/detailed-facility-report?fid=110016662011", "name": "EVERETT WATER POLLUTION CONTROL FACILITY", "feature_kind": "CSO outfall"}}, {"type": "Feature", "id": 6065, "geometry": {"type": "Point", "coordinates": [-122.18132964027, 47.9952900332093]}, "properties": {"OBJECTID": 6065, "npdes_pfid": "WA0024490018", "npdes_id": "WA0024490", "permitting_state": "WA", "agency_type_code": "ST6", "facility_uin": "110016662011", "facility_name": "EVERETT WATER POLLUTION CONTROL FACILITY", "location_address": "4027 4TH ST SE", "supplemental_address_text": "", "facility_city": "EVERETT", "county_code": "WA061", "state_code": "WA", "epa_region_code": "10", "facility_type_code": "MWD", "facility_lat": 47.9928246, "facility_lon": -122.174393, "permit_name": "City of Everett", "version_nmbr": 0, "permit_type_code": "NPD", "effective_date": 1446508800000, "expiration_date": 1604016000000, "permit_status_code": "TRM", "facility_type_indicator": "POTW", "major_minor_status_flag": "M", "permit_tracking": "N", "pt_start_date": 1735603200000, "dmr_tracking": "Y", "dmr_nr_start_date": 1446508800000, "permit_design_flow": null, "permit_avg_flow": null, "perm_feature_nmbr": "018", "perm_feature_text": "SR03 - Siphon Headworks", "pf_lat": 47.99529, "pf_lon": -122.18133, "pf_character": "CSO", "perm_feature_type_code": "EXO", "pf_state_waterbody_name": "Snohomish River", "pf_state_auto_name": "Snohomish River", "pf_reach_id": "17110011000020", "in_icis": "YES", "echo_dfr_link": "https://echo.epa.gov/detailed-facility-report?fid=110016662011", "name": "EVERETT WATER POLLUTION CONTROL FACILITY", "feature_kind": "CSO outfall"}}, {"type": "Feature", "id": 6066, "geometry": {"type": "Point", "coordinates": [-122.181559608983, 47.9799898241879]}, "properties": {"OBJECTID": 6066, "npdes_pfid": "WA0024490019", "npdes_id": "WA0024490", "permitting_state": "WA", "agency_type_code": "ST6", "facility_uin": "110016662011", "facility_name": "EVERETT WATER POLLUTION CONTROL FACILITY", "location_address": "4027 4TH ST SE", "supplemental_address_text": "", "facility_city": "EVERETT", "county_code": "WA061", "state_code": "WA", "epa_region_code": "10", "facility_type_code": "MWD", "facility_lat": 47.9928246, "facility_lon": -122.174393, "permit_name": "City of Everett", "version_nmbr": 0, "permit_type_code": "NPD", "effective_date": 1446508800000, "expiration_date": 1604016000000, "permit_status_code": "TRM", "facility_type_indicator": "POTW", "major_minor_status_flag": "M", "permit_tracking": "N", "pt_start_date": 1735603200000, "dmr_tracking": "Y", "dmr_nr_start_date": 1446508800000, "permit_design_flow": null, "permit_avg_flow": null, "perm_feature_nmbr": "019", "perm_feature_text": "SR04 - Everett, Chestnut, Harrison & Grand", "pf_lat": 47.97999, "pf_lon": -122.18156, "pf_character": "CSO", "perm_feature_type_code": "EXO", "pf_state_waterbody_name": "Snohomish River", "pf_state_auto_name": "Snohomish River", "pf_reach_id": "17110011000022", "in_icis": "YES", "echo_dfr_link": "https://echo.epa.gov/detailed-facility-report?fid=110016662011", "name": "EVERETT WATER POLLUTION CONTROL FACILITY", "feature_kind": "CSO outfall"}}, {"type": "Feature", "id": 6067, "geometry": {"type": "Point", "coordinates": [-122.186970161939, 47.9768802874434]}, "properties": {"OBJECTID": 6067, "npdes_pfid": "WA0024490026", "npdes_id": "WA0024490", "permitting_state": "WA", "agency_type_code": "ST6", "facility_uin": "110016662011", "facility_name": "EVERETT WATER POLLUTION CONTROL FACILITY", "location_address": "4027 4TH ST SE", "supplemental_address_text": "", "facility_city": "EVERETT", "county_code": "WA061", "state_code": "WA", "epa_region_code": "10", "facility_type_code": "MWD", "facility_lat": 47.9928246, "facility_lon": -122.174393, "permit_name": "City of Everett", "version_nmbr": 0, "permit_type_code": "NPD", "effective_date": 1446508800000, "expiration_date": 1604016000000, "permit_status_code": "TRM", "facility_type_indicator": "POTW", "major_minor_status_flag": "M", "permit_tracking": "N", "pt_start_date": 1735603200000, "dmr_tracking": "Y", "dmr_nr_start_date": 1446508800000, "permit_design_flow": null, "permit_avg_flow": null, "perm_feature_nmbr": "026", "perm_feature_text": "SR07 - East Pacific Ave.", "pf_lat": 47.97688, "pf_lon": -122.18697, "pf_character": "CSO", "perm_feature_type_code": "EXO", "pf_state_waterbody_name": "Snohomish River", "pf_state_auto_name": "Snohomish River", "pf_reach_id": "17110011000022", "in_icis": "YES", "echo_dfr_link": "https://echo.epa.gov/detailed-facility-report?fid=110016662011", "name": "EVERETT WATER POLLUTION CONTROL FACILITY", "feature_kind": "CSO outfall"}}, {"type": "Feature", "id": 6068, "geometry": {"type": "Point", "coordinates": [-122.18909018601, 47.9701500337875]}, "properties": {"OBJECTID": 6068, "npdes_pfid": "WA0024490028", "npdes_id": "WA0024490", "permitting_state": "WA", "agency_type_code": "ST6", "facility_uin": "110016662011", "facility_name": "EVERETT WATER POLLUTION CONTROL FACILITY", "location_address": "4027 4TH ST SE", "supplemental_address_text": "", "facility_city": "EVERETT", "county_code": "WA061", "state_code": "WA", "epa_region_code": "10", "facility_type_code": "MWD", "facility_lat": 47.9928246, "facility_lon": -122.174393, "permit_name": "City of Everett", "version_nmbr": 0, "permit_type_code": "NPD", "effective_date": 1446508800000, "expiration_date": 1604016000000, "permit_status_code": "TRM", "facility_type_indicator": "POTW", "major_minor_status_flag": "M", "permit_tracking": "N", "pt_start_date": 1735603200000, "dmr_tracking": "Y", "dmr_nr_start_date": 1446508800000, "permit_design_flow": null, "permit_avg_flow": null, "perm_feature_nmbr": "028", "perm_feature_text": "SR08 - East 36th St.", "pf_lat": 47.97015, "pf_lon": -122.18909, "pf_character": "CSO", "perm_feature_type_code": "EXO", "pf_state_waterbody_name": "Snohomish River", "pf_state_auto_name": "Snohomish River", "pf_reach_id": "17110011000023", "in_icis": "YES", "echo_dfr_link": "https://echo.epa.gov/detailed-facility-report?fid=110016662011", "name": "EVERETT WATER POLLUTION CONTROL FACILITY", "feature_kind": "CSO outfall"}}, {"type": "Feature", "id": 6069, "geometry": {"type": "Point", "coordinates": [-122.361855079767, 47.6175500242172]}, "properties": {"OBJECTID": 6069, "npdes_pfid": "WA0029181027", "npdes_id": "WA0029181", "permitting_state": "WA", "agency_type_code": "ST6", "facility_uin": "110000563523", "facility_name": "KING COUNTY WEST POINT WWTP", "location_address": "1400 DISCOVERY PARK BLVD", "supplemental_address_text": "", "facility_city": "SEATTLE", "county_code": "WA033", "state_code": "WA", "epa_region_code": "10", "facility_type_code": "MWD", "facility_lat": 47.6612396, "facility_lon": -122.43087, "permit_name": "KING CNTY WASTEWATER TREATMENT DIVISION", "version_nmbr": 0, "permit_type_code": "NPD", "effective_date": 1717200000000, "expiration_date": 1874880000000, "permit_status_code": "EFF", "facility_type_indicator": "POTW", "major_minor_status_flag": "M", "permit_tracking": "Y", "pt_start_date": 1717200000000, "dmr_tracking": "Y", "dmr_nr_start_date": 1717200000000, "permit_design_flow": null, "permit_avg_flow": null, "perm_feature_nmbr": "027", "perm_feature_text": "Elliot West Treated Effluent", "pf_lat": 47.6175499, "pf_lon": -122.361855, "pf_character": "TCS", "perm_feature_type_code": "EXO", "pf_state_waterbody_name": "", "pf_state_auto_name": "", "pf_reach_id": "", "in_icis": "YES", "echo_dfr_link": "https://echo.epa.gov/detailed-facility-report?fid=110000563523", "name": "KING COUNTY WEST POINT WWTP", "feature_kind": "CSO outfall"}}, {"type": "Feature", "id": 6070, "geometry": {"type": "Point", "coordinates": [-122.297356042367, 47.5119397513379]}, "properties": {"OBJECTID": 6070, "npdes_pfid": "WA0029181044", "npdes_id": "WA0029181", "permitting_state": "WA", "agency_type_code": "ST6", "facility_uin": "110000563523", "facility_name": "KING COUNTY WEST POINT WWTP", "location_address": "1400 DISCOVERY PARK BLVD", "supplemental_address_text": "", "facility_city": "SEATTLE", "county_code": "WA033", "state_code": "WA", "epa_region_code": "10", "facility_type_code": "MWD", "facility_lat": 47.6612396, "facility_lon": -122.43087, "permit_name": "KING CNTY WASTEWATER TREATMENT DIVISION", "version_nmbr": 0, "permit_type_code": "NPD", "effective_date": 1717200000000, "expiration_date": 1874880000000, "permit_status_code": "EFF", "facility_type_indicator": "POTW", "major_minor_status_flag": "M", "permit_tracking": "Y", "pt_start_date": 1717200000000, "dmr_tracking": "Y", "dmr_nr_start_date": 1717200000000, "permit_design_flow": null, "permit_avg_flow": null, "perm_feature_nmbr": "044", "perm_feature_text": "Henderson/MLK Treated Effluent", "pf_lat": 47.51194, "pf_lon": -122.297356, "pf_character": "TCS", "perm_feature_type_code": "EXO", "pf_state_waterbody_name": "", "pf_state_auto_name": "Green River", "pf_reach_id": "", "in_icis": "YES", "echo_dfr_link": "https://echo.epa.gov/detailed-facility-report?fid=110000563523", "name": "KING COUNTY WEST POINT WWTP", "feature_kind": "CSO outfall"}}, {"type": "Feature", "id": 6071, "geometry": {"type": "Point", "coordinates": [-122.387885561755, 47.7126386525124]}, "properties": {"OBJECTID": 6071, "npdes_pfid": "WA0029181046", "npdes_id": "WA0029181", "permitting_state": "WA", "agency_type_code": "ST6", "facility_uin": "110000563523", "facility_name": "KING COUNTY WEST POINT WWTP", "location_address": "1400 DISCOVERY PARK BLVD", "supplemental_address_text": "", "facility_city": "SEATTLE", "county_code": "WA033", "state_code": "WA", "epa_region_code": "10", "facility_type_code": "MWD", "facility_lat": 47.6612396, "facility_lon": -122.43087, "permit_name": "KING CNTY WASTEWATER TREATMENT DIVISION", "version_nmbr": 0, "permit_type_code": "NPD", "effective_date": 1717200000000, "expiration_date": 1874880000000, "permit_status_code": "EFF", "facility_type_indicator": "POTW", "major_minor_status_flag": "M", "permit_tracking": "Y", "pt_start_date": 1717200000000, "dmr_tracking": "Y", "dmr_nr_start_date": 1717200000000, "permit_design_flow": null, "permit_avg_flow": null, "perm_feature_nmbr": "046", "perm_feature_text": "Carkeek Treated Effluent", "pf_lat": 47.7126389, "pf_lon": -122.387886, "pf_character": "TCS", "perm_feature_type_code": "EXO", "pf_state_waterbody_name": "", "pf_state_auto_name": "", "pf_reach_id": "", "in_icis": "YES", "echo_dfr_link": "https://echo.epa.gov/detailed-facility-report?fid=110000563523", "name": "KING COUNTY WEST POINT WWTP", "feature_kind": "CSO outfall"}}, {"type": "Feature", "id": 6072, "geometry": {"type": "Point", "coordinates": [-122.422501242913, 47.5702516665436]}, "properties": {"OBJECTID": 6072, "npdes_pfid": "WA0029181051", "npdes_id": "WA0029181", "permitting_state": "WA", "agency_type_code": "ST6", "facility_uin": "110000563523", "facility_name": "KING COUNTY WEST POINT WWTP", "location_address": "1400 DISCOVERY PARK BLVD", "supplemental_address_text": "", "facility_city": "SEATTLE", "county_code": "WA033", "state_code": "WA", "epa_region_code": "10", "facility_type_code": "MWD", "facility_lat": 47.6612396, "facility_lon": -122.43087, "permit_name": "KING CNTY WASTEWATER TREATMENT DIVISION", "version_nmbr": 0, "permit_type_code": "NPD", "effective_date": 1717200000000, "expiration_date": 1874880000000, "permit_status_code": "EFF", "facility_type_indicator": "POTW", "major_minor_status_flag": "M", "permit_tracking": "Y", "pt_start_date": 1717200000000, "dmr_tracking": "Y", "dmr_nr_start_date": 1717200000000, "permit_design_flow": null, "permit_avg_flow": null, "perm_feature_nmbr": "051", "perm_feature_text": "Alki Treated Effluent", "pf_lat": 47.5702515, "pf_lon": -122.422501, "pf_character": "TCS", "perm_feature_type_code": "EXO", "pf_state_waterbody_name": "", "pf_state_auto_name": "", "pf_reach_id": "", "in_icis": "YES", "echo_dfr_link": "https://echo.epa.gov/detailed-facility-report?fid=110000563523", "name": "KING COUNTY WEST POINT WWTP", "feature_kind": "CSO outfall"}}, {"type": "Feature", "id": 6073, "geometry": {"type": "Point", "coordinates": [-122.669907153628, 47.5446700375036]}, "properties": {"OBJECTID": 6073, "npdes_pfid": "WA0029289001", "npdes_id": "WA0029289", "permitting_state": "WA", "agency_type_code": "ST6", "facility_uin": "110015415914", "facility_name": "BREMERTON STP", "location_address": "1600 OYSTER BAY AVE S", "supplemental_address_text": "", "facility_city": "BREMERTON", "county_code": "WA035", "state_code": "WA", "epa_region_code": "10", "facility_type_code": "MWD", "facility_lat": 47.5502548, "facility_lon": -122.671417, "permit_name": "City of Bremerton", "version_nmbr": 0, "permit_type_code": "NPD", "effective_date": 1543795200000, "expiration_date": 1701302400000, "permit_status_code": "ADC", "facility_type_indicator": "POTW", "major_minor_status_flag": "M", "permit_tracking": "Y", "pt_start_date": 1543795200000, "dmr_tracking": "Y", "dmr_nr_start_date": 1543795200000, "permit_design_flow": 46.5, "permit_avg_flow": null, "perm_feature_nmbr": "001", "perm_feature_text": "EFFLUENT WEST", "pf_lat": 47.5446701, "pf_lon": -122.669907, "pf_character": "CSO", "perm_feature_type_code": "EXO", "pf_state_waterbody_name": "Sinclair Inlet", "pf_state_auto_name": "", "pf_reach_id": "", "in_icis": "YES", "echo_dfr_link": "https://echo.epa.gov/detailed-facility-report?fid=110015415914", "name": "BREMERTON STP", "feature_kind": "CSO outfall"}}, {"type": "Feature", "id": 6074, "geometry": {"type": "Point", "coordinates": [-122.637978333484, 47.5816077772758]}, "properties": {"OBJECTID": 6074, "npdes_pfid": "WA0029289002", "npdes_id": "WA0029289", "permitting_state": "WA", "agency_type_code": "ST6", "facility_uin": "110015415914", "facility_name": "BREMERTON STP", "location_address": "1600 OYSTER BAY AVE S", "supplemental_address_text": "", "facility_city": "BREMERTON", "county_code": "WA035", "state_code": "WA", "epa_region_code": "10", "facility_type_code": "MWD", "facility_lat": 47.5502548, "facility_lon": -122.671417, "permit_name": "City of Bremerton", "version_nmbr": 0, "permit_type_code": "NPD", "effective_date": 1543795200000, "expiration_date": 1701302400000, "permit_status_code": "ADC", "facility_type_indicator": "POTW", "major_minor_status_flag": "M", "permit_tracking": "Y", "pt_start_date": 1543795200000, "dmr_tracking": "Y", "dmr_nr_start_date": 1543795200000, "permit_design_flow": 46.5, "permit_avg_flow": null, "perm_feature_nmbr": "002", "perm_feature_text": "EFFLUENT EAST", "pf_lat": 47.5816078, "pf_lon": -122.637978, "pf_character": "TCS", "perm_feature_type_code": "EXO", "pf_state_waterbody_name": "", "pf_state_auto_name": "", "pf_reach_id": "", "in_icis": "YES", "echo_dfr_link": "https://echo.epa.gov/detailed-facility-report?fid=110015415914", "name": "BREMERTON STP", "feature_kind": "CSO outfall"}}, {"type": "Feature", "id": 6075, "geometry": {"type": "Point", "coordinates": [-122.90570144098, 47.0510290905609]}, "properties": {"OBJECTID": 6075, "npdes_pfid": "WA0037061002", "npdes_id": "WA0037061", "permitting_state": "WA", "agency_type_code": "ST6", "facility_uin": "110005311769", "facility_name": "LOTT BUDD INLET WATER RECLAMATION FACILITY", "location_address": "500 ADAMS ST NE", "supplemental_address_text": "", "facility_city": "OLYMPIA", "county_code": "WA067", "state_code": "WA", "epa_region_code": "10", "facility_type_code": "MWD", "facility_lat": 47.0489769, "facility_lon": -122.898834, "permit_name": "LOTT Clean Water Alliance", "version_nmbr": 0, "permit_type_code": "NPD", "effective_date": 1522713600000, "expiration_date": 1680220800000, "permit_status_code": "ADC", "facility_type_indicator": "POTW", "major_minor_status_flag": "M", "permit_tracking": "Y", "pt_start_date": 1522713600000, "dmr_tracking": "Y", "dmr_nr_start_date": 1522713600000, "permit_design_flow": 85.5, "permit_avg_flow": null, "perm_feature_nmbr": "002", "perm_feature_text": "Fiddlehead", "pf_lat": 47.0510292, "pf_lon": -122.905701, "pf_character": "CSO", "perm_feature_type_code": "EXO", "pf_state_waterbody_name": "Budd Inlet (Inner)", "pf_state_auto_name": "", "pf_reach_id": "", "in_icis": "YES", "echo_dfr_link": "https://echo.epa.gov/detailed-facility-report?fid=110005311769", "name": "LOTT BUDD INLET WATER RECLAMATION FACILITY", "feature_kind": "CSO outfall"}}]}