{"type": "FeatureCollection", "features": [{"type": "Feature", "id": 265, "geometry": {"type": "Point", "coordinates": [-91.0022218733695, 30.1769441396299]}, "properties": {"OBJECTID": 265, "npdes_pfid": "LA0005754101", "npdes_id": "LA0005754", "permitting_state": "LA", "agency_type_code": "ST6", "facility_uin": "110000743394", "facility_name": "SHELL CHEMICAL LP- GEISMAR PLANT", "location_address": "7594 HIGHWAY 75", "supplemental_address_text": "", "facility_city": "GEISMAR", "county_code": "LA005", "state_code": "LA", "epa_region_code": "06", "facility_type_code": "POF", "facility_lat": 30.183333, "facility_lon": -90.996389, "permit_name": "Shell Chemical LP- Geismar Plant", "version_nmbr": 0, "permit_type_code": "NPD", "effective_date": 1541030400000, "expiration_date": 1698710400000, "permit_status_code": "ADC", "facility_type_indicator": "NON-POTW", "major_minor_status_flag": "M", "permit_tracking": "Y", "pt_start_date": 1541030400000, "dmr_tracking": "Y", "dmr_nr_start_date": 1541030400000, "permit_design_flow": null, "permit_avg_flow": 126.7301, "perm_feature_nmbr": "101", "perm_feature_text": "", "pf_lat": 30.176944, "pf_lon": -91.002222, "pf_character": "CSO|DSW|NCW|NDP", "perm_feature_type_code": "EXO", "pf_state_waterbody_name": "MISSISSIPPI RIVER", "pf_state_auto_name": "Mississippi River", "pf_reach_id": "8070100000516", "in_icis": "YES", "echo_dfr_link": "https://echo.epa.gov/detailed-facility-report?fid=110000743394", "name": "SHELL CHEMICAL LP- GEISMAR PLANT", "feature_kind": "CSO outfall"}}, {"type": "Feature", "id": 266, "geometry": {"type": "Point", "coordinates": [-93.2975000693011, 30.2178610373067]}, "properties": {"OBJECTID": 266, "npdes_pfid": "LA0127268001", "npdes_id": "LA0127268", "permitting_state": "LA", "agency_type_code": "ST6", "facility_uin": "110070208769", "facility_name": "LACC, LLC US - ETHYLENE & DERIVATIVES PLANT", "location_address": "2200 BAYOU D'INDE PASS", "supplemental_address_text": "", "facility_city": "WESTLAKE", "county_code": "LA019", "state_code": "LA", "epa_region_code": "06", "facility_type_code": "POF", "facility_lat": 30.214194, "facility_lon": -93.308583, "permit_name": "LACC, LLC US - ETHYLENE & DERIVATIVES PLANT", "version_nmbr": 0, "permit_type_code": "NPD", "effective_date": 1527811200000, "expiration_date": 1685491200000, "permit_status_code": "ADC", "facility_type_indicator": "NON-POTW", "major_minor_status_flag": "M", "permit_tracking": "Y", "pt_start_date": 1527811200000, "dmr_tracking": "Y", "dmr_nr_start_date": 1527811200000, "permit_design_flow": null, "permit_avg_flow": null, "perm_feature_nmbr": "001", "perm_feature_text": "", "pf_lat": 30.217861, "pf_lon": -93.2975, "pf_character": "TCS", "perm_feature_type_code": "EXO", "pf_state_waterbody_name": "", "pf_state_auto_name": "Maple Fork-Bayou D'Inde", "pf_reach_id": "8080206000462", "in_icis": "YES", "echo_dfr_link": "https://echo.epa.gov/detailed-facility-report?fid=110070208769", "name": "LACC, LLC US - ETHYLENE & DERIVATIVES PLANT", "feature_kind": "CSO outfall"}}]}