{"type": "FeatureCollection", "features": [{"type": "Feature", "id": 1517, "geometry": {"type": "Point", "coordinates": [-94.660616257838, 39.135612795922]}, "properties": {"OBJECTID": 1517, "npdes_pfid": "KS0038563C01", "npdes_id": "KS0038563", "permitting_state": "KS", "agency_type_code": "ST6", "facility_uin": "110017592292", "facility_name": "KANSAS CITY (PLANT NO. 1) WWTP (KAW POINT)", "location_address": "50 MARKET STREET", "supplemental_address_text": "701 N. 7TH STREET KANSAS CITY KS 66101", "facility_city": "KANSAS CITY", "county_code": "KS209", "state_code": "KS", "epa_region_code": "07", "facility_type_code": "MXO", "facility_lat": 39.1131592, "facility_lon": -94.610464, "permit_name": "UNIFIED GOV OF KC/WY CNTY", "version_nmbr": 0, "permit_type_code": "NPD", "effective_date": 1748736000000, "expiration_date": 1906416000000, "permit_status_code": "EFF", "facility_type_indicator": "POTW", "major_minor_status_flag": "M", "permit_tracking": "Y", "pt_start_date": 1748736000000, "dmr_tracking": "Y", "dmr_nr_start_date": 1748736000000, "permit_design_flow": null, "permit_avg_flow": null, "perm_feature_nmbr": "C01", "perm_feature_text": "28th St and Georgia Ave", "pf_lat": 39.135613, "pf_lon": -94.660616, "pf_character": "CSO|DSW|SW", "perm_feature_type_code": "EXO", "pf_state_waterbody_name": "Jersey Creek", "pf_state_auto_name": "", "pf_reach_id": "", "in_icis": "YES", "echo_dfr_link": "https://echo.epa.gov/detailed-facility-report?fid=110017592292", "name": "KANSAS CITY (PLANT NO. 1) WWTP (KAW POINT)", "feature_kind": "CSO outfall"}}, {"type": "Feature", "id": 1518, "geometry": {"type": "Point", "coordinates": [-94.6590271381004, 39.1352651008098]}, "properties": {"OBJECTID": 1518, "npdes_pfid": "KS0038563C02", "npdes_id": "KS0038563", "permitting_state": "KS", "agency_type_code": "ST6", "facility_uin": "110017592292", "facility_name": "KANSAS CITY (PLANT NO. 1) WWTP (KAW POINT)", "location_address": "50 MARKET STREET", "supplemental_address_text": "701 N. 7TH STREET KANSAS CITY KS 66101", "facility_city": "KANSAS CITY", "county_code": "KS209", "state_code": "KS", "epa_region_code": "07", "facility_type_code": "MXO", "facility_lat": 39.1131592, "facility_lon": -94.610464, "permit_name": "UNIFIED GOV OF KC/WY CNTY", "version_nmbr": 0, "permit_type_code": "NPD", "effective_date": 1748736000000, "expiration_date": 1906416000000, "permit_status_code": "EFF", "facility_type_indicator": "POTW", "major_minor_status_flag": "M", "permit_tracking": "Y", "pt_start_date": 1748736000000, "dmr_tracking": "Y", "dmr_nr_start_date": 1748736000000, "permit_design_flow": null, "permit_avg_flow": null, "perm_feature_nmbr": "C02", "perm_feature_text": "Klamm Park (Northwest side of park)", "pf_lat": 39.135265, "pf_lon": -94.659027, "pf_character": "CSO|DSW|SW", "perm_feature_type_code": "EXO", "pf_state_waterbody_name": "Jersey Creek", "pf_state_auto_name": "", "pf_reach_id": "", "in_icis": "YES", "echo_dfr_link": "https://echo.epa.gov/detailed-facility-report?fid=110017592292", "name": "KANSAS CITY (PLANT NO. 1) WWTP (KAW POINT)", "feature_kind": "CSO outfall"}}, {"type": "Feature", "id": 1519, "geometry": {"type": "Point", "coordinates": [-94.6565612626455, 39.1335412323514]}, "properties": {"OBJECTID": 1519, "npdes_pfid": "KS0038563C03", "npdes_id": "KS0038563", "permitting_state": "KS", "agency_type_code": "ST6", "facility_uin": "110017592292", "facility_name": "KANSAS CITY (PLANT NO. 1) WWTP (KAW POINT)", "location_address": "50 MARKET STREET", "supplemental_address_text": "701 N. 7TH STREET KANSAS CITY KS 66101", "facility_city": "KANSAS CITY", "county_code": "KS209", "state_code": "KS", "epa_region_code": "07", "facility_type_code": "MXO", "facility_lat": 39.1131592, "facility_lon": -94.610464, "permit_name": "UNIFIED GOV OF KC/WY CNTY", "version_nmbr": 0, "permit_type_code": "NPD", "effective_date": 1748736000000, "expiration_date": 1906416000000, "permit_status_code": "EFF", "facility_type_indicator": "POTW", "major_minor_status_flag": "M", "permit_tracking": "Y", "pt_start_date": 1748736000000, "dmr_tracking": "Y", "dmr_nr_start_date": 1748736000000, "permit_design_flow": null, "permit_avg_flow": null, "perm_feature_nmbr": "C03", "perm_feature_text": "Klamm Park (East side of park)", "pf_lat": 39.133541, "pf_lon": -94.656561, "pf_character": "CSO|DSW|SW", "perm_feature_type_code": "EXO", "pf_state_waterbody_name": "Jersey Creek", "pf_state_auto_name": "", "pf_reach_id": "", "in_icis": "YES", "echo_dfr_link": "https://echo.epa.gov/detailed-facility-report?fid=110017592292", "name": "KANSAS CITY (PLANT NO. 1) WWTP (KAW POINT)", "feature_kind": "CSO outfall"}}, {"type": "Feature", "id": 1520, "geometry": {"type": "Point", "coordinates": [-94.6536120935677, 39.1325879999831]}, "properties": {"OBJECTID": 1520, "npdes_pfid": "KS0038563C04", "npdes_id": "KS0038563", "permitting_state": "KS", "agency_type_code": "ST6", "facility_uin": "110017592292", "facility_name": "KANSAS CITY (PLANT NO. 1) WWTP (KAW POINT)", "location_address": "50 MARKET STREET", "supplemental_address_text": "701 N. 7TH STREET KANSAS CITY KS 66101", "facility_city": "KANSAS CITY", "county_code": "KS209", "state_code": "KS", "epa_region_code": "07", "facility_type_code": "MXO", "facility_lat": 39.1131592, "facility_lon": -94.610464, "permit_name": "UNIFIED GOV OF KC/WY CNTY", "version_nmbr": 0, "permit_type_code": "NPD", "effective_date": 1748736000000, "expiration_date": 1906416000000, "permit_status_code": "EFF", "facility_type_indicator": "POTW", "major_minor_status_flag": "M", "permit_tracking": "Y", "pt_start_date": 1748736000000, "dmr_tracking": "Y", "dmr_nr_start_date": 1748736000000, "permit_design_flow": null, "permit_avg_flow": null, "perm_feature_nmbr": "C04", "perm_feature_text": "2319 North 21st Street", "pf_lat": 39.132588, "pf_lon": -94.653612, "pf_character": "CSO|DSW|SW", "perm_feature_type_code": "EXO", "pf_state_waterbody_name": "Jersey Creek", "pf_state_auto_name": "", "pf_reach_id": "", "in_icis": "YES", "echo_dfr_link": "https://echo.epa.gov/detailed-facility-report?fid=110017592292", "name": "KANSAS CITY (PLANT NO. 1) WWTP (KAW POINT)", "feature_kind": "CSO outfall"}}, {"type": "Feature", "id": 1521, "geometry": {"type": "Point", "coordinates": [-94.6535240586699, 39.131921147739]}, "properties": {"OBJECTID": 1521, "npdes_pfid": "KS0038563C05", "npdes_id": "KS0038563", "permitting_state": "KS", "agency_type_code": "ST6", "facility_uin": "110017592292", "facility_name": "KANSAS CITY (PLANT NO. 1) WWTP (KAW POINT)", "location_address": "50 MARKET STREET", "supplemental_address_text": "701 N. 7TH STREET KANSAS CITY KS 66101", "facility_city": "KANSAS CITY", "county_code": "KS209", "state_code": "KS", "epa_region_code": "07", "facility_type_code": "MXO", "facility_lat": 39.1131592, "facility_lon": -94.610464, "permit_name": "UNIFIED GOV OF KC/WY CNTY", "version_nmbr": 0, "permit_type_code": "NPD", "effective_date": 1748736000000, "expiration_date": 1906416000000, "permit_status_code": "EFF", "facility_type_indicator": "POTW", "major_minor_status_flag": "M", "permit_tracking": "Y", "pt_start_date": 1748736000000, "dmr_tracking": "Y", "dmr_nr_start_date": 1748736000000, "permit_design_flow": null, "permit_avg_flow": null, "perm_feature_nmbr": "C05", "perm_feature_text": "2118 Waverly Avenue", "pf_lat": 39.131921, "pf_lon": -94.653524, "pf_character": "CSO|DSW|SW", "perm_feature_type_code": "EXO", "pf_state_waterbody_name": "Jersey Creek", "pf_state_auto_name": "", "pf_reach_id": "", "in_icis": "YES", "echo_dfr_link": "https://echo.epa.gov/detailed-facility-report?fid=110017592292", "name": "KANSAS CITY (PLANT NO. 1) WWTP (KAW POINT)", "feature_kind": "CSO outfall"}}, {"type": "Feature", "id": 1522, "geometry": {"type": "Point", "coordinates": [-94.6612226206548, 39.1220291130524]}, "properties": {"OBJECTID": 1522, "npdes_pfid": "KS0038563C08", "npdes_id": "KS0038563", "permitting_state": "KS", "agency_type_code": "ST6", "facility_uin": "110017592292", "facility_name": "KANSAS CITY (PLANT NO. 1) WWTP (KAW POINT)", "location_address": "50 MARKET STREET", "supplemental_address_text": "701 N. 7TH STREET KANSAS CITY KS 66101", "facility_city": "KANSAS CITY", "county_code": "KS209", "state_code": "KS", "epa_region_code": "07", "facility_type_code": "MXO", "facility_lat": 39.1131592, "facility_lon": -94.610464, "permit_name": "UNIFIED GOV OF KC/WY CNTY", "version_nmbr": 0, "permit_type_code": "NPD", "effective_date": 1748736000000, "expiration_date": 1906416000000, "permit_status_code": "EFF", "facility_type_indicator": "POTW", "major_minor_status_flag": "M", "permit_tracking": "Y", "pt_start_date": 1748736000000, "dmr_tracking": "Y", "dmr_nr_start_date": 1748736000000, "permit_design_flow": null, "permit_avg_flow": null, "perm_feature_nmbr": "C08", "perm_feature_text": "29th Street and Freeman Avenue", "pf_lat": 39.122029, "pf_lon": -94.661223, "pf_character": "CSO|DSW|SW", "perm_feature_type_code": "EXO", "pf_state_waterbody_name": "Jersey Creek", "pf_state_auto_name": "", "pf_reach_id": "", "in_icis": "YES", "echo_dfr_link": "https://echo.epa.gov/detailed-facility-report?fid=110017592292", "name": "KANSAS CITY (PLANT NO. 1) WWTP (KAW POINT)", "feature_kind": "CSO outfall"}}, {"type": "Feature", "id": 1523, "geometry": {"type": "Point", "coordinates": [-94.6575503077733, 39.12206883728]}, "properties": {"OBJECTID": 1523, "npdes_pfid": "KS0038563C09", "npdes_id": "KS0038563", "permitting_state": "KS", "agency_type_code": "ST6", "facility_uin": "110017592292", "facility_name": "KANSAS CITY (PLANT NO. 1) WWTP (KAW POINT)", "location_address": "50 MARKET STREET", "supplemental_address_text": "701 N. 7TH STREET KANSAS CITY KS 66101", "facility_city": "KANSAS CITY", "county_code": "KS209", "state_code": "KS", "epa_region_code": "07", "facility_type_code": "MXO", "facility_lat": 39.1131592, "facility_lon": -94.610464, "permit_name": "UNIFIED GOV OF KC/WY CNTY", "version_nmbr": 0, "permit_type_code": "NPD", "effective_date": 1748736000000, "expiration_date": 1906416000000, "permit_status_code": "EFF", "facility_type_indicator": "POTW", "major_minor_status_flag": "M", "permit_tracking": "Y", "pt_start_date": 1748736000000, "dmr_tracking": "Y", "dmr_nr_start_date": 1748736000000, "permit_design_flow": null, "permit_avg_flow": null, "perm_feature_nmbr": "C09", "perm_feature_text": "25th Street & New Jersey Avenue", "pf_lat": 39.122069, "pf_lon": -94.65755, "pf_character": "CSO|DSW|SW", "perm_feature_type_code": "EXO", "pf_state_waterbody_name": "Jersey Creek", "pf_state_auto_name": "", "pf_reach_id": "", "in_icis": "YES", "echo_dfr_link": "https://echo.epa.gov/detailed-facility-report?fid=110017592292", "name": "KANSAS CITY (PLANT NO. 1) WWTP (KAW POINT)", "feature_kind": "CSO outfall"}}, {"type": "Feature", "id": 1524, "geometry": {"type": "Point", "coordinates": [-94.6515881892326, 39.1247867575531]}, "properties": {"OBJECTID": 1524, "npdes_pfid": "KS0038563C10", "npdes_id": "KS0038563", "permitting_state": "KS", "agency_type_code": "ST6", "facility_uin": "110017592292", "facility_name": "KANSAS CITY (PLANT NO. 1) WWTP (KAW POINT)", "location_address": "50 MARKET STREET", "supplemental_address_text": "701 N. 7TH STREET KANSAS CITY KS 66101", "facility_city": "KANSAS CITY", "county_code": "KS209", "state_code": "KS", "epa_region_code": "07", "facility_type_code": "MXO", "facility_lat": 39.1131592, "facility_lon": -94.610464, "permit_name": "UNIFIED GOV OF KC/WY CNTY", "version_nmbr": 0, "permit_type_code": "NPD", "effective_date": 1748736000000, "expiration_date": 1906416000000, "permit_status_code": "EFF", "facility_type_indicator": "POTW", "major_minor_status_flag": "M", "permit_tracking": "Y", "pt_start_date": 1748736000000, "dmr_tracking": "Y", "dmr_nr_start_date": 1748736000000, "permit_design_flow": null, "permit_avg_flow": null, "perm_feature_nmbr": "C10", "perm_feature_text": "1852 Glendale Avenue", "pf_lat": 39.124787, "pf_lon": -94.651588, "pf_character": "CSO|DSW|SW", "perm_feature_type_code": "EXO", "pf_state_waterbody_name": "Jersey Creek", "pf_state_auto_name": "", "pf_reach_id": "", "in_icis": "YES", "echo_dfr_link": "https://echo.epa.gov/detailed-facility-report?fid=110017592292", "name": "KANSAS CITY (PLANT NO. 1) WWTP (KAW POINT)", "feature_kind": "CSO outfall"}}, {"type": "Feature", "id": 1525, "geometry": {"type": "Point", "coordinates": [-94.6503799551755, 39.1268132821649]}, "properties": {"OBJECTID": 1525, "npdes_pfid": "KS0038563C11", "npdes_id": "KS0038563", "permitting_state": "KS", "agency_type_code": "ST6", "facility_uin": "110017592292", "facility_name": "KANSAS CITY (PLANT NO. 1) WWTP (KAW POINT)", "location_address": "50 MARKET STREET", "supplemental_address_text": "701 N. 7TH STREET KANSAS CITY KS 66101", "facility_city": "KANSAS CITY", "county_code": "KS209", "state_code": "KS", "epa_region_code": "07", "facility_type_code": "MXO", "facility_lat": 39.1131592, "facility_lon": -94.610464, "permit_name": "UNIFIED GOV OF KC/WY CNTY", "version_nmbr": 0, "permit_type_code": "NPD", "effective_date": 1748736000000, "expiration_date": 1906416000000, "permit_status_code": "EFF", "facility_type_indicator": "POTW", "major_minor_status_flag": "M", "permit_tracking": "Y", "pt_start_date": 1748736000000, "dmr_tracking": "Y", "dmr_nr_start_date": 1748736000000, "permit_design_flow": null, "permit_avg_flow": null, "perm_feature_nmbr": "C11", "perm_feature_text": "1932 Glendale Avenue", "pf_lat": 39.126813, "pf_lon": -94.65038, "pf_character": "CSO|DSW|SW", "perm_feature_type_code": "EXO", "pf_state_waterbody_name": "Jersey Creek", "pf_state_auto_name": "", "pf_reach_id": "", "in_icis": "YES", "echo_dfr_link": "https://echo.epa.gov/detailed-facility-report?fid=110017592292", "name": "KANSAS CITY (PLANT NO. 1) WWTP (KAW POINT)", "feature_kind": "CSO outfall"}}, {"type": "Feature", "id": 1526, "geometry": {"type": "Point", "coordinates": [-94.6411991729718, 39.129085038925]}, "properties": {"OBJECTID": 1526, "npdes_pfid": "KS0038563C14", "npdes_id": "KS0038563", "permitting_state": "KS", "agency_type_code": "ST6", "facility_uin": "110017592292", "facility_name": "KANSAS CITY (PLANT NO. 1) WWTP (KAW POINT)", "location_address": "50 MARKET STREET", "supplemental_address_text": "701 N. 7TH STREET KANSAS CITY KS 66101", "facility_city": "KANSAS CITY", "county_code": "KS209", "state_code": "KS", "epa_region_code": "07", "facility_type_code": "MXO", "facility_lat": 39.1131592, "facility_lon": -94.610464, "permit_name": "UNIFIED GOV OF KC/WY CNTY", "version_nmbr": 0, "permit_type_code": "NPD", "effective_date": 1748736000000, "expiration_date": 1906416000000, "permit_status_code": "EFF", "facility_type_indicator": "POTW", "major_minor_status_flag": "M", "permit_tracking": "Y", "pt_start_date": 1748736000000, "dmr_tracking": "Y", "dmr_nr_start_date": 1748736000000, "permit_design_flow": null, "permit_avg_flow": null, "perm_feature_nmbr": "C14", "perm_feature_text": "Parallel Parkway & 12th Street", "pf_lat": 39.129085, "pf_lon": -94.641199, "pf_character": "CSO|DSW|SW", "perm_feature_type_code": "EXO", "pf_state_waterbody_name": "Jersey Creek", "pf_state_auto_name": "", "pf_reach_id": "", "in_icis": "YES", "echo_dfr_link": "https://echo.epa.gov/detailed-facility-report?fid=110017592292", "name": "KANSAS CITY (PLANT NO. 1) WWTP (KAW POINT)", "feature_kind": "CSO outfall"}}, {"type": "Feature", "id": 1527, "geometry": {"type": "Point", "coordinates": [-94.6420067584122, 39.1286948037124]}, "properties": {"OBJECTID": 1527, "npdes_pfid": "KS0038563C15", "npdes_id": "KS0038563", "permitting_state": "KS", "agency_type_code": "ST6", "facility_uin": "110017592292", "facility_name": "KANSAS CITY (PLANT NO. 1) WWTP (KAW POINT)", "location_address": "50 MARKET STREET", "supplemental_address_text": "701 N. 7TH STREET KANSAS CITY KS 66101", "facility_city": "KANSAS CITY", "county_code": "KS209", "state_code": "KS", "epa_region_code": "07", "facility_type_code": "MXO", "facility_lat": 39.1131592, "facility_lon": -94.610464, "permit_name": "UNIFIED GOV OF KC/WY CNTY", "version_nmbr": 0, "permit_type_code": "NPD", "effective_date": 1748736000000, "expiration_date": 1906416000000, "permit_status_code": "EFF", "facility_type_indicator": "POTW", "major_minor_status_flag": "M", "permit_tracking": "Y", "pt_start_date": 1748736000000, "dmr_tracking": "Y", "dmr_nr_start_date": 1748736000000, "permit_design_flow": null, "permit_avg_flow": null, "perm_feature_nmbr": "C15", "perm_feature_text": "Valley Street & Jersey Creek", "pf_lat": 39.128695, "pf_lon": -94.642007, "pf_character": "CSO|DSW|SW", "perm_feature_type_code": "EXO", "pf_state_waterbody_name": "Jersey Creek", "pf_state_auto_name": "", "pf_reach_id": "", "in_icis": "YES", "echo_dfr_link": "https://echo.epa.gov/detailed-facility-report?fid=110017592292", "name": "KANSAS CITY (PLANT NO. 1) WWTP (KAW POINT)", "feature_kind": "CSO outfall"}}, {"type": "Feature", "id": 1528, "geometry": {"type": "Point", "coordinates": [-94.6380541711621, 39.1279610162876]}, "properties": {"OBJECTID": 1528, "npdes_pfid": "KS0038563C16", "npdes_id": "KS0038563", "permitting_state": "KS", "agency_type_code": "ST6", "facility_uin": "110017592292", "facility_name": "KANSAS CITY (PLANT NO. 1) WWTP (KAW POINT)", "location_address": "50 MARKET STREET", "supplemental_address_text": "701 N. 7TH STREET KANSAS CITY KS 66101", "facility_city": "KANSAS CITY", "county_code": "KS209", "state_code": "KS", "epa_region_code": "07", "facility_type_code": "MXO", "facility_lat": 39.1131592, "facility_lon": -94.610464, "permit_name": "UNIFIED GOV OF KC/WY CNTY", "version_nmbr": 0, "permit_type_code": "NPD", "effective_date": 1748736000000, "expiration_date": 1906416000000, "permit_status_code": "EFF", "facility_type_indicator": "POTW", "major_minor_status_flag": "M", "permit_tracking": "Y", "pt_start_date": 1748736000000, "dmr_tracking": "Y", "dmr_nr_start_date": 1748736000000, "permit_design_flow": null, "permit_avg_flow": null, "perm_feature_nmbr": "C16", "perm_feature_text": "11th street & Lafayette Avenue", "pf_lat": 39.127961, "pf_lon": -94.638054, "pf_character": "CSO|DSW|SW", "perm_feature_type_code": "EXO", "pf_state_waterbody_name": "Jersey Creek", "pf_state_auto_name": "", "pf_reach_id": "", "in_icis": "YES", "echo_dfr_link": "https://echo.epa.gov/detailed-facility-report?fid=110017592292", "name": "KANSAS CITY (PLANT NO. 1) WWTP (KAW POINT)", "feature_kind": "CSO outfall"}}, {"type": "Feature", "id": 1529, "geometry": {"type": "Point", "coordinates": [-94.6323956831874, 39.1258571712154]}, "properties": {"OBJECTID": 1529, "npdes_pfid": "KS0038563C17", "npdes_id": "KS0038563", "permitting_state": "KS", "agency_type_code": "ST6", "facility_uin": "110017592292", "facility_name": "KANSAS CITY (PLANT NO. 1) WWTP (KAW POINT)", "location_address": "50 MARKET STREET", "supplemental_address_text": "701 N. 7TH STREET KANSAS CITY KS 66101", "facility_city": "KANSAS CITY", "county_code": "KS209", "state_code": "KS", "epa_region_code": "07", "facility_type_code": "MXO", "facility_lat": 39.1131592, "facility_lon": -94.610464, "permit_name": "UNIFIED GOV OF KC/WY CNTY", "version_nmbr": 0, "permit_type_code": "NPD", "effective_date": 1748736000000, "expiration_date": 1906416000000, "permit_status_code": "EFF", "facility_type_indicator": "POTW", "major_minor_status_flag": "M", "permit_tracking": "Y", "pt_start_date": 1748736000000, "dmr_tracking": "Y", "dmr_nr_start_date": 1748736000000, "permit_design_flow": null, "permit_avg_flow": null, "perm_feature_nmbr": "C17", "perm_feature_text": "2012 Darby Avenue", "pf_lat": 39.125857, "pf_lon": -94.632396, "pf_character": "CSO|DSW|SW", "perm_feature_type_code": "EXO", "pf_state_waterbody_name": "Jersey Creek", "pf_state_auto_name": "", "pf_reach_id": "", "in_icis": "YES", "echo_dfr_link": "https://echo.epa.gov/detailed-facility-report?fid=110017592292", "name": "KANSAS CITY (PLANT NO. 1) WWTP (KAW POINT)", "feature_kind": "CSO outfall"}}, {"type": "Feature", "id": 1530, "geometry": {"type": "Point", "coordinates": [-94.6324495821044, 39.1279902843085]}, "properties": {"OBJECTID": 1530, "npdes_pfid": "KS0038563C18", "npdes_id": "KS0038563", "permitting_state": "KS", "agency_type_code": "ST6", "facility_uin": "110017592292", "facility_name": "KANSAS CITY (PLANT NO. 1) WWTP (KAW POINT)", "location_address": "50 MARKET STREET", "supplemental_address_text": "701 N. 7TH STREET KANSAS CITY KS 66101", "facility_city": "KANSAS CITY", "county_code": "KS209", "state_code": "KS", "epa_region_code": "07", "facility_type_code": "MXO", "facility_lat": 39.1131592, "facility_lon": -94.610464, "permit_name": "UNIFIED GOV OF KC/WY CNTY", "version_nmbr": 0, "permit_type_code": "NPD", "effective_date": 1748736000000, "expiration_date": 1906416000000, "permit_status_code": "EFF", "facility_type_indicator": "POTW", "major_minor_status_flag": "M", "permit_tracking": "Y", "pt_start_date": 1748736000000, "dmr_tracking": "Y", "dmr_nr_start_date": 1748736000000, "permit_design_flow": null, "permit_avg_flow": null, "perm_feature_nmbr": "C18", "perm_feature_text": "CSO 18 2003 North 9th St", "pf_lat": 39.12799, "pf_lon": -94.63245, "pf_character": "CSO|DSW|SW", "perm_feature_type_code": "EXO", "pf_state_waterbody_name": "(No Waterbody)", "pf_state_auto_name": "", "pf_reach_id": "", "in_icis": "YES", "echo_dfr_link": "https://echo.epa.gov/detailed-facility-report?fid=110017592292", "name": "KANSAS CITY (PLANT NO. 1) WWTP (KAW POINT)", "feature_kind": "CSO outfall"}}, {"type": "Feature", "id": 1531, "geometry": {"type": "Point", "coordinates": [-94.6322878853533, 39.1257637894211]}, "properties": {"OBJECTID": 1531, "npdes_pfid": "KS0038563C19", "npdes_id": "KS0038563", "permitting_state": "KS", "agency_type_code": "ST6", "facility_uin": "110017592292", "facility_name": "KANSAS CITY (PLANT NO. 1) WWTP (KAW POINT)", "location_address": "50 MARKET STREET", "supplemental_address_text": "701 N. 7TH STREET KANSAS CITY KS 66101", "facility_city": "KANSAS CITY", "county_code": "KS209", "state_code": "KS", "epa_region_code": "07", "facility_type_code": "MXO", "facility_lat": 39.1131592, "facility_lon": -94.610464, "permit_name": "UNIFIED GOV OF KC/WY CNTY", "version_nmbr": 0, "permit_type_code": "NPD", "effective_date": 1748736000000, "expiration_date": 1906416000000, "permit_status_code": "EFF", "facility_type_indicator": "POTW", "major_minor_status_flag": "M", "permit_tracking": "Y", "pt_start_date": 1748736000000, "dmr_tracking": "Y", "dmr_nr_start_date": 1748736000000, "permit_design_flow": null, "permit_avg_flow": null, "perm_feature_nmbr": "C19", "perm_feature_text": "9th Street & Walker Avenue", "pf_lat": 39.125764, "pf_lon": -94.632288, "pf_character": "CSO|DSW|SW", "perm_feature_type_code": "EXO", "pf_state_waterbody_name": "Jersey Creek", "pf_state_auto_name": "", "pf_reach_id": "", "in_icis": "YES", "echo_dfr_link": "https://echo.epa.gov/detailed-facility-report?fid=110017592292", "name": "KANSAS CITY (PLANT NO. 1) WWTP (KAW POINT)", "feature_kind": "CSO outfall"}}, {"type": "Feature", "id": 1532, "geometry": {"type": "Point", "coordinates": [-94.6213796428582, 39.1215600867058]}, "properties": {"OBJECTID": 1532, "npdes_pfid": "KS0038563C21", "npdes_id": "KS0038563", "permitting_state": "KS", "agency_type_code": "ST6", "facility_uin": "110017592292", "facility_name": "KANSAS CITY (PLANT NO. 1) WWTP (KAW POINT)", "location_address": "50 MARKET STREET", "supplemental_address_text": "701 N. 7TH STREET KANSAS CITY KS 66101", "facility_city": "KANSAS CITY", "county_code": "KS209", "state_code": "KS", "epa_region_code": "07", "facility_type_code": "MXO", "facility_lat": 39.1131592, "facility_lon": -94.610464, "permit_name": "UNIFIED GOV OF KC/WY CNTY", "version_nmbr": 0, "permit_type_code": "NPD", "effective_date": 1748736000000, "expiration_date": 1906416000000, "permit_status_code": "EFF", "facility_type_indicator": "POTW", "major_minor_status_flag": "M", "permit_tracking": "Y", "pt_start_date": 1748736000000, "dmr_tracking": "Y", "dmr_nr_start_date": 1748736000000, "permit_design_flow": null, "permit_avg_flow": null, "perm_feature_nmbr": "C21", "perm_feature_text": "CSO 21 5th St & Freeman Ave", "pf_lat": 39.12156, "pf_lon": -94.62138, "pf_character": "CSO|DSW|SW", "perm_feature_type_code": "EXO", "pf_state_waterbody_name": "(No Waterbody)", "pf_state_auto_name": "", "pf_reach_id": "", "in_icis": "YES", "echo_dfr_link": "https://echo.epa.gov/detailed-facility-report?fid=110017592292", "name": "KANSAS CITY (PLANT NO. 1) WWTP (KAW POINT)", "feature_kind": "CSO outfall"}}, {"type": "Feature", "id": 1533, "geometry": {"type": "Point", "coordinates": [-94.6213419136163, 39.1230256965571]}, "properties": {"OBJECTID": 1533, "npdes_pfid": "KS0038563C22", "npdes_id": "KS0038563", "permitting_state": "KS", "agency_type_code": "ST6", "facility_uin": "110017592292", "facility_name": "KANSAS CITY (PLANT NO. 1) WWTP (KAW POINT)", "location_address": "50 MARKET STREET", "supplemental_address_text": "701 N. 7TH STREET KANSAS CITY KS 66101", "facility_city": "KANSAS CITY", "county_code": "KS209", "state_code": "KS", "epa_region_code": "07", "facility_type_code": "MXO", "facility_lat": 39.1131592, "facility_lon": -94.610464, "permit_name": "UNIFIED GOV OF KC/WY CNTY", "version_nmbr": 0, "permit_type_code": "NPD", "effective_date": 1748736000000, "expiration_date": 1906416000000, "permit_status_code": "EFF", "facility_type_indicator": "POTW", "major_minor_status_flag": "M", "permit_tracking": "Y", "pt_start_date": 1748736000000, "dmr_tracking": "Y", "dmr_nr_start_date": 1748736000000, "permit_design_flow": null, "permit_avg_flow": null, "perm_feature_nmbr": "C22", "perm_feature_text": "5th Street & New Jersey Avenue", "pf_lat": 39.123026, "pf_lon": -94.621342, "pf_character": "CSO|DSW|SW", "perm_feature_type_code": "EXO", "pf_state_waterbody_name": "Jersey Creek", "pf_state_auto_name": "", "pf_reach_id": "", "in_icis": "YES", "echo_dfr_link": "https://echo.epa.gov/detailed-facility-report?fid=110017592292", "name": "KANSAS CITY (PLANT NO. 1) WWTP (KAW POINT)", "feature_kind": "CSO outfall"}}, {"type": "Feature", "id": 1534, "geometry": {"type": "Point", "coordinates": [-94.6187089515185, 39.1219970548874]}, "properties": {"OBJECTID": 1534, "npdes_pfid": "KS0038563C23", "npdes_id": "KS0038563", "permitting_state": "KS", "agency_type_code": "ST6", "facility_uin": "110017592292", "facility_name": "KANSAS CITY (PLANT NO. 1) WWTP (KAW POINT)", "location_address": "50 MARKET STREET", "supplemental_address_text": "701 N. 7TH STREET KANSAS CITY KS 66101", "facility_city": "KANSAS CITY", "county_code": "KS209", "state_code": "KS", "epa_region_code": "07", "facility_type_code": "MXO", "facility_lat": 39.1131592, "facility_lon": -94.610464, "permit_name": "UNIFIED GOV OF KC/WY CNTY", "version_nmbr": 0, "permit_type_code": "NPD", "effective_date": 1748736000000, "expiration_date": 1906416000000, "permit_status_code": "EFF", "facility_type_indicator": "POTW", "major_minor_status_flag": "M", "permit_tracking": "Y", "pt_start_date": 1748736000000, "dmr_tracking": "Y", "dmr_nr_start_date": 1748736000000, "permit_design_flow": null, "permit_avg_flow": null, "perm_feature_nmbr": "C23", "perm_feature_text": "5th Street & Freeman Avenue", "pf_lat": 39.121997, "pf_lon": -94.618709, "pf_character": "CSO|DSW|SW", "perm_feature_type_code": "EXO", "pf_state_waterbody_name": "Jersey Creek", "pf_state_auto_name": "", "pf_reach_id": "", "in_icis": "YES", "echo_dfr_link": "https://echo.epa.gov/detailed-facility-report?fid=110017592292", "name": "KANSAS CITY (PLANT NO. 1) WWTP (KAW POINT)", "feature_kind": "CSO outfall"}}, {"type": "Feature", "id": 1535, "geometry": {"type": "Point", "coordinates": [-94.6161559394811, 39.1214548515394]}, "properties": {"OBJECTID": 1535, "npdes_pfid": "KS0038563C25", "npdes_id": "KS0038563", "permitting_state": "KS", "agency_type_code": "ST6", "facility_uin": "110017592292", "facility_name": "KANSAS CITY (PLANT NO. 1) WWTP (KAW POINT)", "location_address": "50 MARKET STREET", "supplemental_address_text": "701 N. 7TH STREET KANSAS CITY KS 66101", "facility_city": "KANSAS CITY", "county_code": "KS209", "state_code": "KS", "epa_region_code": "07", "facility_type_code": "MXO", "facility_lat": 39.1131592, "facility_lon": -94.610464, "permit_name": "UNIFIED GOV OF KC/WY CNTY", "version_nmbr": 0, "permit_type_code": "NPD", "effective_date": 1748736000000, "expiration_date": 1906416000000, "permit_status_code": "EFF", "facility_type_indicator": "POTW", "major_minor_status_flag": "M", "permit_tracking": "Y", "pt_start_date": 1748736000000, "dmr_tracking": "Y", "dmr_nr_start_date": 1748736000000, "permit_design_flow": null, "permit_avg_flow": null, "perm_feature_nmbr": "C25", "perm_feature_text": "3rd Street & New Jersey Avenue", "pf_lat": 39.121455, "pf_lon": -94.616156, "pf_character": "CSO|DSW|SW", "perm_feature_type_code": "EXO", "pf_state_waterbody_name": "Jersey Creek", "pf_state_auto_name": "", "pf_reach_id": "", "in_icis": "YES", "echo_dfr_link": "https://echo.epa.gov/detailed-facility-report?fid=110017592292", "name": "KANSAS CITY (PLANT NO. 1) WWTP (KAW POINT)", "feature_kind": "CSO outfall"}}, {"type": "Feature", "id": 1536, "geometry": {"type": "Point", "coordinates": [-94.6469007800801, 39.1289108270437]}, "properties": {"OBJECTID": 1536, "npdes_pfid": "KS0038563C26", "npdes_id": "KS0038563", "permitting_state": "KS", "agency_type_code": "ST6", "facility_uin": "110017592292", "facility_name": "KANSAS CITY (PLANT NO. 1) WWTP (KAW POINT)", "location_address": "50 MARKET STREET", "supplemental_address_text": "701 N. 7TH STREET KANSAS CITY KS 66101", "facility_city": "KANSAS CITY", "county_code": "KS209", "state_code": "KS", "epa_region_code": "07", "facility_type_code": "MXO", "facility_lat": 39.1131592, "facility_lon": -94.610464, "permit_name": "UNIFIED GOV OF KC/WY CNTY", "version_nmbr": 0, "permit_type_code": "NPD", "effective_date": 1748736000000, "expiration_date": 1906416000000, "permit_status_code": "EFF", "facility_type_indicator": "POTW", "major_minor_status_flag": "M", "permit_tracking": "Y", "pt_start_date": 1748736000000, "dmr_tracking": "Y", "dmr_nr_start_date": 1748736000000, "permit_design_flow": null, "permit_avg_flow": null, "perm_feature_nmbr": "C26", "perm_feature_text": "18th Street & Troup Avenue", "pf_lat": 39.128911, "pf_lon": -94.646901, "pf_character": "CSO|DSW|SW", "perm_feature_type_code": "EXO", "pf_state_waterbody_name": "Jersey Creek", "pf_state_auto_name": "", "pf_reach_id": "", "in_icis": "YES", "echo_dfr_link": "https://echo.epa.gov/detailed-facility-report?fid=110017592292", "name": "KANSAS CITY (PLANT NO. 1) WWTP (KAW POINT)", "feature_kind": "CSO outfall"}}, {"type": "Feature", "id": 1537, "geometry": {"type": "Point", "coordinates": [-94.6315997758457, 39.1454792354689]}, "properties": {"OBJECTID": 1537, "npdes_pfid": "KS0038563C27", "npdes_id": "KS0038563", "permitting_state": "KS", "agency_type_code": "ST6", "facility_uin": "110017592292", "facility_name": "KANSAS CITY (PLANT NO. 1) WWTP (KAW POINT)", "location_address": "50 MARKET STREET", "supplemental_address_text": "701 N. 7TH STREET KANSAS CITY KS 66101", "facility_city": "KANSAS CITY", "county_code": "KS209", "state_code": "KS", "epa_region_code": "07", "facility_type_code": "MXO", "facility_lat": 39.1131592, "facility_lon": -94.610464, "permit_name": "UNIFIED GOV OF KC/WY CNTY", "version_nmbr": 0, "permit_type_code": "NPD", "effective_date": 1748736000000, "expiration_date": 1906416000000, "permit_status_code": "EFF", "facility_type_indicator": "POTW", "major_minor_status_flag": "M", "permit_tracking": "Y", "pt_start_date": 1748736000000, "dmr_tracking": "Y", "dmr_nr_start_date": 1748736000000, "permit_design_flow": null, "permit_avg_flow": null, "perm_feature_nmbr": "C27", "perm_feature_text": "12th Street & Esplanade Street", "pf_lat": 39.145479, "pf_lon": -94.6316, "pf_character": "CSO|DSW|SW", "perm_feature_type_code": "EXO", "pf_state_waterbody_name": "Missouri River", "pf_state_auto_name": "", "pf_reach_id": "", "in_icis": "YES", "echo_dfr_link": "https://echo.epa.gov/detailed-facility-report?fid=110017592292", "name": "KANSAS CITY (PLANT NO. 1) WWTP (KAW POINT)", "feature_kind": "CSO outfall"}}, {"type": "Feature", "id": 1538, "geometry": {"type": "Point", "coordinates": [-94.6377900664685, 39.147110154816]}, "properties": {"OBJECTID": 1538, "npdes_pfid": "KS0038563C28", "npdes_id": "KS0038563", "permitting_state": "KS", "agency_type_code": "ST6", "facility_uin": "110017592292", "facility_name": "KANSAS CITY (PLANT NO. 1) WWTP (KAW POINT)", "location_address": "50 MARKET STREET", "supplemental_address_text": "701 N. 7TH STREET KANSAS CITY KS 66101", "facility_city": "KANSAS CITY", "county_code": "KS209", "state_code": "KS", "epa_region_code": "07", "facility_type_code": "MXO", "facility_lat": 39.1131592, "facility_lon": -94.610464, "permit_name": "UNIFIED GOV OF KC/WY CNTY", "version_nmbr": 0, "permit_type_code": "NPD", "effective_date": 1748736000000, "expiration_date": 1906416000000, "permit_status_code": "EFF", "facility_type_indicator": "POTW", "major_minor_status_flag": "M", "permit_tracking": "Y", "pt_start_date": 1748736000000, "dmr_tracking": "Y", "dmr_nr_start_date": 1748736000000, "permit_design_flow": null, "permit_avg_flow": null, "perm_feature_nmbr": "C28", "perm_feature_text": "CSO 28 Parkwood Blvd & Esplanade St", "pf_lat": 39.14711, "pf_lon": -94.63779, "pf_character": "CSO|DSW|SW", "perm_feature_type_code": "EXO", "pf_state_waterbody_name": "(No Waterbody)", "pf_state_auto_name": "", "pf_reach_id": "", "in_icis": "YES", "echo_dfr_link": "https://echo.epa.gov/detailed-facility-report?fid=110017592292", "name": "KANSAS CITY (PLANT NO. 1) WWTP (KAW POINT)", "feature_kind": "CSO outfall"}}, {"type": "Feature", "id": 1539, "geometry": {"type": "Point", "coordinates": [-94.6334197626113, 39.1456199655823]}, "properties": {"OBJECTID": 1539, "npdes_pfid": "KS0038563C29", "npdes_id": "KS0038563", "permitting_state": "KS", "agency_type_code": "ST6", "facility_uin": "110017592292", "facility_name": "KANSAS CITY (PLANT NO. 1) WWTP (KAW POINT)", "location_address": "50 MARKET STREET", "supplemental_address_text": "701 N. 7TH STREET KANSAS CITY KS 66101", "facility_city": "KANSAS CITY", "county_code": "KS209", "state_code": "KS", "epa_region_code": "07", "facility_type_code": "MXO", "facility_lat": 39.1131592, "facility_lon": -94.610464, "permit_name": "UNIFIED GOV OF KC/WY CNTY", "version_nmbr": 0, "permit_type_code": "NPD", "effective_date": 1748736000000, "expiration_date": 1906416000000, "permit_status_code": "EFF", "facility_type_indicator": "POTW", "major_minor_status_flag": "M", "permit_tracking": "Y", "pt_start_date": 1748736000000, "dmr_tracking": "Y", "dmr_nr_start_date": 1748736000000, "permit_design_flow": null, "permit_avg_flow": null, "perm_feature_nmbr": "C29", "perm_feature_text": "CSO 29 10th St & Esplanade St", "pf_lat": 39.14562, "pf_lon": -94.63342, "pf_character": "CSO|DSW|SW", "perm_feature_type_code": "EXO", "pf_state_waterbody_name": "(No Waterbody)", "pf_state_auto_name": "", "pf_reach_id": "", "in_icis": "YES", "echo_dfr_link": "https://echo.epa.gov/detailed-facility-report?fid=110017592292", "name": "KANSAS CITY (PLANT NO. 1) WWTP (KAW POINT)", "feature_kind": "CSO outfall"}}, {"type": "Feature", "id": 1540, "geometry": {"type": "Point", "coordinates": [-94.6232472403339, 39.1408572792482]}, "properties": {"OBJECTID": 1540, "npdes_pfid": "KS0038563C30", "npdes_id": "KS0038563", "permitting_state": "KS", "agency_type_code": "ST6", "facility_uin": "110017592292", "facility_name": "KANSAS CITY (PLANT NO. 1) WWTP (KAW POINT)", "location_address": "50 MARKET STREET", "supplemental_address_text": "701 N. 7TH STREET KANSAS CITY KS 66101", "facility_city": "KANSAS CITY", "county_code": "KS209", "state_code": "KS", "epa_region_code": "07", "facility_type_code": "MXO", "facility_lat": 39.1131592, "facility_lon": -94.610464, "permit_name": "UNIFIED GOV OF KC/WY CNTY", "version_nmbr": 0, "permit_type_code": "NPD", "effective_date": 1748736000000, "expiration_date": 1906416000000, "permit_status_code": "EFF", "facility_type_indicator": "POTW", "major_minor_status_flag": "M", "permit_tracking": "Y", "pt_start_date": 1748736000000, "dmr_tracking": "Y", "dmr_nr_start_date": 1748736000000, "permit_design_flow": null, "permit_avg_flow": null, "perm_feature_nmbr": "C30", "perm_feature_text": "7th Street Trafficway & Manorcrest Drive", "pf_lat": 39.140857, "pf_lon": -94.623247, "pf_character": "CSO|DSW|SW", "perm_feature_type_code": "EXO", "pf_state_waterbody_name": "Missouri River", "pf_state_auto_name": "", "pf_reach_id": "", "in_icis": "YES", "echo_dfr_link": "https://echo.epa.gov/detailed-facility-report?fid=110017592292", "name": "KANSAS CITY (PLANT NO. 1) WWTP (KAW POINT)", "feature_kind": "CSO outfall"}}, {"type": "Feature", "id": 1541, "geometry": {"type": "Point", "coordinates": [-94.6225492493582, 39.1405019459643]}, "properties": {"OBJECTID": 1541, "npdes_pfid": "KS0038563C31", "npdes_id": "KS0038563", "permitting_state": "KS", "agency_type_code": "ST6", "facility_uin": "110017592292", "facility_name": "KANSAS CITY (PLANT NO. 1) WWTP (KAW POINT)", "location_address": "50 MARKET STREET", "supplemental_address_text": "701 N. 7TH STREET KANSAS CITY KS 66101", "facility_city": "KANSAS CITY", "county_code": "KS209", "state_code": "KS", "epa_region_code": "07", "facility_type_code": "MXO", "facility_lat": 39.1131592, "facility_lon": -94.610464, "permit_name": "UNIFIED GOV OF KC/WY CNTY", "version_nmbr": 0, "permit_type_code": "NPD", "effective_date": 1748736000000, "expiration_date": 1906416000000, "permit_status_code": "EFF", "facility_type_indicator": "POTW", "major_minor_status_flag": "M", "permit_tracking": "Y", "pt_start_date": 1748736000000, "dmr_tracking": "Y", "dmr_nr_start_date": 1748736000000, "permit_design_flow": null, "permit_avg_flow": null, "perm_feature_nmbr": "C31", "perm_feature_text": "7th Street Trafficway & Manorcrest Drive", "pf_lat": 39.140502, "pf_lon": -94.622549, "pf_character": "CSO|DSW|SW", "perm_feature_type_code": "EXO", "pf_state_waterbody_name": "Missouri River", "pf_state_auto_name": "", "pf_reach_id": "", "in_icis": "YES", "echo_dfr_link": "https://echo.epa.gov/detailed-facility-report?fid=110017592292", "name": "KANSAS CITY (PLANT NO. 1) WWTP (KAW POINT)", "feature_kind": "CSO outfall"}}, {"type": "Feature", "id": 1542, "geometry": {"type": "Point", "coordinates": [-94.6187350026618, 39.1082420595243]}, "properties": {"OBJECTID": 1542, "npdes_pfid": "KS0038563C32", "npdes_id": "KS0038563", "permitting_state": "KS", "agency_type_code": "ST6", "facility_uin": "110017592292", "facility_name": "KANSAS CITY (PLANT NO. 1) WWTP (KAW POINT)", "location_address": "50 MARKET STREET", "supplemental_address_text": "701 N. 7TH STREET KANSAS CITY KS 66101", "facility_city": "KANSAS CITY", "county_code": "KS209", "state_code": "KS", "epa_region_code": "07", "facility_type_code": "MXO", "facility_lat": 39.1131592, "facility_lon": -94.610464, "permit_name": "UNIFIED GOV OF KC/WY CNTY", "version_nmbr": 0, "permit_type_code": "NPD", "effective_date": 1748736000000, "expiration_date": 1906416000000, "permit_status_code": "EFF", "facility_type_indicator": "POTW", "major_minor_status_flag": "M", "permit_tracking": "Y", "pt_start_date": 1748736000000, "dmr_tracking": "Y", "dmr_nr_start_date": 1748736000000, "permit_design_flow": null, "permit_avg_flow": null, "perm_feature_nmbr": "C32", "perm_feature_text": "Ohio Avenue and James Street", "pf_lat": 39.108242, "pf_lon": -94.618735, "pf_character": "CSO|DSW|SW", "perm_feature_type_code": "EXO", "pf_state_waterbody_name": "Missouri River", "pf_state_auto_name": "", "pf_reach_id": "", "in_icis": "YES", "echo_dfr_link": "https://echo.epa.gov/detailed-facility-report?fid=110017592292", "name": "KANSAS CITY (PLANT NO. 1) WWTP (KAW POINT)", "feature_kind": "CSO outfall"}}, {"type": "Feature", "id": 1543, "geometry": {"type": "Point", "coordinates": [-94.6180352150555, 39.110706098252]}, "properties": {"OBJECTID": 1543, "npdes_pfid": "KS0038563C39", "npdes_id": "KS0038563", "permitting_state": "KS", "agency_type_code": "ST6", "facility_uin": "110017592292", "facility_name": "KANSAS CITY (PLANT NO. 1) WWTP (KAW POINT)", "location_address": "50 MARKET STREET", "supplemental_address_text": "701 N. 7TH STREET KANSAS CITY KS 66101", "facility_city": "KANSAS CITY", "county_code": "KS209", "state_code": "KS", "epa_region_code": "07", "facility_type_code": "MXO", "facility_lat": 39.1131592, "facility_lon": -94.610464, "permit_name": "UNIFIED GOV OF KC/WY CNTY", "version_nmbr": 0, "permit_type_code": "NPD", "effective_date": 1748736000000, "expiration_date": 1906416000000, "permit_status_code": "EFF", "facility_type_indicator": "POTW", "major_minor_status_flag": "M", "permit_tracking": "Y", "pt_start_date": 1748736000000, "dmr_tracking": "Y", "dmr_nr_start_date": 1748736000000, "permit_design_flow": null, "permit_avg_flow": null, "perm_feature_nmbr": "C39", "perm_feature_text": "Strawberry Hill Pump Station", "pf_lat": 39.110706, "pf_lon": -94.618035, "pf_character": "CSO|DSW|SW", "perm_feature_type_code": "EXO", "pf_state_waterbody_name": "Kansas River", "pf_state_auto_name": "", "pf_reach_id": "", "in_icis": "YES", "echo_dfr_link": "https://echo.epa.gov/detailed-facility-report?fid=110017592292", "name": "KANSAS CITY (PLANT NO. 1) WWTP (KAW POINT)", "feature_kind": "CSO outfall"}}, {"type": "Feature", "id": 1544, "geometry": {"type": "Point", "coordinates": [-94.6401256862072, 39.0748237015658]}, "properties": {"OBJECTID": 1544, "npdes_pfid": "KS0038563C41", "npdes_id": "KS0038563", "permitting_state": "KS", "agency_type_code": "ST6", "facility_uin": "110017592292", "facility_name": "KANSAS CITY (PLANT NO. 1) WWTP (KAW POINT)", "location_address": "50 MARKET STREET", "supplemental_address_text": "701 N. 7TH STREET KANSAS CITY KS 66101", "facility_city": "KANSAS CITY", "county_code": "KS209", "state_code": "KS", "epa_region_code": "07", "facility_type_code": "MXO", "facility_lat": 39.1131592, "facility_lon": -94.610464, "permit_name": "UNIFIED GOV OF KC/WY CNTY", "version_nmbr": 0, "permit_type_code": "NPD", "effective_date": 1748736000000, "expiration_date": 1906416000000, "permit_status_code": "EFF", "facility_type_indicator": "POTW", "major_minor_status_flag": "M", "permit_tracking": "Y", "pt_start_date": 1748736000000, "dmr_tracking": "Y", "dmr_nr_start_date": 1748736000000, "permit_design_flow": null, "permit_avg_flow": null, "perm_feature_nmbr": "C41", "perm_feature_text": "14th Street & Kansas Avenue", "pf_lat": 39.074824, "pf_lon": -94.640126, "pf_character": "CSO|DSW|SW", "perm_feature_type_code": "EXO", "pf_state_waterbody_name": "Kansas River", "pf_state_auto_name": "", "pf_reach_id": "", "in_icis": "YES", "echo_dfr_link": "https://echo.epa.gov/detailed-facility-report?fid=110017592292", "name": "KANSAS CITY (PLANT NO. 1) WWTP (KAW POINT)", "feature_kind": "CSO outfall"}}, {"type": "Feature", "id": 1545, "geometry": {"type": "Point", "coordinates": [-94.6400277698413, 39.0874438144657]}, "properties": {"OBJECTID": 1545, "npdes_pfid": "KS0038563C42", "npdes_id": "KS0038563", "permitting_state": "KS", "agency_type_code": "ST6", "facility_uin": "110017592292", "facility_name": "KANSAS CITY (PLANT NO. 1) WWTP (KAW POINT)", "location_address": "50 MARKET STREET", "supplemental_address_text": "701 N. 7TH STREET KANSAS CITY KS 66101", "facility_city": "KANSAS CITY", "county_code": "KS209", "state_code": "KS", "epa_region_code": "07", "facility_type_code": "MXO", "facility_lat": 39.1131592, "facility_lon": -94.610464, "permit_name": "UNIFIED GOV OF KC/WY CNTY", "version_nmbr": 0, "permit_type_code": "NPD", "effective_date": 1748736000000, "expiration_date": 1906416000000, "permit_status_code": "EFF", "facility_type_indicator": "POTW", "major_minor_status_flag": "M", "permit_tracking": "Y", "pt_start_date": 1748736000000, "dmr_tracking": "Y", "dmr_nr_start_date": 1748736000000, "permit_design_flow": null, "permit_avg_flow": null, "perm_feature_nmbr": "C42", "perm_feature_text": "CSO 42 12th St & Kansas Ave", "pf_lat": 39.087444, "pf_lon": -94.640028, "pf_character": "CSO|DSW|SW", "perm_feature_type_code": "EXO", "pf_state_waterbody_name": "(No Waterbody)", "pf_state_auto_name": "", "pf_reach_id": "", "in_icis": "YES", "echo_dfr_link": "https://echo.epa.gov/detailed-facility-report?fid=110017592292", "name": "KANSAS CITY (PLANT NO. 1) WWTP (KAW POINT)", "feature_kind": "CSO outfall"}}, {"type": "Feature", "id": 1546, "geometry": {"type": "Point", "coordinates": [-94.6304256777693, 39.0754569226946]}, "properties": {"OBJECTID": 1546, "npdes_pfid": "KS0038563C43", "npdes_id": "KS0038563", "permitting_state": "KS", "agency_type_code": "ST6", "facility_uin": "110017592292", "facility_name": "KANSAS CITY (PLANT NO. 1) WWTP (KAW POINT)", "location_address": "50 MARKET STREET", "supplemental_address_text": "701 N. 7TH STREET KANSAS CITY KS 66101", "facility_city": "KANSAS CITY", "county_code": "KS209", "state_code": "KS", "epa_region_code": "07", "facility_type_code": "MXO", "facility_lat": 39.1131592, "facility_lon": -94.610464, "permit_name": "UNIFIED GOV OF KC/WY CNTY", "version_nmbr": 0, "permit_type_code": "NPD", "effective_date": 1748736000000, "expiration_date": 1906416000000, "permit_status_code": "EFF", "facility_type_indicator": "POTW", "major_minor_status_flag": "M", "permit_tracking": "Y", "pt_start_date": 1748736000000, "dmr_tracking": "Y", "dmr_nr_start_date": 1748736000000, "permit_design_flow": null, "permit_avg_flow": null, "perm_feature_nmbr": "C43", "perm_feature_text": "Mill Street & Cheyenne", "pf_lat": 39.075457, "pf_lon": -94.630426, "pf_character": "CSO|DSW|SW", "perm_feature_type_code": "EXO", "pf_state_waterbody_name": "Kansas River", "pf_state_auto_name": "", "pf_reach_id": "", "in_icis": "YES", "echo_dfr_link": "https://echo.epa.gov/detailed-facility-report?fid=110017592292", "name": "KANSAS CITY (PLANT NO. 1) WWTP (KAW POINT)", "feature_kind": "CSO outfall"}}, {"type": "Feature", "id": 1547, "geometry": {"type": "Point", "coordinates": [-94.6185140171019, 39.1063418678598]}, "properties": {"OBJECTID": 1547, "npdes_pfid": "KS0038563C44", "npdes_id": "KS0038563", "permitting_state": "KS", "agency_type_code": "ST6", "facility_uin": "110017592292", "facility_name": "KANSAS CITY (PLANT NO. 1) WWTP (KAW POINT)", "location_address": "50 MARKET STREET", "supplemental_address_text": "701 N. 7TH STREET KANSAS CITY KS 66101", "facility_city": "KANSAS CITY", "county_code": "KS209", "state_code": "KS", "epa_region_code": "07", "facility_type_code": "MXO", "facility_lat": 39.1131592, "facility_lon": -94.610464, "permit_name": "UNIFIED GOV OF KC/WY CNTY", "version_nmbr": 0, "permit_type_code": "NPD", "effective_date": 1748736000000, "expiration_date": 1906416000000, "permit_status_code": "EFF", "facility_type_indicator": "POTW", "major_minor_status_flag": "M", "permit_tracking": "Y", "pt_start_date": 1748736000000, "dmr_tracking": "Y", "dmr_nr_start_date": 1748736000000, "permit_design_flow": null, "permit_avg_flow": null, "perm_feature_nmbr": "C44", "perm_feature_text": "Northeast of 1-70 & Central Avenue", "pf_lat": 39.106342, "pf_lon": -94.618514, "pf_character": "CSO|DSW|SW", "perm_feature_type_code": "EXO", "pf_state_waterbody_name": "Kansas River", "pf_state_auto_name": "", "pf_reach_id": "", "in_icis": "YES", "echo_dfr_link": "https://echo.epa.gov/detailed-facility-report?fid=110017592292", "name": "KANSAS CITY (PLANT NO. 1) WWTP (KAW POINT)", "feature_kind": "CSO outfall"}}, {"type": "Feature", "id": 1548, "geometry": {"type": "Point", "coordinates": [-94.6442768011351, 39.0730397727231]}, "properties": {"OBJECTID": 1548, "npdes_pfid": "KS0038563C47", "npdes_id": "KS0038563", "permitting_state": "KS", "agency_type_code": "ST6", "facility_uin": "110017592292", "facility_name": "KANSAS CITY (PLANT NO. 1) WWTP (KAW POINT)", "location_address": "50 MARKET STREET", "supplemental_address_text": "701 N. 7TH STREET KANSAS CITY KS 66101", "facility_city": "KANSAS CITY", "county_code": "KS209", "state_code": "KS", "epa_region_code": "07", "facility_type_code": "MXO", "facility_lat": 39.1131592, "facility_lon": -94.610464, "permit_name": "UNIFIED GOV OF KC/WY CNTY", "version_nmbr": 0, "permit_type_code": "NPD", "effective_date": 1748736000000, "expiration_date": 1906416000000, "permit_status_code": "EFF", "facility_type_indicator": "POTW", "major_minor_status_flag": "M", "permit_tracking": "Y", "pt_start_date": 1748736000000, "dmr_tracking": "Y", "dmr_nr_start_date": 1748736000000, "permit_design_flow": null, "permit_avg_flow": null, "perm_feature_nmbr": "C47", "perm_feature_text": "South 14th Street North of Ruby Avenue", "pf_lat": 39.07304, "pf_lon": -94.644277, "pf_character": "CSO|DSW|SW", "perm_feature_type_code": "EXO", "pf_state_waterbody_name": "Kansas River", "pf_state_auto_name": "", "pf_reach_id": "", "in_icis": "YES", "echo_dfr_link": "https://echo.epa.gov/detailed-facility-report?fid=110017592292", "name": "KANSAS CITY (PLANT NO. 1) WWTP (KAW POINT)", "feature_kind": "CSO outfall"}}, {"type": "Feature", "id": 1549, "geometry": {"type": "Point", "coordinates": [-94.6489372608292, 39.075034310986]}, "properties": {"OBJECTID": 1549, "npdes_pfid": "KS0038563C48", "npdes_id": "KS0038563", "permitting_state": "KS", "agency_type_code": "ST6", "facility_uin": "110017592292", "facility_name": "KANSAS CITY (PLANT NO. 1) WWTP (KAW POINT)", "location_address": "50 MARKET STREET", "supplemental_address_text": "701 N. 7TH STREET KANSAS CITY KS 66101", "facility_city": "KANSAS CITY", "county_code": "KS209", "state_code": "KS", "epa_region_code": "07", "facility_type_code": "MXO", "facility_lat": 39.1131592, "facility_lon": -94.610464, "permit_name": "UNIFIED GOV OF KC/WY CNTY", "version_nmbr": 0, "permit_type_code": "NPD", "effective_date": 1748736000000, "expiration_date": 1906416000000, "permit_status_code": "EFF", "facility_type_indicator": "POTW", "major_minor_status_flag": "M", "permit_tracking": "Y", "pt_start_date": 1748736000000, "dmr_tracking": "Y", "dmr_nr_start_date": 1748736000000, "permit_design_flow": null, "permit_avg_flow": null, "perm_feature_nmbr": "C48", "perm_feature_text": "Strong Avenue Flood Pump Station", "pf_lat": 39.075034, "pf_lon": -94.648937, "pf_character": "CSO|DSW|SW", "perm_feature_type_code": "EXO", "pf_state_waterbody_name": "Kansas River", "pf_state_auto_name": "", "pf_reach_id": "", "in_icis": "YES", "echo_dfr_link": "https://echo.epa.gov/detailed-facility-report?fid=110017592292", "name": "KANSAS CITY (PLANT NO. 1) WWTP (KAW POINT)", "feature_kind": "CSO outfall"}}, {"type": "Feature", "id": 1550, "geometry": {"type": "Point", "coordinates": [-94.6622556832315, 39.1045489768122]}, "properties": {"OBJECTID": 1550, "npdes_pfid": "KS0038563C51", "npdes_id": "KS0038563", "permitting_state": "KS", "agency_type_code": "ST6", "facility_uin": "110017592292", "facility_name": "KANSAS CITY (PLANT NO. 1) WWTP (KAW POINT)", "location_address": "50 MARKET STREET", "supplemental_address_text": "701 N. 7TH STREET KANSAS CITY KS 66101", "facility_city": "KANSAS CITY", "county_code": "KS209", "state_code": "KS", "epa_region_code": "07", "facility_type_code": "MXO", "facility_lat": 39.1131592, "facility_lon": -94.610464, "permit_name": "UNIFIED GOV OF KC/WY CNTY", "version_nmbr": 0, "permit_type_code": "NPD", "effective_date": 1748736000000, "expiration_date": 1906416000000, "permit_status_code": "EFF", "facility_type_indicator": "POTW", "major_minor_status_flag": "M", "permit_tracking": "Y", "pt_start_date": 1748736000000, "dmr_tracking": "Y", "dmr_nr_start_date": 1748736000000, "permit_design_flow": null, "permit_avg_flow": null, "perm_feature_nmbr": "C51", "perm_feature_text": "Grandview Boulevard & Park Drive", "pf_lat": 39.104549, "pf_lon": -94.662256, "pf_character": "CSO|DSW|SW", "perm_feature_type_code": "EXO", "pf_state_waterbody_name": "Mattoon Creek", "pf_state_auto_name": "", "pf_reach_id": "", "in_icis": "YES", "echo_dfr_link": "https://echo.epa.gov/detailed-facility-report?fid=110017592292", "name": "KANSAS CITY (PLANT NO. 1) WWTP (KAW POINT)", "feature_kind": "CSO outfall"}}, {"type": "Feature", "id": 1551, "geometry": {"type": "Point", "coordinates": [-94.6609162951429, 39.1063732360764]}, "properties": {"OBJECTID": 1551, "npdes_pfid": "KS0038563C52", "npdes_id": "KS0038563", "permitting_state": "KS", "agency_type_code": "ST6", "facility_uin": "110017592292", "facility_name": "KANSAS CITY (PLANT NO. 1) WWTP (KAW POINT)", "location_address": "50 MARKET STREET", "supplemental_address_text": "701 N. 7TH STREET KANSAS CITY KS 66101", "facility_city": "KANSAS CITY", "county_code": "KS209", "state_code": "KS", "epa_region_code": "07", "facility_type_code": "MXO", "facility_lat": 39.1131592, "facility_lon": -94.610464, "permit_name": "UNIFIED GOV OF KC/WY CNTY", "version_nmbr": 0, "permit_type_code": "NPD", "effective_date": 1748736000000, "expiration_date": 1906416000000, "permit_status_code": "EFF", "facility_type_indicator": "POTW", "major_minor_status_flag": "M", "permit_tracking": "Y", "pt_start_date": 1748736000000, "dmr_tracking": "Y", "dmr_nr_start_date": 1748736000000, "permit_design_flow": null, "permit_avg_flow": null, "perm_feature_nmbr": "C52", "perm_feature_text": "Grandview Boulevard & Riverview Avenue", "pf_lat": 39.106373, "pf_lon": -94.660916, "pf_character": "CSO|DSW|SW", "perm_feature_type_code": "EXO", "pf_state_waterbody_name": "Mattoon Creek", "pf_state_auto_name": "", "pf_reach_id": "", "in_icis": "YES", "echo_dfr_link": "https://echo.epa.gov/detailed-facility-report?fid=110017592292", "name": "KANSAS CITY (PLANT NO. 1) WWTP (KAW POINT)", "feature_kind": "CSO outfall"}}, {"type": "Feature", "id": 1552, "geometry": {"type": "Point", "coordinates": [-94.6188490887029, 39.1221218028821]}, "properties": {"OBJECTID": 1552, "npdes_pfid": "KS0038563C53", "npdes_id": "KS0038563", "permitting_state": "KS", "agency_type_code": "ST6", "facility_uin": "110017592292", "facility_name": "KANSAS CITY (PLANT NO. 1) WWTP (KAW POINT)", "location_address": "50 MARKET STREET", "supplemental_address_text": "701 N. 7TH STREET KANSAS CITY KS 66101", "facility_city": "KANSAS CITY", "county_code": "KS209", "state_code": "KS", "epa_region_code": "07", "facility_type_code": "MXO", "facility_lat": 39.1131592, "facility_lon": -94.610464, "permit_name": "UNIFIED GOV OF KC/WY CNTY", "version_nmbr": 0, "permit_type_code": "NPD", "effective_date": 1748736000000, "expiration_date": 1906416000000, "permit_status_code": "EFF", "facility_type_indicator": "POTW", "major_minor_status_flag": "M", "permit_tracking": "Y", "pt_start_date": 1748736000000, "dmr_tracking": "Y", "dmr_nr_start_date": 1748736000000, "permit_design_flow": null, "permit_avg_flow": null, "perm_feature_nmbr": "C53", "perm_feature_text": "4th Street North of Jersey Creek", "pf_lat": 39.122122, "pf_lon": -94.618849, "pf_character": "CSO|DSW|SW", "perm_feature_type_code": "EXO", "pf_state_waterbody_name": "Jersey Creek", "pf_state_auto_name": "", "pf_reach_id": "", "in_icis": "YES", "echo_dfr_link": "https://echo.epa.gov/detailed-facility-report?fid=110017592292", "name": "KANSAS CITY (PLANT NO. 1) WWTP (KAW POINT)", "feature_kind": "CSO outfall"}}, {"type": "Feature", "id": 1553, "geometry": {"type": "Point", "coordinates": [-94.6114721235897, 39.1225002270117]}, "properties": {"OBJECTID": 1553, "npdes_pfid": "KS0038563C54", "npdes_id": "KS0038563", "permitting_state": "KS", "agency_type_code": "ST6", "facility_uin": "110017592292", "facility_name": "KANSAS CITY (PLANT NO. 1) WWTP (KAW POINT)", "location_address": "50 MARKET STREET", "supplemental_address_text": "701 N. 7TH STREET KANSAS CITY KS 66101", "facility_city": "KANSAS CITY", "county_code": "KS209", "state_code": "KS", "epa_region_code": "07", "facility_type_code": "MXO", "facility_lat": 39.1131592, "facility_lon": -94.610464, "permit_name": "UNIFIED GOV OF KC/WY CNTY", "version_nmbr": 0, "permit_type_code": "NPD", "effective_date": 1748736000000, "expiration_date": 1906416000000, "permit_status_code": "EFF", "facility_type_indicator": "POTW", "major_minor_status_flag": "M", "permit_tracking": "Y", "pt_start_date": 1748736000000, "dmr_tracking": "Y", "dmr_nr_start_date": 1748736000000, "permit_design_flow": null, "permit_avg_flow": null, "perm_feature_nmbr": "C54", "perm_feature_text": "CSO 54 N of Fairfax Drainage Dist", "pf_lat": 39.1225, "pf_lon": -94.611472, "pf_character": "CSO|DSW|SW", "perm_feature_type_code": "EXO", "pf_state_waterbody_name": "(No Waterbody)", "pf_state_auto_name": "", "pf_reach_id": "", "in_icis": "YES", "echo_dfr_link": "https://echo.epa.gov/detailed-facility-report?fid=110017592292", "name": "KANSAS CITY (PLANT NO. 1) WWTP (KAW POINT)", "feature_kind": "CSO outfall"}}, {"type": "Feature", "id": 1554, "geometry": {"type": "Point", "coordinates": [-94.6322878853533, 39.1257637894211]}, "properties": {"OBJECTID": 1554, "npdes_pfid": "KS0038563C55", "npdes_id": "KS0038563", "permitting_state": "KS", "agency_type_code": "ST6", "facility_uin": "110017592292", "facility_name": "KANSAS CITY (PLANT NO. 1) WWTP (KAW POINT)", "location_address": "50 MARKET STREET", "supplemental_address_text": "701 N. 7TH STREET KANSAS CITY KS 66101", "facility_city": "KANSAS CITY", "county_code": "KS209", "state_code": "KS", "epa_region_code": "07", "facility_type_code": "MXO", "facility_lat": 39.1131592, "facility_lon": -94.610464, "permit_name": "UNIFIED GOV OF KC/WY CNTY", "version_nmbr": 0, "permit_type_code": "NPD", "effective_date": 1748736000000, "expiration_date": 1906416000000, "permit_status_code": "EFF", "facility_type_indicator": "POTW", "major_minor_status_flag": "M", "permit_tracking": "Y", "pt_start_date": 1748736000000, "dmr_tracking": "Y", "dmr_nr_start_date": 1748736000000, "permit_design_flow": null, "permit_avg_flow": null, "perm_feature_nmbr": "C55", "perm_feature_text": "10th Street and Walker Avenue", "pf_lat": 39.125764, "pf_lon": -94.632288, "pf_character": "CSO|DSW|SW", "perm_feature_type_code": "EXO", "pf_state_waterbody_name": "Jersey Creek", "pf_state_auto_name": "", "pf_reach_id": "", "in_icis": "YES", "echo_dfr_link": "https://echo.epa.gov/detailed-facility-report?fid=110017592292", "name": "KANSAS CITY (PLANT NO. 1) WWTP (KAW POINT)", "feature_kind": "CSO outfall"}}, {"type": "Feature", "id": 1555, "geometry": {"type": "Point", "coordinates": [-94.6277837325187, 39.1431843195584]}, "properties": {"OBJECTID": 1555, "npdes_pfid": "KS0038563C56", "npdes_id": "KS0038563", "permitting_state": "KS", "agency_type_code": "ST6", "facility_uin": "110017592292", "facility_name": "KANSAS CITY (PLANT NO. 1) WWTP (KAW POINT)", "location_address": "50 MARKET STREET", "supplemental_address_text": "701 N. 7TH STREET KANSAS CITY KS 66101", "facility_city": "KANSAS CITY", "county_code": "KS209", "state_code": "KS", "epa_region_code": "07", "facility_type_code": "MXO", "facility_lat": 39.1131592, "facility_lon": -94.610464, "permit_name": "UNIFIED GOV OF KC/WY CNTY", "version_nmbr": 0, "permit_type_code": "NPD", "effective_date": 1748736000000, "expiration_date": 1906416000000, "permit_status_code": "EFF", "facility_type_indicator": "POTW", "major_minor_status_flag": "M", "permit_tracking": "Y", "pt_start_date": 1748736000000, "dmr_tracking": "Y", "dmr_nr_start_date": 1748736000000, "permit_design_flow": null, "permit_avg_flow": null, "perm_feature_nmbr": "C56", "perm_feature_text": "North of Viewcrest Drive", "pf_lat": 39.143184, "pf_lon": -94.627784, "pf_character": "CSO|DSW|SW", "perm_feature_type_code": "EXO", "pf_state_waterbody_name": "Missouri River", "pf_state_auto_name": "", "pf_reach_id": "", "in_icis": "YES", "echo_dfr_link": "https://echo.epa.gov/detailed-facility-report?fid=110017592292", "name": "KANSAS CITY (PLANT NO. 1) WWTP (KAW POINT)", "feature_kind": "CSO outfall"}}, {"type": "Feature", "id": 1556, "geometry": {"type": "Point", "coordinates": [-94.6491321952458, 39.1277380214435]}, "properties": {"OBJECTID": 1556, "npdes_pfid": "KS0038563C62", "npdes_id": "KS0038563", "permitting_state": "KS", "agency_type_code": "ST6", "facility_uin": "110017592292", "facility_name": "KANSAS CITY (PLANT NO. 1) WWTP (KAW POINT)", "location_address": "50 MARKET STREET", "supplemental_address_text": "701 N. 7TH STREET KANSAS CITY KS 66101", "facility_city": "KANSAS CITY", "county_code": "KS209", "state_code": "KS", "epa_region_code": "07", "facility_type_code": "MXO", "facility_lat": 39.1131592, "facility_lon": -94.610464, "permit_name": "UNIFIED GOV OF KC/WY CNTY", "version_nmbr": 0, "permit_type_code": "NPD", "effective_date": 1748736000000, "expiration_date": 1906416000000, "permit_status_code": "EFF", "facility_type_indicator": "POTW", "major_minor_status_flag": "M", "permit_tracking": "Y", "pt_start_date": 1748736000000, "dmr_tracking": "Y", "dmr_nr_start_date": 1748736000000, "permit_design_flow": null, "permit_avg_flow": null, "perm_feature_nmbr": "C62", "perm_feature_text": "18th Street & Troup Avenue", "pf_lat": 39.127738, "pf_lon": -94.649132, "pf_character": "CSO|DSW|SW", "perm_feature_type_code": "EXO", "pf_state_waterbody_name": "Jersey Creek", "pf_state_auto_name": "", "pf_reach_id": "", "in_icis": "YES", "echo_dfr_link": "https://echo.epa.gov/detailed-facility-report?fid=110017592292", "name": "KANSAS CITY (PLANT NO. 1) WWTP (KAW POINT)", "feature_kind": "CSO outfall"}}, {"type": "Feature", "id": 1557, "geometry": {"type": "Point", "coordinates": [-94.6539768095731, 39.0953788669201]}, "properties": {"OBJECTID": 1557, "npdes_pfid": "KS0038563C64", "npdes_id": "KS0038563", "permitting_state": "KS", "agency_type_code": "ST6", "facility_uin": "110017592292", "facility_name": "KANSAS CITY (PLANT NO. 1) WWTP (KAW POINT)", "location_address": "50 MARKET STREET", "supplemental_address_text": "701 N. 7TH STREET KANSAS CITY KS 66101", "facility_city": "KANSAS CITY", "county_code": "KS209", "state_code": "KS", "epa_region_code": "07", "facility_type_code": "MXO", "facility_lat": 39.1131592, "facility_lon": -94.610464, "permit_name": "UNIFIED GOV OF KC/WY CNTY", "version_nmbr": 0, "permit_type_code": "NPD", "effective_date": 1748736000000, "expiration_date": 1906416000000, "permit_status_code": "EFF", "facility_type_indicator": "POTW", "major_minor_status_flag": "M", "permit_tracking": "Y", "pt_start_date": 1748736000000, "dmr_tracking": "Y", "dmr_nr_start_date": 1748736000000, "permit_design_flow": null, "permit_avg_flow": null, "perm_feature_nmbr": "C64", "perm_feature_text": "I-70 at 22nd Street", "pf_lat": 39.095379, "pf_lon": -94.653977, "pf_character": "CSO|DSW|SW", "perm_feature_type_code": "EXO", "pf_state_waterbody_name": "Kansas River", "pf_state_auto_name": "", "pf_reach_id": "", "in_icis": "YES", "echo_dfr_link": "https://echo.epa.gov/detailed-facility-report?fid=110017592292", "name": "KANSAS CITY (PLANT NO. 1) WWTP (KAW POINT)", "feature_kind": "CSO outfall"}}, {"type": "Feature", "id": 1558, "geometry": {"type": "Point", "coordinates": [-94.6138041500673, 39.1152707898874]}, "properties": {"OBJECTID": 1558, "npdes_pfid": "KS0038563C65", "npdes_id": "KS0038563", "permitting_state": "KS", "agency_type_code": "ST6", "facility_uin": "110017592292", "facility_name": "KANSAS CITY (PLANT NO. 1) WWTP (KAW POINT)", "location_address": "50 MARKET STREET", "supplemental_address_text": "701 N. 7TH STREET KANSAS CITY KS 66101", "facility_city": "KANSAS CITY", "county_code": "KS209", "state_code": "KS", "epa_region_code": "07", "facility_type_code": "MXO", "facility_lat": 39.1131592, "facility_lon": -94.610464, "permit_name": "UNIFIED GOV OF KC/WY CNTY", "version_nmbr": 0, "permit_type_code": "NPD", "effective_date": 1748736000000, "expiration_date": 1906416000000, "permit_status_code": "EFF", "facility_type_indicator": "POTW", "major_minor_status_flag": "M", "permit_tracking": "Y", "pt_start_date": 1748736000000, "dmr_tracking": "Y", "dmr_nr_start_date": 1748736000000, "permit_design_flow": null, "permit_avg_flow": null, "perm_feature_nmbr": "C65", "perm_feature_text": "2nd & Minnesota Avenue", "pf_lat": 39.115271, "pf_lon": -94.613804, "pf_character": "CSO|DSW|SW", "perm_feature_type_code": "EXO", "pf_state_waterbody_name": "Jersey Creek", "pf_state_auto_name": "", "pf_reach_id": "", "in_icis": "YES", "echo_dfr_link": "https://echo.epa.gov/detailed-facility-report?fid=110017592292", "name": "KANSAS CITY (PLANT NO. 1) WWTP (KAW POINT)", "feature_kind": "CSO outfall"}}, {"type": "Feature", "id": 1559, "geometry": {"type": "Point", "coordinates": [-94.6058998738823, 39.0792101057219]}, "properties": {"OBJECTID": 1559, "npdes_pfid": "KS0038563C66", "npdes_id": "KS0038563", "permitting_state": "KS", "agency_type_code": "ST6", "facility_uin": "110017592292", "facility_name": "KANSAS CITY (PLANT NO. 1) WWTP (KAW POINT)", "location_address": "50 MARKET STREET", "supplemental_address_text": "701 N. 7TH STREET KANSAS CITY KS 66101", "facility_city": "KANSAS CITY", "county_code": "KS209", "state_code": "KS", "epa_region_code": "07", "facility_type_code": "MXO", "facility_lat": 39.1131592, "facility_lon": -94.610464, "permit_name": "UNIFIED GOV OF KC/WY CNTY", "version_nmbr": 0, "permit_type_code": "NPD", "effective_date": 1748736000000, "expiration_date": 1906416000000, "permit_status_code": "EFF", "facility_type_indicator": "POTW", "major_minor_status_flag": "M", "permit_tracking": "Y", "pt_start_date": 1748736000000, "dmr_tracking": "Y", "dmr_nr_start_date": 1748736000000, "permit_design_flow": null, "permit_avg_flow": null, "perm_feature_nmbr": "C66", "perm_feature_text": "CSO 66 Mill St & Pawnee Ave", "pf_lat": 39.07921, "pf_lon": -94.6059, "pf_character": "CSO|DSW|SW", "perm_feature_type_code": "EXO", "pf_state_waterbody_name": "(No Waterbody)", "pf_state_auto_name": "", "pf_reach_id": "", "in_icis": "YES", "echo_dfr_link": "https://echo.epa.gov/detailed-facility-report?fid=110017592292", "name": "KANSAS CITY (PLANT NO. 1) WWTP (KAW POINT)", "feature_kind": "CSO outfall"}}, {"type": "Feature", "id": 1560, "geometry": {"type": "Point", "coordinates": [-94.6162628389999, 39.1213760992922]}, "properties": {"OBJECTID": 1560, "npdes_pfid": "KS0038563C80", "npdes_id": "KS0038563", "permitting_state": "KS", "agency_type_code": "ST6", "facility_uin": "110017592292", "facility_name": "KANSAS CITY (PLANT NO. 1) WWTP (KAW POINT)", "location_address": "50 MARKET STREET", "supplemental_address_text": "701 N. 7TH STREET KANSAS CITY KS 66101", "facility_city": "KANSAS CITY", "county_code": "KS209", "state_code": "KS", "epa_region_code": "07", "facility_type_code": "MXO", "facility_lat": 39.1131592, "facility_lon": -94.610464, "permit_name": "UNIFIED GOV OF KC/WY CNTY", "version_nmbr": 0, "permit_type_code": "NPD", "effective_date": 1748736000000, "expiration_date": 1906416000000, "permit_status_code": "EFF", "facility_type_indicator": "POTW", "major_minor_status_flag": "M", "permit_tracking": "Y", "pt_start_date": 1748736000000, "dmr_tracking": "Y", "dmr_nr_start_date": 1748736000000, "permit_design_flow": null, "permit_avg_flow": null, "perm_feature_nmbr": "C80", "perm_feature_text": "3rd St & Oakland Ave (MH upstream FID PS)", "pf_lat": 39.121376, "pf_lon": -94.616263, "pf_character": "CSO|DSW|SW", "perm_feature_type_code": "EXO", "pf_state_waterbody_name": "Jersey Creek", "pf_state_auto_name": "", "pf_reach_id": "", "in_icis": "YES", "echo_dfr_link": "https://echo.epa.gov/detailed-facility-report?fid=110017592292", "name": "KANSAS CITY (PLANT NO. 1) WWTP (KAW POINT)", "feature_kind": "CSO outfall"}}, {"type": "Feature", "id": 1561, "geometry": {"type": "Point", "coordinates": [-94.6366932235066, 39.1273526568143]}, "properties": {"OBJECTID": 1561, "npdes_pfid": "KS0038563C81", "npdes_id": "KS0038563", "permitting_state": "KS", "agency_type_code": "ST6", "facility_uin": "110017592292", "facility_name": "KANSAS CITY (PLANT NO. 1) WWTP (KAW POINT)", "location_address": "50 MARKET STREET", "supplemental_address_text": "701 N. 7TH STREET KANSAS CITY KS 66101", "facility_city": "KANSAS CITY", "county_code": "KS209", "state_code": "KS", "epa_region_code": "07", "facility_type_code": "MXO", "facility_lat": 39.1131592, "facility_lon": -94.610464, "permit_name": "UNIFIED GOV OF KC/WY CNTY", "version_nmbr": 0, "permit_type_code": "NPD", "effective_date": 1748736000000, "expiration_date": 1906416000000, "permit_status_code": "EFF", "facility_type_indicator": "POTW", "major_minor_status_flag": "M", "permit_tracking": "Y", "pt_start_date": 1748736000000, "dmr_tracking": "Y", "dmr_nr_start_date": 1748736000000, "permit_design_flow": null, "permit_avg_flow": null, "perm_feature_nmbr": "C81", "perm_feature_text": "10th Street & Troup Avenue", "pf_lat": 39.127353, "pf_lon": -94.636693, "pf_character": "CSO|DSW|SW", "perm_feature_type_code": "EXO", "pf_state_waterbody_name": "Jersey Creek", "pf_state_auto_name": "", "pf_reach_id": "", "in_icis": "YES", "echo_dfr_link": "https://echo.epa.gov/detailed-facility-report?fid=110017592292", "name": "KANSAS CITY (PLANT NO. 1) WWTP (KAW POINT)", "feature_kind": "CSO outfall"}}, {"type": "Feature", "id": 1562, "geometry": {"type": "Point", "coordinates": [-94.616139769806, 39.1234598680386]}, "properties": {"OBJECTID": 1562, "npdes_pfid": "KS0038563C84", "npdes_id": "KS0038563", "permitting_state": "KS", "agency_type_code": "ST6", "facility_uin": "110017592292", "facility_name": "KANSAS CITY (PLANT NO. 1) WWTP (KAW POINT)", "location_address": "50 MARKET STREET", "supplemental_address_text": "701 N. 7TH STREET KANSAS CITY KS 66101", "facility_city": "KANSAS CITY", "county_code": "KS209", "state_code": "KS", "epa_region_code": "07", "facility_type_code": "MXO", "facility_lat": 39.1131592, "facility_lon": -94.610464, "permit_name": "UNIFIED GOV OF KC/WY CNTY", "version_nmbr": 0, "permit_type_code": "NPD", "effective_date": 1748736000000, "expiration_date": 1906416000000, "permit_status_code": "EFF", "facility_type_indicator": "POTW", "major_minor_status_flag": "M", "permit_tracking": "Y", "pt_start_date": 1748736000000, "dmr_tracking": "Y", "dmr_nr_start_date": 1748736000000, "permit_design_flow": null, "permit_avg_flow": null, "perm_feature_nmbr": "C84", "perm_feature_text": "CSO 84 3rd St & Walker", "pf_lat": 39.12346, "pf_lon": -94.61614, "pf_character": "CSO|DSW|SW", "perm_feature_type_code": "EXO", "pf_state_waterbody_name": "(No Waterbody)", "pf_state_auto_name": "", "pf_reach_id": "", "in_icis": "YES", "echo_dfr_link": "https://echo.epa.gov/detailed-facility-report?fid=110017592292", "name": "KANSAS CITY (PLANT NO. 1) WWTP (KAW POINT)", "feature_kind": "CSO outfall"}}, {"type": "Feature", "id": 1563, "geometry": {"type": "Point", "coordinates": [-94.6288446428693, 39.1247310063958]}, "properties": {"OBJECTID": 1563, "npdes_pfid": "KS0038563C85", "npdes_id": "KS0038563", "permitting_state": "KS", "agency_type_code": "ST6", "facility_uin": "110017592292", "facility_name": "KANSAS CITY (PLANT NO. 1) WWTP (KAW POINT)", "location_address": "50 MARKET STREET", "supplemental_address_text": "701 N. 7TH STREET KANSAS CITY KS 66101", "facility_city": "KANSAS CITY", "county_code": "KS209", "state_code": "KS", "epa_region_code": "07", "facility_type_code": "MXO", "facility_lat": 39.1131592, "facility_lon": -94.610464, "permit_name": "UNIFIED GOV OF KC/WY CNTY", "version_nmbr": 0, "permit_type_code": "NPD", "effective_date": 1748736000000, "expiration_date": 1906416000000, "permit_status_code": "EFF", "facility_type_indicator": "POTW", "major_minor_status_flag": "M", "permit_tracking": "Y", "pt_start_date": 1748736000000, "dmr_tracking": "Y", "dmr_nr_start_date": 1748736000000, "permit_design_flow": null, "permit_avg_flow": null, "perm_feature_nmbr": "C85", "perm_feature_text": "8th & Walker", "pf_lat": 39.124731, "pf_lon": -94.628845, "pf_character": "CSO|DSW|SW", "perm_feature_type_code": "EXO", "pf_state_waterbody_name": "Jersey Creek", "pf_state_auto_name": "", "pf_reach_id": "", "in_icis": "YES", "echo_dfr_link": "https://echo.epa.gov/detailed-facility-report?fid=110017592292", "name": "KANSAS CITY (PLANT NO. 1) WWTP (KAW POINT)", "feature_kind": "CSO outfall"}}, {"type": "Feature", "id": 1564, "geometry": {"type": "Point", "coordinates": [-94.6116697529522, 39.1228298655269]}, "properties": {"OBJECTID": 1564, "npdes_pfid": "KS0038563C86", "npdes_id": "KS0038563", "permitting_state": "KS", "agency_type_code": "ST6", "facility_uin": "110017592292", "facility_name": "KANSAS CITY (PLANT NO. 1) WWTP (KAW POINT)", "location_address": "50 MARKET STREET", "supplemental_address_text": "701 N. 7TH STREET KANSAS CITY KS 66101", "facility_city": "KANSAS CITY", "county_code": "KS209", "state_code": "KS", "epa_region_code": "07", "facility_type_code": "MXO", "facility_lat": 39.1131592, "facility_lon": -94.610464, "permit_name": "UNIFIED GOV OF KC/WY CNTY", "version_nmbr": 0, "permit_type_code": "NPD", "effective_date": 1748736000000, "expiration_date": 1906416000000, "permit_status_code": "EFF", "facility_type_indicator": "POTW", "major_minor_status_flag": "M", "permit_tracking": "Y", "pt_start_date": 1748736000000, "dmr_tracking": "Y", "dmr_nr_start_date": 1748736000000, "permit_design_flow": null, "permit_avg_flow": null, "perm_feature_nmbr": "C86", "perm_feature_text": "CSO 86 1620 Fairfax", "pf_lat": 39.12283, "pf_lon": -94.61167, "pf_character": "CSO|DSW|SW", "perm_feature_type_code": "EXO", "pf_state_waterbody_name": "(No Waterbody)", "pf_state_auto_name": "", "pf_reach_id": "", "in_icis": "YES", "echo_dfr_link": "https://echo.epa.gov/detailed-facility-report?fid=110017592292", "name": "KANSAS CITY (PLANT NO. 1) WWTP (KAW POINT)", "feature_kind": "CSO outfall"}}, {"type": "Feature", "id": 1565, "geometry": {"type": "Point", "coordinates": [-95.115269792806, 39.5606698290604]}, "properties": {"OBJECTID": 1565, "npdes_pfid": "KS0039128003", "npdes_id": "KS0039128", "permitting_state": "KS", "agency_type_code": "ST6", "facility_uin": "110039996083", "facility_name": "ATCHISON, CITY OF (WWTP)", "location_address": "120 RIVERFRONT RD", "supplemental_address_text": "", "facility_city": "ATCHISON", "county_code": "KS005", "state_code": "KS", "epa_region_code": "07", "facility_type_code": "CTG", "facility_lat": 39.53229, "facility_lon": -95.11449, "permit_name": "ATCHISON, CITY OF", "version_nmbr": 0, "permit_type_code": "NPD", "effective_date": 1735689600000, "expiration_date": 1861833600000, "permit_status_code": "EFF", "facility_type_indicator": "POTW", "major_minor_status_flag": "M", "permit_tracking": "Y", "pt_start_date": 1735689600000, "dmr_tracking": "Y", "dmr_nr_start_date": 1735689600000, "permit_design_flow": null, "permit_avg_flow": null, "perm_feature_nmbr": "003", "perm_feature_text": "2ND & MAIN CSO", "pf_lat": 39.56067, "pf_lon": -95.11527, "pf_character": "CSO|DSW", "perm_feature_type_code": "EXO", "pf_state_waterbody_name": "White Clay Cr (1024001131)", "pf_state_auto_name": "", "pf_reach_id": "", "in_icis": "YES", "echo_dfr_link": "https://echo.epa.gov/detailed-facility-report?fid=110039996083", "name": "ATCHISON, CITY OF (WWTP)", "feature_kind": "CSO outfall"}}, {"type": "Feature", "id": 1566, "geometry": {"type": "Point", "coordinates": [-95.1169101165148, 39.5603803397469]}, "properties": {"OBJECTID": 1566, "npdes_pfid": "KS0039128005", "npdes_id": "KS0039128", "permitting_state": "KS", "agency_type_code": "ST6", "facility_uin": "110039996083", "facility_name": "ATCHISON, CITY OF (WWTP)", "location_address": "120 RIVERFRONT RD", "supplemental_address_text": "", "facility_city": "ATCHISON", "county_code": "KS005", "state_code": "KS", "epa_region_code": "07", "facility_type_code": "CTG", "facility_lat": 39.53229, "facility_lon": -95.11449, "permit_name": "ATCHISON, CITY OF", "version_nmbr": 0, "permit_type_code": "NPD", "effective_date": 1735689600000, "expiration_date": 1861833600000, "permit_status_code": "EFF", "facility_type_indicator": "POTW", "major_minor_status_flag": "M", "permit_tracking": "Y", "pt_start_date": 1735689600000, "dmr_tracking": "Y", "dmr_nr_start_date": 1735689600000, "permit_design_flow": null, "permit_avg_flow": null, "perm_feature_nmbr": "005", "perm_feature_text": "N HEADWORKS CSO", "pf_lat": 39.56038, "pf_lon": -95.11691, "pf_character": "CSO|DSW", "perm_feature_type_code": "EXO", "pf_state_waterbody_name": "White Clay Cr (1024001131)", "pf_state_auto_name": "", "pf_reach_id": "", "in_icis": "YES", "echo_dfr_link": "https://echo.epa.gov/detailed-facility-report?fid=110039996083", "name": "ATCHISON, CITY OF (WWTP)", "feature_kind": "CSO outfall"}}, {"type": "Feature", "id": 1567, "geometry": {"type": "Point", "coordinates": [-95.1204800214539, 39.5613499164259]}, "properties": {"OBJECTID": 1567, "npdes_pfid": "KS0039128006", "npdes_id": "KS0039128", "permitting_state": "KS", "agency_type_code": "ST6", "facility_uin": "110039996083", "facility_name": "ATCHISON, CITY OF (WWTP)", "location_address": "120 RIVERFRONT RD", "supplemental_address_text": "", "facility_city": "ATCHISON", "county_code": "KS005", "state_code": "KS", "epa_region_code": "07", "facility_type_code": "CTG", "facility_lat": 39.53229, "facility_lon": -95.11449, "permit_name": "ATCHISON, CITY OF", "version_nmbr": 0, "permit_type_code": "NPD", "effective_date": 1735689600000, "expiration_date": 1861833600000, "permit_status_code": "EFF", "facility_type_indicator": "POTW", "major_minor_status_flag": "M", "permit_tracking": "Y", "pt_start_date": 1735689600000, "dmr_tracking": "Y", "dmr_nr_start_date": 1735689600000, "permit_design_flow": null, "permit_avg_flow": null, "perm_feature_nmbr": "006", "perm_feature_text": "6TH ST CSO", "pf_lat": 39.56135, "pf_lon": -95.12048, "pf_character": "CSO|DSW", "perm_feature_type_code": "EXO", "pf_state_waterbody_name": "White Clay Cr (1024001131)", "pf_state_auto_name": "", "pf_reach_id": "", "in_icis": "YES", "echo_dfr_link": "https://echo.epa.gov/detailed-facility-report?fid=110039996083", "name": "ATCHISON, CITY OF (WWTP)", "feature_kind": "CSO outfall"}}, {"type": "Feature", "id": 1568, "geometry": {"type": "Point", "coordinates": [-95.1222398210955, 39.5608000296017]}, "properties": {"OBJECTID": 1568, "npdes_pfid": "KS0039128007", "npdes_id": "KS0039128", "permitting_state": "KS", "agency_type_code": "ST6", "facility_uin": "110039996083", "facility_name": "ATCHISON, CITY OF (WWTP)", "location_address": "120 RIVERFRONT RD", "supplemental_address_text": "", "facility_city": "ATCHISON", "county_code": "KS005", "state_code": "KS", "epa_region_code": "07", "facility_type_code": "CTG", "facility_lat": 39.53229, "facility_lon": -95.11449, "permit_name": "ATCHISON, CITY OF", "version_nmbr": 0, "permit_type_code": "NPD", "effective_date": 1735689600000, "expiration_date": 1861833600000, "permit_status_code": "EFF", "facility_type_indicator": "POTW", "major_minor_status_flag": "M", "permit_tracking": "Y", "pt_start_date": 1735689600000, "dmr_tracking": "Y", "dmr_nr_start_date": 1735689600000, "permit_design_flow": null, "permit_avg_flow": null, "perm_feature_nmbr": "007", "perm_feature_text": "7TH & MAIN CSO", "pf_lat": 39.5608, "pf_lon": -95.12224, "pf_character": "CSO|DSW", "perm_feature_type_code": "EXO", "pf_state_waterbody_name": "White Clay Cr (1024001131)", "pf_state_auto_name": "", "pf_reach_id": "", "in_icis": "YES", "echo_dfr_link": "https://echo.epa.gov/detailed-facility-report?fid=110039996083", "name": "ATCHISON, CITY OF (WWTP)", "feature_kind": "CSO outfall"}}, {"type": "Feature", "id": 1569, "geometry": {"type": "Point", "coordinates": [-95.1131596502036, 39.5652398602841]}, "properties": {"OBJECTID": 1569, "npdes_pfid": "KS0039128008", "npdes_id": "KS0039128", "permitting_state": "KS", "agency_type_code": "ST6", "facility_uin": "110039996083", "facility_name": "ATCHISON, CITY OF (WWTP)", "location_address": "120 RIVERFRONT RD", "supplemental_address_text": "", "facility_city": "ATCHISON", "county_code": "KS005", "state_code": "KS", "epa_region_code": "07", "facility_type_code": "CTG", "facility_lat": 39.53229, "facility_lon": -95.11449, "permit_name": "ATCHISON, CITY OF", "version_nmbr": 0, "permit_type_code": "NPD", "effective_date": 1735689600000, "expiration_date": 1861833600000, "permit_status_code": "EFF", "facility_type_indicator": "POTW", "major_minor_status_flag": "M", "permit_tracking": "Y", "pt_start_date": 1735689600000, "dmr_tracking": "Y", "dmr_nr_start_date": 1735689600000, "permit_design_flow": null, "permit_avg_flow": null, "perm_feature_nmbr": "008", "perm_feature_text": "SAW MILL CSO", "pf_lat": 39.56524, "pf_lon": -95.11316, "pf_character": "CSO|DSW", "perm_feature_type_code": "EXO", "pf_state_waterbody_name": "Missouri R (1024001111)", "pf_state_auto_name": "", "pf_reach_id": "", "in_icis": "YES", "echo_dfr_link": "https://echo.epa.gov/detailed-facility-report?fid=110039996083", "name": "ATCHISON, CITY OF (WWTP)", "feature_kind": "CSO outfall"}}, {"type": "Feature", "id": 1570, "geometry": {"type": "Point", "coordinates": [-95.1155096429869, 39.5529501622833]}, "properties": {"OBJECTID": 1570, "npdes_pfid": "KS0039128009", "npdes_id": "KS0039128", "permitting_state": "KS", "agency_type_code": "ST6", "facility_uin": "110039996083", "facility_name": "ATCHISON, CITY OF (WWTP)", "location_address": "120 RIVERFRONT RD", "supplemental_address_text": "", "facility_city": "ATCHISON", "county_code": "KS005", "state_code": "KS", "epa_region_code": "07", "facility_type_code": "CTG", "facility_lat": 39.53229, "facility_lon": -95.11449, "permit_name": "ATCHISON, CITY OF", "version_nmbr": 0, "permit_type_code": "NPD", "effective_date": 1735689600000, "expiration_date": 1861833600000, "permit_status_code": "EFF", "facility_type_indicator": "POTW", "major_minor_status_flag": "M", "permit_tracking": "Y", "pt_start_date": 1735689600000, "dmr_tracking": "Y", "dmr_nr_start_date": 1735689600000, "permit_design_flow": null, "permit_avg_flow": null, "perm_feature_nmbr": "009", "perm_feature_text": "SOUTH HEADWORKS CSO", "pf_lat": 39.55295, "pf_lon": -95.11551, "pf_character": "CSO|DSW", "perm_feature_type_code": "EXO", "pf_state_waterbody_name": "Missouri R (1024001111)", "pf_state_auto_name": "", "pf_reach_id": "", "in_icis": "YES", "echo_dfr_link": "https://echo.epa.gov/detailed-facility-report?fid=110039996083", "name": "ATCHISON, CITY OF (WWTP)", "feature_kind": "CSO outfall"}}, {"type": "Feature", "id": 1571, "geometry": {"type": "Point", "coordinates": [-95.6631720475267, 39.0604561447883]}, "properties": {"OBJECTID": 1571, "npdes_pfid": "KS0042722003", "npdes_id": "KS0042722", "permitting_state": "KS", "agency_type_code": "ST6", "facility_uin": "110000574708", "facility_name": "TOPEKA (OAKLAND) WASTEWATER PLANT (WWTP)", "location_address": "1115 NE POPLAR ST", "supplemental_address_text": "", "facility_city": "TOPEKA", "county_code": "KS177", "state_code": "KS", "epa_region_code": "07", "facility_type_code": "CTG", "facility_lat": 39.07186, "facility_lon": -95.64466, "permit_name": "TOPEKA, CITY OF", "version_nmbr": 0, "permit_type_code": "NPD", "effective_date": 1643673600000, "expiration_date": 1801353600000, "permit_status_code": "EFF", "facility_type_indicator": "POTW", "major_minor_status_flag": "M", "permit_tracking": "Y", "pt_start_date": 1643673600000, "dmr_tracking": "Y", "dmr_nr_start_date": 1643673600000, "permit_design_flow": null, "permit_avg_flow": null, "perm_feature_nmbr": "003", "perm_feature_text": "CSO- NORTH JEFFERSON STREET", "pf_lat": 39.060456, "pf_lon": -95.663172, "pf_character": "CSO|DSW|SW", "perm_feature_type_code": "EXO", "pf_state_waterbody_name": "", "pf_state_auto_name": "Kansas River", "pf_reach_id": "10270102000168", "in_icis": "YES", "echo_dfr_link": "https://echo.epa.gov/detailed-facility-report?fid=110000574708", "name": "TOPEKA (OAKLAND) WASTEWATER PLANT (WWTP)", "feature_kind": "CSO outfall"}}, {"type": "Feature", "id": 1572, "geometry": {"type": "Point", "coordinates": [-95.6773330896656, 39.0603591887195]}, "properties": {"OBJECTID": 1572, "npdes_pfid": "KS0042722004", "npdes_id": "KS0042722", "permitting_state": "KS", "agency_type_code": "ST6", "facility_uin": "110000574708", "facility_name": "TOPEKA (OAKLAND) WASTEWATER PLANT (WWTP)", "location_address": "1115 NE POPLAR ST", "supplemental_address_text": "", "facility_city": "TOPEKA", "county_code": "KS177", "state_code": "KS", "epa_region_code": "07", "facility_type_code": "CTG", "facility_lat": 39.07186, "facility_lon": -95.64466, "permit_name": "TOPEKA, CITY OF", "version_nmbr": 0, "permit_type_code": "NPD", "effective_date": 1643673600000, "expiration_date": 1801353600000, "permit_status_code": "EFF", "facility_type_indicator": "POTW", "major_minor_status_flag": "M", "permit_tracking": "Y", "pt_start_date": 1643673600000, "dmr_tracking": "Y", "dmr_nr_start_date": 1643673600000, "permit_design_flow": null, "permit_avg_flow": null, "perm_feature_nmbr": "004", "perm_feature_text": "CSO- FIRST & TYLYER STREETS", "pf_lat": 39.060359, "pf_lon": -95.677333, "pf_character": "CSO|DSW|SW", "perm_feature_type_code": "EXO", "pf_state_waterbody_name": "", "pf_state_auto_name": "Kansas River", "pf_reach_id": "10270102000168", "in_icis": "YES", "echo_dfr_link": "https://echo.epa.gov/detailed-facility-report?fid=110000574708", "name": "TOPEKA (OAKLAND) WASTEWATER PLANT (WWTP)", "feature_kind": "CSO outfall"}}, {"type": "Feature", "id": 1573, "geometry": {"type": "Point", "coordinates": [-95.6875891552644, 39.066472740738]}, "properties": {"OBJECTID": 1573, "npdes_pfid": "KS0042722005", "npdes_id": "KS0042722", "permitting_state": "KS", "agency_type_code": "ST6", "facility_uin": "110000574708", "facility_name": "TOPEKA (OAKLAND) WASTEWATER PLANT (WWTP)", "location_address": "1115 NE POPLAR ST", "supplemental_address_text": "", "facility_city": "TOPEKA", "county_code": "KS177", "state_code": "KS", "epa_region_code": "07", "facility_type_code": "CTG", "facility_lat": 39.07186, "facility_lon": -95.64466, "permit_name": "TOPEKA, CITY OF", "version_nmbr": 0, "permit_type_code": "NPD", "effective_date": 1643673600000, "expiration_date": 1801353600000, "permit_status_code": "EFF", "facility_type_indicator": "POTW", "major_minor_status_flag": "M", "permit_tracking": "Y", "pt_start_date": 1643673600000, "dmr_tracking": "Y", "dmr_nr_start_date": 1643673600000, "permit_design_flow": null, "permit_avg_flow": null, "perm_feature_nmbr": "005", "perm_feature_text": "CSO- NW GROVE AND QUINTON", "pf_lat": 39.066473, "pf_lon": -95.687589, "pf_character": "CSO|DSW|SW", "perm_feature_type_code": "EXO", "pf_state_waterbody_name": "", "pf_state_auto_name": "Kansas River", "pf_reach_id": "10270102000168", "in_icis": "YES", "echo_dfr_link": "https://echo.epa.gov/detailed-facility-report?fid=110000574708", "name": "TOPEKA (OAKLAND) WASTEWATER PLANT (WWTP)", "feature_kind": "CSO outfall"}}, {"type": "Feature", "id": 1574, "geometry": {"type": "Point", "coordinates": [-95.6796273869013, 39.059540288266]}, "properties": {"OBJECTID": 1574, "npdes_pfid": "KS0042722006", "npdes_id": "KS0042722", "permitting_state": "KS", "agency_type_code": "ST6", "facility_uin": "110000574708", "facility_name": "TOPEKA (OAKLAND) WASTEWATER PLANT (WWTP)", "location_address": "1115 NE POPLAR ST", "supplemental_address_text": "", "facility_city": "TOPEKA", "county_code": "KS177", "state_code": "KS", "epa_region_code": "07", "facility_type_code": "CTG", "facility_lat": 39.07186, "facility_lon": -95.64466, "permit_name": "TOPEKA, CITY OF", "version_nmbr": 0, "permit_type_code": "NPD", "effective_date": 1643673600000, "expiration_date": 1801353600000, "permit_status_code": "EFF", "facility_type_indicator": "POTW", "major_minor_status_flag": "M", "permit_tracking": "Y", "pt_start_date": 1643673600000, "dmr_tracking": "Y", "dmr_nr_start_date": 1643673600000, "permit_design_flow": null, "permit_avg_flow": null, "perm_feature_nmbr": "006", "perm_feature_text": "CSO- SW 2ND  & POLK STREETS", "pf_lat": 39.05954, "pf_lon": -95.679627, "pf_character": "CSO|DSW|SW", "perm_feature_type_code": "EXO", "pf_state_waterbody_name": "", "pf_state_auto_name": "Kansas River", "pf_reach_id": "10270102000168", "in_icis": "YES", "echo_dfr_link": "https://echo.epa.gov/detailed-facility-report?fid=110000574708", "name": "TOPEKA (OAKLAND) WASTEWATER PLANT (WWTP)", "feature_kind": "CSO outfall"}}, {"type": "Feature", "id": 1575, "geometry": {"type": "Point", "coordinates": [-95.6716449572866, 39.0608446652532]}, "properties": {"OBJECTID": 1575, "npdes_pfid": "KS0042722007", "npdes_id": "KS0042722", "permitting_state": "KS", "agency_type_code": "ST6", "facility_uin": "110000574708", "facility_name": "TOPEKA (OAKLAND) WASTEWATER PLANT (WWTP)", "location_address": "1115 NE POPLAR ST", "supplemental_address_text": "", "facility_city": "TOPEKA", "county_code": "KS177", "state_code": "KS", "epa_region_code": "07", "facility_type_code": "CTG", "facility_lat": 39.07186, "facility_lon": -95.64466, "permit_name": "TOPEKA, CITY OF", "version_nmbr": 0, "permit_type_code": "NPD", "effective_date": 1643673600000, "expiration_date": 1801353600000, "permit_status_code": "EFF", "facility_type_indicator": "POTW", "major_minor_status_flag": "M", "permit_tracking": "Y", "pt_start_date": 1643673600000, "dmr_tracking": "Y", "dmr_nr_start_date": 1643673600000, "permit_design_flow": null, "permit_avg_flow": null, "perm_feature_nmbr": "007", "perm_feature_text": "CSO- NW CRANE AND JACKSON STREET", "pf_lat": 39.060845, "pf_lon": -95.671645, "pf_character": "CSO|DSW|SW", "perm_feature_type_code": "EXO", "pf_state_waterbody_name": "", "pf_state_auto_name": "Kansas River", "pf_reach_id": "10270102000168", "in_icis": "YES", "echo_dfr_link": "https://echo.epa.gov/detailed-facility-report?fid=110000574708", "name": "TOPEKA (OAKLAND) WASTEWATER PLANT (WWTP)", "feature_kind": "CSO outfall"}}, {"type": "Feature", "id": 1576, "geometry": {"type": "Point", "coordinates": [-95.6595796847055, 39.0688140944273]}, "properties": {"OBJECTID": 1576, "npdes_pfid": "KS0042722008", "npdes_id": "KS0042722", "permitting_state": "KS", "agency_type_code": "ST6", "facility_uin": "110000574708", "facility_name": "TOPEKA (OAKLAND) WASTEWATER PLANT (WWTP)", "location_address": "1115 NE POPLAR ST", "supplemental_address_text": "", "facility_city": "TOPEKA", "county_code": "KS177", "state_code": "KS", "epa_region_code": "07", "facility_type_code": "CTG", "facility_lat": 39.07186, "facility_lon": -95.64466, "permit_name": "TOPEKA, CITY OF", "version_nmbr": 0, "permit_type_code": "NPD", "effective_date": 1643673600000, "expiration_date": 1801353600000, "permit_status_code": "EFF", "facility_type_indicator": "POTW", "major_minor_status_flag": "M", "permit_tracking": "Y", "pt_start_date": 1643673600000, "dmr_tracking": "Y", "dmr_nr_start_date": 1643673600000, "permit_design_flow": null, "permit_avg_flow": null, "perm_feature_nmbr": "008", "perm_feature_text": "CSO - NE JEFFERSON AND FAIRCHILD", "pf_lat": 39.068814, "pf_lon": -95.65958, "pf_character": "CSO|DSW|SW", "perm_feature_type_code": "EXO", "pf_state_waterbody_name": "", "pf_state_auto_name": "Kansas River", "pf_reach_id": "10270102000168", "in_icis": "YES", "echo_dfr_link": "https://echo.epa.gov/detailed-facility-report?fid=110000574708", "name": "TOPEKA (OAKLAND) WASTEWATER PLANT (WWTP)", "feature_kind": "CSO outfall"}}]}