{"type": "FeatureCollection", "features": [{"type": "Feature", "id": 1291, "geometry": {"type": "Point", "coordinates": [-134.417195886995, 58.3000524988667]}, "properties": {"OBJECTID": 1291, "npdes_pfid": "AK0023213002", "npdes_id": "AK0023213", "permitting_state": "AK", "agency_type_code": "ST6", "facility_uin": "110010680423", "facility_name": "JUNEAU DOUGLAS WW TREATMENT FACILITY", "location_address": "1540 THANE RD", "supplemental_address_text": "2009 RADCLIFFE ROAD", "facility_city": "JUNEAU", "county_code": "AK110", "state_code": "AK", "epa_region_code": "10", "facility_type_code": "CNG", "facility_lat": 58.2869, "facility_lon": -134.384, "permit_name": "Brian McGuire - City & Borough of Juneau", "version_nmbr": 0, "permit_type_code": "NPD", "effective_date": 1614556800000, "expiration_date": 1772236800000, "permit_status_code": "ADC", "facility_type_indicator": "POTW", "major_minor_status_flag": "M", "permit_tracking": "Y", "pt_start_date": 1614556800000, "dmr_tracking": "Y", "dmr_nr_start_date": 1614556800000, "permit_design_flow": null, "permit_avg_flow": null, "perm_feature_nmbr": "002", "perm_feature_text": "N-11 (P) Sta A Foodland", "pf_lat": 58.3000526, "pf_lon": -134.417196, "pf_character": "CSO", "perm_feature_type_code": "EXO", "pf_state_waterbody_name": "Gastineau Channel", "pf_state_auto_name": "", "pf_reach_id": "", "in_icis": "YES", "echo_dfr_link": "https://echo.epa.gov/detailed-facility-report?fid=110010680423", "name": "JUNEAU DOUGLAS WW TREATMENT FACILITY", "feature_kind": "CSO outfall"}}, {"type": "Feature", "id": 1602, "geometry": {"type": "Point", "coordinates": [-134.406599359904, 58.2999562028786]}, "properties": {"OBJECTID": 1602, "npdes_pfid": "AK0023213003", "npdes_id": "AK0023213", "permitting_state": "AK", "agency_type_code": "ST6", "facility_uin": "110010680423", "facility_name": "JUNEAU DOUGLAS WW TREATMENT FACILITY", "location_address": "1540 THANE RD", "supplemental_address_text": "2009 RADCLIFFE ROAD", "facility_city": "JUNEAU", "county_code": "AK110", "state_code": "AK", "epa_region_code": "10", "facility_type_code": "CNG", "facility_lat": 58.2869, "facility_lon": -134.384, "permit_name": "Brian McGuire - City & Borough of Juneau", "version_nmbr": 0, "permit_type_code": "NPD", "effective_date": 1614556800000, "expiration_date": 1772236800000, "permit_status_code": "ADC", "facility_type_indicator": "POTW", "major_minor_status_flag": "M", "permit_tracking": "Y", "pt_start_date": 1614556800000, "dmr_tracking": "Y", "dmr_nr_start_date": 1614556800000, "permit_design_flow": null, "permit_avg_flow": null, "perm_feature_nmbr": "003", "perm_feature_text": "N11.2 (P) Sta C Marine Way", "pf_lat": 58.299956, "pf_lon": -134.406599, "pf_character": "CSO", "perm_feature_type_code": "EXO", "pf_state_waterbody_name": "Gastineau Channel", "pf_state_auto_name": "", "pf_reach_id": "", "in_icis": "YES", "echo_dfr_link": "https://echo.epa.gov/detailed-facility-report?fid=110010680423", "name": "JUNEAU DOUGLAS WW TREATMENT FACILITY", "feature_kind": "CSO outfall"}}, {"type": "Feature", "id": 1603, "geometry": {"type": "Point", "coordinates": [-134.392256858077, 58.2772008201986]}, "properties": {"OBJECTID": 1603, "npdes_pfid": "AK0023213004", "npdes_id": "AK0023213", "permitting_state": "AK", "agency_type_code": "ST6", "facility_uin": "110010680423", "facility_name": "JUNEAU DOUGLAS WW TREATMENT FACILITY", "location_address": "1540 THANE RD", "supplemental_address_text": "2009 RADCLIFFE ROAD", "facility_city": "JUNEAU", "county_code": "AK110", "state_code": "AK", "epa_region_code": "10", "facility_type_code": "CNG", "facility_lat": 58.2869, "facility_lon": -134.384, "permit_name": "Brian McGuire - City & Borough of Juneau", "version_nmbr": 0, "permit_type_code": "NPD", "effective_date": 1614556800000, "expiration_date": 1772236800000, "permit_status_code": "ADC", "facility_type_indicator": "POTW", "major_minor_status_flag": "M", "permit_tracking": "Y", "pt_start_date": 1614556800000, "dmr_tracking": "Y", "dmr_nr_start_date": 1614556800000, "permit_design_flow": null, "permit_avg_flow": null, "perm_feature_nmbr": "004", "perm_feature_text": "N-15.1 (R) Douglas", "pf_lat": 58.277201, "pf_lon": -134.392257, "pf_character": "CSO", "perm_feature_type_code": "EXO", "pf_state_waterbody_name": "Gastineau Channel", "pf_state_auto_name": "", "pf_reach_id": "", "in_icis": "YES", "echo_dfr_link": "https://echo.epa.gov/detailed-facility-report?fid=110010680423", "name": "JUNEAU DOUGLAS WW TREATMENT FACILITY", "feature_kind": "CSO outfall"}}, {"type": "Feature", "id": 1604, "geometry": {"type": "Point", "coordinates": [-148.622125219061, 70.2577049541888]}, "properties": {"OBJECTID": 1604, "npdes_pfid": "AKG32000208AA", "npdes_id": "AKG320002", "permitting_state": "AK", "agency_type_code": "ST6", "facility_uin": "110070258366", "facility_name": "APSC - TRANS-ALASKA PIPELINE SYSTEM", "location_address": "CHECK VALVE 73A (OUTFALL 08AF); CHECK VALVE 73B (O", "supplemental_address_text": "TRANS ALASKA PIPELINE", "facility_city": "NORTH POLE", "county_code": "AK185", "state_code": "AK", "epa_region_code": "10", "facility_type_code": "COR", "facility_lat": 69.796245, "facility_lon": -148.731717, "permit_name": "Wesley Willson", "version_nmbr": 0, "permit_type_code": "GPC", "effective_date": 1770595200000, "expiration_date": 1890691200000, "permit_status_code": "EFF", "facility_type_indicator": "NON-POTW", "major_minor_status_flag": "N", "permit_tracking": "Y", "pt_start_date": 1770595200000, "dmr_tracking": "Y", "dmr_nr_start_date": 1770595200000, "permit_design_flow": null, "permit_avg_flow": null, "perm_feature_nmbr": "08AA", "perm_feature_text": "PS01 TK110/TK110 Utilidors", "pf_lat": 70.257705, "pf_lon": -148.622125, "pf_character": "CSO|DEW", "perm_feature_type_code": "EXO", "pf_state_waterbody_name": "", "pf_state_auto_name": "", "pf_reach_id": "", "in_icis": "YES", "echo_dfr_link": "https://echo.epa.gov/detailed-facility-report?fid=110070258366", "name": "APSC - TRANS-ALASKA PIPELINE SYSTEM", "feature_kind": "CSO outfall"}}]}