{"type": "FeatureCollection", "features": [{"type": "Feature", "id": 3057, "geometry": {"type": "Point", "coordinates": [-71.1866668049728, 44.4547223213039]}, "properties": {"OBJECTID": 3057, "npdes_pfid": "NH0100013002", "npdes_id": "NH0100013", "permitting_state": "NH", "agency_type_code": "EP6", "facility_uin": "110004101409", "facility_name": "BERLIN POLLUTION CONTROL FACILITY", "location_address": "10 SHELBY ST", "supplemental_address_text": "", "facility_city": "BERLIN", "county_code": "NH007", "state_code": "NH", "epa_region_code": "01", "facility_type_code": "MWD", "facility_lat": 44.460021, "facility_lon": -71.184218, "permit_name": "BERLIN P C F", "version_nmbr": 0, "permit_type_code": "NPD", "effective_date": 1719792000000, "expiration_date": 1877472000000, "permit_status_code": "EFF", "facility_type_indicator": "POTW", "major_minor_status_flag": "M", "permit_tracking": "Y", "pt_start_date": 1719792000000, "dmr_tracking": "Y", "dmr_nr_start_date": 1719792000000, "permit_design_flow": null, "permit_avg_flow": 2.64, "perm_feature_nmbr": "002", "perm_feature_text": "Watson Street Pump Station", "pf_lat": 44.4547222, "pf_lon": -71.1866667, "pf_character": "CSO", "perm_feature_type_code": "EXO", "pf_state_waterbody_name": "", "pf_state_auto_name": "Androscoggin River", "pf_reach_id": "1040001000006", "in_icis": "YES", "echo_dfr_link": "https://echo.epa.gov/detailed-facility-report?fid=110004101409", "name": "BERLIN POLLUTION CONTROL FACILITY", "feature_kind": "CSO outfall"}}, {"type": "Feature", "id": 3058, "geometry": {"type": "Point", "coordinates": [-71.4417533113666, 42.748800847106]}, "properties": {"OBJECTID": 3058, "npdes_pfid": "NH0100170002", "npdes_id": "NH0100170", "permitting_state": "NH", "agency_type_code": "EP6", "facility_uin": "110007686110", "facility_name": "NASHUA WASTEWATER TREATMENT FACILITY", "location_address": "SAWMILL ROAD", "supplemental_address_text": "", "facility_city": "NASHUA", "county_code": "NH011", "state_code": "NH", "epa_region_code": "01", "facility_type_code": "MWD", "facility_lat": 42.7470276, "facility_lon": -71.4434697, "permit_name": "NASHUA CITY OF", "version_nmbr": 0, "permit_type_code": "NPD", "effective_date": 1433116800000, "expiration_date": 1590883200000, "permit_status_code": "ADC", "facility_type_indicator": "POTW", "major_minor_status_flag": "M", "permit_tracking": "Y", "pt_start_date": 1435708800000, "dmr_tracking": "Y", "dmr_nr_start_date": 1433116800000, "permit_design_flow": 16, "permit_avg_flow": null, "perm_feature_nmbr": "002", "perm_feature_text": "Salmon Brook", "pf_lat": 42.7488009, "pf_lon": -71.4417535, "pf_character": "CSO", "perm_feature_type_code": "EXO", "pf_state_waterbody_name": "", "pf_state_auto_name": "Salmon Brook", "pf_reach_id": "1070006000489", "in_icis": "YES", "echo_dfr_link": "https://echo.epa.gov/detailed-facility-report?fid=110007686110", "name": "NASHUA WASTEWATER TREATMENT FACILITY", "feature_kind": "CSO outfall"}}, {"type": "Feature", "id": 3059, "geometry": {"type": "Point", "coordinates": [-71.439999799932, 42.7394440996092]}, "properties": {"OBJECTID": 3059, "npdes_pfid": "NH0100170003", "npdes_id": "NH0100170", "permitting_state": "NH", "agency_type_code": "EP6", "facility_uin": "110007686110", "facility_name": "NASHUA WASTEWATER TREATMENT FACILITY", "location_address": "SAWMILL ROAD", "supplemental_address_text": "", "facility_city": "NASHUA", "county_code": "NH011", "state_code": "NH", "epa_region_code": "01", "facility_type_code": "MWD", "facility_lat": 42.7470276, "facility_lon": -71.4434697, "permit_name": "NASHUA CITY OF", "version_nmbr": 0, "permit_type_code": "NPD", "effective_date": 1433116800000, "expiration_date": 1590883200000, "permit_status_code": "ADC", "facility_type_indicator": "POTW", "major_minor_status_flag": "M", "permit_tracking": "Y", "pt_start_date": 1435708800000, "dmr_tracking": "Y", "dmr_nr_start_date": 1433116800000, "permit_design_flow": 16, "permit_avg_flow": null, "perm_feature_nmbr": "003", "perm_feature_text": "Farmington Road", "pf_lat": 42.739444, "pf_lon": -71.44, "pf_character": "CSO", "perm_feature_type_code": "EXO", "pf_state_waterbody_name": "", "pf_state_auto_name": "Merrimack River", "pf_reach_id": "1070006000405", "in_icis": "YES", "echo_dfr_link": "https://echo.epa.gov/detailed-facility-report?fid=110007686110", "name": "NASHUA WASTEWATER TREATMENT FACILITY", "feature_kind": "CSO outfall"}}, {"type": "Feature", "id": 3060, "geometry": {"type": "Point", "coordinates": [-71.4402782776701, 42.7536109441673]}, "properties": {"OBJECTID": 3060, "npdes_pfid": "NH0100170004", "npdes_id": "NH0100170", "permitting_state": "NH", "agency_type_code": "EP6", "facility_uin": "110007686110", "facility_name": "NASHUA WASTEWATER TREATMENT FACILITY", "location_address": "SAWMILL ROAD", "supplemental_address_text": "", "facility_city": "NASHUA", "county_code": "NH011", "state_code": "NH", "epa_region_code": "01", "facility_type_code": "MWD", "facility_lat": 42.7470276, "facility_lon": -71.4434697, "permit_name": "NASHUA CITY OF", "version_nmbr": 0, "permit_type_code": "NPD", "effective_date": 1433116800000, "expiration_date": 1590883200000, "permit_status_code": "ADC", "facility_type_indicator": "POTW", "major_minor_status_flag": "M", "permit_tracking": "Y", "pt_start_date": 1435708800000, "dmr_tracking": "Y", "dmr_nr_start_date": 1433116800000, "permit_design_flow": 16, "permit_avg_flow": null, "perm_feature_nmbr": "004", "perm_feature_text": "Burke Street", "pf_lat": 42.753611, "pf_lon": -71.440278, "pf_character": "CSO", "perm_feature_type_code": "EXO", "pf_state_waterbody_name": "", "pf_state_auto_name": "Merrimack River", "pf_reach_id": "1070006000406", "in_icis": "YES", "echo_dfr_link": "https://echo.epa.gov/detailed-facility-report?fid=110007686110", "name": "NASHUA WASTEWATER TREATMENT FACILITY", "feature_kind": "CSO outfall"}}, {"type": "Feature", "id": 3061, "geometry": {"type": "Point", "coordinates": [-71.4444437656426, 42.763332902211]}, "properties": {"OBJECTID": 3061, "npdes_pfid": "NH0100170005", "npdes_id": "NH0100170", "permitting_state": "NH", "agency_type_code": "EP6", "facility_uin": "110007686110", "facility_name": "NASHUA WASTEWATER TREATMENT FACILITY", "location_address": "SAWMILL ROAD", "supplemental_address_text": "", "facility_city": "NASHUA", "county_code": "NH011", "state_code": "NH", "epa_region_code": "01", "facility_type_code": "MWD", "facility_lat": 42.7470276, "facility_lon": -71.4434697, "permit_name": "NASHUA CITY OF", "version_nmbr": 0, "permit_type_code": "NPD", "effective_date": 1433116800000, "expiration_date": 1590883200000, "permit_status_code": "ADC", "facility_type_indicator": "POTW", "major_minor_status_flag": "M", "permit_tracking": "Y", "pt_start_date": 1435708800000, "dmr_tracking": "Y", "dmr_nr_start_date": 1433116800000, "permit_design_flow": 16, "permit_avg_flow": null, "perm_feature_nmbr": "005", "perm_feature_text": "East Hollis Street", "pf_lat": 42.763333, "pf_lon": -71.444444, "pf_character": "CSO", "perm_feature_type_code": "EXO", "pf_state_waterbody_name": "", "pf_state_auto_name": "Merrimack River", "pf_reach_id": "1070006000408", "in_icis": "YES", "echo_dfr_link": "https://echo.epa.gov/detailed-facility-report?fid=110007686110", "name": "NASHUA WASTEWATER TREATMENT FACILITY", "feature_kind": "CSO outfall"}}, {"type": "Feature", "id": 3062, "geometry": {"type": "Point", "coordinates": [-71.4511110616813, 42.765833058792]}, "properties": {"OBJECTID": 3062, "npdes_pfid": "NH0100170006", "npdes_id": "NH0100170", "permitting_state": "NH", "agency_type_code": "EP6", "facility_uin": "110007686110", "facility_name": "NASHUA WASTEWATER TREATMENT FACILITY", "location_address": "SAWMILL ROAD", "supplemental_address_text": "", "facility_city": "NASHUA", "county_code": "NH011", "state_code": "NH", "epa_region_code": "01", "facility_type_code": "MWD", "facility_lat": 42.7470276, "facility_lon": -71.4434697, "permit_name": "NASHUA CITY OF", "version_nmbr": 0, "permit_type_code": "NPD", "effective_date": 1433116800000, "expiration_date": 1590883200000, "permit_status_code": "ADC", "facility_type_indicator": "POTW", "major_minor_status_flag": "M", "permit_tracking": "Y", "pt_start_date": 1435708800000, "dmr_tracking": "Y", "dmr_nr_start_date": 1433116800000, "permit_design_flow": 16, "permit_avg_flow": null, "perm_feature_nmbr": "006", "perm_feature_text": "Nashua River", "pf_lat": 42.765833, "pf_lon": -71.451111, "pf_character": "CSO", "perm_feature_type_code": "EXO", "pf_state_waterbody_name": "", "pf_state_auto_name": "Nashua River", "pf_reach_id": "1070004000001", "in_icis": "YES", "echo_dfr_link": "https://echo.epa.gov/detailed-facility-report?fid=110007686110", "name": "NASHUA WASTEWATER TREATMENT FACILITY", "feature_kind": "CSO outfall"}}, {"type": "Feature", "id": 3063, "geometry": {"type": "Point", "coordinates": [-71.4777775508904, 42.7622222753636]}, "properties": {"OBJECTID": 3063, "npdes_pfid": "NH0100170007", "npdes_id": "NH0100170", "permitting_state": "NH", "agency_type_code": "EP6", "facility_uin": "110007686110", "facility_name": "NASHUA WASTEWATER TREATMENT FACILITY", "location_address": "SAWMILL ROAD", "supplemental_address_text": "", "facility_city": "NASHUA", "county_code": "NH011", "state_code": "NH", "epa_region_code": "01", "facility_type_code": "MWD", "facility_lat": 42.7470276, "facility_lon": -71.4434697, "permit_name": "NASHUA CITY OF", "version_nmbr": 0, "permit_type_code": "NPD", "effective_date": 1433116800000, "expiration_date": 1590883200000, "permit_status_code": "ADC", "facility_type_indicator": "POTW", "major_minor_status_flag": "M", "permit_tracking": "Y", "pt_start_date": 1435708800000, "dmr_tracking": "Y", "dmr_nr_start_date": 1433116800000, "permit_design_flow": 16, "permit_avg_flow": null, "perm_feature_nmbr": "007", "perm_feature_text": "Tampa Street", "pf_lat": 42.762222, "pf_lon": -71.477778, "pf_character": "CSO", "perm_feature_type_code": "EXO", "pf_state_waterbody_name": "", "pf_state_auto_name": "Nashua River", "pf_reach_id": "1070004000001", "in_icis": "YES", "echo_dfr_link": "https://echo.epa.gov/detailed-facility-report?fid=110007686110", "name": "NASHUA WASTEWATER TREATMENT FACILITY", "feature_kind": "CSO outfall"}}, {"type": "Feature", "id": 3064, "geometry": {"type": "Point", "coordinates": [-71.4880452945879, 42.770008115114]}, "properties": {"OBJECTID": 3064, "npdes_pfid": "NH0100170008", "npdes_id": "NH0100170", "permitting_state": "NH", "agency_type_code": "EP6", "facility_uin": "110007686110", "facility_name": "NASHUA WASTEWATER TREATMENT FACILITY", "location_address": "SAWMILL ROAD", "supplemental_address_text": "", "facility_city": "NASHUA", "county_code": "NH011", "state_code": "NH", "epa_region_code": "01", "facility_type_code": "MWD", "facility_lat": 42.7470276, "facility_lon": -71.4434697, "permit_name": "NASHUA CITY OF", "version_nmbr": 0, "permit_type_code": "NPD", "effective_date": 1433116800000, "expiration_date": 1590883200000, "permit_status_code": "ADC", "facility_type_indicator": "POTW", "major_minor_status_flag": "M", "permit_tracking": "Y", "pt_start_date": 1435708800000, "dmr_tracking": "Y", "dmr_nr_start_date": 1433116800000, "permit_design_flow": 16, "permit_avg_flow": null, "perm_feature_nmbr": "008", "perm_feature_text": "Broad Street", "pf_lat": 42.7700079, "pf_lon": -71.4880453, "pf_character": "CSO", "perm_feature_type_code": "EXO", "pf_state_waterbody_name": "", "pf_state_auto_name": "Nashua River", "pf_reach_id": "1070004000001", "in_icis": "YES", "echo_dfr_link": "https://echo.epa.gov/detailed-facility-report?fid=110007686110", "name": "NASHUA WASTEWATER TREATMENT FACILITY", "feature_kind": "CSO outfall"}}, {"type": "Feature", "id": 3065, "geometry": {"type": "Point", "coordinates": [-71.4558326068146, 42.7669442803819]}, "properties": {"OBJECTID": 3065, "npdes_pfid": "NH0100170009", "npdes_id": "NH0100170", "permitting_state": "NH", "agency_type_code": "EP6", "facility_uin": "110007686110", "facility_name": "NASHUA WASTEWATER TREATMENT FACILITY", "location_address": "SAWMILL ROAD", "supplemental_address_text": "", "facility_city": "NASHUA", "county_code": "NH011", "state_code": "NH", "epa_region_code": "01", "facility_type_code": "MWD", "facility_lat": 42.7470276, "facility_lon": -71.4434697, "permit_name": "NASHUA CITY OF", "version_nmbr": 0, "permit_type_code": "NPD", "effective_date": 1433116800000, "expiration_date": 1590883200000, "permit_status_code": "ADC", "facility_type_indicator": "POTW", "major_minor_status_flag": "M", "permit_tracking": "Y", "pt_start_date": 1435708800000, "dmr_tracking": "Y", "dmr_nr_start_date": 1433116800000, "permit_design_flow": 16, "permit_avg_flow": null, "perm_feature_nmbr": "009", "perm_feature_text": "Lock Street", "pf_lat": 42.766944, "pf_lon": -71.455833, "pf_character": "CSO", "perm_feature_type_code": "EXO", "pf_state_waterbody_name": "", "pf_state_auto_name": "Nashua River", "pf_reach_id": "1070004000001", "in_icis": "YES", "echo_dfr_link": "https://echo.epa.gov/detailed-facility-report?fid=110007686110", "name": "NASHUA WASTEWATER TREATMENT FACILITY", "feature_kind": "CSO outfall"}}, {"type": "Feature", "id": 3066, "geometry": {"type": "Point", "coordinates": [-71.4446683444636, 42.7642542325329]}, "properties": {"OBJECTID": 3066, "npdes_pfid": "NH0100170014", "npdes_id": "NH0100170", "permitting_state": "NH", "agency_type_code": "EP6", "facility_uin": "110007686110", "facility_name": "NASHUA WASTEWATER TREATMENT FACILITY", "location_address": "SAWMILL ROAD", "supplemental_address_text": "", "facility_city": "NASHUA", "county_code": "NH011", "state_code": "NH", "epa_region_code": "01", "facility_type_code": "MWD", "facility_lat": 42.7470276, "facility_lon": -71.4434697, "permit_name": "NASHUA CITY OF", "version_nmbr": 0, "permit_type_code": "NPD", "effective_date": 1433116800000, "expiration_date": 1590883200000, "permit_status_code": "ADC", "facility_type_indicator": "POTW", "major_minor_status_flag": "M", "permit_tracking": "Y", "pt_start_date": 1435708800000, "dmr_tracking": "Y", "dmr_nr_start_date": 1433116800000, "permit_design_flow": 16, "permit_avg_flow": null, "perm_feature_nmbr": "014", "perm_feature_text": "Screening Disinfection Facility", "pf_lat": 42.7642541, "pf_lon": -71.4446681, "pf_character": "TCS", "perm_feature_type_code": "EXO", "pf_state_waterbody_name": "", "pf_state_auto_name": "Merrimack River", "pf_reach_id": "1070006000408", "in_icis": "YES", "echo_dfr_link": "https://echo.epa.gov/detailed-facility-report?fid=110007686110", "name": "NASHUA WASTEWATER TREATMENT FACILITY", "feature_kind": "CSO outfall"}}, {"type": "Feature", "id": 3067, "geometry": {"type": "Point", "coordinates": [-70.7593292411643, 43.0796896439843]}, "properties": {"OBJECTID": 3067, "npdes_pfid": "NH0100234013", "npdes_id": "NH0100234", "permitting_state": "NH", "agency_type_code": "EP6", "facility_uin": "110004100623", "facility_name": "PORTSMOUTH CITY OF", "location_address": "END OF PIERCE ISLAND ROAD", "supplemental_address_text": "", "facility_city": "PORTSMOUTH", "county_code": "NH015", "state_code": "NH", "epa_region_code": "01", "facility_type_code": "MWD", "facility_lat": 43.073056, "facility_lon": -70.740833, "permit_name": "PORTSMOUTH-PIERCE CITY OF", "version_nmbr": 0, "permit_type_code": "NPD", "effective_date": 1701388800000, "expiration_date": 1859155200000, "permit_status_code": "EFF", "facility_type_indicator": "POTW", "major_minor_status_flag": "M", "permit_tracking": "Y", "pt_start_date": 1701388800000, "dmr_tracking": "Y", "dmr_nr_start_date": 1701388800000, "permit_design_flow": 4.8, "permit_avg_flow": null, "perm_feature_nmbr": "013", "perm_feature_text": "Deer Street", "pf_lat": 43.0796897, "pf_lon": -70.7593292, "pf_character": "CSO", "perm_feature_type_code": "EXO", "pf_state_waterbody_name": "", "pf_state_auto_name": "Portsmouth Harbor", "pf_reach_id": "1060003001773", "in_icis": "YES", "echo_dfr_link": "https://echo.epa.gov/detailed-facility-report?fid=110004100623", "name": "PORTSMOUTH CITY OF", "feature_kind": "CSO outfall"}}, {"type": "Feature", "id": 3068, "geometry": {"type": "Point", "coordinates": [-70.7572190985619, 43.0735361153183]}, "properties": {"OBJECTID": 3068, "npdes_pfid": "NH010023410A", "npdes_id": "NH0100234", "permitting_state": "NH", "agency_type_code": "EP6", "facility_uin": "110004100623", "facility_name": "PORTSMOUTH CITY OF", "location_address": "END OF PIERCE ISLAND ROAD", "supplemental_address_text": "", "facility_city": "PORTSMOUTH", "county_code": "NH015", "state_code": "NH", "epa_region_code": "01", "facility_type_code": "MWD", "facility_lat": 43.073056, "facility_lon": -70.740833, "permit_name": "PORTSMOUTH-PIERCE CITY OF", "version_nmbr": 0, "permit_type_code": "NPD", "effective_date": 1701388800000, "expiration_date": 1859155200000, "permit_status_code": "EFF", "facility_type_indicator": "POTW", "major_minor_status_flag": "M", "permit_tracking": "Y", "pt_start_date": 1701388800000, "dmr_tracking": "Y", "dmr_nr_start_date": 1701388800000, "permit_design_flow": 4.8, "permit_avg_flow": null, "perm_feature_nmbr": "10A", "perm_feature_text": "Parrot Avenue", "pf_lat": 43.073536, "pf_lon": -70.7572192, "pf_character": "CSO", "perm_feature_type_code": "EXO", "pf_state_waterbody_name": "", "pf_state_auto_name": "Portsmouth Harbor", "pf_reach_id": "1060003000421", "in_icis": "YES", "echo_dfr_link": "https://echo.epa.gov/detailed-facility-report?fid=110004100623", "name": "PORTSMOUTH CITY OF", "feature_kind": "CSO outfall"}}, {"type": "Feature", "id": 3069, "geometry": {"type": "Point", "coordinates": [-70.7579054114389, 43.0732053899465]}, "properties": {"OBJECTID": 3069, "npdes_pfid": "NH010023410B", "npdes_id": "NH0100234", "permitting_state": "NH", "agency_type_code": "EP6", "facility_uin": "110004100623", "facility_name": "PORTSMOUTH CITY OF", "location_address": "END OF PIERCE ISLAND ROAD", "supplemental_address_text": "", "facility_city": "PORTSMOUTH", "county_code": "NH015", "state_code": "NH", "epa_region_code": "01", "facility_type_code": "MWD", "facility_lat": 43.073056, "facility_lon": -70.740833, "permit_name": "PORTSMOUTH-PIERCE CITY OF", "version_nmbr": 0, "permit_type_code": "NPD", "effective_date": 1701388800000, "expiration_date": 1859155200000, "permit_status_code": "EFF", "facility_type_indicator": "POTW", "major_minor_status_flag": "M", "permit_tracking": "Y", "pt_start_date": 1701388800000, "dmr_tracking": "Y", "dmr_nr_start_date": 1701388800000, "permit_design_flow": 4.8, "permit_avg_flow": null, "perm_feature_nmbr": "10B", "perm_feature_text": "Parrot Avenue", "pf_lat": 43.0732054, "pf_lon": -70.7579057, "pf_character": "CSO", "perm_feature_type_code": "EXO", "pf_state_waterbody_name": "", "pf_state_auto_name": "Portsmouth Harbor", "pf_reach_id": "1060003000421", "in_icis": "YES", "echo_dfr_link": "https://echo.epa.gov/detailed-facility-report?fid=110004100623", "name": "PORTSMOUTH CITY OF", "feature_kind": "CSO outfall"}}, {"type": "Feature", "id": 3070, "geometry": {"type": "Point", "coordinates": [-71.4747331603925, 42.971490390808]}, "properties": {"OBJECTID": 3070, "npdes_pfid": "NH0100447011", "npdes_id": "NH0100447", "permitting_state": "NH", "agency_type_code": "EP6", "facility_uin": "110002320809", "facility_name": "MANCHESTER CITY OF", "location_address": "300 WINSTON STREET", "supplemental_address_text": "", "facility_city": "MANCHESTER", "county_code": "NH011", "state_code": "NH", "epa_region_code": "01", "facility_type_code": "MWD", "facility_lat": 42.94447, "facility_lon": -71.45794, "permit_name": "MANCHESTER CITY OF", "version_nmbr": 0, "permit_type_code": "NPD", "effective_date": 1430438400000, "expiration_date": 1588204800000, "permit_status_code": "ADC", "facility_type_indicator": "POTW", "major_minor_status_flag": "M", "permit_tracking": "Y", "pt_start_date": 1430438400000, "dmr_tracking": "Y", "dmr_nr_start_date": 1430438400000, "permit_design_flow": 34, "permit_avg_flow": null, "perm_feature_nmbr": "011", "perm_feature_text": "Schiller Street", "pf_lat": 42.9714903, "pf_lon": -71.4747335, "pf_character": "CSO", "perm_feature_type_code": "EXO", "pf_state_waterbody_name": "", "pf_state_auto_name": "Merrimack River", "pf_reach_id": "1070006000429", "in_icis": "YES", "echo_dfr_link": "https://echo.epa.gov/detailed-facility-report?fid=110002320809", "name": "MANCHESTER CITY OF", "feature_kind": "CSO outfall"}}, {"type": "Feature", "id": 3071, "geometry": {"type": "Point", "coordinates": [-71.4693549467865, 42.9819976039118]}, "properties": {"OBJECTID": 3071, "npdes_pfid": "NH0100447018", "npdes_id": "NH0100447", "permitting_state": "NH", "agency_type_code": "EP6", "facility_uin": "110002320809", "facility_name": "MANCHESTER CITY OF", "location_address": "300 WINSTON STREET", "supplemental_address_text": "", "facility_city": "MANCHESTER", "county_code": "NH011", "state_code": "NH", "epa_region_code": "01", "facility_type_code": "MWD", "facility_lat": 42.94447, "facility_lon": -71.45794, "permit_name": "MANCHESTER CITY OF", "version_nmbr": 0, "permit_type_code": "NPD", "effective_date": 1430438400000, "expiration_date": 1588204800000, "permit_status_code": "ADC", "facility_type_indicator": "POTW", "major_minor_status_flag": "M", "permit_tracking": "Y", "pt_start_date": 1430438400000, "dmr_tracking": "Y", "dmr_nr_start_date": 1430438400000, "permit_design_flow": 34, "permit_avg_flow": null, "perm_feature_nmbr": "018", "perm_feature_text": "Turner/Ferry Streets", "pf_lat": 42.9819978, "pf_lon": -71.469355, "pf_character": "CSO", "perm_feature_type_code": "EXO", "pf_state_waterbody_name": "", "pf_state_auto_name": "Merrimack River", "pf_reach_id": "1070006000001", "in_icis": "YES", "echo_dfr_link": "https://echo.epa.gov/detailed-facility-report?fid=110002320809", "name": "MANCHESTER CITY OF", "feature_kind": "CSO outfall"}}, {"type": "Feature", "id": 3072, "geometry": {"type": "Point", "coordinates": [-71.4783219299526, 43.0282344103409]}, "properties": {"OBJECTID": 3072, "npdes_pfid": "NH0100447031", "npdes_id": "NH0100447", "permitting_state": "NH", "agency_type_code": "EP6", "facility_uin": "110002320809", "facility_name": "MANCHESTER CITY OF", "location_address": "300 WINSTON STREET", "supplemental_address_text": "", "facility_city": "MANCHESTER", "county_code": "NH011", "state_code": "NH", "epa_region_code": "01", "facility_type_code": "MWD", "facility_lat": 42.94447, "facility_lon": -71.45794, "permit_name": "MANCHESTER CITY OF", "version_nmbr": 0, "permit_type_code": "NPD", "effective_date": 1430438400000, "expiration_date": 1588204800000, "permit_status_code": "ADC", "facility_type_indicator": "POTW", "major_minor_status_flag": "M", "permit_tracking": "Y", "pt_start_date": 1430438400000, "dmr_tracking": "Y", "dmr_nr_start_date": 1430438400000, "permit_design_flow": 34, "permit_avg_flow": null, "perm_feature_nmbr": "031", "perm_feature_text": "Stark Brook", "pf_lat": 43.0282346, "pf_lon": -71.4783219, "pf_character": "CSO", "perm_feature_type_code": "EXO", "pf_state_waterbody_name": "", "pf_state_auto_name": "Merrimack River", "pf_reach_id": "1070006000002", "in_icis": "YES", "echo_dfr_link": "https://echo.epa.gov/detailed-facility-report?fid=110002320809", "name": "MANCHESTER CITY OF", "feature_kind": "CSO outfall"}}, {"type": "Feature", "id": 3073, "geometry": {"type": "Point", "coordinates": [-71.4762432283851, 42.9812819321738]}, "properties": {"OBJECTID": 3073, "npdes_pfid": "NH0100447039", "npdes_id": "NH0100447", "permitting_state": "NH", "agency_type_code": "EP6", "facility_uin": "110002320809", "facility_name": "MANCHESTER CITY OF", "location_address": "300 WINSTON STREET", "supplemental_address_text": "", "facility_city": "MANCHESTER", "county_code": "NH011", "state_code": "NH", "epa_region_code": "01", "facility_type_code": "MWD", "facility_lat": 42.94447, "facility_lon": -71.45794, "permit_name": "MANCHESTER CITY OF", "version_nmbr": 0, "permit_type_code": "NPD", "effective_date": 1430438400000, "expiration_date": 1588204800000, "permit_status_code": "ADC", "facility_type_indicator": "POTW", "major_minor_status_flag": "M", "permit_tracking": "Y", "pt_start_date": 1430438400000, "dmr_tracking": "Y", "dmr_nr_start_date": 1430438400000, "permit_design_flow": 34, "permit_avg_flow": null, "perm_feature_nmbr": "039", "perm_feature_text": "Third Street", "pf_lat": 42.9812817, "pf_lon": -71.4762429, "pf_character": "CSO", "perm_feature_type_code": "EXO", "pf_state_waterbody_name": "", "pf_state_auto_name": "Piscataquog River", "pf_reach_id": "1070006000431", "in_icis": "YES", "echo_dfr_link": "https://echo.epa.gov/detailed-facility-report?fid=110002320809", "name": "MANCHESTER CITY OF", "feature_kind": "CSO outfall"}}, {"type": "Feature", "id": 3074, "geometry": {"type": "Point", "coordinates": [-71.4719340099672, 42.9691714245388]}, "properties": {"OBJECTID": 3074, "npdes_pfid": "NH0100447043", "npdes_id": "NH0100447", "permitting_state": "NH", "agency_type_code": "EP6", "facility_uin": "110002320809", "facility_name": "MANCHESTER CITY OF", "location_address": "300 WINSTON STREET", "supplemental_address_text": "", "facility_city": "MANCHESTER", "county_code": "NH011", "state_code": "NH", "epa_region_code": "01", "facility_type_code": "MWD", "facility_lat": 42.94447, "facility_lon": -71.45794, "permit_name": "MANCHESTER CITY OF", "version_nmbr": 0, "permit_type_code": "NPD", "effective_date": 1430438400000, "expiration_date": 1588204800000, "permit_status_code": "ADC", "facility_type_indicator": "POTW", "major_minor_status_flag": "M", "permit_tracking": "Y", "pt_start_date": 1430438400000, "dmr_tracking": "Y", "dmr_nr_start_date": 1430438400000, "permit_design_flow": 34, "permit_avg_flow": null, "perm_feature_nmbr": "043", "perm_feature_text": "Tannery Brook", "pf_lat": 42.9691711, "pf_lon": -71.4719337, "pf_character": "CSO", "perm_feature_type_code": "EXO", "pf_state_waterbody_name": "", "pf_state_auto_name": "Merrimack River", "pf_reach_id": "1070006000429", "in_icis": "YES", "echo_dfr_link": "https://echo.epa.gov/detailed-facility-report?fid=110002320809", "name": "MANCHESTER CITY OF", "feature_kind": "CSO outfall"}}, {"type": "Feature", "id": 3075, "geometry": {"type": "Point", "coordinates": [-71.4676984534026, 42.9817498470536]}, "properties": {"OBJECTID": 3075, "npdes_pfid": "NH0100447044", "npdes_id": "NH0100447", "permitting_state": "NH", "agency_type_code": "EP6", "facility_uin": "110002320809", "facility_name": "MANCHESTER CITY OF", "location_address": "300 WINSTON STREET", "supplemental_address_text": "", "facility_city": "MANCHESTER", "county_code": "NH011", "state_code": "NH", "epa_region_code": "01", "facility_type_code": "MWD", "facility_lat": 42.94447, "facility_lon": -71.45794, "permit_name": "MANCHESTER CITY OF", "version_nmbr": 0, "permit_type_code": "NPD", "effective_date": 1430438400000, "expiration_date": 1588204800000, "permit_status_code": "ADC", "facility_type_indicator": "POTW", "major_minor_status_flag": "M", "permit_tracking": "Y", "pt_start_date": 1430438400000, "dmr_tracking": "Y", "dmr_nr_start_date": 1430438400000, "permit_design_flow": 34, "permit_avg_flow": null, "perm_feature_nmbr": "044", "perm_feature_text": "Cemetery Brook", "pf_lat": 42.9817499, "pf_lon": -71.4676987, "pf_character": "CSO", "perm_feature_type_code": "EXO", "pf_state_waterbody_name": "", "pf_state_auto_name": "Merrimack River", "pf_reach_id": "1070006000001", "in_icis": "YES", "echo_dfr_link": "https://echo.epa.gov/detailed-facility-report?fid=110002320809", "name": "MANCHESTER CITY OF", "feature_kind": "CSO outfall"}}, {"type": "Feature", "id": 3076, "geometry": {"type": "Point", "coordinates": [-71.4684880725373, 42.985273552304]}, "properties": {"OBJECTID": 3076, "npdes_pfid": "NH0100447045", "npdes_id": "NH0100447", "permitting_state": "NH", "agency_type_code": "EP6", "facility_uin": "110002320809", "facility_name": "MANCHESTER CITY OF", "location_address": "300 WINSTON STREET", "supplemental_address_text": "", "facility_city": "MANCHESTER", "county_code": "NH011", "state_code": "NH", "epa_region_code": "01", "facility_type_code": "MWD", "facility_lat": 42.94447, "facility_lon": -71.45794, "permit_name": "MANCHESTER CITY OF", "version_nmbr": 0, "permit_type_code": "NPD", "effective_date": 1430438400000, "expiration_date": 1588204800000, "permit_status_code": "ADC", "facility_type_indicator": "POTW", "major_minor_status_flag": "M", "permit_tracking": "Y", "pt_start_date": 1430438400000, "dmr_tracking": "Y", "dmr_nr_start_date": 1430438400000, "permit_design_flow": 34, "permit_avg_flow": null, "perm_feature_nmbr": "045", "perm_feature_text": "Granite Street", "pf_lat": 42.9852737, "pf_lon": -71.4684884, "pf_character": "CSO", "perm_feature_type_code": "EXO", "pf_state_waterbody_name": "", "pf_state_auto_name": "Merrimack River", "pf_reach_id": "1070006000001", "in_icis": "YES", "echo_dfr_link": "https://echo.epa.gov/detailed-facility-report?fid=110002320809", "name": "MANCHESTER CITY OF", "feature_kind": "CSO outfall"}}, {"type": "Feature", "id": 3077, "geometry": {"type": "Point", "coordinates": [-71.4684826826456, 42.9944557918336]}, "properties": {"OBJECTID": 3077, "npdes_pfid": "NH0100447046", "npdes_id": "NH0100447", "permitting_state": "NH", "agency_type_code": "EP6", "facility_uin": "110002320809", "facility_name": "MANCHESTER CITY OF", "location_address": "300 WINSTON STREET", "supplemental_address_text": "", "facility_city": "MANCHESTER", "county_code": "NH011", "state_code": "NH", "epa_region_code": "01", "facility_type_code": "MWD", "facility_lat": 42.94447, "facility_lon": -71.45794, "permit_name": "MANCHESTER CITY OF", "version_nmbr": 0, "permit_type_code": "NPD", "effective_date": 1430438400000, "expiration_date": 1588204800000, "permit_status_code": "ADC", "facility_type_indicator": "POTW", "major_minor_status_flag": "M", "permit_tracking": "Y", "pt_start_date": 1430438400000, "dmr_tracking": "Y", "dmr_nr_start_date": 1430438400000, "permit_design_flow": 34, "permit_avg_flow": null, "perm_feature_nmbr": "046", "perm_feature_text": "Bridge Street (East)", "pf_lat": 42.9944561, "pf_lon": -71.4684828, "pf_character": "CSO", "perm_feature_type_code": "EXO", "pf_state_waterbody_name": "", "pf_state_auto_name": "Merrimack River", "pf_reach_id": "1070006000001", "in_icis": "YES", "echo_dfr_link": "https://echo.epa.gov/detailed-facility-report?fid=110002320809", "name": "MANCHESTER CITY OF", "feature_kind": "CSO outfall"}}, {"type": "Feature", "id": 3078, "geometry": {"type": "Point", "coordinates": [-71.4690423330676, 42.9986896471031]}, "properties": {"OBJECTID": 3078, "npdes_pfid": "NH0100447047", "npdes_id": "NH0100447", "permitting_state": "NH", "agency_type_code": "EP6", "facility_uin": "110002320809", "facility_name": "MANCHESTER CITY OF", "location_address": "300 WINSTON STREET", "supplemental_address_text": "", "facility_city": "MANCHESTER", "county_code": "NH011", "state_code": "NH", "epa_region_code": "01", "facility_type_code": "MWD", "facility_lat": 42.94447, "facility_lon": -71.45794, "permit_name": "MANCHESTER CITY OF", "version_nmbr": 0, "permit_type_code": "NPD", "effective_date": 1430438400000, "expiration_date": 1588204800000, "permit_status_code": "ADC", "facility_type_indicator": "POTW", "major_minor_status_flag": "M", "permit_tracking": "Y", "pt_start_date": 1430438400000, "dmr_tracking": "Y", "dmr_nr_start_date": 1430438400000, "permit_design_flow": 34, "permit_avg_flow": null, "perm_feature_nmbr": "047", "perm_feature_text": "Pennacook Street", "pf_lat": 42.9986896, "pf_lon": -71.4690422, "pf_character": "CSO", "perm_feature_type_code": "EXO", "pf_state_waterbody_name": "", "pf_state_auto_name": "Merrimack River", "pf_reach_id": "1070006000001", "in_icis": "YES", "echo_dfr_link": "https://echo.epa.gov/detailed-facility-report?fid=110002320809", "name": "MANCHESTER CITY OF", "feature_kind": "CSO outfall"}}, {"type": "Feature", "id": 3079, "geometry": {"type": "Point", "coordinates": [-71.4593081886489, 42.9468495338496]}, "properties": {"OBJECTID": 3079, "npdes_pfid": "NH0100447050", "npdes_id": "NH0100447", "permitting_state": "NH", "agency_type_code": "EP6", "facility_uin": "110002320809", "facility_name": "MANCHESTER CITY OF", "location_address": "300 WINSTON STREET", "supplemental_address_text": "", "facility_city": "MANCHESTER", "county_code": "NH011", "state_code": "NH", "epa_region_code": "01", "facility_type_code": "MWD", "facility_lat": 42.94447, "facility_lon": -71.45794, "permit_name": "MANCHESTER CITY OF", "version_nmbr": 0, "permit_type_code": "NPD", "effective_date": 1430438400000, "expiration_date": 1588204800000, "permit_status_code": "ADC", "facility_type_indicator": "POTW", "major_minor_status_flag": "M", "permit_tracking": "Y", "pt_start_date": 1430438400000, "dmr_tracking": "Y", "dmr_nr_start_date": 1430438400000, "permit_design_flow": 34, "permit_avg_flow": null, "perm_feature_nmbr": "050", "perm_feature_text": "WWTP Manhole #1", "pf_lat": 42.9468495, "pf_lon": -71.4593086, "pf_character": "CSO", "perm_feature_type_code": "EXO", "pf_state_waterbody_name": "", "pf_state_auto_name": "Merrimack River", "pf_reach_id": "1070006000428", "in_icis": "YES", "echo_dfr_link": "https://echo.epa.gov/detailed-facility-report?fid=110002320809", "name": "MANCHESTER CITY OF", "feature_kind": "CSO outfall"}}, {"type": "Feature", "id": 3080, "geometry": {"type": "Point", "coordinates": [-71.471073423925, 42.979705979179]}, "properties": {"OBJECTID": 3080, "npdes_pfid": "NH0100447051", "npdes_id": "NH0100447", "permitting_state": "NH", "agency_type_code": "EP6", "facility_uin": "110002320809", "facility_name": "MANCHESTER CITY OF", "location_address": "300 WINSTON STREET", "supplemental_address_text": "", "facility_city": "MANCHESTER", "county_code": "NH011", "state_code": "NH", "epa_region_code": "01", "facility_type_code": "MWD", "facility_lat": 42.94447, "facility_lon": -71.45794, "permit_name": "MANCHESTER CITY OF", "version_nmbr": 0, "permit_type_code": "NPD", "effective_date": 1430438400000, "expiration_date": 1588204800000, "permit_status_code": "ADC", "facility_type_indicator": "POTW", "major_minor_status_flag": "M", "permit_tracking": "Y", "pt_start_date": 1430438400000, "dmr_tracking": "Y", "dmr_nr_start_date": 1430438400000, "permit_design_flow": 34, "permit_avg_flow": null, "perm_feature_nmbr": "051", "perm_feature_text": "West Side Pumping Station Emergency Overflow", "pf_lat": 42.9797058, "pf_lon": -71.4710733, "pf_character": "CSO", "perm_feature_type_code": "EXO", "pf_state_waterbody_name": "", "pf_state_auto_name": "Merrimack River", "pf_reach_id": "1070006000001", "in_icis": "YES", "echo_dfr_link": "https://echo.epa.gov/detailed-facility-report?fid=110002320809", "name": "MANCHESTER CITY OF", "feature_kind": "CSO outfall"}}, {"type": "Feature", "id": 3081, "geometry": {"type": "Point", "coordinates": [-71.4604939648239, 42.9487360280854]}, "properties": {"OBJECTID": 3081, "npdes_pfid": "NH0100447052", "npdes_id": "NH0100447", "permitting_state": "NH", "agency_type_code": "EP6", "facility_uin": "110002320809", "facility_name": "MANCHESTER CITY OF", "location_address": "300 WINSTON STREET", "supplemental_address_text": "", "facility_city": "MANCHESTER", "county_code": "NH011", "state_code": "NH", "epa_region_code": "01", "facility_type_code": "MWD", "facility_lat": 42.94447, "facility_lon": -71.45794, "permit_name": "MANCHESTER CITY OF", "version_nmbr": 0, "permit_type_code": "NPD", "effective_date": 1430438400000, "expiration_date": 1588204800000, "permit_status_code": "ADC", "facility_type_indicator": "POTW", "major_minor_status_flag": "M", "permit_tracking": "Y", "pt_start_date": 1430438400000, "dmr_tracking": "Y", "dmr_nr_start_date": 1430438400000, "permit_design_flow": 34, "permit_avg_flow": null, "perm_feature_nmbr": "052", "perm_feature_text": "WWTP Manhole #2", "pf_lat": 42.9487361, "pf_lon": -71.4604937, "pf_character": "CSO", "perm_feature_type_code": "EXO", "pf_state_waterbody_name": "", "pf_state_auto_name": "Merrimack River", "pf_reach_id": "1070006000428", "in_icis": "YES", "echo_dfr_link": "https://echo.epa.gov/detailed-facility-report?fid=110002320809", "name": "MANCHESTER CITY OF", "feature_kind": "CSO outfall"}}, {"type": "Feature", "id": 3082, "geometry": {"type": "Point", "coordinates": [-71.4696154582189, 43.0008117211662]}, "properties": {"OBJECTID": 3082, "npdes_pfid": "NH0100447053", "npdes_id": "NH0100447", "permitting_state": "NH", "agency_type_code": "EP6", "facility_uin": "110002320809", "facility_name": "MANCHESTER CITY OF", "location_address": "300 WINSTON STREET", "supplemental_address_text": "", "facility_city": "MANCHESTER", "county_code": "NH011", "state_code": "NH", "epa_region_code": "01", "facility_type_code": "MWD", "facility_lat": 42.94447, "facility_lon": -71.45794, "permit_name": "MANCHESTER CITY OF", "version_nmbr": 0, "permit_type_code": "NPD", "effective_date": 1430438400000, "expiration_date": 1588204800000, "permit_status_code": "ADC", "facility_type_indicator": "POTW", "major_minor_status_flag": "M", "permit_tracking": "Y", "pt_start_date": 1430438400000, "dmr_tracking": "Y", "dmr_nr_start_date": 1430438400000, "permit_design_flow": 34, "permit_avg_flow": null, "perm_feature_nmbr": "053", "perm_feature_text": "Walnut/North Streets and Canal/West Pennacook Streets", "pf_lat": 43.0008114, "pf_lon": -71.4696155, "pf_character": "CSO", "perm_feature_type_code": "EXO", "pf_state_waterbody_name": "", "pf_state_auto_name": "Merrimack River", "pf_reach_id": "1070006000001", "in_icis": "YES", "echo_dfr_link": "https://echo.epa.gov/detailed-facility-report?fid=110002320809", "name": "MANCHESTER CITY OF", "feature_kind": "CSO outfall"}}, {"type": "Feature", "id": 3083, "geometry": {"type": "Point", "coordinates": [-71.4683075111652, 43.0077917108774]}, "properties": {"OBJECTID": 3083, "npdes_pfid": "NH0100447054", "npdes_id": "NH0100447", "permitting_state": "NH", "agency_type_code": "EP6", "facility_uin": "110002320809", "facility_name": "MANCHESTER CITY OF", "location_address": "300 WINSTON STREET", "supplemental_address_text": "", "facility_city": "MANCHESTER", "county_code": "NH011", "state_code": "NH", "epa_region_code": "01", "facility_type_code": "MWD", "facility_lat": 42.94447, "facility_lon": -71.45794, "permit_name": "MANCHESTER CITY OF", "version_nmbr": 0, "permit_type_code": "NPD", "effective_date": 1430438400000, "expiration_date": 1588204800000, "permit_status_code": "ADC", "facility_type_indicator": "POTW", "major_minor_status_flag": "M", "permit_tracking": "Y", "pt_start_date": 1430438400000, "dmr_tracking": "Y", "dmr_nr_start_date": 1430438400000, "permit_design_flow": 34, "permit_avg_flow": null, "perm_feature_nmbr": "054", "perm_feature_text": "Ray Brook", "pf_lat": 43.0077919, "pf_lon": -71.4683075, "pf_character": "CSO", "perm_feature_type_code": "EXO", "pf_state_waterbody_name": "", "pf_state_auto_name": "Merrimack River", "pf_reach_id": "1070006000001", "in_icis": "YES", "echo_dfr_link": "https://echo.epa.gov/detailed-facility-report?fid=110002320809", "name": "MANCHESTER CITY OF", "feature_kind": "CSO outfall"}}, {"type": "Feature", "id": 3084, "geometry": {"type": "Point", "coordinates": [-71.4737809461914, 42.9656974126707]}, "properties": {"OBJECTID": 3084, "npdes_pfid": "NH0100447055", "npdes_id": "NH0100447", "permitting_state": "NH", "agency_type_code": "EP6", "facility_uin": "110002320809", "facility_name": "MANCHESTER CITY OF", "location_address": "300 WINSTON STREET", "supplemental_address_text": "", "facility_city": "MANCHESTER", "county_code": "NH011", "state_code": "NH", "epa_region_code": "01", "facility_type_code": "MWD", "facility_lat": 42.94447, "facility_lon": -71.45794, "permit_name": "MANCHESTER CITY OF", "version_nmbr": 0, "permit_type_code": "NPD", "effective_date": 1430438400000, "expiration_date": 1588204800000, "permit_status_code": "ADC", "facility_type_indicator": "POTW", "major_minor_status_flag": "M", "permit_tracking": "Y", "pt_start_date": 1430438400000, "dmr_tracking": "Y", "dmr_nr_start_date": 1430438400000, "permit_design_flow": 34, "permit_avg_flow": null, "perm_feature_nmbr": "055", "perm_feature_text": "Dunbar Street", "pf_lat": 42.9656975, "pf_lon": -71.4737809, "pf_character": "CSO", "perm_feature_type_code": "EXO", "pf_state_waterbody_name": "", "pf_state_auto_name": "Merrimack River", "pf_reach_id": "1070006000429", "in_icis": "YES", "echo_dfr_link": "https://echo.epa.gov/detailed-facility-report?fid=110002320809", "name": "MANCHESTER CITY OF", "feature_kind": "CSO outfall"}}, {"type": "Feature", "id": 3085, "geometry": {"type": "Point", "coordinates": [-70.9504628858511, 42.986874990526]}, "properties": {"OBJECTID": 3085, "npdes_pfid": "NH0100871003", "npdes_id": "NH0100871", "permitting_state": "NH", "agency_type_code": "EP6", "facility_uin": "110002320863", "facility_name": "EXETER  W W T P", "location_address": "13 NEWFIELDS ROAD", "supplemental_address_text": "", "facility_city": "EXETER", "county_code": "NH015", "state_code": "NH", "epa_region_code": "01", "facility_type_code": "MWD", "facility_lat": 42.996706, "facility_lon": -70.944428, "permit_name": "EXETER TOWN OF", "version_nmbr": 0, "permit_type_code": "NPD", "effective_date": 1667260800000, "expiration_date": 1824940800000, "permit_status_code": "EFF", "facility_type_indicator": "POTW", "major_minor_status_flag": "M", "permit_tracking": "Y", "pt_start_date": 1667260800000, "dmr_tracking": "Y", "dmr_nr_start_date": 1667260800000, "permit_design_flow": 3, "permit_avg_flow": null, "perm_feature_nmbr": "003", "perm_feature_text": "Tidal Gate of Clemson Pond", "pf_lat": 42.986875, "pf_lon": -70.950463, "pf_character": "CSO", "perm_feature_type_code": "EXO", "pf_state_waterbody_name": "", "pf_state_auto_name": "Squamscott River", "pf_reach_id": "1060003000193", "in_icis": "YES", "echo_dfr_link": "https://echo.epa.gov/detailed-facility-report?fid=110002320863", "name": "EXETER  W W T P", "feature_kind": "CSO outfall"}}]}