{"type": "FeatureCollection", "features": [{"type": "Feature", "properties": {"PWSID": "ND0600869", "PWS_Name": "SCRANTON CITY OF", "Primacy_Agency": "ND", "Population_Served_Count": 281, "Service_Connections_Count": 159, "Service_Area_Type": "Residential Area", "Verification_Status": "", "Area_SqKM": 0.8837363277376263}, "geometry": {"type": "Point", "coordinates": [-103.14402564261498, 46.15114765539168]}}, {"type": "Feature", "properties": {"PWSID": "ND0600819", "PWS_Name": "RHAME CITY OF", "Primacy_Agency": "ND", "Population_Served_Count": 169, "Service_Connections_Count": 85, "Service_Area_Type": "Residential Area", "Verification_Status": "", "Area_SqKM": 1.207076359186152}, "geometry": {"type": "Point", "coordinates": [-103.6544321105334, 46.23479995261511]}}, {"type": "Feature", "properties": {"PWSID": "ND1700870", "PWS_Name": "SENTINEL BUTTE CITY OF", "Primacy_Agency": "ND", "Population_Served_Count": 56, "Service_Connections_Count": 41, "Service_Area_Type": "Residential Area", "Verification_Status": "", "Area_SqKM": 0.24440793188513754}, "geometry": {"type": "Point", "coordinates": [-103.83971123332748, 46.91643217086324]}}, {"type": "Feature", "properties": {"PWSID": "ND1700403", "PWS_Name": "GOLVA CITY OF", "Primacy_Agency": "ND", "Population_Served_Count": 61, "Service_Connections_Count": 63, "Service_Area_Type": "Residential Area", "Verification_Status": "", "Area_SqKM": 0.45210175801593744}, "geometry": {"type": "Point", "coordinates": [-103.9844069895428, 46.73420381785587]}}, {"type": "Feature", "properties": {"PWSID": "ND1700059", "PWS_Name": "BEACH CITY OF", "Primacy_Agency": "ND", "Population_Served_Count": 981, "Service_Connections_Count": 580, "Service_Area_Type": "Residential Area", "Verification_Status": "", "Area_SqKM": 2.8785190792838}, "geometry": {"type": "Point", "coordinates": [-104.00769831269571, 46.91568664280346]}}, {"type": "Feature", "properties": {"PWSID": "ND0600119", "PWS_Name": "BOWMAN CITY OF", "Primacy_Agency": "ND", "Population_Served_Count": 1470, "Service_Connections_Count": 840, "Service_Area_Type": "Residential Area", "Verification_Status": "", "Area_SqKM": 3.8092684100213754}, "geometry": {"type": "Point", "coordinates": [-103.6370981212543, 46.20648455978793]}}, {"type": "Feature", "properties": {"PWSID": "ND5301686", "PWS_Name": "WESTERN AREA WATER SUPPLY AUTHORITY", "Primacy_Agency": "ND", "Population_Served_Count": 0, "Service_Connections_Count": 5, "Service_Area_Type": "Wholesaler of Water", "Verification_Status": "", "Area_SqKM": 0.022059343528332345}, "geometry": {"type": "Point", "coordinates": [-103.25664140629016, 48.10134969374256]}}, {"type": "Feature", "properties": {"PWSID": "ND4400615", "PWS_Name": "MARMARTH CITY OF", "Primacy_Agency": "ND", "Population_Served_Count": 136, "Service_Connections_Count": 75, "Service_Area_Type": "Residential Area", "Verification_Status": "", "Area_SqKM": 0.33582410520571504}, "geometry": {"type": "Point", "coordinates": [-103.92114895275145, 46.29374761949231]}}, {"type": "Feature", "properties": {"PWSID": "ND4500065", "PWS_Name": "BELFIELD CITY OF", "Primacy_Agency": "ND", "Population_Served_Count": 1013, "Service_Connections_Count": 609, "Service_Area_Type": "Residential Area", "Verification_Status": "", "Area_SqKM": 1.734257171541709}, "geometry": {"type": "Point", "coordinates": [-103.19628389013653, 46.886041080942164]}}, {"type": "Feature", "properties": {"PWSID": "ND5300425", "PWS_Name": "GRENORA CITY OF", "Primacy_Agency": "ND", "Population_Served_Count": 244, "Service_Connections_Count": 170, "Service_Area_Type": "Residential Area", "Verification_Status": "", "Area_SqKM": 0.6530510604835941}, "geometry": {"type": "Point", "coordinates": [-103.94010765633415, 48.617694829866814]}}, {"type": "Feature", "properties": {"PWSID": "ND5300948", "PWS_Name": "TRENTON WATER USERS ASSOC", "Primacy_Agency": "ND", "Population_Served_Count": 840, "Service_Connections_Count": 300, "Service_Area_Type": "Residential Area", "Verification_Status": "", "Area_SqKM": 7.121370082772984}, "geometry": {"type": "Point", "coordinates": [-103.84488357563518, 48.08199861890135]}}, {"type": "Feature", "properties": {"PWSID": "ND0400638", "PWS_Name": "MEDORA CITY OF", "Primacy_Agency": "ND", "Population_Served_Count": 112, "Service_Connections_Count": 85, "Service_Area_Type": "Residential Area", "Verification_Status": "", "Area_SqKM": 0.846840095939111}, "geometry": {"type": "Point", "coordinates": [-103.5257132715555, 46.91211543774273]}}, {"type": "Feature", "properties": {"PWSID": "ND1200211", "PWS_Name": "CROSBY CITY OF", "Primacy_Agency": "ND", "Population_Served_Count": 1406, "Service_Connections_Count": 530, "Service_Area_Type": "Residential Area", "Verification_Status": "", "Area_SqKM": 1.7668980226993107}, "geometry": {"type": "Point", "coordinates": [-103.29605246762773, 48.91301135606614]}}, {"type": "Feature", "properties": {"PWSID": "ND1200369", "PWS_Name": "FORTUNA CITY OF", "Primacy_Agency": "ND", "Population_Served_Count": 35, "Service_Connections_Count": 20, "Service_Area_Type": "Residential Area", "Verification_Status": "", "Area_SqKM": 0.2232064410869335}, "geometry": {"type": "Point", "coordinates": [-103.77672985548504, 48.9108457852339]}}, {"type": "Feature", "properties": {"PWSID": "ND2700006", "PWS_Name": "ALEXANDER CITY OF", "Primacy_Agency": "ND", "Population_Served_Count": 1335, "Service_Connections_Count": 315, "Service_Area_Type": "Residential Area", "Verification_Status": "", "Area_SqKM": 2.3510439256977445}, "geometry": {"type": "Point", "coordinates": [-103.64619243399666, 47.83624999058611]}}, {"type": "Feature", "properties": {"PWSID": "ND2700990", "PWS_Name": "WATFORD CITY CITY OF", "Primacy_Agency": "ND", "Population_Served_Count": 6390, "Service_Connections_Count": 850, "Service_Area_Type": "Residential Area", "Verification_Status": "", "Area_SqKM": 15.44900811371032}, "geometry": {"type": "Point", "coordinates": [-103.27415959600123, 47.806131204411464]}}, {"type": "Feature", "properties": {"PWSID": "ND2701506", "PWS_Name": "ARNEGARD CITY OF", "Primacy_Agency": "ND", "Population_Served_Count": 28, "Service_Connections_Count": 17, "Service_Area_Type": "Residential Area", "Verification_Status": "", "Area_SqKM": 0.3413888147064094}, "geometry": {"type": "Point", "coordinates": [-103.43797564708547, 47.807189411747345]}}, {"type": "Feature", "properties": {"PWSID": "ND5300809", "PWS_Name": "RAY CITY OF", "Primacy_Agency": "ND", "Population_Served_Count": 950, "Service_Connections_Count": 491, "Service_Area_Type": "Residential Area", "Verification_Status": "", "Area_SqKM": 3.9871839696919866}, "geometry": {"type": "Point", "coordinates": [-103.16418115380864, 48.34940974526741]}}, {"type": "Feature", "properties": {"PWSID": "ND5301011", "PWS_Name": "WILDROSE CITY OF", "Primacy_Agency": "ND", "Population_Served_Count": 110, "Service_Connections_Count": 90, "Service_Area_Type": "Residential Area", "Verification_Status": "", "Area_SqKM": 0.4768236914064585}, "geometry": {"type": "Point", "coordinates": [-103.18145223786227, 48.630126510372314]}}, {"type": "Feature", "properties": {"PWSID": "ND5301012", "PWS_Name": "WILLISTON CITY OF", "Primacy_Agency": "ND", "Population_Served_Count": 26426, "Service_Connections_Count": 6876, "Service_Area_Type": "Residential Area", "Verification_Status": "", "Area_SqKM": 33.29439791381824}, "geometry": {"type": "Point", "coordinates": [-103.65718471299904, 48.15812755458051]}}, {"type": "Feature", "properties": {"PWSID": "ND5301063", "PWS_Name": "INSPIRE COMMUNITIES-SPRINGBROOK", "Primacy_Agency": "ND", "Population_Served_Count": 300, "Service_Connections_Count": 183, "Service_Area_Type": "Mobile Home Park", "Verification_Status": "", "Area_SqKM": 2.2466231444794467}, "geometry": {"type": "Point", "coordinates": [-103.5711355746169, 48.21769390497938]}}, {"type": "Feature", "properties": {"PWSID": "ND3001490", "PWS_Name": "SOUTHWEST WA-JUNCTION INN(MISSOURI WEST)", "Primacy_Agency": "ND", "Population_Served_Count": 173, "Service_Connections_Count": 78, "Service_Area_Type": "Residential Area", "Verification_Status": "", "Area_SqKM": 5.669678946108824}, "geometry": {"type": "Point", "coordinates": [-102.87452889684218, 46.87767078120326]}}, {"type": "Feature", "properties": {"PWSID": "ND2100816", "PWS_Name": "REGENT CITY OF", "Primacy_Agency": "ND", "Population_Served_Count": 160, "Service_Connections_Count": 168, "Service_Area_Type": "Residential Area", "Verification_Status": "", "Area_SqKM": 0.4994361406256498}, "geometry": {"type": "Point", "coordinates": [-102.55834063249148, 46.419523439814135]}}, {"type": "Feature", "properties": {"PWSID": "ND2100726", "PWS_Name": "NEW ENGLAND CITY OF", "Primacy_Agency": "ND", "Population_Served_Count": 600, "Service_Connections_Count": 300, "Service_Area_Type": "Residential Area", "Verification_Status": "", "Area_SqKM": 3.8782399121852347}, "geometry": {"type": "Point", "coordinates": [-102.84630066579855, 46.467142845552054]}}, {"type": "Feature", "properties": {"PWSID": "ND0100812", "PWS_Name": "REEDER CITY OF", "Primacy_Agency": "ND", "Population_Served_Count": 162, "Service_Connections_Count": 135, "Service_Area_Type": "Residential Area", "Verification_Status": "", "Area_SqKM": 0.6905307298068339}, "geometry": {"type": "Point", "coordinates": [-102.94239266662345, 46.10874337441073]}}, {"type": "Feature", "properties": {"PWSID": "ND0100476", "PWS_Name": "HETTINGER CITY OF", "Primacy_Agency": "ND", "Population_Served_Count": 1226, "Service_Connections_Count": 610, "Service_Area_Type": "Residential Area", "Verification_Status": "", "Area_SqKM": 1.8742946487617038}, "geometry": {"type": "Point", "coordinates": [-102.63418068042648, 46.00197064297395]}}, {"type": "Feature", "properties": {"PWSID": "ND0700804", "PWS_Name": "POWERS LAKE CITY OF", "Primacy_Agency": "ND", "Population_Served_Count": 280, "Service_Connections_Count": 153, "Service_Area_Type": "Residential Area", "Verification_Status": "", "Area_SqKM": 0.3273103387368838}, "geometry": {"type": "Point", "coordinates": [-102.64524698882285, 48.5628690332851]}}, {"type": "Feature", "properties": {"PWSID": "ND0801031", "PWS_Name": "WILTON CITY OF", "Primacy_Agency": "ND", "Population_Served_Count": 711, "Service_Connections_Count": 347, "Service_Area_Type": "Residential Area", "Verification_Status": "", "Area_SqKM": 0.0707632134289018}, "geometry": {"type": "Point", "coordinates": [-100.78338842500727, 47.15651242488392]}}, {"type": "Feature", "properties": {"PWSID": "ND0801154", "PWS_Name": "SOUTH CENTRAL REGIONAL WATER DISTRICT", "Primacy_Agency": "ND", "Population_Served_Count": 3700, "Service_Connections_Count": 1720, "Service_Area_Type": "Residential Area", "Verification_Status": "", "Area_SqKM": 6.765072303332227}, "geometry": {"type": "Point", "coordinates": [-100.86663307023196, 46.867316624970506]}}, {"type": "Feature", "properties": {"PWSID": "ND5101065", "PWS_Name": "NORTH PRAIRIE RWD-SYSTEM III", "Primacy_Agency": "ND", "Population_Served_Count": 2742, "Service_Connections_Count": 1097, "Service_Area_Type": "Residential Area", "Verification_Status": "", "Area_SqKM": 0.3392319640473982}, "geometry": {"type": "Point", "coordinates": [-100.84173829988137, 48.0214644757978]}}, {"type": "Feature", "properties": {"PWSID": "ND5101074", "PWS_Name": "UPPER SOURIS WATER DISTRICT-SYSTEM I", "Primacy_Agency": "ND", "Population_Served_Count": 1296, "Service_Connections_Count": 480, "Service_Area_Type": "Residential Area", "Verification_Status": "", "Area_SqKM": 0.046574758074783174}, "geometry": {"type": "Point", "coordinates": [-101.88538520017474, 48.50968313322606]}}, {"type": "Feature", "properties": {"PWSID": "ND5101125", "PWS_Name": "NORTH PRAIRIE RWD-SYSTEM 1&2", "Primacy_Agency": "ND", "Population_Served_Count": 7748, "Service_Connections_Count": 3099, "Service_Area_Type": "Residential Area", "Verification_Status": "", "Area_SqKM": 4.80629216364294}, "geometry": {"type": "Point", "coordinates": [-101.2147203205358, 48.21762436014196]}}, {"type": "Feature", "properties": {"PWSID": "ND4500891", "PWS_Name": "SOUTH HEART CITY OF", "Primacy_Agency": "ND", "Population_Served_Count": 301, "Service_Connections_Count": 200, "Service_Area_Type": "Residential Area", "Verification_Status": "", "Area_SqKM": 0.8869796814363702}, "geometry": {"type": "Point", "coordinates": [-102.99278639020507, 46.86505629577242]}}, {"type": "Feature", "properties": {"PWSID": "ND4501434", "PWS_Name": "SOUTHWEST WATER AUTHORITY", "Primacy_Agency": "ND", "Population_Served_Count": 8537, "Service_Connections_Count": 3415, "Service_Area_Type": "Wholesaler of Water", "Verification_Status": "", "Area_SqKM": 1.216685893214549}, "geometry": {"type": "Point", "coordinates": [-102.83746254105534, 46.87391123769479]}}, {"type": "Feature", "properties": {"PWSID": "ND1100346", "PWS_Name": "FORBES CITY OF", "Primacy_Agency": "ND", "Population_Served_Count": 53, "Service_Connections_Count": 42, "Service_Area_Type": "Residential Area", "Verification_Status": "", "Area_SqKM": 0.383369766170528}, "geometry": {"type": "Point", "coordinates": [-98.78226548763486, 45.943841963186955]}}, {"type": "Feature", "properties": {"PWSID": "ND1500429", "PWS_Name": "HAGUE CITY OF", "Primacy_Agency": "ND", "Population_Served_Count": 71, "Service_Connections_Count": 62, "Service_Area_Type": "Residential Area", "Verification_Status": "", "Area_SqKM": 5.604602358668658}, "geometry": {"type": "Point", "coordinates": [-99.99538001918063, 46.03963955888743]}}, {"type": "Feature", "properties": {"PWSID": "ND2601055", "PWS_Name": "ZEELAND CITY OF", "Primacy_Agency": "ND", "Population_Served_Count": 86, "Service_Connections_Count": 85, "Service_Area_Type": "Residential Area", "Verification_Status": "", "Area_SqKM": 0.433646374841135}, "geometry": {"type": "Point", "coordinates": [-99.831933001828, 45.97152139244919]}}, {"type": "Feature", "properties": {"PWSID": "ND4700922", "PWS_Name": "STREETER CITY OF", "Primacy_Agency": "ND", "Population_Served_Count": 170, "Service_Connections_Count": 123, "Service_Area_Type": "Residential Area", "Verification_Status": "", "Area_SqKM": 0.8414666643953186}, "geometry": {"type": "Point", "coordinates": [-99.35773353812861, 46.65682162356484]}}, {"type": "Feature", "properties": {"PWSID": "ND1100306", "PWS_Name": "ELLENDALE CITY OF", "Primacy_Agency": "ND", "Population_Served_Count": 1394, "Service_Connections_Count": 625, "Service_Area_Type": "Residential Area", "Verification_Status": "", "Area_SqKM": 3.098258700766243}, "geometry": {"type": "Point", "coordinates": [-98.52239437885963, 46.004428333816804]}}, {"type": "Feature", "properties": {"PWSID": "ND1100379", "PWS_Name": "FULLERTON CITY OF", "Primacy_Agency": "ND", "Population_Served_Count": 54, "Service_Connections_Count": 43, "Service_Area_Type": "Residential Area", "Verification_Status": "", "Area_SqKM": 0.7828223523535659}, "geometry": {"type": "Point", "coordinates": [-98.42738519297009, 46.16265093789661]}}, {"type": "Feature", "properties": {"PWSID": "ND2301216", "PWS_Name": "BERLIN CITY OF", "Primacy_Agency": "ND", "Population_Served_Count": 34, "Service_Connections_Count": 16, "Service_Area_Type": "Residential Area", "Verification_Status": "", "Area_SqKM": 0.0827037459333834}, "geometry": {"type": "Point", "coordinates": [-98.48694606654601, 46.37803129995658]}}, {"type": "Feature", "properties": {"PWSID": "ND4701151", "PWS_Name": "MONTPELIER CITY OF", "Primacy_Agency": "ND", "Population_Served_Count": 87, "Service_Connections_Count": 42, "Service_Area_Type": "Residential Area", "Verification_Status": "", "Area_SqKM": 0.14305848165163632}, "geometry": {"type": "Point", "coordinates": [-98.58787380643801, 46.699929170991254]}}, {"type": "Feature", "properties": {"PWSID": "ND0200226", "PWS_Name": "DAZEY CITY OF", "Primacy_Agency": "ND", "Population_Served_Count": 78, "Service_Connections_Count": 65, "Service_Area_Type": "Residential Area", "Verification_Status": "", "Area_SqKM": 0.45798061044900246}, "geometry": {"type": "Point", "coordinates": [-98.20190833692195, 47.189669328587335]}}, {"type": "Feature", "properties": {"PWSID": "ND0200858", "PWS_Name": "SANBORN CITY OF", "Primacy_Agency": "ND", "Population_Served_Count": 192, "Service_Connections_Count": 93, "Service_Area_Type": "Residential Area", "Verification_Status": "", "Area_SqKM": 0.5323161872350363}, "geometry": {"type": "Point", "coordinates": [-98.2232631059478, 46.94241033134349]}}, {"type": "Feature", "properties": {"PWSID": "ND0201032", "PWS_Name": "WIMBLEDON CITY OF", "Primacy_Agency": "ND", "Population_Served_Count": 216, "Service_Connections_Count": 149, "Service_Area_Type": "Residential Area", "Verification_Status": "", "Area_SqKM": 1.3996073357638892}, "geometry": {"type": "Point", "coordinates": [-98.45686830364808, 47.1683001679125]}}, {"type": "Feature", "properties": {"PWSID": "ND3200536", "PWS_Name": "LAKOTA CITY OF", "Primacy_Agency": "ND", "Population_Served_Count": 672, "Service_Connections_Count": 383, "Service_Area_Type": "Residential Area", "Verification_Status": "", "Area_SqKM": 2.0558172721089822}, "geometry": {"type": "Point", "coordinates": [-98.34383367994621, 48.041318919971616]}}, {"type": "Feature", "properties": {"PWSID": "ND3200636", "PWS_Name": "MCVILLE CITY OF", "Primacy_Agency": "ND", "Population_Served_Count": 349, "Service_Connections_Count": 260, "Service_Area_Type": "Residential Area", "Verification_Status": "", "Area_SqKM": 0.5842827234909976}, "geometry": {"type": "Point", "coordinates": [-98.17488937105932, 47.76610750612019]}}, {"type": "Feature", "properties": {"PWSID": "ND3200653", "PWS_Name": "MICHIGAN CITY OF", "Primacy_Agency": "ND", "Population_Served_Count": 294, "Service_Connections_Count": 184, "Service_Area_Type": "Residential Area", "Verification_Status": "", "Area_SqKM": 0.9811562868768519}, "geometry": {"type": "Point", "coordinates": [-98.12162583080962, 48.02499275385775]}}, {"type": "Feature", "properties": {"PWSID": "ND0200747", "PWS_Name": "NOME CITY OF", "Primacy_Agency": "ND", "Population_Served_Count": 62, "Service_Connections_Count": 46, "Service_Area_Type": "Residential Area", "Verification_Status": "", "Area_SqKM": 0.48893822463414144}, "geometry": {"type": "Point", "coordinates": [-97.81364038466805, 46.677700171119724]}}, {"type": "Feature", "properties": {"PWSID": "ND4600341", "PWS_Name": "FINLEY CITY OF", "Primacy_Agency": "ND", "Population_Served_Count": 445, "Service_Connections_Count": 225, "Service_Area_Type": "Residential Area", "Verification_Status": "", "Area_SqKM": 0.3775034029797758}, "geometry": {"type": "Point", "coordinates": [-97.83716047990369, 47.512515986672696]}}, {"type": "Feature", "properties": {"PWSID": "ND1900162", "PWS_Name": "CARSON CITY OF", "Primacy_Agency": "ND", "Population_Served_Count": 293, "Service_Connections_Count": 229, "Service_Area_Type": "Residential Area", "Verification_Status": "", "Area_SqKM": 6.50585119294864}, "geometry": {"type": "Point", "coordinates": [-101.63531301664597, 46.492596300672815]}}, {"type": "Feature", "properties": {"PWSID": "ND1900303", "PWS_Name": "ELGIN CITY OF", "Primacy_Agency": "ND", "Population_Served_Count": 642, "Service_Connections_Count": 360, "Service_Area_Type": "Residential Area", "Verification_Status": "", "Area_SqKM": 1.4619474747843582}, "geometry": {"type": "Point", "coordinates": [-101.84850022814871, 46.40135555037183]}}, {"type": "Feature", "properties": {"PWSID": "ND1900731", "PWS_Name": "NEW LEIPZIG CITY OF", "Primacy_Agency": "ND", "Population_Served_Count": 221, "Service_Connections_Count": 166, "Service_Area_Type": "Residential Area", "Verification_Status": "", "Area_SqKM": 0.7611374553363376}, "geometry": {"type": "Point", "coordinates": [-101.94528431474264, 46.37360185301861]}}, {"type": "Feature", "properties": {"PWSID": "ND2100704", "PWS_Name": "MOTT CITY OF", "Primacy_Agency": "ND", "Population_Served_Count": 721, "Service_Connections_Count": 428, "Service_Area_Type": "Residential Area", "Verification_Status": "", "Area_SqKM": 1.4811564706679519}, "geometry": {"type": "Point", "coordinates": [-102.32760835677536, 46.373999913565484]}}, {"type": "Feature", "properties": {"PWSID": "ND3000012", "PWS_Name": "ALMONT CITY OF", "Primacy_Agency": "ND", "Population_Served_Count": 122, "Service_Connections_Count": 55, "Service_Area_Type": "Residential Area", "Verification_Status": "", "Area_SqKM": 0.17818034290585588}, "geometry": {"type": "Point", "coordinates": [-101.50689361825297, 46.72782978185765]}}, {"type": "Feature", "properties": {"PWSID": "ND3000400", "PWS_Name": "GLEN ULLIN CITY OF", "Primacy_Agency": "ND", "Population_Served_Count": 807, "Service_Connections_Count": 425, "Service_Area_Type": "Residential Area", "Verification_Status": "", "Area_SqKM": 1.1986519398991098}, "geometry": {"type": "Point", "coordinates": [-101.82760855380833, 46.81484158075522]}}, {"type": "Feature", "properties": {"PWSID": "ND3000473", "PWS_Name": "HEBRON CITY OF", "Primacy_Agency": "ND", "Population_Served_Count": 747, "Service_Connections_Count": 500, "Service_Area_Type": "Residential Area", "Verification_Status": "", "Area_SqKM": 5.602229635431888}, "geometry": {"type": "Point", "coordinates": [-102.01663876386382, 46.88486374354887]}}, {"type": "Feature", "properties": {"PWSID": "ND3000736", "PWS_Name": "NEW SALEM CITY OF", "Primacy_Agency": "ND", "Population_Served_Count": 946, "Service_Connections_Count": 420, "Service_Area_Type": "Residential Area", "Verification_Status": "", "Area_SqKM": 1.4959807599559505}, "geometry": {"type": "Point", "coordinates": [-101.41361111913665, 46.843342227698436]}}, {"type": "Feature", "properties": {"PWSID": "ND4500821", "PWS_Name": "RICHARDTON CITY OF", "Primacy_Agency": "ND", "Population_Served_Count": 529, "Service_Connections_Count": 351, "Service_Area_Type": "Residential Area", "Verification_Status": "", "Area_SqKM": 0.8162028110407982}, "geometry": {"type": "Point", "coordinates": [-102.31464310358395, 46.884052563035226]}}, {"type": "Feature", "properties": {"PWSID": "ND1300730", "PWS_Name": "NEW HRADEC WATERWORKS", "Primacy_Agency": "ND", "Population_Served_Count": 60, "Service_Connections_Count": 23, "Service_Area_Type": "Residential Area", "Verification_Status": "", "Area_SqKM": 0.1275612041195767}, "geometry": {"type": "Point", "coordinates": [-102.88431585696587, 47.00052812744556]}}, {"type": "Feature", "properties": {"PWSID": "ND0500549", "PWS_Name": "LANSFORD CITY OF", "Primacy_Agency": "ND", "Population_Served_Count": 245, "Service_Connections_Count": 150, "Service_Area_Type": "Residential Area", "Verification_Status": "", "Area_SqKM": 3.5050792305675014}, "geometry": {"type": "Point", "coordinates": [-101.55122607517094, 48.54218990056354]}}, {"type": "Feature", "properties": {"PWSID": "ND0500620", "PWS_Name": "MAXBASS CITY OF", "Primacy_Agency": "ND", "Population_Served_Count": 84, "Service_Connections_Count": 55, "Service_Area_Type": "Residential Area", "Verification_Status": "", "Area_SqKM": 0.3780375427884281}, "geometry": {"type": "Point", "coordinates": [-101.14073649153174, 48.72154751088051]}}, {"type": "Feature", "properties": {"PWSID": "ND0501001", "PWS_Name": "WESTHOPE CITY OF", "Primacy_Agency": "ND", "Population_Served_Count": 429, "Service_Connections_Count": 250, "Service_Area_Type": "Residential Area", "Verification_Status": "", "Area_SqKM": 0.828327112154669}, "geometry": {"type": "Point", "coordinates": [-101.017800668143, 48.91106975230911]}}, {"type": "Feature", "properties": {"PWSID": "ND0501127", "PWS_Name": "ALL SEASONS WD-SYSTEM III", "Primacy_Agency": "ND", "Population_Served_Count": 790, "Service_Connections_Count": 316, "Service_Area_Type": "Residential Area", "Verification_Status": "", "Area_SqKM": 0.1626337937679822}, "geometry": {"type": "Point", "coordinates": [-101.28244612187578, 48.97156419690395]}}, {"type": "Feature", "properties": {"PWSID": "ND0700114", "PWS_Name": "BOWBELLS CITY OF", "Primacy_Agency": "ND", "Population_Served_Count": 336, "Service_Connections_Count": 266, "Service_Area_Type": "Residential Area", "Verification_Status": "", "Area_SqKM": 1.2880364428667614}, "geometry": {"type": "Point", "coordinates": [-102.24430184222972, 48.80262252485264]}}, {"type": "Feature", "properties": {"PWSID": "ND0700198", "PWS_Name": "COLUMBUS CITY OF", "Primacy_Agency": "ND", "Population_Served_Count": 133, "Service_Connections_Count": 128, "Service_Area_Type": "Residential Area", "Verification_Status": "", "Area_SqKM": 0.6118294370754779}, "geometry": {"type": "Point", "coordinates": [-102.78043225577646, 48.90501890932349]}}, {"type": "Feature", "properties": {"PWSID": "ND0700344", "PWS_Name": "FLAXTON CITY OF", "Primacy_Agency": "ND", "Population_Served_Count": 66, "Service_Connections_Count": 93, "Service_Area_Type": "Residential Area", "Verification_Status": "", "Area_SqKM": 0.572969062696115}, "geometry": {"type": "Point", "coordinates": [-102.39054819857947, 48.89745178119621]}}, {"type": "Feature", "properties": {"PWSID": "ND0700569", "PWS_Name": "LIGNITE CITY OF", "Primacy_Agency": "ND", "Population_Served_Count": 155, "Service_Connections_Count": 100, "Service_Area_Type": "Residential Area", "Verification_Status": "", "Area_SqKM": 0.40350739795678786}, "geometry": {"type": "Point", "coordinates": [-102.56253710708374, 48.877125432105]}}, {"type": "Feature", "properties": {"PWSID": "ND0700800", "PWS_Name": "PORTAL CITY OF", "Primacy_Agency": "ND", "Population_Served_Count": 126, "Service_Connections_Count": 110, "Service_Area_Type": "Residential Area", "Verification_Status": "", "Area_SqKM": 0.810121480486905}, "geometry": {"type": "Point", "coordinates": [-102.55051890765519, 48.993580355449836]}}, {"type": "Feature", "properties": {"PWSID": "ND1200748", "PWS_Name": "NOONAN CITY OF", "Primacy_Agency": "ND", "Population_Served_Count": 121, "Service_Connections_Count": 110, "Service_Area_Type": "Residential Area", "Verification_Status": "", "Area_SqKM": 0.37382669120395345}, "geometry": {"type": "Point", "coordinates": [-103.00954210002517, 48.88796352693776]}}, {"type": "Feature", "properties": {"PWSID": "ND1300259", "PWS_Name": "DODGE CITY OF", "Primacy_Agency": "ND", "Population_Served_Count": 87, "Service_Connections_Count": 60, "Service_Area_Type": "Residential Area", "Verification_Status": "", "Area_SqKM": 0.49158153542472127}, "geometry": {"type": "Point", "coordinates": [-102.20521113485574, 47.30626771634377]}}, {"type": "Feature", "properties": {"PWSID": "ND1300276", "PWS_Name": "DUNN CENTER CITY OF", "Primacy_Agency": "ND", "Population_Served_Count": 146, "Service_Connections_Count": 85, "Service_Area_Type": "Residential Area", "Verification_Status": "", "Area_SqKM": 0.5297466130381947}, "geometry": {"type": "Point", "coordinates": [-102.6222416111025, 47.35099081112306]}}, {"type": "Feature", "properties": {"PWSID": "ND1300432", "PWS_Name": "HALLIDAY CITY OF", "Primacy_Agency": "ND", "Population_Served_Count": 188, "Service_Connections_Count": 180, "Service_Area_Type": "Residential Area", "Verification_Status": "", "Area_SqKM": 0.9956133678949748}, "geometry": {"type": "Point", "coordinates": [-102.3373254948681, 47.352494126314085]}}, {"type": "Feature", "properties": {"PWSID": "ND1300520", "PWS_Name": "KILLDEER CITY OF", "Primacy_Agency": "ND", "Population_Served_Count": 939, "Service_Connections_Count": 360, "Service_Area_Type": "Residential Area", "Verification_Status": "", "Area_SqKM": 2.061411197715995}, "geometry": {"type": "Point", "coordinates": [-102.75585944547899, 47.36734860452771]}}, {"type": "Feature", "properties": {"PWSID": "ND1300606", "PWS_Name": "MANNING WATER BOARD", "Primacy_Agency": "ND", "Population_Served_Count": 55, "Service_Connections_Count": 46, "Service_Area_Type": "Residential Area", "Verification_Status": "", "Area_SqKM": 0.05634476423113533}, "geometry": {"type": "Point", "coordinates": [-102.76928156484578, 47.229367500108886]}}, {"type": "Feature", "properties": {"PWSID": "ND2500415", "PWS_Name": "GRANVILLE CITY OF", "Primacy_Agency": "ND", "Population_Served_Count": 241, "Service_Connections_Count": 142, "Service_Area_Type": "Residential Area", "Verification_Status": "", "Area_SqKM": 0.3164482608165403}, "geometry": {"type": "Point", "coordinates": [-100.84270697885785, 48.26637116841528]}}, {"type": "Feature", "properties": {"PWSID": "ND2500956", "PWS_Name": "UPHAM CITY OF", "Primacy_Agency": "ND", "Population_Served_Count": 130, "Service_Connections_Count": 110, "Service_Area_Type": "Residential Area", "Verification_Status": "", "Area_SqKM": 0.47580615157866696}, "geometry": {"type": "Point", "coordinates": [-100.72744371826153, 48.58141301361865]}}, {"type": "Feature", "properties": {"PWSID": "ND2500964", "PWS_Name": "VELVA CITY OF", "Primacy_Agency": "ND", "Population_Served_Count": 1084, "Service_Connections_Count": 450, "Service_Area_Type": "Residential Area", "Verification_Status": "", "Area_SqKM": 2.2952679790391457}, "geometry": {"type": "Point", "coordinates": [-100.92849626648042, 48.05918576916388]}}, {"type": "Feature", "properties": {"PWSID": "ND2800194", "PWS_Name": "COLEHARBOR CITY OF", "Primacy_Agency": "ND", "Population_Served_Count": 79, "Service_Connections_Count": 47, "Service_Area_Type": "Residential Area", "Verification_Status": "", "Area_SqKM": 0.3814810574316821}, "geometry": {"type": "Point", "coordinates": [-101.22202763820471, 47.54272903344364]}}, {"type": "Feature", "properties": {"PWSID": "ND2800389", "PWS_Name": "GARRISON CITY OF", "Primacy_Agency": "ND", "Population_Served_Count": 1453, "Service_Connections_Count": 700, "Service_Area_Type": "Residential Area", "Verification_Status": "", "Area_SqKM": 4.045634070818391}, "geometry": {"type": "Point", "coordinates": [-101.42428399237072, 47.65301239228274]}}, {"type": "Feature", "properties": {"PWSID": "ND2800619", "PWS_Name": "MAX CITY OF", "Primacy_Agency": "ND", "Population_Served_Count": 334, "Service_Connections_Count": 140, "Service_Area_Type": "Residential Area", "Verification_Status": "", "Area_SqKM": 0.46463067967362853}, "geometry": {"type": "Point", "coordinates": [-101.29805989992566, 47.82296774683257]}}, {"type": "Feature", "properties": {"PWSID": "ND2800825", "PWS_Name": "RIVERDALE CITY OF", "Primacy_Agency": "ND", "Population_Served_Count": 205, "Service_Connections_Count": 176, "Service_Area_Type": "Residential Area", "Verification_Status": "", "Area_SqKM": 0.9888186262853288}, "geometry": {"type": "Point", "coordinates": [-101.37265678458378, 47.49630769042039]}}, {"type": "Feature", "properties": {"PWSID": "ND2800949", "PWS_Name": "TURTLE LAKE CITY OF", "Primacy_Agency": "ND", "Population_Served_Count": 581, "Service_Connections_Count": 389, "Service_Area_Type": "Residential Area", "Verification_Status": "", "Area_SqKM": 0.8001694680345187}, "geometry": {"type": "Point", "coordinates": [-100.89224440136667, 47.52000025690282]}}, {"type": "Feature", "properties": {"PWSID": "ND2800953", "PWS_Name": "UNDERWOOD CITY OF", "Primacy_Agency": "ND", "Population_Served_Count": 778, "Service_Connections_Count": 566, "Service_Area_Type": "Residential Area", "Verification_Status": "", "Area_SqKM": 1.8569915897459328}, "geometry": {"type": "Point", "coordinates": [-101.13873273537585, 47.456323065603534]}}, {"type": "Feature", "properties": {"PWSID": "ND2801400", "PWS_Name": "MCLEAN-SHERIDAN WATER DISTRICT-SYSTEM 1", "Primacy_Agency": "ND", "Population_Served_Count": 1800, "Service_Connections_Count": 622, "Service_Area_Type": "Residential Area", "Verification_Status": "", "Area_SqKM": 2.578940043008025}, "geometry": {"type": "Point", "coordinates": [-100.95800080645813, 47.710315492231565]}}, {"type": "Feature", "properties": {"PWSID": "ND2801430", "PWS_Name": "GARRISON RURAL WATER DISTRICT", "Primacy_Agency": "ND", "Population_Served_Count": 1805, "Service_Connections_Count": 722, "Service_Area_Type": "Residential Area", "Verification_Status": "", "Area_SqKM": 2.1899975822303617}, "geometry": {"type": "Point", "coordinates": [-101.42170743597305, 47.6512789155663]}}, {"type": "Feature", "properties": {"PWSID": "ND2900074", "PWS_Name": "BEULAH CITY OF", "Primacy_Agency": "ND", "Population_Served_Count": 3058, "Service_Connections_Count": 1329, "Service_Area_Type": "Residential Area", "Verification_Status": "", "Area_SqKM": 4.569608100985221}, "geometry": {"type": "Point", "coordinates": [-101.77129608666456, 47.27088015642526]}}, {"type": "Feature", "properties": {"PWSID": "ND2900402", "PWS_Name": "GOLDEN VALLEY CITY OF", "Primacy_Agency": "ND", "Population_Served_Count": 182, "Service_Connections_Count": 119, "Service_Area_Type": "Residential Area", "Verification_Status": "", "Area_SqKM": 0.6766978955562672}, "geometry": {"type": "Point", "coordinates": [-102.06570285851919, 47.29056959998267]}}, {"type": "Feature", "properties": {"PWSID": "ND2900470", "PWS_Name": "HAZEN CITY OF", "Primacy_Agency": "ND", "Population_Served_Count": 2411, "Service_Connections_Count": 1040, "Service_Area_Type": "Residential Area", "Verification_Status": "", "Area_SqKM": 3.1116197710441105}, "geometry": {"type": "Point", "coordinates": [-101.6228664531881, 47.30050715070274]}}, {"type": "Feature", "properties": {"PWSID": "ND2900789", "PWS_Name": "PICK CITY CITY OF", "Primacy_Agency": "ND", "Population_Served_Count": 123, "Service_Connections_Count": 109, "Service_Area_Type": "Residential Area", "Verification_Status": "", "Area_SqKM": 0.38627557237629845}, "geometry": {"type": "Point", "coordinates": [-101.4569611398765, 47.511773540083915]}}, {"type": "Feature", "properties": {"PWSID": "ND2900902", "PWS_Name": "STANTON CITY OF", "Primacy_Agency": "ND", "Population_Served_Count": 366, "Service_Connections_Count": 225, "Service_Area_Type": "Residential Area", "Verification_Status": "", "Area_SqKM": 0.7200324998841587}, "geometry": {"type": "Point", "coordinates": [-101.37898353689364, 47.31853464051064]}}, {"type": "Feature", "properties": {"PWSID": "ND2901054", "PWS_Name": "ZAP CITY OF", "Primacy_Agency": "ND", "Population_Served_Count": 237, "Service_Connections_Count": 120, "Service_Area_Type": "Residential Area", "Verification_Status": "", "Area_SqKM": 1.2709101397545437}, "geometry": {"type": "Point", "coordinates": [-101.92380600782187, 47.28534435006732]}}, {"type": "Feature", "properties": {"PWSID": "ND2901491", "PWS_Name": "OMND WATER TREATMENT PLANT", "Primacy_Agency": "ND", "Population_Served_Count": 4168, "Service_Connections_Count": 1667, "Service_Area_Type": "Residential Area", "Verification_Status": "", "Area_SqKM": 2.48993920578006}, "geometry": {"type": "Point", "coordinates": [-101.83529359415441, 47.36908595507851]}}, {"type": "Feature", "properties": {"PWSID": "ND3000342", "PWS_Name": "FLASHER CITY OF", "Primacy_Agency": "ND", "Population_Served_Count": 232, "Service_Connections_Count": 159, "Service_Area_Type": "Residential Area", "Verification_Status": "", "Area_SqKM": 0.040143272673910615}, "geometry": {"type": "Point", "coordinates": [-101.23264605188778, 46.45632541486858]}}, {"type": "Feature", "properties": {"PWSID": "ND3000597", "PWS_Name": "CROWN BUTTE COOP", "Primacy_Agency": "ND", "Population_Served_Count": 320, "Service_Connections_Count": 93, "Service_Area_Type": "Residential Area", "Verification_Status": "", "Area_SqKM": 0.11061695786239455}, "geometry": {"type": "Point", "coordinates": [-101.06671331137666, 46.868953933400384]}}, {"type": "Feature", "properties": {"PWSID": "ND3100798", "PWS_Name": "PLAZA CITY OF", "Primacy_Agency": "ND", "Population_Served_Count": 171, "Service_Connections_Count": 130, "Service_Area_Type": "Residential Area", "Verification_Status": "", "Area_SqKM": 0.4715418357249164}, "geometry": {"type": "Point", "coordinates": [-101.9596127162395, 48.02347832794257]}}, {"type": "Feature", "properties": {"PWSID": "ND3100838", "PWS_Name": "ROSS CITY OF", "Primacy_Agency": "ND", "Population_Served_Count": 97, "Service_Connections_Count": 41, "Service_Area_Type": "Residential Area", "Verification_Status": "", "Area_SqKM": 2.5214243933994633}, "geometry": {"type": "Point", "coordinates": [-102.54763167964944, 48.31683069148395]}}, {"type": "Feature", "properties": {"PWSID": "ND3100898", "PWS_Name": "STANLEY CITY OF", "Primacy_Agency": "ND", "Population_Served_Count": 1138, "Service_Connections_Count": 663, "Service_Area_Type": "Residential Area", "Verification_Status": "", "Area_SqKM": 5.196440847393014}, "geometry": {"type": "Point", "coordinates": [-102.38870695990461, 48.31240836289785]}}, {"type": "Feature", "properties": {"PWSID": "ND3300174", "PWS_Name": "CENTER CITY OF", "Primacy_Agency": "ND", "Population_Served_Count": 588, "Service_Connections_Count": 686, "Service_Area_Type": "Residential Area", "Verification_Status": "", "Area_SqKM": 1.1380158769461606}, "geometry": {"type": "Point", "coordinates": [-101.29820726761436, 47.11204192547047]}}, {"type": "Feature", "properties": {"PWSID": "ND3800397", "PWS_Name": "GLENBURN CITY OF", "Primacy_Agency": "ND", "Population_Served_Count": 380, "Service_Connections_Count": 180, "Service_Area_Type": "Residential Area", "Verification_Status": "", "Area_SqKM": 0.777735821334903}, "geometry": {"type": "Point", "coordinates": [-101.22098949998568, 48.51425705745166]}}, {"type": "Feature", "properties": {"PWSID": "ND3800877", "PWS_Name": "SHERWOOD CITY OF", "Primacy_Agency": "ND", "Population_Served_Count": 242, "Service_Connections_Count": 134, "Service_Area_Type": "Residential Area", "Verification_Status": "", "Area_SqKM": 0.6446473174572805}, "geometry": {"type": "Point", "coordinates": [-101.63162110640191, 48.9620460340026]}}, {"type": "Feature", "properties": {"PWSID": "ND4500934", "PWS_Name": "TAYLOR CITY OF", "Primacy_Agency": "ND", "Population_Served_Count": 148, "Service_Connections_Count": 118, "Service_Area_Type": "Residential Area", "Verification_Status": "", "Area_SqKM": 0.9766830289405753}, "geometry": {"type": "Point", "coordinates": [-102.42144610281781, 46.90217081943131]}}, {"type": "Feature", "properties": {"PWSID": "ND5100072", "PWS_Name": "BERTHOLD CITY OF", "Primacy_Agency": "ND", "Population_Served_Count": 454, "Service_Connections_Count": 212, "Service_Area_Type": "Residential Area", "Verification_Status": "", "Area_SqKM": 4.820763294304511}, "geometry": {"type": "Point", "coordinates": [-101.73769603122277, 48.31761416795975]}}, {"type": "Feature", "properties": {"PWSID": "ND5100138", "PWS_Name": "BURLINGTON CITY OF", "Primacy_Agency": "ND", "Population_Served_Count": 1060, "Service_Connections_Count": 350, "Service_Area_Type": "Residential Area", "Verification_Status": "", "Area_SqKM": 3.578983311572598}, "geometry": {"type": "Point", "coordinates": [-101.40998197688062, 48.26568670270597]}}, {"type": "Feature", "properties": {"PWSID": "ND5100515", "PWS_Name": "KENMARE CITY OF", "Primacy_Agency": "ND", "Population_Served_Count": 961, "Service_Connections_Count": 660, "Service_Area_Type": "Residential Area", "Verification_Status": "", "Area_SqKM": 2.4192243723773332}, "geometry": {"type": "Point", "coordinates": [-102.07509356667036, 48.675704766718724]}}, {"type": "Feature", "properties": {"PWSID": "ND5100593", "PWS_Name": "MAKOTI CITY OF", "Primacy_Agency": "ND", "Population_Served_Count": 154, "Service_Connections_Count": 95, "Service_Area_Type": "Residential Area", "Verification_Status": "", "Area_SqKM": 0.7513410849404835}, "geometry": {"type": "Point", "coordinates": [-101.80274570888331, 47.960939083628844]}}, {"type": "Feature", "properties": {"PWSID": "ND5100849", "PWS_Name": "RYDER CITY OF", "Primacy_Agency": "ND", "Population_Served_Count": 85, "Service_Connections_Count": 55, "Service_Area_Type": "Residential Area", "Verification_Status": "", "Area_SqKM": 0.610857040058383}, "geometry": {"type": "Point", "coordinates": [-101.67412788881747, 47.91559412217499]}}, {"type": "Feature", "properties": {"PWSID": "ND5100868", "PWS_Name": "SAWYER CITY OF", "Primacy_Agency": "ND", "Population_Served_Count": 357, "Service_Connections_Count": 154, "Service_Area_Type": "Residential Area", "Verification_Status": "", "Area_SqKM": 0.7479006269592612}, "geometry": {"type": "Point", "coordinates": [-101.0538577763014, 48.088941111836824]}}, {"type": "Feature", "properties": {"PWSID": "ND5100923", "PWS_Name": "SURREY CITY OF", "Primacy_Agency": "ND", "Population_Served_Count": 1365, "Service_Connections_Count": 309, "Service_Area_Type": "Residential Area", "Verification_Status": "", "Area_SqKM": 2.716018219421187}, "geometry": {"type": "Point", "coordinates": [-101.15327042402909, 48.23109890756121]}}, {"type": "Feature", "properties": {"PWSID": "ND5101130", "PWS_Name": "UPPER SOURIS WATER DISTRICT-SYSTEM II", "Primacy_Agency": "ND", "Population_Served_Count": 230, "Service_Connections_Count": 85, "Service_Area_Type": "Residential Area", "Verification_Status": "", "Area_SqKM": 33.571850671212296}, "geometry": {"type": "Point", "coordinates": [-101.93558051816782, 48.40719814216333]}}, {"type": "Feature", "properties": {"PWSID": "ND5101447", "PWS_Name": "WEST RIVER WATER AND SEWER", "Primacy_Agency": "ND", "Population_Served_Count": 450, "Service_Connections_Count": 170, "Service_Area_Type": "Homeowners Association", "Verification_Status": "", "Area_SqKM": 0.6242096210374929}, "geometry": {"type": "Point", "coordinates": [-101.3935358851437, 48.2437733629467]}}, {"type": "Feature", "properties": {"PWSID": "ND5300936", "PWS_Name": "TIOGA CITY OF", "Primacy_Agency": "ND", "Population_Served_Count": 2202, "Service_Connections_Count": 973, "Service_Area_Type": "Residential Area", "Verification_Status": "", "Area_SqKM": 9.561782769665385}, "geometry": {"type": "Point", "coordinates": [-102.9375348408893, 48.39667336553648]}}, {"type": "Feature", "properties": {"PWSID": "ND1500571", "PWS_Name": "LINTON CITY OF", "Primacy_Agency": "ND", "Population_Served_Count": 1097, "Service_Connections_Count": 725, "Service_Area_Type": "Residential Area", "Verification_Status": "", "Area_SqKM": 2.26423081890324}, "geometry": {"type": "Point", "coordinates": [-100.23589220440171, 46.267601710707225]}}, {"type": "Feature", "properties": {"PWSID": "ND1500921", "PWS_Name": "STRASBURG CITY OF", "Primacy_Agency": "ND", "Population_Served_Count": 409, "Service_Connections_Count": 238, "Service_Area_Type": "Residential Area", "Verification_Status": "", "Area_SqKM": 0.8044357203383843}, "geometry": {"type": "Point", "coordinates": [-100.16139868154077, 46.133467074510975]}}, {"type": "Feature", "properties": {"PWSID": "ND1501653", "PWS_Name": "SOUTH CENTRAL RWD-EMMONS", "Primacy_Agency": "ND", "Population_Served_Count": 3650, "Service_Connections_Count": 1812, "Service_Area_Type": "Other Residential", "Verification_Status": "", "Area_SqKM": 16.908963642205197}, "geometry": {"type": "Point", "coordinates": [-100.64467285269453, 46.09071534611676]}}, {"type": "Feature", "properties": {"PWSID": "ND2300535", "PWS_Name": "KULM CITY OF", "Primacy_Agency": "ND", "Population_Served_Count": 354, "Service_Connections_Count": 297, "Service_Area_Type": "Residential Area", "Verification_Status": "", "Area_SqKM": 0.8430235181390454}, "geometry": {"type": "Point", "coordinates": [-98.94815884435229, 46.30156504420769]}}, {"type": "Feature", "properties": {"PWSID": "ND2600038", "PWS_Name": "ASHLEY CITY OF", "Primacy_Agency": "ND", "Population_Served_Count": 749, "Service_Connections_Count": 517, "Service_Area_Type": "Residential Area", "Verification_Status": "", "Area_SqKM": 4.2171299202645605}, "geometry": {"type": "Point", "coordinates": [-99.4647443007417, 46.03433140717205]}}, {"type": "Feature", "properties": {"PWSID": "ND2600556", "PWS_Name": "LEHR CITY OF", "Primacy_Agency": "ND", "Population_Served_Count": 80, "Service_Connections_Count": 118, "Service_Area_Type": "Residential Area", "Verification_Status": "", "Area_SqKM": 0.45768869046757044}, "geometry": {"type": "Point", "coordinates": [-99.35368190774213, 46.28310010387716]}}, {"type": "Feature", "properties": {"PWSID": "ND2601037", "PWS_Name": "WISHEK CITY OF", "Primacy_Agency": "ND", "Population_Served_Count": 952, "Service_Connections_Count": 600, "Service_Area_Type": "Residential Area", "Verification_Status": "", "Area_SqKM": 1.8438059326226919}, "geometry": {"type": "Point", "coordinates": [-99.56037536970844, 46.25869104868512]}}, {"type": "Feature", "properties": {"PWSID": "ND0300553", "PWS_Name": "LEEDS CITY OF", "Primacy_Agency": "ND", "Population_Served_Count": 427, "Service_Connections_Count": 268, "Service_Area_Type": "Residential Area", "Verification_Status": "", "Area_SqKM": 1.3589483620878697}, "geometry": {"type": "Point", "coordinates": [-99.5911185315049, 48.349474859697196]}}, {"type": "Feature", "properties": {"PWSID": "ND0300587", "PWS_Name": "MADDOCK CITY OF", "Primacy_Agency": "ND", "Population_Served_Count": 382, "Service_Connections_Count": 250, "Service_Area_Type": "Residential Area", "Verification_Status": "", "Area_SqKM": 2.042277667319584}, "geometry": {"type": "Point", "coordinates": [-99.52989670837422, 47.96288277504246]}}, {"type": "Feature", "properties": {"PWSID": "ND0300659", "PWS_Name": "MINNEWAUKAN CITY OF", "Primacy_Agency": "ND", "Population_Served_Count": 224, "Service_Connections_Count": 167, "Service_Area_Type": "Residential Area", "Verification_Status": "", "Area_SqKM": 0.6374276235499777}, "geometry": {"type": "Point", "coordinates": [-99.25036770490222, 48.07012146087023]}}, {"type": "Feature", "properties": {"PWSID": "ND0300762", "PWS_Name": "OBERON CITY OF", "Primacy_Agency": "ND", "Population_Served_Count": 105, "Service_Connections_Count": 42, "Service_Area_Type": "Residential Area", "Verification_Status": "", "Area_SqKM": 12.344654768559073}, "geometry": {"type": "Point", "coordinates": [-99.18585765687823, 47.91406611557355]}}, {"type": "Feature", "properties": {"PWSID": "ND0500099", "PWS_Name": "BOTTINEAU CITY OF", "Primacy_Agency": "ND", "Population_Served_Count": 2211, "Service_Connections_Count": 980, "Service_Area_Type": "Residential Area", "Verification_Status": "", "Area_SqKM": 3.1446935678149486}, "geometry": {"type": "Point", "coordinates": [-100.44114793040336, 48.8277252946952]}}, {"type": "Feature", "properties": {"PWSID": "ND0500887", "PWS_Name": "SOURIS CITY OF", "Primacy_Agency": "ND", "Population_Served_Count": 58, "Service_Connections_Count": 30, "Service_Area_Type": "Residential Area", "Verification_Status": "", "Area_SqKM": 0.25572168037358195}, "geometry": {"type": "Point", "coordinates": [-100.682122625132, 48.91001858742782]}}, {"type": "Feature", "properties": {"PWSID": "ND0501030", "PWS_Name": "WILLOW CITY CITY OF", "Primacy_Agency": "ND", "Population_Served_Count": 163, "Service_Connections_Count": 130, "Service_Area_Type": "Residential Area", "Verification_Status": "", "Area_SqKM": 0.8345987967187656}, "geometry": {"type": "Point", "coordinates": [-100.29338525454794, 48.60518320683277]}}, {"type": "Feature", "properties": {"PWSID": "ND0501057", "PWS_Name": "ALL SEASONS WD-SYSTEM I", "Primacy_Agency": "ND", "Population_Served_Count": 890, "Service_Connections_Count": 355, "Service_Area_Type": "Residential Area", "Verification_Status": "", "Area_SqKM": 0.5769478178954659}, "geometry": {"type": "Point", "coordinates": [-100.36144376387243, 48.987928528801696]}}, {"type": "Feature", "properties": {"PWSID": "ND0800144", "PWS_Name": "COUNTRY CLUB CO-OP", "Primacy_Agency": "ND", "Population_Served_Count": 162, "Service_Connections_Count": 54, "Service_Area_Type": "Residential Area", "Verification_Status": "", "Area_SqKM": 0.12083957993064992}, "geometry": {"type": "Point", "coordinates": [-100.69048854445283, 46.882586422072116]}}, {"type": "Feature", "properties": {"PWSID": "ND0800570", "PWS_Name": "LINCOLN CITY OF", "Primacy_Agency": "ND", "Population_Served_Count": 4257, "Service_Connections_Count": 1233, "Service_Area_Type": "Residential Area", "Verification_Status": "", "Area_SqKM": 6.232847394012715}, "geometry": {"type": "Point", "coordinates": [-100.69240650804875, 46.76478534362588]}}, {"type": "Feature", "properties": {"PWSID": "ND0800648", "PWS_Name": "APPLE VALLEY COOP", "Primacy_Agency": "ND", "Population_Served_Count": 200, "Service_Connections_Count": 74, "Service_Area_Type": "Residential Area", "Verification_Status": "", "Area_SqKM": 0.38334000365305054}, "geometry": {"type": "Point", "coordinates": [-100.60215529407084, 46.820264520836766]}}, {"type": "Feature", "properties": {"PWSID": "ND0801036", "PWS_Name": "WING CITY OF", "Primacy_Agency": "ND", "Population_Served_Count": 152, "Service_Connections_Count": 95, "Service_Area_Type": "Residential Area", "Verification_Status": "", "Area_SqKM": 0.5370237493076582}, "geometry": {"type": "Point", "coordinates": [-100.2783081975342, 47.140777954269296]}}, {"type": "Feature", "properties": {"PWSID": "ND1400732", "PWS_Name": "NEW ROCKFORD CITY OF", "Primacy_Agency": "ND", "Population_Served_Count": 1391, "Service_Connections_Count": 725, "Service_Area_Type": "Residential Area", "Verification_Status": "", "Area_SqKM": 2.4749341896241064}, "geometry": {"type": "Point", "coordinates": [-99.13415493112885, 47.68166533937616]}}, {"type": "Feature", "properties": {"PWSID": "ND1400879", "PWS_Name": "SHEYENNE CITY OF", "Primacy_Agency": "ND", "Population_Served_Count": 204, "Service_Connections_Count": 130, "Service_Area_Type": "Residential Area", "Verification_Status": "", "Area_SqKM": 0.41116500254028143}, "geometry": {"type": "Point", "coordinates": [-99.11723956927446, 47.82759149620044]}}, {"type": "Feature", "properties": {"PWSID": "ND1500469", "PWS_Name": "HAZELTON CITY OF", "Primacy_Agency": "ND", "Population_Served_Count": 235, "Service_Connections_Count": 145, "Service_Area_Type": "Residential Area", "Verification_Status": "", "Area_SqKM": 0.942209021263603}, "geometry": {"type": "Point", "coordinates": [-100.22504019541202, 46.50725730228965]}}, {"type": "Feature", "properties": {"PWSID": "ND1600159", "PWS_Name": "CARRINGTON CITY OF", "Primacy_Agency": "ND", "Population_Served_Count": 2065, "Service_Connections_Count": 1047, "Service_Area_Type": "Residential Area", "Verification_Status": "", "Area_SqKM": 2.914800517676687}, "geometry": {"type": "Point", "coordinates": [-99.1225544705658, 47.44956679017978]}}, {"type": "Feature", "properties": {"PWSID": "ND2200827", "PWS_Name": "ROBINSON CITY OF", "Primacy_Agency": "ND", "Population_Served_Count": 37, "Service_Connections_Count": 50, "Service_Area_Type": "Residential Area", "Verification_Status": "", "Area_SqKM": 5.199589062674576}, "geometry": {"type": "Point", "coordinates": [-99.7995852824178, 47.1357209372714]}}, {"type": "Feature", "properties": {"PWSID": "ND2200913", "PWS_Name": "STEELE CITY OF", "Primacy_Agency": "ND", "Population_Served_Count": 715, "Service_Connections_Count": 336, "Service_Area_Type": "Residential Area", "Verification_Status": "", "Area_SqKM": 4.0092710441279715}, "geometry": {"type": "Point", "coordinates": [-99.90869787537483, 46.857498716440034]}}, {"type": "Feature", "properties": {"PWSID": "ND2200951", "PWS_Name": "TUTTLE CITY OF", "Primacy_Agency": "ND", "Population_Served_Count": 80, "Service_Connections_Count": 75, "Service_Area_Type": "Residential Area", "Verification_Status": "", "Area_SqKM": 0.37155364702150984}, "geometry": {"type": "Point", "coordinates": [-99.99380903655616, 47.1446608610141]}}, {"type": "Feature", "properties": {"PWSID": "ND2300508", "PWS_Name": "JUD CITY OF", "Primacy_Agency": "ND", "Population_Served_Count": 72, "Service_Connections_Count": 48, "Service_Area_Type": "Residential Area", "Verification_Status": "", "Area_SqKM": 0.37948906476669625}, "geometry": {"type": "Point", "coordinates": [-98.89855467130141, 46.5254206571434]}}, {"type": "Feature", "properties": {"PWSID": "ND2400380", "PWS_Name": "GACKLE CITY OF", "Primacy_Agency": "ND", "Population_Served_Count": 310, "Service_Connections_Count": 250, "Service_Area_Type": "Residential Area", "Verification_Status": "", "Area_SqKM": 1.3052578997264928}, "geometry": {"type": "Point", "coordinates": [-99.14186372647742, 46.62510865065515]}}, {"type": "Feature", "properties": {"PWSID": "ND2400715", "PWS_Name": "NAPOLEON CITY OF", "Primacy_Agency": "ND", "Population_Served_Count": 792, "Service_Connections_Count": 405, "Service_Area_Type": "Residential Area", "Verification_Status": "", "Area_SqKM": 1.0695718043581428}, "geometry": {"type": "Point", "coordinates": [-99.77012902797635, 46.50510111909017]}}, {"type": "Feature", "properties": {"PWSID": "ND2500509", "PWS_Name": "KARLSRUHE CITY OF", "Primacy_Agency": "ND", "Population_Served_Count": 82, "Service_Connections_Count": 61, "Service_Area_Type": "Residential Area", "Verification_Status": "", "Area_SqKM": 0.3785492410255777}, "geometry": {"type": "Point", "coordinates": [-100.62189902502078, 48.091001949966916]}}, {"type": "Feature", "properties": {"PWSID": "ND2500946", "PWS_Name": "TOWNER CITY OF", "Primacy_Agency": "ND", "Population_Served_Count": 479, "Service_Connections_Count": 327, "Service_Area_Type": "Residential Area", "Verification_Status": "", "Area_SqKM": 1.779380047530721}, "geometry": {"type": "Point", "coordinates": [-100.40264103589017, 48.34963800726084]}}, {"type": "Feature", "properties": {"PWSID": "ND2800650", "PWS_Name": "MERCER CITY OF", "Primacy_Agency": "ND", "Population_Served_Count": 94, "Service_Connections_Count": 56, "Service_Area_Type": "Residential Area", "Verification_Status": "", "Area_SqKM": 0.5247654347967097}, "geometry": {"type": "Point", "coordinates": [-100.71229959145678, 47.489645323170926]}}, {"type": "Feature", "properties": {"PWSID": "ND3500842", "PWS_Name": "RUGBY CITY OF", "Primacy_Agency": "ND", "Population_Served_Count": 2876, "Service_Connections_Count": 1150, "Service_Area_Type": "Residential Area", "Verification_Status": "", "Area_SqKM": 3.467730358335083}, "geometry": {"type": "Point", "coordinates": [-99.99415422785458, 48.36403954653]}}, {"type": "Feature", "properties": {"PWSID": "ND3501069", "PWS_Name": "SELZ WATER USERS ASSOCIATION", "Primacy_Agency": "ND", "Population_Served_Count": 43, "Service_Connections_Count": 29, "Service_Area_Type": "Residential Area", "Verification_Status": "", "Area_SqKM": 0.26988651241082146}, "geometry": {"type": "Point", "coordinates": [-99.8907546483168, 47.85884673880338]}}, {"type": "Feature", "properties": {"PWSID": "ND3501476", "PWS_Name": "ALL SEASONS WD-SYSTEM V", "Primacy_Agency": "ND", "Population_Served_Count": 1075, "Service_Connections_Count": 430, "Service_Area_Type": "Residential Area", "Verification_Status": "", "Area_SqKM": 119.90202939118203}, "geometry": {"type": "Point", "coordinates": [-100.46365932431513, 48.77262995269895]}}, {"type": "Feature", "properties": {"PWSID": "ND3600231", "PWS_Name": "DEVILS LAKE CITY OF", "Primacy_Agency": "ND", "Population_Served_Count": 7141, "Service_Connections_Count": 2200, "Service_Area_Type": "Residential Area", "Verification_Status": "", "Area_SqKM": 10.57574673046735}, "geometry": {"type": "Point", "coordinates": [-98.86871273426303, 48.10989313537577]}}, {"type": "Feature", "properties": {"PWSID": "ND4000277", "PWS_Name": "DUNSEITH CITY OF", "Primacy_Agency": "ND", "Population_Served_Count": 773, "Service_Connections_Count": 300, "Service_Area_Type": "Residential Area", "Verification_Status": "", "Area_SqKM": 3.377995771798898}, "geometry": {"type": "Point", "coordinates": [-100.06496029402821, 48.815576053568044]}}, {"type": "Feature", "properties": {"PWSID": "ND4000833", "PWS_Name": "ROLETTE CITY OF", "Primacy_Agency": "ND", "Population_Served_Count": 484, "Service_Connections_Count": 243, "Service_Area_Type": "Residential Area", "Verification_Status": "", "Area_SqKM": 0.9413837753097342}, "geometry": {"type": "Point", "coordinates": [-99.84243386674736, 48.66247101852579]}}, {"type": "Feature", "properties": {"PWSID": "ND4000834", "PWS_Name": "ROLLA CITY OF", "Primacy_Agency": "ND", "Population_Served_Count": 1280, "Service_Connections_Count": 562, "Service_Area_Type": "Residential Area", "Verification_Status": "", "Area_SqKM": 3.20632669540509}, "geometry": {"type": "Point", "coordinates": [-99.61473140355378, 48.858580761628666]}}, {"type": "Feature", "properties": {"PWSID": "ND4000854", "PWS_Name": "ST JOHN CITY OF", "Primacy_Agency": "ND", "Population_Served_Count": 341, "Service_Connections_Count": 125, "Service_Area_Type": "Residential Area", "Verification_Status": "", "Area_SqKM": 1.7869274555260832}, "geometry": {"type": "Point", "coordinates": [-99.71483829683814, 48.9411650215168]}}, {"type": "Feature", "properties": {"PWSID": "ND4200404", "PWS_Name": "GOODRICH CITY OF", "Primacy_Agency": "ND", "Population_Served_Count": 98, "Service_Connections_Count": 105, "Service_Area_Type": "Residential Area", "Verification_Status": "", "Area_SqKM": 0.7686502816878852}, "geometry": {"type": "Point", "coordinates": [-100.1255139716563, 47.476923148587524]}}, {"type": "Feature", "properties": {"PWSID": "ND4200626", "PWS_Name": "MC CLUSKY CITY OF", "Primacy_Agency": "ND", "Population_Served_Count": 380, "Service_Connections_Count": 253, "Service_Area_Type": "Residential Area", "Verification_Status": "", "Area_SqKM": 1.6714644543416008}, "geometry": {"type": "Point", "coordinates": [-100.40036362172296, 47.36422130577132]}}, {"type": "Feature", "properties": {"PWSID": "ND4700188", "PWS_Name": "CLEVELAND CITY OF", "Primacy_Agency": "ND", "Population_Served_Count": 83, "Service_Connections_Count": 60, "Service_Area_Type": "Residential Area", "Verification_Status": "", "Area_SqKM": 0.47409231953767345}, "geometry": {"type": "Point", "coordinates": [-99.11999384632114, 46.8910986048687]}}, {"type": "Feature", "properties": {"PWSID": "ND4700637", "PWS_Name": "MEDINA CITY OF", "Primacy_Agency": "ND", "Population_Served_Count": 308, "Service_Connections_Count": 176, "Service_Area_Type": "Residential Area", "Verification_Status": "", "Area_SqKM": 0.5314090579698042}, "geometry": {"type": "Point", "coordinates": [-99.29914579561596, 46.89366853535408]}}, {"type": "Feature", "properties": {"PWSID": "ND4701042", "PWS_Name": "WOODWORTH CITY OF", "Primacy_Agency": "ND", "Population_Served_Count": 50, "Service_Connections_Count": 70, "Service_Area_Type": "Residential Area", "Verification_Status": "", "Area_SqKM": 0.3451470676232795}, "geometry": {"type": "Point", "coordinates": [-99.3027983087342, 47.142499677106755]}}, {"type": "Feature", "properties": {"PWSID": "ND4800078", "PWS_Name": "BISBEE CITY OF", "Primacy_Agency": "ND", "Population_Served_Count": 126, "Service_Connections_Count": 108, "Service_Area_Type": "Residential Area", "Verification_Status": "", "Area_SqKM": 0.476450082502913}, "geometry": {"type": "Point", "coordinates": [-99.37906680773426, 48.62658144624197]}}, {"type": "Feature", "properties": {"PWSID": "ND4800152", "PWS_Name": "CANDO CITY OF", "Primacy_Agency": "ND", "Population_Served_Count": 1115, "Service_Connections_Count": 658, "Service_Area_Type": "Residential Area", "Verification_Status": "", "Area_SqKM": 3.1098000365318}, "geometry": {"type": "Point", "coordinates": [-99.20147116529691, 48.48761314877345]}}, {"type": "Feature", "properties": {"PWSID": "ND4800828", "PWS_Name": "ROCK LAKE CITY OF", "Primacy_Agency": "ND", "Population_Served_Count": 94, "Service_Connections_Count": 107, "Service_Area_Type": "Residential Area", "Verification_Status": "", "Area_SqKM": 1.1591797028645927}, "geometry": {"type": "Point", "coordinates": [-99.24922747857474, 48.789474385733676]}}, {"type": "Feature", "properties": {"PWSID": "ND5200118", "PWS_Name": "BOWDON CITY OF", "Primacy_Agency": "ND", "Population_Served_Count": 131, "Service_Connections_Count": 91, "Service_Area_Type": "Residential Area", "Verification_Status": "", "Area_SqKM": 0.45987824579418524}, "geometry": {"type": "Point", "coordinates": [-99.70618173771281, 47.46922410132519]}}, {"type": "Feature", "properties": {"PWSID": "ND5200169", "PWS_Name": "CATHAY CITY OF", "Primacy_Agency": "ND", "Population_Served_Count": 43, "Service_Connections_Count": 28, "Service_Area_Type": "Residential Area", "Verification_Status": "", "Area_SqKM": 0.250096709053834}, "geometry": {"type": "Point", "coordinates": [-99.40839696796982, 47.55351626253729]}}, {"type": "Feature", "properties": {"PWSID": "ND5200338", "PWS_Name": "FESSENDEN CITY OF", "Primacy_Agency": "ND", "Population_Served_Count": 479, "Service_Connections_Count": 304, "Service_Area_Type": "Residential Area", "Verification_Status": "", "Area_SqKM": 1.0650230281420627}, "geometry": {"type": "Point", "coordinates": [-99.62762856554146, 47.648303037871415]}}, {"type": "Feature", "properties": {"PWSID": "ND5200458", "PWS_Name": "HARVEY CITY OF", "Primacy_Agency": "ND", "Population_Served_Count": 1783, "Service_Connections_Count": 866, "Service_Area_Type": "Residential Area", "Verification_Status": "", "Area_SqKM": 4.881110731598651}, "geometry": {"type": "Point", "coordinates": [-99.93451332117156, 47.77065942817449]}}, {"type": "Feature", "properties": {"PWSID": "ND5200927", "PWS_Name": "SYKESTON CITY OF", "Primacy_Agency": "ND", "Population_Served_Count": 117, "Service_Connections_Count": 84, "Service_Area_Type": "Residential Area", "Verification_Status": "", "Area_SqKM": 0.4626953554561641}, "geometry": {"type": "Point", "coordinates": [-99.39968489995647, 47.46486662060839]}}, {"type": "Feature", "properties": {"PWSID": "ND1100698", "PWS_Name": "MONANGO CITY OF", "Primacy_Agency": "ND", "Population_Served_Count": 36, "Service_Connections_Count": 21, "Service_Area_Type": "Residential Area", "Verification_Status": "", "Area_SqKM": 0.09904134543941148}, "geometry": {"type": "Point", "coordinates": [-98.59345881011635, 46.17213682554606]}}, {"type": "Feature", "properties": {"PWSID": "ND1100758", "PWS_Name": "OAKES CITY OF", "Primacy_Agency": "ND", "Population_Served_Count": 1856, "Service_Connections_Count": 650, "Service_Area_Type": "Residential Area", "Verification_Status": "", "Area_SqKM": 2.9217368444954444}, "geometry": {"type": "Point", "coordinates": [-98.08880220718792, 46.13991687734453]}}, {"type": "Feature", "properties": {"PWSID": "ND1101481", "PWS_Name": "MAPLE RIVER HUTTERIAN ASSOCIATION", "Primacy_Agency": "ND", "Population_Served_Count": 140, "Service_Connections_Count": 28, "Service_Area_Type": "Other Residential", "Verification_Status": "", "Area_SqKM": 0.16485704594269812}, "geometry": {"type": "Point", "coordinates": [-98.43930432451458, 46.072703271732514]}}, {"type": "Feature", "properties": {"PWSID": "ND0200581", "PWS_Name": "LITCHVILLE CITY OF", "Primacy_Agency": "ND", "Population_Served_Count": 172, "Service_Connections_Count": 125, "Service_Area_Type": "Residential Area", "Verification_Status": "", "Area_SqKM": 0.7435100721420194}, "geometry": {"type": "Point", "coordinates": [-98.19173022459387, 46.65381214565294]}}, {"type": "Feature", "properties": {"PWSID": "ND2300291", "PWS_Name": "EDGELEY CITY OF", "Primacy_Agency": "ND", "Population_Served_Count": 563, "Service_Connections_Count": 366, "Service_Area_Type": "Residential Area", "Verification_Status": "", "Area_SqKM": 1.5790255295090572}, "geometry": {"type": "Point", "coordinates": [-98.65432551338611, 46.44949179998037]}}, {"type": "Feature", "properties": {"PWSID": "ND2300537", "PWS_Name": "LAMOURE CITY OF", "Primacy_Agency": "ND", "Population_Served_Count": 889, "Service_Connections_Count": 310, "Service_Area_Type": "Residential Area", "Verification_Status": "", "Area_SqKM": 1.4492227851465427}, "geometry": {"type": "Point", "coordinates": [-98.29270624800557, 46.357763320038565]}}, {"type": "Feature", "properties": {"PWSID": "ND2300544", "PWS_Name": "FAIRVIEW COLONY", "Primacy_Agency": "ND", "Population_Served_Count": 100, "Service_Connections_Count": 25, "Service_Area_Type": "Residential Area", "Verification_Status": "", "Area_SqKM": 0.04748779257481941}, "geometry": {"type": "Point", "coordinates": [-98.29441418131847, 46.58642004995939]}}, {"type": "Feature", "properties": {"PWSID": "ND2300969", "PWS_Name": "VERONA CITY OF", "Primacy_Agency": "ND", "Population_Served_Count": 85, "Service_Connections_Count": 50, "Service_Area_Type": "Residential Area", "Verification_Status": "", "Area_SqKM": 0.2855520822226859}, "geometry": {"type": "Point", "coordinates": [-98.07186194283842, 46.36467976425974]}}, {"type": "Feature", "properties": {"PWSID": "ND1000543", "PWS_Name": "LANGDON CITY OF", "Primacy_Agency": "ND", "Population_Served_Count": 1878, "Service_Connections_Count": 980, "Service_Area_Type": "Residential Area", "Verification_Status": "", "Area_SqKM": 1.3626979957959142}, "geometry": {"type": "Point", "coordinates": [-98.3752104632582, 48.767640293860524]}}, {"type": "Feature", "properties": {"PWSID": "ND1000721", "PWS_Name": "NEKOMA CITY OF", "Primacy_Agency": "ND", "Population_Served_Count": 50, "Service_Connections_Count": 52, "Service_Area_Type": "Residential Area", "Verification_Status": "", "Area_SqKM": 0.22945225353246004}, "geometry": {"type": "Point", "coordinates": [-98.37130405021861, 48.57710656884425]}}, {"type": "Feature", "properties": {"PWSID": "ND1000768", "PWS_Name": "OSNABROCK CITY OF", "Primacy_Agency": "ND", "Population_Served_Count": 134, "Service_Connections_Count": 92, "Service_Area_Type": "Residential Area", "Verification_Status": "", "Area_SqKM": 0.39980997846824623}, "geometry": {"type": "Point", "coordinates": [-98.14819291620717, 48.66986642427729]}}, {"type": "Feature", "properties": {"PWSID": "ND1001380", "PWS_Name": "NORTHEAST RWD-LANGDON BRANCH", "Primacy_Agency": "ND", "Population_Served_Count": 2450, "Service_Connections_Count": 980, "Service_Area_Type": "Residential Area", "Verification_Status": "", "Area_SqKM": 1.3648367456703734}, "geometry": {"type": "Point", "coordinates": [-98.36413172207051, 48.76037330779181]}}, {"type": "Feature", "properties": {"PWSID": "ND1600398", "PWS_Name": "GLENFIELD CITY OF", "Primacy_Agency": "ND", "Population_Served_Count": 91, "Service_Connections_Count": 56, "Service_Area_Type": "Residential Area", "Verification_Status": "", "Area_SqKM": 0.17236645042213297}, "geometry": {"type": "Point", "coordinates": [-98.56649230164503, 47.45491291747672]}}, {"type": "Feature", "properties": {"PWSID": "ND2000077", "PWS_Name": "BINFORD CITY OF", "Primacy_Agency": "ND", "Population_Served_Count": 183, "Service_Connections_Count": 132, "Service_Area_Type": "Residential Area", "Verification_Status": "", "Area_SqKM": 0.39116935440040207}, "geometry": {"type": "Point", "coordinates": [-98.34670174095697, 47.56099937180256]}}, {"type": "Feature", "properties": {"PWSID": "ND2000203", "PWS_Name": "COOPERSTOWN CITY OF", "Primacy_Agency": "ND", "Population_Served_Count": 984, "Service_Connections_Count": 566, "Service_Area_Type": "Residential Area", "Verification_Status": "", "Area_SqKM": 2.4082208925701223}, "geometry": {"type": "Point", "coordinates": [-98.12721383333763, 47.44415310188726]}}, {"type": "Feature", "properties": {"PWSID": "ND2000446", "PWS_Name": "HANNAFORD CITY OF", "Primacy_Agency": "ND", "Population_Served_Count": 131, "Service_Connections_Count": 86, "Service_Area_Type": "Residential Area", "Verification_Status": "", "Area_SqKM": 0.4285643150642969}, "geometry": {"type": "Point", "coordinates": [-98.18857639804617, 47.31370077755924]}}, {"type": "Feature", "properties": {"PWSID": "ND2001121", "PWS_Name": "DAKOTA RURAL WATER DISTRICT SOUTH", "Primacy_Agency": "ND", "Population_Served_Count": 1135, "Service_Connections_Count": 454, "Service_Area_Type": "Residential Area", "Verification_Status": "", "Area_SqKM": 0.01824030817112936}, "geometry": {"type": "Point", "coordinates": [-98.19656999988581, 47.26920656663513]}}, {"type": "Feature", "properties": {"PWSID": "ND3200944", "PWS_Name": "TOLNA CITY OF", "Primacy_Agency": "ND", "Population_Served_Count": 166, "Service_Connections_Count": 126, "Service_Area_Type": "Residential Area", "Verification_Status": "", "Area_SqKM": 0.8121052879554571}, "geometry": {"type": "Point", "coordinates": [-98.442247700126, 47.827582883269436]}}, {"type": "Feature", "properties": {"PWSID": "ND3600298", "PWS_Name": "EDMORE CITY OF", "Primacy_Agency": "ND", "Population_Served_Count": 182, "Service_Connections_Count": 148, "Service_Area_Type": "Residential Area", "Verification_Status": "", "Area_SqKM": 0.48419983031935726}, "geometry": {"type": "Point", "coordinates": [-98.45344273993248, 48.41270837994084]}}, {"type": "Feature", "properties": {"PWSID": "ND4700498", "PWS_Name": "JAMESTOWN CITY OF", "Primacy_Agency": "ND", "Population_Served_Count": 15427, "Service_Connections_Count": 4500, "Service_Area_Type": "Residential Area", "Verification_Status": "", "Area_SqKM": 22.720499293649375}, "geometry": {"type": "Point", "coordinates": [-98.7086575750891, 46.93361189200096]}}, {"type": "Feature", "properties": {"PWSID": "ND4700519", "PWS_Name": "KENSAL CITY OF", "Primacy_Agency": "ND", "Population_Served_Count": 163, "Service_Connections_Count": 93, "Service_Area_Type": "Residential Area", "Verification_Status": "", "Area_SqKM": 0.8648078613259694}, "geometry": {"type": "Point", "coordinates": [-98.73265964505228, 47.30070577635342]}}, {"type": "Feature", "properties": {"PWSID": "ND0200763", "PWS_Name": "ORISKA CITY OF", "Primacy_Agency": "ND", "Population_Served_Count": 118, "Service_Connections_Count": 50, "Service_Area_Type": "Residential Area", "Verification_Status": "", "Area_SqKM": 0.27135577697087365}, "geometry": {"type": "Point", "coordinates": [-97.7908402200649, 46.93185066000311]}}, {"type": "Feature", "properties": {"PWSID": "ND0200882", "PWS_Name": "SIBLEY CITY OF", "Primacy_Agency": "ND", "Population_Served_Count": 30, "Service_Connections_Count": 30, "Service_Area_Type": "Residential Area", "Verification_Status": "", "Area_SqKM": 0.11639916925058301}, "geometry": {"type": "Point", "coordinates": [-97.96561575297422, 47.21839589993202]}}, {"type": "Feature", "properties": {"PWSID": "ND4600875", "PWS_Name": "SHARON CITY OF", "Primacy_Agency": "ND", "Population_Served_Count": 96, "Service_Connections_Count": 75, "Service_Area_Type": "Residential Area", "Verification_Status": "", "Area_SqKM": 0.2735615491460979}, "geometry": {"type": "Point", "coordinates": [-97.89541076466257, 47.5964195881947]}}, {"type": "Feature", "properties": {"PWSID": "ND3400980", "PWS_Name": "WALHALLA CITY OF", "Primacy_Agency": "ND", "Population_Served_Count": 996, "Service_Connections_Count": 450, "Service_Area_Type": "Residential Area", "Verification_Status": "", "Area_SqKM": 1.4514216886897369}, "geometry": {"type": "Point", "coordinates": [-97.91855863789127, 48.918957222617635]}}, {"type": "Feature", "properties": {"PWSID": "ND3400707", "PWS_Name": "MOUNTAIN CITY OF", "Primacy_Agency": "ND", "Population_Served_Count": 92, "Service_Connections_Count": 62, "Service_Area_Type": "Residential Area", "Verification_Status": "", "Area_SqKM": 0.3171331510832836}, "geometry": {"type": "Point", "coordinates": [-97.86464923839777, 48.68477540761363]}}, {"type": "Feature", "properties": {"PWSID": "ND3200023", "PWS_Name": "ANETA CITY OF", "Primacy_Agency": "ND", "Population_Served_Count": 222, "Service_Connections_Count": 110, "Service_Area_Type": "Residential Area", "Verification_Status": "", "Area_SqKM": 1.8552894390092824}, "geometry": {"type": "Point", "coordinates": [-97.98977897055005, 47.67843952936794]}}, {"type": "Feature", "properties": {"PWSID": "ND1000658", "PWS_Name": "MILTON CITY OF", "Primacy_Agency": "ND", "Population_Served_Count": 58, "Service_Connections_Count": 68, "Service_Area_Type": "Residential Area", "Verification_Status": "", "Area_SqKM": 0.09313861082879786}, "geometry": {"type": "Point", "coordinates": [-98.0422914187187, 48.626537412550746]}}, {"type": "Feature", "properties": {"PWSID": "ND0200958", "PWS_Name": "VALLEY CITY CITY OF", "Primacy_Agency": "ND", "Population_Served_Count": 6585, "Service_Connections_Count": 3230, "Service_Area_Type": "Residential Area", "Verification_Status": "", "Area_SqKM": 10.557266736085518}, "geometry": {"type": "Point", "coordinates": [-98.00981506734414, 46.91487053344356]}}, {"type": "Feature", "properties": {"PWSID": "ND0900217", "PWS_Name": "DAVENPORT CITY OF", "Primacy_Agency": "ND", "Population_Served_Count": 252, "Service_Connections_Count": 100, "Service_Area_Type": "Residential Area", "Verification_Status": "", "Area_SqKM": 0.3558414206737446}, "geometry": {"type": "Point", "coordinates": [-97.0694455073441, 46.71459080734648]}}, {"type": "Feature", "properties": {"PWSID": "ND0900488", "PWS_Name": "HORACE CITY OF", "Primacy_Agency": "ND", "Population_Served_Count": 1641, "Service_Connections_Count": 492, "Service_Area_Type": "Residential Area", "Verification_Status": "", "Area_SqKM": 4.462214223253204}, "geometry": {"type": "Point", "coordinates": [-96.91355116391375, 46.76613809797711]}}, {"type": "Feature", "properties": {"PWSID": "ND0900489", "PWS_Name": "HORSESHOE BEND", "Primacy_Agency": "ND", "Population_Served_Count": 110, "Service_Connections_Count": 38, "Service_Area_Type": "Residential Area", "Verification_Status": "", "Area_SqKM": 0.013026946921089138}, "geometry": {"type": "Point", "coordinates": [-96.9052238368498, 46.790933105259626]}}, {"type": "Feature", "properties": {"PWSID": "ND0900524", "PWS_Name": "KINDRED CITY OF", "Primacy_Agency": "ND", "Population_Served_Count": 692, "Service_Connections_Count": 340, "Service_Area_Type": "Residential Area", "Verification_Status": "", "Area_SqKM": 1.3577292637787055}, "geometry": {"type": "Point", "coordinates": [-97.01245955652914, 46.64498117172851]}}, {"type": "Feature", "properties": {"PWSID": "ND0900999", "PWS_Name": "WEST FARGO CITY OF", "Primacy_Agency": "ND", "Population_Served_Count": 34858, "Service_Connections_Count": 10662, "Service_Area_Type": "Residential Area", "Verification_Status": "", "Area_SqKM": 36.18601393506224}, "geometry": {"type": "Point", "coordinates": [-96.89900627903407, 46.85043335981386]}}, {"type": "Feature", "properties": {"PWSID": "ND0901060", "PWS_Name": "CASS RURAL WATER DISTRICT-PHASE I", "Primacy_Agency": "ND", "Population_Served_Count": 3658, "Service_Connections_Count": 1407, "Service_Area_Type": "Residential Area", "Verification_Status": "", "Area_SqKM": 3.4927153476907398}, "geometry": {"type": "Point", "coordinates": [-96.81145730248171, 46.68290419932791]}}, {"type": "Feature", "properties": {"PWSID": "ND0901124", "PWS_Name": "CASS RURAL WATER DISTRICT-PHASE II", "Primacy_Agency": "ND", "Population_Served_Count": 1700, "Service_Connections_Count": 654, "Service_Area_Type": "Residential Area", "Verification_Status": "", "Area_SqKM": 0.34413470972373356}, "geometry": {"type": "Point", "coordinates": [-97.22286141780744, 46.64687936725838]}}, {"type": "Feature", "properties": {"PWSID": "ND0901363", "PWS_Name": "OXBOW CITY OF", "Primacy_Agency": "ND", "Population_Served_Count": 305, "Service_Connections_Count": 48, "Service_Area_Type": "Residential Area", "Verification_Status": "", "Area_SqKM": 0.7354085307150846}, "geometry": {"type": "Point", "coordinates": [-96.81716837608559, 46.67378676148703]}}, {"type": "Feature", "properties": {"PWSID": "ND0901365", "PWS_Name": "RIVERDALE SUBDIVISION", "Primacy_Agency": "ND", "Population_Served_Count": 88, "Service_Connections_Count": 22, "Service_Area_Type": "Residential Area", "Verification_Status": "", "Area_SqKM": 1.7591341641793428}, "geometry": {"type": "Point", "coordinates": [-96.90362997500118, 46.79849206820527]}}, {"type": "Feature", "properties": {"PWSID": "ND0901410", "PWS_Name": "FRADETS ORCHARD WATER SYSTEM", "Primacy_Agency": "ND", "Population_Served_Count": 56, "Service_Connections_Count": 16, "Service_Area_Type": "Residential Area", "Verification_Status": "", "Area_SqKM": 6.533815004517254}, "geometry": {"type": "Point", "coordinates": [-97.00364604603118, 46.75711670268105]}}, {"type": "Feature", "properties": {"PWSID": "ND0901449", "PWS_Name": "COUNTRY ACRES WATER CO", "Primacy_Agency": "ND", "Population_Served_Count": 50, "Service_Connections_Count": 17, "Service_Area_Type": "Subdivision", "Verification_Status": "", "Area_SqKM": 0.5692782093655528}, "geometry": {"type": "Point", "coordinates": [-96.90718870830933, 46.73877724996933]}}, {"type": "Feature", "properties": {"PWSID": "ND0901483", "PWS_Name": "CASS RURAL WATER DISTRICT FARGO", "Primacy_Agency": "ND", "Population_Served_Count": 4242, "Service_Connections_Count": 1697, "Service_Area_Type": "Residential Area", "Verification_Status": "", "Area_SqKM": 0.2356114136711985}, "geometry": {"type": "Point", "coordinates": [-97.00626814949402, 46.6308540781494]}}, {"type": "Feature", "properties": {"PWSID": "ND3700314", "PWS_Name": "ENDERLIN CITY OF", "Primacy_Agency": "ND", "Population_Served_Count": 886, "Service_Connections_Count": 440, "Service_Area_Type": "Residential Area", "Verification_Status": "", "Area_SqKM": 2.7053584255278005}, "geometry": {"type": "Point", "coordinates": [-97.596575094748, 46.62100902923655]}}, {"type": "Feature", "properties": {"PWSID": "ND3900001", "PWS_Name": "ABERCROMBIE CITY OF", "Primacy_Agency": "ND", "Population_Served_Count": 263, "Service_Connections_Count": 122, "Service_Area_Type": "Residential Area", "Verification_Status": "", "Area_SqKM": 0.890258893723891}, "geometry": {"type": "Point", "coordinates": [-96.75210760183487, 46.436023697582755]}}, {"type": "Feature", "properties": {"PWSID": "ND3900055", "PWS_Name": "BARNEY CITY OF", "Primacy_Agency": "ND", "Population_Served_Count": 52, "Service_Connections_Count": 29, "Service_Area_Type": "Residential Area", "Verification_Status": "", "Area_SqKM": 0.42583052908555796}, "geometry": {"type": "Point", "coordinates": [-97.00049744453116, 46.26659481672161]}}, {"type": "Feature", "properties": {"PWSID": "ND3900183", "PWS_Name": "CHRISTINE CITY OF", "Primacy_Agency": "ND", "Population_Served_Count": 156, "Service_Connections_Count": 62, "Service_Area_Type": "Residential Area", "Verification_Status": "", "Area_SqKM": 0.5241208963278624}, "geometry": {"type": "Point", "coordinates": [-96.8070771427499, 46.575349892868665]}}, {"type": "Feature", "properties": {"PWSID": "ND3900196", "PWS_Name": "COLFAX CITY OF", "Primacy_Agency": "ND", "Population_Served_Count": 121, "Service_Connections_Count": 43, "Service_Area_Type": "Residential Area", "Verification_Status": "", "Area_SqKM": 1.9382092760033727}, "geometry": {"type": "Point", "coordinates": [-96.870875725063, 46.47020270007346]}}, {"type": "Feature", "properties": {"PWSID": "ND3900333", "PWS_Name": "FAIRMOUNT CITY OF", "Primacy_Agency": "ND", "Population_Served_Count": 367, "Service_Connections_Count": 183, "Service_Area_Type": "Residential Area", "Verification_Status": "", "Area_SqKM": 0.7697108450212872}, "geometry": {"type": "Point", "coordinates": [-96.60218269129986, 46.05446138574539]}}, {"type": "Feature", "properties": {"PWSID": "ND3900443", "PWS_Name": "HANKINSON CITY OF", "Primacy_Agency": "ND", "Population_Served_Count": 919, "Service_Connections_Count": 513, "Service_Area_Type": "Residential Area", "Verification_Status": "", "Area_SqKM": 4.394024024912686}, "geometry": {"type": "Point", "coordinates": [-96.92028972509867, 46.056823680301775]}}, {"type": "Feature", "properties": {"PWSID": "ND3900567", "PWS_Name": "LIDGERWOOD CITY OF", "Primacy_Agency": "ND", "Population_Served_Count": 652, "Service_Connections_Count": 423, "Service_Area_Type": "Residential Area", "Verification_Status": "", "Area_SqKM": 1.4852827955724242}, "geometry": {"type": "Point", "coordinates": [-97.14883513226857, 46.073361326470085]}}, {"type": "Feature", "properties": {"PWSID": "ND3900607", "PWS_Name": "MANTADOR CITY OF", "Primacy_Agency": "ND", "Population_Served_Count": 64, "Service_Connections_Count": 51, "Service_Area_Type": "Residential Area", "Verification_Status": "", "Area_SqKM": 0.27496526866868953}, "geometry": {"type": "Point", "coordinates": [-96.97794977787667, 46.16474281106076]}}, {"type": "Feature", "properties": {"PWSID": "ND3900703", "PWS_Name": "MOORETON CITY OF", "Primacy_Agency": "ND", "Population_Served_Count": 197, "Service_Connections_Count": 73, "Service_Area_Type": "Residential Area", "Verification_Status": "", "Area_SqKM": 0.123359545007912}, "geometry": {"type": "Point", "coordinates": [-96.8741073931391, 46.266964828620246]}}, {"type": "Feature", "properties": {"PWSID": "ND3900973", "PWS_Name": "WAHPETON CITY OF", "Primacy_Agency": "ND", "Population_Served_Count": 7766, "Service_Connections_Count": 1800, "Service_Area_Type": "Residential Area", "Verification_Status": "", "Area_SqKM": 11.698667965833383}, "geometry": {"type": "Point", "coordinates": [-96.60667599266259, 46.273606337038714]}}, {"type": "Feature", "properties": {"PWSID": "ND3901043", "PWS_Name": "WYNDMERE CITY OF", "Primacy_Agency": "ND", "Population_Served_Count": 429, "Service_Connections_Count": 235, "Service_Area_Type": "Residential Area", "Verification_Status": "", "Area_SqKM": 3.271833118139614}, "geometry": {"type": "Point", "coordinates": [-97.17572337776296, 46.278994414528896]}}, {"type": "Feature", "properties": {"PWSID": "ND4100357", "PWS_Name": "FORMAN CITY OF", "Primacy_Agency": "ND", "Population_Served_Count": 504, "Service_Connections_Count": 254, "Service_Area_Type": "Residential Area", "Verification_Status": "", "Area_SqKM": 1.445853454753267}, "geometry": {"type": "Point", "coordinates": [-97.63565215776117, 46.10231700191761]}}, {"type": "Feature", "properties": {"PWSID": "ND4100428", "PWS_Name": "GWINNER CITY OF", "Primacy_Agency": "ND", "Population_Served_Count": 753, "Service_Connections_Count": 230, "Service_Area_Type": "Residential Area", "Verification_Status": "", "Area_SqKM": 4.701567568220541}, "geometry": {"type": "Point", "coordinates": [-97.65963293231304, 46.227602138098746]}}, {"type": "Feature", "properties": {"PWSID": "ND4100848", "PWS_Name": "RUTLAND CITY OF", "Primacy_Agency": "ND", "Population_Served_Count": 163, "Service_Connections_Count": 120, "Service_Area_Type": "Residential Area", "Verification_Status": "", "Area_SqKM": 0.416968300957037}, "geometry": {"type": "Point", "coordinates": [-97.50851400770186, 46.05284704618289]}}, {"type": "Feature", "properties": {"PWSID": "ND4101425", "PWS_Name": "MILNOR CITY OF", "Primacy_Agency": "ND", "Population_Served_Count": 653, "Service_Connections_Count": 325, "Service_Area_Type": "Residential Area", "Verification_Status": "", "Area_SqKM": 1.3336360710288497}, "geometry": {"type": "Point", "coordinates": [-97.45625234032858, 46.25821022688368]}}, {"type": "Feature", "properties": {"PWSID": "ND4101452", "PWS_Name": "SUNDALE HUTTERIAN ASSOCIATION", "Primacy_Agency": "ND", "Population_Served_Count": 110, "Service_Connections_Count": 25, "Service_Area_Type": "Other Residential", "Verification_Status": "", "Area_SqKM": 0.45246480309257836}, "geometry": {"type": "Point", "coordinates": [-97.2528415582802, 46.300044816652814]}}, {"type": "Feature", "properties": {"PWSID": "ND3700876", "PWS_Name": "SHELDON CITY OF", "Primacy_Agency": "ND", "Population_Served_Count": 95, "Service_Connections_Count": 90, "Service_Area_Type": "Residential Area", "Verification_Status": "", "Area_SqKM": 0.5280488671909382}, "geometry": {"type": "Point", "coordinates": [-97.49299216806588, 46.58844185739592]}}, {"type": "Feature", "properties": {"PWSID": "ND3700574", "PWS_Name": "LISBON CITY OF", "Primacy_Agency": "ND", "Population_Served_Count": 2154, "Service_Connections_Count": 930, "Service_Area_Type": "Residential Area", "Verification_Status": "", "Area_SqKM": 5.432502628643777}, "geometry": {"type": "Point", "coordinates": [-97.68575698475806, 46.43847257089734]}}, {"type": "Feature", "properties": {"PWSID": "ND0900134", "PWS_Name": "BUFFALO CITY OF", "Primacy_Agency": "ND", "Population_Served_Count": 188, "Service_Connections_Count": 132, "Service_Area_Type": "Residential Area", "Verification_Status": "", "Area_SqKM": 1.2461129418360133}, "geometry": {"type": "Point", "coordinates": [-97.55125864679371, 46.91907680664999]}}, {"type": "Feature", "properties": {"PWSID": "ND0900166", "PWS_Name": "CASSELTON CITY OF", "Primacy_Agency": "ND", "Population_Served_Count": 2513, "Service_Connections_Count": 575, "Service_Area_Type": "Residential Area", "Verification_Status": "", "Area_SqKM": 4.2704512653277815}, "geometry": {"type": "Point", "coordinates": [-97.21340994192548, 46.89492297234434]}}, {"type": "Feature", "properties": {"PWSID": "ND0900613", "PWS_Name": "MAPLETON CITY OF", "Primacy_Agency": "ND", "Population_Served_Count": 1320, "Service_Connections_Count": 207, "Service_Area_Type": "Residential Area", "Verification_Status": "", "Area_SqKM": 2.9781097365479248}, "geometry": {"type": "Point", "coordinates": [-97.05640400370356, 46.88724020740535]}}, {"type": "Feature", "properties": {"PWSID": "ND0900945", "PWS_Name": "TOWER CITY CITY OF", "Primacy_Agency": "ND", "Population_Served_Count": 253, "Service_Connections_Count": 98, "Service_Area_Type": "Residential Area", "Verification_Status": "", "Area_SqKM": 0.4232767174647883}, "geometry": {"type": "Point", "coordinates": [-97.66709266118677, 46.923232233327305]}}, {"type": "Feature", "properties": {"PWSID": "ND0901131", "PWS_Name": "CASS RURAL WATER DISTRICT-PHASE III", "Primacy_Agency": "ND", "Population_Served_Count": 1682, "Service_Connections_Count": 647, "Service_Area_Type": "Residential Area", "Verification_Status": "", "Area_SqKM": 0.7032509743041127}, "geometry": {"type": "Point", "coordinates": [-97.67028725748665, 46.92256747442779]}}, {"type": "Feature", "properties": {"PWSID": "ND4600487", "PWS_Name": "HOPE CITY OF", "Primacy_Agency": "ND", "Population_Served_Count": 258, "Service_Connections_Count": 180, "Service_Area_Type": "Residential Area", "Verification_Status": "", "Area_SqKM": 0.6856660822276025}, "geometry": {"type": "Point", "coordinates": [-97.72059173330639, 47.32280657147966]}}, {"type": "Feature", "properties": {"PWSID": "ND4900622", "PWS_Name": "MAYVILLE CITY OF", "Primacy_Agency": "ND", "Population_Served_Count": 1858, "Service_Connections_Count": 681, "Service_Area_Type": "Residential Area", "Verification_Status": "", "Area_SqKM": 4.383434010714521}, "geometry": {"type": "Point", "coordinates": [-97.33070723396432, 47.49786770216323]}}, {"type": "Feature", "properties": {"PWSID": "ND4901071", "PWS_Name": "EAST CENTRAL REGIONAL WD-TRAILL", "Primacy_Agency": "ND", "Population_Served_Count": 2800, "Service_Connections_Count": 846, "Service_Area_Type": "Residential Area", "Verification_Status": "", "Area_SqKM": 0.7220323054855374}, "geometry": {"type": "Point", "coordinates": [-97.63688604515109, 47.566510503272276]}}, {"type": "Feature", "properties": {"PWSID": "ND5000691", "PWS_Name": "MINTO CITY OF", "Primacy_Agency": "ND", "Population_Served_Count": 604, "Service_Connections_Count": 320, "Service_Area_Type": "Residential Area", "Verification_Status": "", "Area_SqKM": 1.90975776038751}, "geometry": {"type": "Point", "coordinates": [-97.37282805485334, 48.288796197351424]}}, {"type": "Feature", "properties": {"PWSID": "ND5000408", "PWS_Name": "GRAFTON CITY OF", "Primacy_Agency": "ND", "Population_Served_Count": 4284, "Service_Connections_Count": 1890, "Service_Area_Type": "Residential Area", "Verification_Status": "", "Area_SqKM": 6.435160393166593}, "geometry": {"type": "Point", "coordinates": [-97.4125863340518, 48.41766219168276]}}, {"type": "Feature", "properties": {"PWSID": "ND4900803", "PWS_Name": "PORTLAND CITY OF", "Primacy_Agency": "ND", "Population_Served_Count": 606, "Service_Connections_Count": 289, "Service_Area_Type": "Residential Area", "Verification_Status": "", "Area_SqKM": 2.1100503573239027}, "geometry": {"type": "Point", "coordinates": [-97.36886536662645, 47.50153980003026]}}, {"type": "Feature", "properties": {"PWSID": "ND4900465", "PWS_Name": "HATTON CITY OF", "Primacy_Agency": "ND", "Population_Served_Count": 777, "Service_Connections_Count": 327, "Service_Area_Type": "Residential Area", "Verification_Status": "", "Area_SqKM": 1.4403052375319279}, "geometry": {"type": "Point", "coordinates": [-97.45865389753921, 47.63775252438063]}}, {"type": "Feature", "properties": {"PWSID": "ND3401128", "PWS_Name": "NORTHEAST RWD- NORTH VALLEY BRANCH", "Primacy_Agency": "ND", "Population_Served_Count": 3422, "Service_Connections_Count": 1316, "Service_Area_Type": "Residential Area", "Verification_Status": "", "Area_SqKM": 1.9449621960014416}, "geometry": {"type": "Point", "coordinates": [-97.65391069080948, 48.780603563703316]}}, {"type": "Feature", "properties": {"PWSID": "ND3400856", "PWS_Name": "ST THOMAS CITY OF", "Primacy_Agency": "ND", "Population_Served_Count": 331, "Service_Connections_Count": 230, "Service_Area_Type": "Residential Area", "Verification_Status": "", "Area_SqKM": 0.5422255584673364}, "geometry": {"type": "Point", "coordinates": [-97.44724573249944, 48.617243293064504]}}, {"type": "Feature", "properties": {"PWSID": "ND3400777", "PWS_Name": "PEMBINA CITY OF", "Primacy_Agency": "ND", "Population_Served_Count": 592, "Service_Connections_Count": 286, "Service_Area_Type": "Residential Area", "Verification_Status": "", "Area_SqKM": 1.8596494958799734}, "geometry": {"type": "Point", "coordinates": [-97.24570409548454, 48.967852694290066]}}, {"type": "Feature", "properties": {"PWSID": "ND3400720", "PWS_Name": "NECHE CITY OF", "Primacy_Agency": "ND", "Population_Served_Count": 371, "Service_Connections_Count": 206, "Service_Area_Type": "Residential Area", "Verification_Status": "", "Area_SqKM": 0.8984059448302493}, "geometry": {"type": "Point", "coordinates": [-97.55233226660127, 48.982684985691385]}}, {"type": "Feature", "properties": {"PWSID": "ND3400269", "PWS_Name": "DRAYTON CITY OF", "Primacy_Agency": "ND", "Population_Served_Count": 824, "Service_Connections_Count": 426, "Service_Area_Type": "Residential Area", "Verification_Status": "", "Area_SqKM": 2.0285825916169182}, "geometry": {"type": "Point", "coordinates": [-97.17722130510226, 48.56829365570243]}}, {"type": "Feature", "properties": {"PWSID": "ND1800753", "PWS_Name": "NORTHWOOD CITY OF", "Primacy_Agency": "ND", "Population_Served_Count": 945, "Service_Connections_Count": 512, "Service_Area_Type": "Residential Area", "Verification_Status": "", "Area_SqKM": 2.48026513578629}, "geometry": {"type": "Point", "coordinates": [-97.56920715242954, 47.734966406019645]}}, {"type": "Feature", "properties": {"PWSID": "ND1800550", "PWS_Name": "LARIMORE CITY OF", "Primacy_Agency": "ND", "Population_Served_Count": 1346, "Service_Connections_Count": 425, "Service_Area_Type": "Residential Area", "Verification_Status": "", "Area_SqKM": 1.665175813670543}, "geometry": {"type": "Point", "coordinates": [-97.62392644431154, 47.906794562277824]}}, {"type": "Feature", "properties": {"PWSID": "ND1800311", "PWS_Name": "EMERADO CITY OF", "Primacy_Agency": "ND", "Population_Served_Count": 414, "Service_Connections_Count": 137, "Service_Area_Type": "Residential Area", "Verification_Status": "", "Area_SqKM": 1.2507854579414919}, "geometry": {"type": "Point", "coordinates": [-97.36717671485908, 47.949094238108785]}}, {"type": "Feature", "properties": {"PWSID": "ND1800036", "PWS_Name": "ARVILLA WATER USERS ASSOCIATION", "Primacy_Agency": "ND", "Population_Served_Count": 180, "Service_Connections_Count": 72, "Service_Area_Type": "Residential Area", "Verification_Status": "", "Area_SqKM": 0.3314168755613374}, "geometry": {"type": "Point", "coordinates": [-97.37784456687041, 47.9495782943824]}}, {"type": "Feature", "properties": {"PWSID": "ND0900769", "PWS_Name": "PAGE CITY OF", "Primacy_Agency": "ND", "Population_Served_Count": 232, "Service_Connections_Count": 125, "Service_Area_Type": "Residential Area", "Verification_Status": "", "Area_SqKM": 0.7294451814009496}, "geometry": {"type": "Point", "coordinates": [-97.57067516664358, 47.157981533308764]}}, {"type": "Feature", "properties": {"PWSID": "ND0900492", "PWS_Name": "HUNTER CITY OF", "Primacy_Agency": "ND", "Population_Served_Count": 261, "Service_Connections_Count": 165, "Service_Area_Type": "Residential Area", "Verification_Status": "", "Area_SqKM": 0.8357096719031529}, "geometry": {"type": "Point", "coordinates": [-97.21954105180414, 47.191311444490886]}}, {"type": "Feature", "properties": {"PWSID": "ND0900460", "PWS_Name": "HARWOOD CITY OF", "Primacy_Agency": "ND", "Population_Served_Count": 718, "Service_Connections_Count": 188, "Service_Area_Type": "Residential Area", "Verification_Status": "", "Area_SqKM": 1.375511119198884}, "geometry": {"type": "Point", "coordinates": [-96.8753164008408, 46.97967160161874]}}, {"type": "Feature", "properties": {"PWSID": "ND0900412", "PWS_Name": "GRANDIN CITY OF", "Primacy_Agency": "ND", "Population_Served_Count": 173, "Service_Connections_Count": 80, "Service_Area_Type": "Residential Area", "Verification_Status": "", "Area_SqKM": 0.4146705290572223}, "geometry": {"type": "Point", "coordinates": [-97.00303687265823, 47.236046399963776]}}, {"type": "Feature", "properties": {"PWSID": "ND0900387", "PWS_Name": "GARDNER CITY OF", "Primacy_Agency": "ND", "Population_Served_Count": 74, "Service_Connections_Count": 45, "Service_Area_Type": "Residential Area", "Verification_Status": "", "Area_SqKM": 0.45741025045227995}, "geometry": {"type": "Point", "coordinates": [-96.96621630509263, 47.14517394867945]}}, {"type": "Feature", "properties": {"PWSID": "ND0900035", "PWS_Name": "ARTHUR CITY OF", "Primacy_Agency": "ND", "Population_Served_Count": 337, "Service_Connections_Count": 131, "Service_Area_Type": "Residential Area", "Verification_Status": "", "Area_SqKM": 1.9023476956349337}, "geometry": {"type": "Point", "coordinates": [-97.21008398995369, 47.10326819003356]}}, {"type": "Feature", "properties": {"PWSID": "ND0900030", "PWS_Name": "ARGUSVILLE CITY OF", "Primacy_Agency": "ND", "Population_Served_Count": 475, "Service_Connections_Count": 80, "Service_Area_Type": "Residential Area", "Verification_Status": "", "Area_SqKM": 2.0255042983559988}, "geometry": {"type": "Point", "coordinates": [-96.94434829266565, 47.05487010837021]}}, {"type": "Feature", "properties": {"PWSID": "ND0900017", "PWS_Name": "AMENIA CITY OF", "Primacy_Agency": "ND", "Population_Served_Count": 94, "Service_Connections_Count": 33, "Service_Area_Type": "Residential Area", "Verification_Status": "", "Area_SqKM": 0.31488081436300647}, "geometry": {"type": "Point", "coordinates": [-97.22614862857237, 47.01263142858946]}}, {"type": "Feature", "properties": {"PWSID": "ND5000773", "PWS_Name": "PARK RIVER CITY OF", "Primacy_Agency": "ND", "Population_Served_Count": 1403, "Service_Connections_Count": 793, "Service_Area_Type": "Residential Area", "Verification_Status": "", "Area_SqKM": 7.330906030568904}, "geometry": {"type": "Point", "coordinates": [-97.73780339054129, 48.39967576008059]}}, {"type": "Feature", "properties": {"PWSID": "ND0800080", "PWS_Name": "BISMARCK CITY OF", "Primacy_Agency": "ND", "Population_Served_Count": 72417, "Service_Connections_Count": 21427, "Service_Area_Type": "Residential Area", "Verification_Status": "", "Area_SqKM": 59.02296607456756}, "geometry": {"type": "Point", "coordinates": [-100.76560498551791, 46.816607918040866]}}, {"type": "Feature", "properties": {"PWSID": "ND2800989", "PWS_Name": "WASHBURN CITY OF", "Primacy_Agency": "ND", "Population_Served_Count": 1246, "Service_Connections_Count": 600, "Service_Area_Type": "Residential Area", "Verification_Status": "", "Area_SqKM": 3.5902147585197928}, "geometry": {"type": "Point", "coordinates": [-101.0289711279913, 47.29263261626499]}}, {"type": "Feature", "properties": {"PWSID": "ND3000596", "PWS_Name": "MANDAN CITY OF", "Primacy_Agency": "ND", "Population_Served_Count": 21769, "Service_Connections_Count": 7358, "Service_Area_Type": "Residential Area", "Verification_Status": "", "Area_SqKM": 26.731088586417115}, "geometry": {"type": "Point", "coordinates": [-100.88929078811225, 46.829581030642274]}}]}