{"type": "FeatureCollection", "features": [{"type": "Feature", "properties": {"PWSID": "AK2210778", "PWS_Name": "TROLL KNOLL S/D", "Primacy_Agency": "AK", "Population_Served_Count": 99, "Service_Connections_Count": 25, "Service_Area_Type": "Subdivision", "Verification_Status": "", "Area_SqKM": 1.4848635488760178}, "geometry": {"type": "Point", "coordinates": [-149.43431562555736, 61.400234292209994]}}, {"type": "Feature", "properties": {"PWSID": "AK2220070", "PWS_Name": "SILVER CREEK SPRINGS SD", "Primacy_Agency": "AK", "Population_Served_Count": 239, "Service_Connections_Count": 63, "Service_Area_Type": "Residential Area", "Verification_Status": "", "Area_SqKM": 2.8023936733666894}, "geometry": {"type": "Point", "coordinates": [-149.21756793432877, 61.61159803234121]}}, {"type": "Feature", "properties": {"PWSID": "AK2120012", "PWS_Name": "VALLENAR VIEW MOBILE HOME PARK", "Primacy_Agency": "AK", "Population_Served_Count": 225, "Service_Connections_Count": 76, "Service_Area_Type": "Mobile Home Park", "Verification_Status": "", "Area_SqKM": 0.0718573510033907}, "geometry": {"type": "Point", "coordinates": [-131.79768840001321, 55.43535504998768]}}, {"type": "Feature", "properties": {"PWSID": "AK2220473", "PWS_Name": "CAMERON ACRES", "Primacy_Agency": "AK", "Population_Served_Count": 80, "Service_Connections_Count": 5, "Service_Area_Type": "Residential Area", "Verification_Status": "", "Area_SqKM": 0.006853916785839496}, "geometry": {"type": "Point", "coordinates": [-149.34986079997938, 61.58429629981612]}}, {"type": "Feature", "properties": {"PWSID": "AK2220169", "PWS_Name": "NORTHWOOD APARTMENTS", "Primacy_Agency": "AK", "Population_Served_Count": 72, "Service_Connections_Count": 2, "Service_Area_Type": "Residential Area", "Verification_Status": "", "Area_SqKM": 0.007226403193251223}, "geometry": {"type": "Point", "coordinates": [-149.451965999518, 61.602870039742484]}}, {"type": "Feature", "properties": {"PWSID": "AK2224476", "PWS_Name": "QUIET CIRCLE APARTMENTS", "Primacy_Agency": "AK", "Population_Served_Count": 90, "Service_Connections_Count": 4, "Service_Area_Type": "Residential Area", "Verification_Status": "", "Area_SqKM": 0.00834697032023587}, "geometry": {"type": "Point", "coordinates": [-149.38386648579043, 61.57468418568885]}}, {"type": "Feature", "properties": {"PWSID": "AK2220138", "PWS_Name": "WILLOW HEIGHTS CONDOS", "Primacy_Agency": "AK", "Population_Served_Count": 50, "Service_Connections_Count": 20, "Service_Area_Type": "Residential Area", "Verification_Status": "", "Area_SqKM": 0.02005775843014646}, "geometry": {"type": "Point", "coordinates": [-149.4252027604956, 61.55504113999634]}}, {"type": "Feature", "properties": {"PWSID": "AK2216198", "PWS_Name": "MARANATHA WATER UTILITIES", "Primacy_Agency": "AK", "Population_Served_Count": 220, "Service_Connections_Count": 24, "Service_Area_Type": "Residential Area", "Verification_Status": "", "Area_SqKM": 0.11794900974734673}, "geometry": {"type": "Point", "coordinates": [-149.5298895295836, 61.361377439392086]}}, {"type": "Feature", "properties": {"PWSID": "AK2212021", "PWS_Name": "GIRDWOOD WATER SYSTEM", "Primacy_Agency": "AK", "Population_Served_Count": 2942, "Service_Connections_Count": 700, "Service_Area_Type": "Municipality", "Verification_Status": "", "Area_SqKM": 8.335210061075747}, "geometry": {"type": "Point", "coordinates": [-149.1350063950961, 60.95153541822631]}}, {"type": "Feature", "properties": {"PWSID": "AK2220153", "PWS_Name": "HEART HAVEN ESTATES", "Primacy_Agency": "AK", "Population_Served_Count": 56, "Service_Connections_Count": 18, "Service_Area_Type": "Residential Area", "Verification_Status": "", "Area_SqKM": 3.100018421304725}, "geometry": {"type": "Point", "coordinates": [-149.53278366185194, 61.54647116983267]}}, {"type": "Feature", "properties": {"PWSID": "AK2223624", "PWS_Name": "BLUFF VIEW ACRES WATER SYSTEM", "Primacy_Agency": "AK", "Population_Served_Count": 100, "Service_Connections_Count": 47, "Service_Area_Type": "Residential Area", "Verification_Status": "", "Area_SqKM": 0.41388274797953156}, "geometry": {"type": "Point", "coordinates": [-149.4867411100433, 61.53220284199313]}}, {"type": "Feature", "properties": {"PWSID": "AK2224167", "PWS_Name": "VICTORIA ESTATES", "Primacy_Agency": "AK", "Population_Served_Count": 912, "Service_Connections_Count": 210, "Service_Area_Type": "Residential Area", "Verification_Status": "", "Area_SqKM": 1.4549203061394074}, "geometry": {"type": "Point", "coordinates": [-149.6214874119217, 61.525276809680385]}}, {"type": "Feature", "properties": {"PWSID": "AK2224214", "PWS_Name": "NORTHERN LIGHTS TERRACE", "Primacy_Agency": "AK", "Population_Served_Count": 168, "Service_Connections_Count": 66, "Service_Area_Type": "Residential Area", "Verification_Status": "", "Area_SqKM": 0.9621021810426422}, "geometry": {"type": "Point", "coordinates": [-149.63860770862576, 61.50704606966468]}}, {"type": "Feature", "properties": {"PWSID": "AK2220173", "PWS_Name": "BIRCH RUN ESTATES", "Primacy_Agency": "AK", "Population_Served_Count": 167, "Service_Connections_Count": 53, "Service_Area_Type": "Residential Area", "Verification_Status": "", "Area_SqKM": 2.3715319910868438}, "geometry": {"type": "Point", "coordinates": [-149.5681733401857, 61.54522301604916]}}, {"type": "Feature", "properties": {"PWSID": "AK2220408", "PWS_Name": "VALLEY UTILITIES LLC", "Primacy_Agency": "AK", "Population_Served_Count": 1590, "Service_Connections_Count": 3, "Service_Area_Type": "Other Residential", "Verification_Status": "", "Area_SqKM": 0.2608978602208921}, "geometry": {"type": "Point", "coordinates": [-149.33931461497556, 61.58543834827841]}}, {"type": "Feature", "properties": {"PWSID": "AK2211075", "PWS_Name": "OW DIMOND ESTATES TRAILER COURT", "Primacy_Agency": "AK", "Population_Served_Count": 1395, "Service_Connections_Count": 523, "Service_Area_Type": "Mobile Home Park", "Verification_Status": "", "Area_SqKM": 0.2447534895531533}, "geometry": {"type": "Point", "coordinates": [-149.9001831488547, 61.13915040846715]}}, {"type": "Feature", "properties": {"PWSID": "AK2220139", "PWS_Name": "WILDERNESS ESTATES", "Primacy_Agency": "AK", "Population_Served_Count": 110, "Service_Connections_Count": 48, "Service_Area_Type": "Mobile Home Park", "Verification_Status": "", "Area_SqKM": 0.09206168620230773}, "geometry": {"type": "Point", "coordinates": [-149.58385754291984, 61.58686184278819]}}, {"type": "Feature", "properties": {"PWSID": "AK2218653", "PWS_Name": "ALYESKA CREEKSIDE APARTMENTS", "Primacy_Agency": "AK", "Population_Served_Count": 60, "Service_Connections_Count": 2, "Service_Area_Type": "Residential Area", "Verification_Status": "", "Area_SqKM": 0.006316873950454619}, "geometry": {"type": "Point", "coordinates": [-149.1318025663281, 60.965571766474085]}}, {"type": "Feature", "properties": {"PWSID": "AK2217576", "PWS_Name": "QUIET VIEW APTS", "Primacy_Agency": "AK", "Population_Served_Count": 96, "Service_Connections_Count": 2, "Service_Area_Type": "Residential Area", "Verification_Status": "", "Area_SqKM": 0.007306527350682675}, "geometry": {"type": "Point", "coordinates": [-149.87069653994598, 61.15078120033926]}}, {"type": "Feature", "properties": {"PWSID": "AK2212924", "PWS_Name": "COHOE SUBDIVISION", "Primacy_Agency": "AK", "Population_Served_Count": 36, "Service_Connections_Count": 11, "Service_Area_Type": "Subdivision", "Verification_Status": "", "Area_SqKM": 0.019099736019799075}, "geometry": {"type": "Point", "coordinates": [-149.78485650032718, 61.13639589983372]}}, {"type": "Feature", "properties": {"PWSID": "AK2221834", "PWS_Name": "UNIFIED ALASKAN UTILITIES SETTLERS BAY", "Primacy_Agency": "AK", "Population_Served_Count": 2733, "Service_Connections_Count": 644, "Service_Area_Type": "Subdivision", "Verification_Status": "", "Area_SqKM": 2.148477140441157}, "geometry": {"type": "Point", "coordinates": [-149.6187220769876, 61.5080538287088]}}, {"type": "Feature", "properties": {"PWSID": "AK2220482", "PWS_Name": "CENTRAL COMMERCIAL PARK", "Primacy_Agency": "AK", "Population_Served_Count": 32, "Service_Connections_Count": 1, "Service_Area_Type": "Residential Area", "Verification_Status": "", "Area_SqKM": 0.0038216435582232337}, "geometry": {"type": "Point", "coordinates": [-149.3303115199344, 61.58548076027826]}}, {"type": "Feature", "properties": {"PWSID": "AK2220439", "PWS_Name": "BELLA VISTA SUBDIVISION", "Primacy_Agency": "AK", "Population_Served_Count": 266, "Service_Connections_Count": 20, "Service_Area_Type": "Residential Area", "Verification_Status": "", "Area_SqKM": 0.07780455957119642}, "geometry": {"type": "Point", "coordinates": [-149.20556007990302, 61.6019494400514]}}, {"type": "Feature", "properties": {"PWSID": "AK2215566", "PWS_Name": "HOMER DRIVE APTS.", "Primacy_Agency": "AK", "Population_Served_Count": 50, "Service_Connections_Count": 1, "Service_Area_Type": "Residential Area", "Verification_Status": "", "Area_SqKM": 0.010437209939793496}, "geometry": {"type": "Point", "coordinates": [-149.86227100050684, 61.17905318328895]}}, {"type": "Feature", "properties": {"PWSID": "AK2227204", "PWS_Name": "UNIFIED ALASKAN UTILITIES MIDTOWN EST", "Primacy_Agency": "AK", "Population_Served_Count": 495, "Service_Connections_Count": 200, "Service_Area_Type": "Other Area", "Verification_Status": "", "Area_SqKM": 0.7890651325393887}, "geometry": {"type": "Point", "coordinates": [-149.22471014543473, 61.601609881757675]}}, {"type": "Feature", "properties": {"PWSID": "AK2223315", "PWS_Name": "SNOWSHOE WATER SYSTEM", "Primacy_Agency": "AK", "Population_Served_Count": 180, "Service_Connections_Count": 60, "Service_Area_Type": "Subdivision", "Verification_Status": "", "Area_SqKM": 0.26524431494444095}, "geometry": {"type": "Point", "coordinates": [-149.50674616367937, 61.52875320914366]}}, {"type": "Feature", "properties": {"PWSID": "AK2211897", "PWS_Name": "KATHY O ESTATES", "Primacy_Agency": "AK", "Population_Served_Count": 242, "Service_Connections_Count": 75, "Service_Area_Type": "Subdivision", "Verification_Status": "", "Area_SqKM": 0.029280872793233867}, "geometry": {"type": "Point", "coordinates": [-149.89999699078365, 61.187097945420604]}}, {"type": "Feature", "properties": {"PWSID": "AK2241020", "PWS_Name": "NIKISHKA BAY", "Primacy_Agency": "AK", "Population_Served_Count": 470, "Service_Connections_Count": 109, "Service_Area_Type": "Subdivision", "Verification_Status": "", "Area_SqKM": 1.7374388698545193}, "geometry": {"type": "Point", "coordinates": [-151.30365168257117, 60.726909499976806]}}, {"type": "Feature", "properties": {"PWSID": "AK2210697", "PWS_Name": "OASIS WATER - MCKINLEY VIEW DIV", "Primacy_Agency": "AK", "Population_Served_Count": 130, "Service_Connections_Count": 43, "Service_Area_Type": "Residential Area", "Verification_Status": "", "Area_SqKM": 0.16484496953412203}, "geometry": {"type": "Point", "coordinates": [-149.4606850205368, 61.4131092200509]}}, {"type": "Feature", "properties": {"PWSID": "AK2213598", "PWS_Name": "ALPINE WOODS WATER SYSTEM", "Primacy_Agency": "AK", "Population_Served_Count": 200, "Service_Connections_Count": 46, "Service_Area_Type": "Subdivision", "Verification_Status": "", "Area_SqKM": 0.34813228699825616}, "geometry": {"type": "Point", "coordinates": [-149.76716672910695, 61.11157894179446]}}, {"type": "Feature", "properties": {"PWSID": "AK2211130", "PWS_Name": "TRAILS END MHP", "Primacy_Agency": "AK", "Population_Served_Count": 100, "Service_Connections_Count": 27, "Service_Area_Type": "Mobile Home Park", "Verification_Status": "", "Area_SqKM": 0.013565864153828966}, "geometry": {"type": "Point", "coordinates": [-149.79330518703787, 61.223418500138955]}}, {"type": "Feature", "properties": {"PWSID": "AK2214730", "PWS_Name": "POTTER CREEK WATER COMPANY", "Primacy_Agency": "AK", "Population_Served_Count": 375, "Service_Connections_Count": 130, "Service_Area_Type": "Subdivision", "Verification_Status": "", "Area_SqKM": 2.47008621903582}, "geometry": {"type": "Point", "coordinates": [-149.7807198380024, 61.051320275822704]}}, {"type": "Feature", "properties": {"PWSID": "AK2211229", "PWS_Name": "UNIFIED ALASKAN UTILITIES MOOREHAND DIV.", "Primacy_Agency": "AK", "Population_Served_Count": 350, "Service_Connections_Count": 109, "Service_Area_Type": "Subdivision", "Verification_Status": "", "Area_SqKM": 0.14223239690272607}, "geometry": {"type": "Point", "coordinates": [-149.84123437176115, 61.139754542848685]}}, {"type": "Feature", "properties": {"PWSID": "AK2212128", "PWS_Name": "GOLDEN NUGGET RV PARK, MALASPINA MHP", "Primacy_Agency": "AK", "Population_Served_Count": 600, "Service_Connections_Count": 300, "Service_Area_Type": "Mobile Home Park", "Verification_Status": "", "Area_SqKM": 0.21652317849234998}, "geometry": {"type": "Point", "coordinates": [-149.800592400211, 61.207950744442165]}}, {"type": "Feature", "properties": {"PWSID": "AK2211091", "PWS_Name": "SOUTH PARK ESTATE TC", "Primacy_Agency": "AK", "Population_Served_Count": 175, "Service_Connections_Count": 66, "Service_Area_Type": "Mobile Home Park", "Verification_Status": "", "Area_SqKM": 0.027962292363402225}, "geometry": {"type": "Point", "coordinates": [-149.89630442886045, 61.193269342708525]}}, {"type": "Feature", "properties": {"PWSID": "AK2213603", "PWS_Name": "LAKE O THE HILLS EAST", "Primacy_Agency": "AK", "Population_Served_Count": 56, "Service_Connections_Count": 16, "Service_Area_Type": "Subdivision", "Verification_Status": "", "Area_SqKM": 0.09035695416469583}, "geometry": {"type": "Point", "coordinates": [-149.74955269936942, 61.117132642817374]}}, {"type": "Feature", "properties": {"PWSID": "AK2213336", "PWS_Name": "GLENN MULDOON TC", "Primacy_Agency": "AK", "Population_Served_Count": 354, "Service_Connections_Count": 131, "Service_Area_Type": "Mobile Home Park", "Verification_Status": "", "Area_SqKM": 0.08424455346434169}, "geometry": {"type": "Point", "coordinates": [-149.73739622828057, 61.22481425742876]}}, {"type": "Feature", "properties": {"PWSID": "AK2210485", "PWS_Name": "SAND LAKE SERVICES", "Primacy_Agency": "AK", "Population_Served_Count": 465, "Service_Connections_Count": 152, "Service_Area_Type": "Subdivision", "Verification_Status": "", "Area_SqKM": 0.2090041069266548}, "geometry": {"type": "Point", "coordinates": [-149.97731387133516, 61.136109185726106]}}, {"type": "Feature", "properties": {"PWSID": "AK2224078", "PWS_Name": "UNIFIED ALASKAN UTILITIES SHERWOOD ESTAT", "Primacy_Agency": "AK", "Population_Served_Count": 147, "Service_Connections_Count": 59, "Service_Area_Type": "Residential Area", "Verification_Status": "", "Area_SqKM": 0.40998522861804715}, "geometry": {"type": "Point", "coordinates": [-149.61149926007698, 61.60234319014482]}}, {"type": "Feature", "properties": {"PWSID": "AK2210419", "PWS_Name": "PENLAND PARK MHP", "Primacy_Agency": "AK", "Population_Served_Count": 993, "Service_Connections_Count": 382, "Service_Area_Type": "Mobile Home Park", "Verification_Status": "", "Area_SqKM": 0.22874634302551167}, "geometry": {"type": "Point", "coordinates": [-149.81838918071236, 61.213629319315515]}}, {"type": "Feature", "properties": {"PWSID": "AK2210435", "PWS_Name": "RANGEVIEW TC", "Primacy_Agency": "AK", "Population_Served_Count": 795, "Service_Connections_Count": 227, "Service_Area_Type": "Mobile Home Park", "Verification_Status": "", "Area_SqKM": 0.13706590581149788}, "geometry": {"type": "Point", "coordinates": [-149.72988916711617, 61.21437029994488]}}, {"type": "Feature", "properties": {"PWSID": "AK2218630", "PWS_Name": "MANOOGS ISLE MOBILE HOME PARK", "Primacy_Agency": "AK", "Population_Served_Count": 935, "Service_Connections_Count": 340, "Service_Area_Type": "Mobile Home Park", "Verification_Status": "", "Area_SqKM": 0.20593670274944093}, "geometry": {"type": "Point", "coordinates": [-149.83455656184023, 61.16976955390911]}}, {"type": "Feature", "properties": {"PWSID": "AK2212461", "PWS_Name": "HILLSIDE PARK S/D", "Primacy_Agency": "AK", "Population_Served_Count": 144, "Service_Connections_Count": 36, "Service_Area_Type": "Subdivision", "Verification_Status": "", "Area_SqKM": 0.1872356673297003}, "geometry": {"type": "Point", "coordinates": [-149.747594185072, 61.12638351785712]}}, {"type": "Feature", "properties": {"PWSID": "AK2210451", "PWS_Name": "RIVIERA TERRACE TC", "Primacy_Agency": "AK", "Population_Served_Count": 435, "Service_Connections_Count": 143, "Service_Area_Type": "Mobile Home Park", "Verification_Status": "", "Area_SqKM": 0.12271413584955174}, "geometry": {"type": "Point", "coordinates": [-149.77436538563228, 61.189402728530425]}}, {"type": "Feature", "properties": {"PWSID": "AK2213297", "PWS_Name": "BIRCHWOOD MHP", "Primacy_Agency": "AK", "Population_Served_Count": 120, "Service_Connections_Count": 41, "Service_Area_Type": "Mobile Home Park", "Verification_Status": "", "Area_SqKM": 0.026135679494615385}, "geometry": {"type": "Point", "coordinates": [-149.46881065837633, 61.4006200192757]}}, {"type": "Feature", "properties": {"PWSID": "AK2210346", "PWS_Name": "GREENBROOK S/D", "Primacy_Agency": "AK", "Population_Served_Count": 123, "Service_Connections_Count": 35, "Service_Area_Type": "Subdivision", "Verification_Status": "", "Area_SqKM": 0.28917716773970104}, "geometry": {"type": "Point", "coordinates": [-149.75544001057648, 61.105488579905945]}}, {"type": "Feature", "properties": {"PWSID": "AK2211114", "PWS_Name": "ROMIG PARK S/D", "Primacy_Agency": "AK", "Population_Served_Count": 493, "Service_Connections_Count": 131, "Service_Area_Type": "Subdivision", "Verification_Status": "", "Area_SqKM": 0.133923940543194}, "geometry": {"type": "Point", "coordinates": [-149.90870915579478, 61.20091232233566]}}, {"type": "Feature", "properties": {"PWSID": "AK2212267", "PWS_Name": "GLACIER VALLEY WATER COMPANY", "Primacy_Agency": "AK", "Population_Served_Count": 120, "Service_Connections_Count": 42, "Service_Area_Type": "Residential Area", "Verification_Status": "", "Area_SqKM": 0.03231494673262734}, "geometry": {"type": "Point", "coordinates": [-149.13318443327626, 60.963522108315125]}}, {"type": "Feature", "properties": {"PWSID": "AK2211677", "PWS_Name": "SOUTHWOOD MANOR TC", "Primacy_Agency": "AK", "Population_Served_Count": 1005, "Service_Connections_Count": 417, "Service_Area_Type": "Mobile Home Park", "Verification_Status": "", "Area_SqKM": 0.30169915131368674}, "geometry": {"type": "Point", "coordinates": [-149.8529710598348, 61.13281432014402]}}, {"type": "Feature", "properties": {"PWSID": "AK2220135", "PWS_Name": "UNIFIED ALASKAN UTILITIES-FIELD OF VIEW", "Primacy_Agency": "AK", "Population_Served_Count": 135, "Service_Connections_Count": 54, "Service_Area_Type": "Residential Area", "Verification_Status": "", "Area_SqKM": 1.3774022496081526}, "geometry": {"type": "Point", "coordinates": [-149.34528889199828, 61.65468934214795]}}, {"type": "Feature", "properties": {"PWSID": "AK2211431", "PWS_Name": "UNIFIED ALASKAN UTILITIES-HOMESTEAD DIV.", "Primacy_Agency": "AK", "Population_Served_Count": 852, "Service_Connections_Count": 213, "Service_Area_Type": "Subdivision", "Verification_Status": "", "Area_SqKM": 0.5980411884713113}, "geometry": {"type": "Point", "coordinates": [-149.42613526820713, 61.41233909075357]}}, {"type": "Feature", "properties": {"PWSID": "AK2240498", "PWS_Name": "PORT GRAHAM", "Primacy_Agency": "AK", "Population_Served_Count": 180, "Service_Connections_Count": 60, "Service_Area_Type": "Municipality", "Verification_Status": "", "Area_SqKM": 0.20582485601365894}, "geometry": {"type": "Point", "coordinates": [-151.8287297049436, 59.348071604100234]}}, {"type": "Feature", "properties": {"PWSID": "AK2243103", "PWS_Name": "COLLEGE PARK HOME OWNERS ASSOC", "Primacy_Agency": "AK", "Population_Served_Count": 85, "Service_Connections_Count": 16, "Service_Area_Type": "Subdivision", "Verification_Status": "", "Area_SqKM": 1.4828958132897867}, "geometry": {"type": "Point", "coordinates": [-151.17053971719173, 60.485670757541975]}}, {"type": "Feature", "properties": {"PWSID": "AK2243137", "PWS_Name": "BEACHSIDE ESTATES", "Primacy_Agency": "AK", "Population_Served_Count": 60, "Service_Connections_Count": 7, "Service_Area_Type": "Residential Area", "Verification_Status": "", "Area_SqKM": 0.12217496641287393}, "geometry": {"type": "Point", "coordinates": [-151.27499284990486, 60.485868600088644]}}, {"type": "Feature", "properties": {"PWSID": "AK2243771", "PWS_Name": "GREATLAND VILLAGE PARK", "Primacy_Agency": "AK", "Population_Served_Count": 30, "Service_Connections_Count": 16, "Service_Area_Type": "Mobile Home Park", "Verification_Status": "", "Area_SqKM": 0.12536805540288956}, "geometry": {"type": "Point", "coordinates": [-151.32782075309038, 60.620518522476175]}}, {"type": "Feature", "properties": {"PWSID": "AK2247953", "PWS_Name": "KACHEMAK SELO #3", "Primacy_Agency": "AK", "Population_Served_Count": 150, "Service_Connections_Count": 34, "Service_Area_Type": "Residential Area", "Verification_Status": "", "Area_SqKM": 0.04252578674328217}, "geometry": {"type": "Point", "coordinates": [-151.09670194832265, 59.79320877278699]}}, {"type": "Feature", "properties": {"PWSID": "AK2250037", "PWS_Name": "AKHIOK", "Primacy_Agency": "AK", "Population_Served_Count": 90, "Service_Connections_Count": 30, "Service_Area_Type": "Municipality", "Verification_Status": "", "Area_SqKM": 0.0474937778598364}, "geometry": {"type": "Point", "coordinates": [-154.17139527317724, 56.944717060646084]}}, {"type": "Feature", "properties": {"PWSID": "AK2250053", "PWS_Name": "OUZINKIE WATER SYSTEM", "Primacy_Agency": "AK", "Population_Served_Count": 144, "Service_Connections_Count": 96, "Service_Area_Type": "Municipality", "Verification_Status": "", "Area_SqKM": 0.17286637724743603}, "geometry": {"type": "Point", "coordinates": [-152.50494041171095, 57.922224262782294]}}, {"type": "Feature", "properties": {"PWSID": "AK2260163", "PWS_Name": "PILOT STATION WATER SYSTEM", "Primacy_Agency": "AK", "Population_Served_Count": 580, "Service_Connections_Count": 126, "Service_Area_Type": "Municipality", "Verification_Status": "", "Area_SqKM": 2.866599127206875}, "geometry": {"type": "Point", "coordinates": [-162.8798879079388, 61.94047113367932]}}, {"type": "Feature", "properties": {"PWSID": "AK2260325", "PWS_Name": "TOGIAK WATER SYSTEM", "Primacy_Agency": "AK", "Population_Served_Count": 910, "Service_Connections_Count": 250, "Service_Area_Type": "Municipality", "Verification_Status": "", "Area_SqKM": 0.16029748060928678}, "geometry": {"type": "Point", "coordinates": [-160.38088000227555, 59.0591167836988]}}, {"type": "Feature", "properties": {"PWSID": "AK2260414", "PWS_Name": "COLD BAY", "Primacy_Agency": "AK", "Population_Served_Count": 182, "Service_Connections_Count": 95, "Service_Area_Type": "Residential Area", "Verification_Status": "", "Area_SqKM": 3.838085309031701}, "geometry": {"type": "Point", "coordinates": [-162.7195640960752, 55.20334674236932]}}, {"type": "Feature", "properties": {"PWSID": "AK2270338", "PWS_Name": "CHEFORNAK WATER SYSTEM", "Primacy_Agency": "AK", "Population_Served_Count": 513, "Service_Connections_Count": 14, "Service_Area_Type": "Municipality", "Verification_Status": "", "Area_SqKM": 12.246905981802144}, "geometry": {"type": "Point", "coordinates": [-164.2517414714597, 60.16108211252352]}}, {"type": "Feature", "properties": {"PWSID": "AK2270346", "PWS_Name": "BETHEL HEIGHTS WATER SYSTEM", "Primacy_Agency": "AK", "Population_Served_Count": 2220, "Service_Connections_Count": 296, "Service_Area_Type": "Municipality", "Verification_Status": "", "Area_SqKM": 6.25208338188924}, "geometry": {"type": "Point", "coordinates": [-161.7776747288938, 60.795034800977064]}}, {"type": "Feature", "properties": {"PWSID": "AK2270362", "PWS_Name": "ALAKANUK WATER SYSTEM", "Primacy_Agency": "AK", "Population_Served_Count": 570, "Service_Connections_Count": 120, "Service_Area_Type": "Municipality", "Verification_Status": "", "Area_SqKM": 0.09185701770150045}, "geometry": {"type": "Point", "coordinates": [-164.67419049997892, 62.691148882657856]}}, {"type": "Feature", "properties": {"PWSID": "AK2271700", "PWS_Name": "KWIGILLINGOK WASHETERIA", "Primacy_Agency": "AK", "Population_Served_Count": 400, "Service_Connections_Count": 4, "Service_Area_Type": "Other Area", "Verification_Status": "", "Area_SqKM": 0.05467664426138174}, "geometry": {"type": "Point", "coordinates": [-163.14833817298705, 59.87072236194683]}}, {"type": "Feature", "properties": {"PWSID": "AK2272012", "PWS_Name": "CHUATHBALUK WATER SYSTEM", "Primacy_Agency": "AK", "Population_Served_Count": 123, "Service_Connections_Count": 39, "Service_Area_Type": "Municipality", "Verification_Status": "", "Area_SqKM": 0.12383866440848297}, "geometry": {"type": "Point", "coordinates": [-159.5361367230491, 61.58121941017532]}}, {"type": "Feature", "properties": {"PWSID": "AK2272017", "PWS_Name": "KWETHLUK NEW PIPED WATER SYSTEM", "Primacy_Agency": "AK", "Population_Served_Count": 760, "Service_Connections_Count": 217, "Service_Area_Type": "Other Residential", "Verification_Status": "", "Area_SqKM": 0.16089780039820156}, "geometry": {"type": "Point", "coordinates": [-161.42966471780963, 60.81044888939675]}}, {"type": "Feature", "properties": {"PWSID": "AK2272747", "PWS_Name": "AKIACHAK WATER SYSTEM", "Primacy_Agency": "AK", "Population_Served_Count": 627, "Service_Connections_Count": 224, "Service_Area_Type": "Municipality", "Verification_Status": "", "Area_SqKM": 8.076119794422526}, "geometry": {"type": "Point", "coordinates": [-161.41189852018638, 60.90901574942217]}}, {"type": "Feature", "properties": {"PWSID": "AK2340345", "PWS_Name": "ELIM WATER SUPPLY", "Primacy_Agency": "AK", "Population_Served_Count": 320, "Service_Connections_Count": 78, "Service_Area_Type": "Municipality", "Verification_Status": "", "Area_SqKM": 0.9412558436469232}, "geometry": {"type": "Point", "coordinates": [-162.24246632905164, 64.61981110203473]}}, {"type": "Feature", "properties": {"PWSID": "AK2340442", "PWS_Name": "SHAKTOOLIK WATER SYSTEM", "Primacy_Agency": "AK", "Population_Served_Count": 270, "Service_Connections_Count": 77, "Service_Area_Type": "Municipality", "Verification_Status": "", "Area_SqKM": 3.0084684995610704}, "geometry": {"type": "Point", "coordinates": [-161.17974414848334, 64.34718025418348]}}, {"type": "Feature", "properties": {"PWSID": "AK2270613", "PWS_Name": "LKSD TUNUNAK PAUL ALBERT HS", "Primacy_Agency": "AK", "Population_Served_Count": 385, "Service_Connections_Count": 5, "Service_Area_Type": "School", "Verification_Status": "", "Area_SqKM": 0.2708989759103853}, "geometry": {"type": "Point", "coordinates": [-165.25704365355375, 60.58356529212851]}}, {"type": "Feature", "properties": {"PWSID": "AK2210338", "PWS_Name": "GREEN ACRES TC", "Primacy_Agency": "AK", "Population_Served_Count": 96, "Service_Connections_Count": 25, "Service_Area_Type": "Mobile Home Park", "Verification_Status": "", "Area_SqKM": 0.09044022947771288}, "geometry": {"type": "Point", "coordinates": [-149.80734234216732, 61.15363612109239]}}, {"type": "Feature", "properties": {"PWSID": "AK2210354", "PWS_Name": "INLET VIEW MHP CHUGIAK", "Primacy_Agency": "AK", "Population_Served_Count": 47, "Service_Connections_Count": 29, "Service_Area_Type": "Mobile Home Park", "Verification_Status": "", "Area_SqKM": 2.1814917958929008}, "geometry": {"type": "Point", "coordinates": [-149.51661762156925, 61.37307607252927]}}, {"type": "Feature", "properties": {"PWSID": "AK2210574", "PWS_Name": "TOTEM TRAILER TOWN TC", "Primacy_Agency": "AK", "Population_Served_Count": 116, "Service_Connections_Count": 77, "Service_Area_Type": "Mobile Home Park", "Verification_Status": "", "Area_SqKM": 0.04396087859848684}, "geometry": {"type": "Point", "coordinates": [-149.8025844443972, 61.21778173692559]}}, {"type": "Feature", "properties": {"PWSID": "AK2280302", "PWS_Name": "CROOKED CREEK WATERING POINT", "Primacy_Agency": "AK", "Population_Served_Count": 147, "Service_Connections_Count": 3, "Service_Area_Type": "Other Area", "Verification_Status": "", "Area_SqKM": 0.1822566161646605}, "geometry": {"type": "Point", "coordinates": [-158.1322002188394, 61.860916685166174]}}, {"type": "Feature", "properties": {"PWSID": "AK2298002", "PWS_Name": "MOUNTAIN VIEW APARTMENTS", "Primacy_Agency": "AK", "Population_Served_Count": 48, "Service_Connections_Count": 3, "Service_Area_Type": "Residential Area", "Verification_Status": "", "Area_SqKM": 0.012212617840162969}, "geometry": {"type": "Point", "coordinates": [-149.90072253837232, 61.216051753815194]}}, {"type": "Feature", "properties": {"PWSID": "AK2360109", "PWS_Name": "TOO'GHA INC - IN TANANA", "Primacy_Agency": "AK", "Population_Served_Count": 271, "Service_Connections_Count": 65, "Service_Area_Type": "Municipality", "Verification_Status": "", "Area_SqKM": 1.3950834722582324}, "geometry": {"type": "Point", "coordinates": [-152.06838686833075, 65.17261954541708]}}, {"type": "Feature", "properties": {"PWSID": "AK2360141", "PWS_Name": "KALTAG PUBLIC WATER SYSTEM", "Primacy_Agency": "AK", "Population_Served_Count": 214, "Service_Connections_Count": 54, "Service_Area_Type": "Municipality", "Verification_Status": "", "Area_SqKM": 0.2326307550976913}, "geometry": {"type": "Point", "coordinates": [-158.72800787324556, 64.32776660108081]}}, {"type": "Feature", "properties": {"PWSID": "AK2360785", "PWS_Name": "NULATO RIVER WELL", "Primacy_Agency": "AK", "Population_Served_Count": 470, "Service_Connections_Count": 70, "Service_Area_Type": "Municipality", "Verification_Status": "", "Area_SqKM": 0.772576335063711}, "geometry": {"type": "Point", "coordinates": [-158.11214082681244, 64.72005589263566]}}, {"type": "Feature", "properties": {"PWSID": "AK2220037", "PWS_Name": "MEADOW BROOK SUBDIVISION", "Primacy_Agency": "AK", "Population_Served_Count": 465, "Service_Connections_Count": 190, "Service_Area_Type": "Residential Area", "Verification_Status": "", "Area_SqKM": 1.6681160973191709}, "geometry": {"type": "Point", "coordinates": [-149.2987436036262, 61.584335181760764]}}, {"type": "Feature", "properties": {"PWSID": "AK2220146", "PWS_Name": "GEMSTONE ESTATES", "Primacy_Agency": "AK", "Population_Served_Count": 75, "Service_Connections_Count": 64, "Service_Area_Type": "Residential Area", "Verification_Status": "", "Area_SqKM": 0.7086569041262074}, "geometry": {"type": "Point", "coordinates": [-149.35089234765437, 61.607547065153526]}}, {"type": "Feature", "properties": {"PWSID": "AK2220485", "PWS_Name": "VIEW POINTE AT THE RANCH", "Primacy_Agency": "AK", "Population_Served_Count": 155, "Service_Connections_Count": 20, "Service_Area_Type": "Residential Area", "Verification_Status": "", "Area_SqKM": 0.527153029874784}, "geometry": {"type": "Point", "coordinates": [-149.32074096946232, 61.55492086308568]}}, {"type": "Feature", "properties": {"PWSID": "AK2220488", "PWS_Name": "ALPINE VIEW SUBDIVISION", "Primacy_Agency": "AK", "Population_Served_Count": 50, "Service_Connections_Count": 19, "Service_Area_Type": "Other Residential", "Verification_Status": "", "Area_SqKM": 0.24700861660012507}, "geometry": {"type": "Point", "coordinates": [-149.24590957758355, 61.66773112226599]}}, {"type": "Feature", "properties": {"PWSID": "AK2220493", "PWS_Name": "BERRY BLUFF COMMUNITY WATER SYSTEM", "Primacy_Agency": "AK", "Population_Served_Count": 25, "Service_Connections_Count": 20, "Service_Area_Type": "Residential Area", "Verification_Status": "", "Area_SqKM": 0.04132594221983266}, "geometry": {"type": "Point", "coordinates": [-150.04425538193348, 61.76125716361052]}}, {"type": "Feature", "properties": {"PWSID": "AK2226014", "PWS_Name": "HEAVENLY MEADOWS", "Primacy_Agency": "AK", "Population_Served_Count": 88, "Service_Connections_Count": 22, "Service_Area_Type": "Residential Area", "Verification_Status": "", "Area_SqKM": 0.9889455437470547}, "geometry": {"type": "Point", "coordinates": [-149.17963944283017, 61.55942182978614]}}, {"type": "Feature", "properties": {"PWSID": "AK2226021", "PWS_Name": "MAJESTIC HILLS SUBDIVISION", "Primacy_Agency": "AK", "Population_Served_Count": 168, "Service_Connections_Count": 67, "Service_Area_Type": "Residential Area", "Verification_Status": "", "Area_SqKM": 0.05886788006774026}, "geometry": {"type": "Point", "coordinates": [-149.12112865005622, 61.57181237495574]}}, {"type": "Feature", "properties": {"PWSID": "AK2227199", "PWS_Name": "EQUESTRIAN ACRES", "Primacy_Agency": "AK", "Population_Served_Count": 950, "Service_Connections_Count": 230, "Service_Area_Type": "Subdivision", "Verification_Status": "", "Area_SqKM": 0.8678166096153263}, "geometry": {"type": "Point", "coordinates": [-149.17441471224163, 61.60331130806706]}}, {"type": "Feature", "properties": {"PWSID": "AK2291211", "PWS_Name": "VALDEZ ROBE RIVER S/D", "Primacy_Agency": "AK", "Population_Served_Count": 464, "Service_Connections_Count": 230, "Service_Area_Type": "Residential Area", "Verification_Status": "", "Area_SqKM": 3.71864810275508}, "geometry": {"type": "Point", "coordinates": [-146.2341979626972, 61.12608757763779]}}, {"type": "Feature", "properties": {"PWSID": "AK2291229", "PWS_Name": "VALDEZ SOUTHCENTRAL", "Primacy_Agency": "AK", "Population_Served_Count": 675, "Service_Connections_Count": 179, "Service_Area_Type": "Municipality", "Verification_Status": "", "Area_SqKM": 1.0854164779151128}, "geometry": {"type": "Point", "coordinates": [-146.2525812165539, 61.12440090062606]}}, {"type": "Feature", "properties": {"PWSID": "AK2291499", "PWS_Name": "GLENNALLEN WATER WORKS", "Primacy_Agency": "AK", "Population_Served_Count": 365, "Service_Connections_Count": 12, "Service_Area_Type": "Residential Area", "Verification_Status": "", "Area_SqKM": 1.6916713917455495}, "geometry": {"type": "Point", "coordinates": [-145.53784618826774, 62.10920037420202]}}, {"type": "Feature", "properties": {"PWSID": "AK2390586", "PWS_Name": "DENALI - ROCK CREEK HQ.", "Primacy_Agency": "AK", "Population_Served_Count": 220, "Service_Connections_Count": 61, "Service_Area_Type": "Residential Area", "Verification_Status": "", "Area_SqKM": 1.307248005030493}, "geometry": {"type": "Point", "coordinates": [-149.0055841177842, 63.87564776987606]}}, {"type": "Feature", "properties": {"PWSID": "AK2226051", "PWS_Name": "MOUNTAIN GLORY SUBDIVISION", "Primacy_Agency": "AK", "Population_Served_Count": 32, "Service_Connections_Count": 13, "Service_Area_Type": "Residential Area", "Verification_Status": "", "Area_SqKM": 0.7939532025199264}, "geometry": {"type": "Point", "coordinates": [-149.9379364333074, 61.66342525838747]}}, {"type": "Feature", "properties": {"PWSID": "AK2110562", "PWS_Name": "CHILKAT INDIAN VILLAGE", "Primacy_Agency": "AK", "Population_Served_Count": 113, "Service_Connections_Count": 52, "Service_Area_Type": "Other Area", "Verification_Status": "", "Area_SqKM": 0.09724710494182985}, "geometry": {"type": "Point", "coordinates": [-135.43589699565504, 59.24532023884994]}}, {"type": "Feature", "properties": {"PWSID": "AK2310683", "PWS_Name": "UNIVERSITY OF ALASKA - FAIRBANKS", "Primacy_Agency": "AK", "Population_Served_Count": 6200, "Service_Connections_Count": 100, "Service_Area_Type": "Residential Area", "Verification_Status": "", "Area_SqKM": 0.3192456062945051}, "geometry": {"type": "Point", "coordinates": [-147.76319649214634, 64.95392154500054]}}, {"type": "Feature", "properties": {"PWSID": "AK2310714", "PWS_Name": "PIONEER WELLS", "Primacy_Agency": "AK", "Population_Served_Count": 600, "Service_Connections_Count": 1, "Service_Area_Type": "Residential Area", "Verification_Status": "", "Area_SqKM": 0.3463743377411709}, "geometry": {"type": "Point", "coordinates": [-147.6828538144373, 64.8485020680673]}}, {"type": "Feature", "properties": {"PWSID": "AK2310803", "PWS_Name": "VILLAGE MOBILE HOME PARK", "Primacy_Agency": "AK", "Population_Served_Count": 65, "Service_Connections_Count": 29, "Service_Area_Type": "Mobile Home Park", "Verification_Status": "", "Area_SqKM": 0.02460836925721616}, "geometry": {"type": "Point", "coordinates": [-147.6680728690593, 64.89854603066289]}}, {"type": "Feature", "properties": {"PWSID": "AK2310837", "PWS_Name": "BIRCHVIEW RENTAL PROPERTIES, LLC", "Primacy_Agency": "AK", "Population_Served_Count": 31, "Service_Connections_Count": 24, "Service_Area_Type": "Residential Area", "Verification_Status": "", "Area_SqKM": 0.16913367363891058}, "geometry": {"type": "Point", "coordinates": [-147.63036752025175, 64.88859871299637]}}, {"type": "Feature", "properties": {"PWSID": "AK2310853", "PWS_Name": "WILDWOOD HOMES LLC", "Primacy_Agency": "AK", "Population_Served_Count": 114, "Service_Connections_Count": 47, "Service_Area_Type": "Mobile Home Park", "Verification_Status": "", "Area_SqKM": 0.36227231479086175}, "geometry": {"type": "Point", "coordinates": [-147.62234265921444, 64.95533663047024]}}, {"type": "Feature", "properties": {"PWSID": "AK2310879", "PWS_Name": "RAINBOW VALLEY MHP", "Primacy_Agency": "AK", "Population_Served_Count": 105, "Service_Connections_Count": 43, "Service_Area_Type": "Mobile Home Park", "Verification_Status": "", "Area_SqKM": 0.209749665791313}, "geometry": {"type": "Point", "coordinates": [-147.41879024751958, 65.04496697459253]}}, {"type": "Feature", "properties": {"PWSID": "AK2310895", "PWS_Name": "TOWN & COUNTRY TRAILER COURT", "Primacy_Agency": "AK", "Population_Served_Count": 156, "Service_Connections_Count": 62, "Service_Area_Type": "Mobile Home Park", "Verification_Status": "", "Area_SqKM": 0.05615342111407919}, "geometry": {"type": "Point", "coordinates": [-147.67250952844591, 64.89728556201328]}}, {"type": "Feature", "properties": {"PWSID": "AK2312415", "PWS_Name": "SALCHA COMMUNITY WATERING POINT", "Primacy_Agency": "AK", "Population_Served_Count": 508, "Service_Connections_Count": 1, "Service_Area_Type": "Other Area", "Verification_Status": "", "Area_SqKM": 0.2540581906836369}, "geometry": {"type": "Point", "coordinates": [-146.93459649660034, 64.46456576666135]}}, {"type": "Feature", "properties": {"PWSID": "AK2312813", "PWS_Name": "TWIN SPRINGS WATER", "Primacy_Agency": "AK", "Population_Served_Count": 310, "Service_Connections_Count": 1, "Service_Area_Type": "Residential Area", "Verification_Status": "", "Area_SqKM": 4.26106848121882}, "geometry": {"type": "Point", "coordinates": [-147.5567631713661, 64.90849184760792]}}, {"type": "Feature", "properties": {"PWSID": "AK2313233", "PWS_Name": "WHITE BIRCH APARTMENTS", "Primacy_Agency": "AK", "Population_Served_Count": 72, "Service_Connections_Count": 2, "Service_Area_Type": "Residential Area", "Verification_Status": "", "Area_SqKM": 0.6931935146144657}, "geometry": {"type": "Point", "coordinates": [-147.30394783280818, 64.75921967862048]}}, {"type": "Feature", "properties": {"PWSID": "AK2360816", "PWS_Name": "RAMPART WASHETERIA", "Primacy_Agency": "AK", "Population_Served_Count": 88, "Service_Connections_Count": 5, "Service_Area_Type": "Municipality", "Verification_Status": "", "Area_SqKM": 0.04082480321225485}, "geometry": {"type": "Point", "coordinates": [-150.17187233385715, 65.50418920143738]}}, {"type": "Feature", "properties": {"PWSID": "AK2372075", "PWS_Name": "WHITESTONE FARMS TABERNACLE", "Primacy_Agency": "AK", "Population_Served_Count": 210, "Service_Connections_Count": 1, "Service_Area_Type": "Other Non-transient Area", "Verification_Status": "", "Area_SqKM": 0.12791594523039274}, "geometry": {"type": "Point", "coordinates": [-145.82197953607422, 64.14044017209844]}}, {"type": "Feature", "properties": {"PWSID": "AK2380329", "PWS_Name": "LIVING WORD MINISTRY", "Primacy_Agency": "AK", "Population_Served_Count": 62, "Service_Connections_Count": 6, "Service_Area_Type": "Residential Area", "Verification_Status": "", "Area_SqKM": 0.6714495259569695}, "geometry": {"type": "Point", "coordinates": [-145.65942366849453, 64.0729260182736]}}, {"type": "Feature", "properties": {"PWSID": "AK2380531", "PWS_Name": "TANACROSS WATER SYSTEM", "Primacy_Agency": "AK", "Population_Served_Count": 108, "Service_Connections_Count": 63, "Service_Area_Type": "Municipality", "Verification_Status": "", "Area_SqKM": 0.10790089898124948}, "geometry": {"type": "Point", "coordinates": [-143.36052932954334, 63.37768135672769]}}, {"type": "Feature", "properties": {"PWSID": "AK2382096", "PWS_Name": "EAGLE LOG WELLHOUSE", "Primacy_Agency": "AK", "Population_Served_Count": 192, "Service_Connections_Count": 1, "Service_Area_Type": "Municipality", "Verification_Status": "", "Area_SqKM": 0.8151413595205774}, "geometry": {"type": "Point", "coordinates": [-141.19075560868606, 64.78353012793077]}}, {"type": "Feature", "properties": {"PWSID": "AK2390756", "PWS_Name": "CLEAR SPACE FORCE STATION \u00e2\u20ac\u201c MAIN", "Primacy_Agency": "AK", "Population_Served_Count": 433, "Service_Connections_Count": 20, "Service_Area_Type": "Other Residential", "Verification_Status": "", "Area_SqKM": 0.40311513887087463}, "geometry": {"type": "Point", "coordinates": [-149.19045129011693, 64.34731213213169]}}, {"type": "Feature", "properties": {"PWSID": "AK2120127", "PWS_Name": "SAXMAN", "Primacy_Agency": "AK", "Population_Served_Count": 450, "Service_Connections_Count": 127, "Service_Area_Type": "Municipality", "Verification_Status": "", "Area_SqKM": 1.7835260452496573}, "geometry": {"type": "Point", "coordinates": [-131.55025005299953, 55.311070025012775]}}, {"type": "Feature", "properties": {"PWSID": "AK2121510", "PWS_Name": "SOUTH TONGASS WATER UTILITY", "Primacy_Agency": "AK", "Population_Served_Count": 975, "Service_Connections_Count": 327, "Service_Area_Type": "Subdivision", "Verification_Status": "", "Area_SqKM": 0.10300427488644376}, "geometry": {"type": "Point", "coordinates": [-131.77056128276615, 55.484735611489604]}}, {"type": "Feature", "properties": {"PWSID": "AK2381498", "PWS_Name": "MENTASTA WASHETERIA/14 PLEX", "Primacy_Agency": "AK", "Population_Served_Count": 90, "Service_Connections_Count": 4, "Service_Area_Type": "Residential Area", "Verification_Status": "", "Area_SqKM": 0.10195587853646829}, "geometry": {"type": "Point", "coordinates": [-143.8009108263187, 62.9276635683875]}}, {"type": "Feature", "properties": {"PWSID": "AK2381422", "PWS_Name": "NORTHWAY WASHETERIA/CLINIC", "Primacy_Agency": "AK", "Population_Served_Count": 223, "Service_Connections_Count": 2, "Service_Area_Type": "Residential Area", "Verification_Status": "", "Area_SqKM": 0.05249930964570815}, "geometry": {"type": "Point", "coordinates": [-141.95715539522934, 62.980559217086146]}}, {"type": "Feature", "properties": {"PWSID": "AK2380638", "PWS_Name": "TETLIN UTILITY SYSTEM", "Primacy_Agency": "AK", "Population_Served_Count": 150, "Service_Connections_Count": 4, "Service_Area_Type": "Municipality", "Verification_Status": "", "Area_SqKM": 0.9547499196336636}, "geometry": {"type": "Point", "coordinates": [-142.99564736023123, 63.32753109770315]}}, {"type": "Feature", "properties": {"PWSID": "AK2370625", "PWS_Name": "EIELSON - AIR FORCE BASE", "Primacy_Agency": "AK", "Population_Served_Count": 9760, "Service_Connections_Count": 716, "Service_Area_Type": "Residential Area", "Verification_Status": "", "Area_SqKM": 36.8190923380541}, "geometry": {"type": "Point", "coordinates": [-147.11260266248584, 64.66689021859318]}}, {"type": "Feature", "properties": {"PWSID": "AK2360442", "PWS_Name": "STEVENS VILLAGE WATER SYSTEM", "Primacy_Agency": "AK", "Population_Served_Count": 28, "Service_Connections_Count": 2, "Service_Area_Type": "Municipality", "Verification_Status": "", "Area_SqKM": 30.45161685659371}, "geometry": {"type": "Point", "coordinates": [-149.09148438681154, 66.02816505139094]}}, {"type": "Feature", "properties": {"PWSID": "AK2360230", "PWS_Name": "BEAVER WATER SYSTEM", "Primacy_Agency": "AK", "Population_Served_Count": 80, "Service_Connections_Count": 4, "Service_Area_Type": "Municipality", "Verification_Status": "", "Area_SqKM": 0.05696695919751227}, "geometry": {"type": "Point", "coordinates": [-147.3950875219842, 66.3600280403453]}}, {"type": "Feature", "properties": {"PWSID": "AK2310277", "PWS_Name": "DOT & PF FOX WATERING POINT", "Primacy_Agency": "AK", "Population_Served_Count": 350, "Service_Connections_Count": 1, "Service_Area_Type": "Other Residential", "Verification_Status": "", "Area_SqKM": 0.10074084485939905}, "geometry": {"type": "Point", "coordinates": [-147.62283165316506, 64.95969975754167]}}, {"type": "Feature", "properties": {"PWSID": "AK2300769", "PWS_Name": "CIRCLE WASHETERIA", "Primacy_Agency": "AK", "Population_Served_Count": 110, "Service_Connections_Count": 4, "Service_Area_Type": "Municipality", "Verification_Status": "", "Area_SqKM": 0.026225175447236286}, "geometry": {"type": "Point", "coordinates": [-144.06606353319506, 65.82463960014499]}}, {"type": "Feature", "properties": {"PWSID": "AK2300484", "PWS_Name": "MANLEY COMMUNITY WATER SYSTEM", "Primacy_Agency": "AK", "Population_Served_Count": 95, "Service_Connections_Count": 1, "Service_Area_Type": "Municipality", "Verification_Status": "", "Area_SqKM": 0.11891591237922512}, "geometry": {"type": "Point", "coordinates": [-150.62404711427246, 65.00589087146844]}}, {"type": "Feature", "properties": {"PWSID": "AK2300183", "PWS_Name": "CHALKYITSIK VILLAGE WATER", "Primacy_Agency": "AK", "Population_Served_Count": 76, "Service_Connections_Count": 3, "Service_Area_Type": "Municipality", "Verification_Status": "", "Area_SqKM": 0.045992432515138834}, "geometry": {"type": "Point", "coordinates": [-143.720093872157, 66.6545141546049]}}, {"type": "Feature", "properties": {"PWSID": "AK2300159", "PWS_Name": "MINTO COMMUNITY WATER SYSTEM", "Primacy_Agency": "AK", "Population_Served_Count": 205, "Service_Connections_Count": 80, "Service_Area_Type": "Municipality", "Verification_Status": "", "Area_SqKM": 0.29235414545476435}, "geometry": {"type": "Point", "coordinates": [-149.3511415142203, 65.14908237147202]}}, {"type": "Feature", "properties": {"PWSID": "AK2292099", "PWS_Name": "ALASKA BIBLE COLLEGE", "Primacy_Agency": "AK", "Population_Served_Count": 50, "Service_Connections_Count": 13, "Service_Area_Type": "Residential Area", "Verification_Status": "", "Area_SqKM": 1.2638824237431283}, "geometry": {"type": "Point", "coordinates": [-145.53011859950462, 62.11040674693462]}}, {"type": "Feature", "properties": {"PWSID": "AK2291130", "PWS_Name": "TATITLEK WATER SYSTEM", "Primacy_Agency": "AK", "Population_Served_Count": 95, "Service_Connections_Count": 26, "Service_Area_Type": "Municipality", "Verification_Status": "", "Area_SqKM": 0.2010144509360575}, "geometry": {"type": "Point", "coordinates": [-146.69609821344446, 60.895063151996695]}}, {"type": "Feature", "properties": {"PWSID": "AK2227220", "PWS_Name": "CAMWELL ON THE GREEN (MHP)", "Primacy_Agency": "AK", "Population_Served_Count": 33, "Service_Connections_Count": 23, "Service_Area_Type": "Mobile Home Park", "Verification_Status": "", "Area_SqKM": 0.946945556377792}, "geometry": {"type": "Point", "coordinates": [-149.28841085482497, 61.58497631931072]}}, {"type": "Feature", "properties": {"PWSID": "AK2225511", "PWS_Name": "WESTWOOD WATER COMPANY INC", "Primacy_Agency": "AK", "Population_Served_Count": 180, "Service_Connections_Count": 59, "Service_Area_Type": "Residential Area", "Verification_Status": "", "Area_SqKM": 0.3197454647991707}, "geometry": {"type": "Point", "coordinates": [-149.85035268756783, 61.56179653754729]}}, {"type": "Feature", "properties": {"PWSID": "AK2224329", "PWS_Name": "CRIMSON VIEW S/D WATER ASSN.", "Primacy_Agency": "AK", "Population_Served_Count": 118, "Service_Connections_Count": 47, "Service_Area_Type": "Subdivision", "Verification_Status": "", "Area_SqKM": 0.02651034748688474}, "geometry": {"type": "Point", "coordinates": [-149.15877229971548, 61.56952570000262]}}, {"type": "Feature", "properties": {"PWSID": "AK2224117", "PWS_Name": "WELLINGFIELD WEST DIV I II", "Primacy_Agency": "AK", "Population_Served_Count": 168, "Service_Connections_Count": 43, "Service_Area_Type": "Residential Area", "Verification_Status": "", "Area_SqKM": 1.4320737211269616}, "geometry": {"type": "Point", "coordinates": [-149.31552779130217, 61.55727806414463]}}, {"type": "Feature", "properties": {"PWSID": "AK2224036", "PWS_Name": "ELSINORE ESTATES SUBDIVISION", "Primacy_Agency": "AK", "Population_Served_Count": 120, "Service_Connections_Count": 17, "Service_Area_Type": "Residential Area", "Verification_Status": "", "Area_SqKM": 0.1905863458095133}, "geometry": {"type": "Point", "coordinates": [-149.34897368793267, 61.609719982478914]}}, {"type": "Feature", "properties": {"PWSID": "AK2224028", "PWS_Name": "FORTY NINER HOMEOWNERS ASSOC.", "Primacy_Agency": "AK", "Population_Served_Count": 39, "Service_Connections_Count": 13, "Service_Area_Type": "Residential Area", "Verification_Status": "", "Area_SqKM": 2.029117698492456}, "geometry": {"type": "Point", "coordinates": [-149.63299848170337, 61.57647381035649]}}, {"type": "Feature", "properties": {"PWSID": "AK2222848", "PWS_Name": "ALASKA H2O INC", "Primacy_Agency": "AK", "Population_Served_Count": 75, "Service_Connections_Count": 28, "Service_Area_Type": "Residential Area", "Verification_Status": "", "Area_SqKM": 0.0425302968347149}, "geometry": {"type": "Point", "coordinates": [-149.539132845405, 61.58997697278201]}}, {"type": "Feature", "properties": {"PWSID": "AK2221208", "PWS_Name": "WASILLA WEST SUBDIVISION", "Primacy_Agency": "AK", "Population_Served_Count": 200, "Service_Connections_Count": 66, "Service_Area_Type": "Residential Area", "Verification_Status": "", "Area_SqKM": 0.23078571431728825}, "geometry": {"type": "Point", "coordinates": [-149.68513086010176, 61.57047223649909]}}, {"type": "Feature", "properties": {"PWSID": "AK2220495", "PWS_Name": "TRAPPER CREEK WATERING POINT", "Primacy_Agency": "AK", "Population_Served_Count": 500, "Service_Connections_Count": 2, "Service_Area_Type": "Other Residential", "Verification_Status": "", "Area_SqKM": 0.4464667178261985}, "geometry": {"type": "Point", "coordinates": [-150.17679650957805, 62.309851193553726]}}, {"type": "Feature", "properties": {"PWSID": "AK2220310", "PWS_Name": "BIRCHVIEW TOWNHOME CONDOS", "Primacy_Agency": "AK", "Population_Served_Count": 25, "Service_Connections_Count": 3, "Service_Area_Type": "Homeowners Association", "Verification_Status": "", "Area_SqKM": 0.06565675211902483}, "geometry": {"type": "Point", "coordinates": [-149.44615039112065, 61.58559270008559]}}, {"type": "Feature", "properties": {"PWSID": "AK2220215", "PWS_Name": "AMBER RIDGE BRENTWOOD #1", "Primacy_Agency": "AK", "Population_Served_Count": 28, "Service_Connections_Count": 1, "Service_Area_Type": "Residential Area", "Verification_Status": "", "Area_SqKM": 0.18552672105501403}, "geometry": {"type": "Point", "coordinates": [-149.3874294215494, 61.617449483793216]}}, {"type": "Feature", "properties": {"PWSID": "AK2220170", "PWS_Name": "WASILLA CREEK COMMONS", "Primacy_Agency": "AK", "Population_Served_Count": 276, "Service_Connections_Count": 69, "Service_Area_Type": "Residential Area", "Verification_Status": "", "Area_SqKM": 0.17733782428567615}, "geometry": {"type": "Point", "coordinates": [-149.25023316108596, 61.59483111666629]}}, {"type": "Feature", "properties": {"PWSID": "AK2241101", "PWS_Name": "BAY VIEW TRAILER COURT", "Primacy_Agency": "AK", "Population_Served_Count": 51, "Service_Connections_Count": 18, "Service_Area_Type": "Mobile Home Park", "Verification_Status": "", "Area_SqKM": 0.022764615682779207}, "geometry": {"type": "Point", "coordinates": [-149.4075604198236, 60.148324959973365]}}, {"type": "Feature", "properties": {"PWSID": "AK2360866", "PWS_Name": "RUBY WATER SYSTEM", "Primacy_Agency": "AK", "Population_Served_Count": 215, "Service_Connections_Count": 2, "Service_Area_Type": "Municipality", "Verification_Status": "", "Area_SqKM": 0.9767571549374602}, "geometry": {"type": "Point", "coordinates": [-155.47991197627184, 64.74191202826574]}}, {"type": "Feature", "properties": {"PWSID": "AK2360214", "PWS_Name": "KOYUKUK SAFEWATER FACILITY", "Primacy_Agency": "AK", "Population_Served_Count": 85, "Service_Connections_Count": 3, "Service_Area_Type": "Municipality", "Verification_Status": "", "Area_SqKM": 0.19709173005697392}, "geometry": {"type": "Point", "coordinates": [-157.70317406829682, 64.882564889538]}}, {"type": "Feature", "properties": {"PWSID": "AK2360159", "PWS_Name": "GALENA WTP2 - GILA", "Primacy_Agency": "AK", "Population_Served_Count": 290, "Service_Connections_Count": 25, "Service_Area_Type": "Other Non-transient Area", "Verification_Status": "", "Area_SqKM": 1.6650175071111064}, "geometry": {"type": "Point", "coordinates": [-156.93751613141688, 64.73655950070098]}}, {"type": "Feature", "properties": {"PWSID": "AK2340565", "PWS_Name": "KOBUK WATER SYSTEM", "Primacy_Agency": "AK", "Population_Served_Count": 93, "Service_Connections_Count": 31, "Service_Area_Type": "Municipality", "Verification_Status": "", "Area_SqKM": 0.014266031145276279}, "geometry": {"type": "Point", "coordinates": [-156.88318719991187, 66.90799720001803]}}, {"type": "Feature", "properties": {"PWSID": "AK2340361", "PWS_Name": "SHUNGNAK WATER SYSTEM", "Primacy_Agency": "AK", "Population_Served_Count": 299, "Service_Connections_Count": 68, "Service_Area_Type": "Municipality", "Verification_Status": "", "Area_SqKM": 13.528944035341425}, "geometry": {"type": "Point", "coordinates": [-157.14412003695392, 66.88136184619202]}}, {"type": "Feature", "properties": {"PWSID": "AK2300816", "PWS_Name": "ALLAKAKET PUBLIC WATER SYSTEM", "Primacy_Agency": "AK", "Population_Served_Count": 135, "Service_Connections_Count": 3, "Service_Area_Type": "Municipality", "Verification_Status": "", "Area_SqKM": 2.485546208006021}, "geometry": {"type": "Point", "coordinates": [-152.6498310333057, 66.55436356076656]}}, {"type": "Feature", "properties": {"PWSID": "AK2300272", "PWS_Name": "HUGHES PUBLIC WATER SUPPLY", "Primacy_Agency": "AK", "Population_Served_Count": 107, "Service_Connections_Count": 36, "Service_Area_Type": "Municipality", "Verification_Status": "", "Area_SqKM": 0.023967319557154962}, "geometry": {"type": "Point", "coordinates": [-154.25748416454306, 66.04550830975704]}}, {"type": "Feature", "properties": {"PWSID": "AK2241062", "PWS_Name": "SALMON CREEK TRAILER COURT", "Primacy_Agency": "AK", "Population_Served_Count": 125, "Service_Connections_Count": 55, "Service_Area_Type": "Mobile Home Park", "Verification_Status": "", "Area_SqKM": 0.0504491696141139}, "geometry": {"type": "Point", "coordinates": [-149.40245783354112, 60.157092733292686]}}, {"type": "Feature", "properties": {"PWSID": "AK2240757", "PWS_Name": "SEWARD", "Primacy_Agency": "AK", "Population_Served_Count": 3324, "Service_Connections_Count": 903, "Service_Area_Type": "Municipality", "Verification_Status": "", "Area_SqKM": 10.207540904762245}, "geometry": {"type": "Point", "coordinates": [-149.43737969743748, 60.12117104727576]}}, {"type": "Feature", "properties": {"PWSID": "AK2227547", "PWS_Name": "MATANUSKA HEIGHTS DUCHESS", "Primacy_Agency": "AK", "Population_Served_Count": 36, "Service_Connections_Count": 3, "Service_Area_Type": "Residential Area", "Verification_Status": "", "Area_SqKM": 0.06695057853744389}, "geometry": {"type": "Point", "coordinates": [-149.43900061682658, 61.41287536645751]}}, {"type": "Feature", "properties": {"PWSID": "AK2226057", "PWS_Name": "ARKOSE WOODS", "Primacy_Agency": "AK", "Population_Served_Count": 90, "Service_Connections_Count": 36, "Service_Area_Type": "Residential Area", "Verification_Status": "", "Area_SqKM": 0.11311980991969642}, "geometry": {"type": "Point", "coordinates": [-149.97383489808948, 61.48832161888276]}}, {"type": "Feature", "properties": {"PWSID": "AK2214007", "PWS_Name": "ALYESKA CHALET CONDOS HOA", "Primacy_Agency": "AK", "Population_Served_Count": 60, "Service_Connections_Count": 21, "Service_Area_Type": "Residential Area", "Verification_Status": "", "Area_SqKM": 0.5759421321590322}, "geometry": {"type": "Point", "coordinates": [-149.14095744478, 60.954986000714904]}}, {"type": "Feature", "properties": {"PWSID": "AK2211724", "PWS_Name": "G A PHILLIPS S/D", "Primacy_Agency": "AK", "Population_Served_Count": 102, "Service_Connections_Count": 36, "Service_Area_Type": "Subdivision", "Verification_Status": "", "Area_SqKM": 0.07521312283308776}, "geometry": {"type": "Point", "coordinates": [-149.5618890130519, 61.323211917361434]}}, {"type": "Feature", "properties": {"PWSID": "AK2211619", "PWS_Name": "MAYFLOWER TC", "Primacy_Agency": "AK", "Population_Served_Count": 650, "Service_Connections_Count": 220, "Service_Area_Type": "Mobile Home Park", "Verification_Status": "", "Area_SqKM": 0.11956214582928403}, "geometry": {"type": "Point", "coordinates": [-149.7761006470647, 61.21478530779682]}}, {"type": "Feature", "properties": {"PWSID": "AK2210891", "PWS_Name": "SNOWCREST VIEW SOUTH", "Primacy_Agency": "AK", "Population_Served_Count": 25, "Service_Connections_Count": 13, "Service_Area_Type": "Subdivision", "Verification_Status": "", "Area_SqKM": 0.04047849940991271}, "geometry": {"type": "Point", "coordinates": [-149.87863762429689, 61.1179692198647]}}, {"type": "Feature", "properties": {"PWSID": "AK2210794", "PWS_Name": "FOREST PARK TC", "Primacy_Agency": "AK", "Population_Served_Count": 175, "Service_Connections_Count": 46, "Service_Area_Type": "Other Non-transient Area", "Verification_Status": "", "Area_SqKM": 2.337590808583871}, "geometry": {"type": "Point", "coordinates": [-149.501782440705, 61.37129993257802]}}, {"type": "Feature", "properties": {"PWSID": "AK2210689", "PWS_Name": "GLENCAREN COURT", "Primacy_Agency": "AK", "Population_Served_Count": 828, "Service_Connections_Count": 450, "Service_Area_Type": "Mobile Home Park", "Verification_Status": "", "Area_SqKM": 0.6193008881394194}, "geometry": {"type": "Point", "coordinates": [-149.72698273035314, 61.200266879765856]}}, {"type": "Feature", "properties": {"PWSID": "AK2340507", "PWS_Name": "WHITE MOUNTAIN WATER SYSTEM", "Primacy_Agency": "AK", "Population_Served_Count": 210, "Service_Connections_Count": 81, "Service_Area_Type": "Municipality", "Verification_Status": "", "Area_SqKM": 1.4817324418744349}, "geometry": {"type": "Point", "coordinates": [-163.40350070454454, 64.67905919940696]}}, {"type": "Feature", "properties": {"PWSID": "AK2340492", "PWS_Name": "STEBBINS CITY WATER SUPPLY", "Primacy_Agency": "AK", "Population_Served_Count": 590, "Service_Connections_Count": 9, "Service_Area_Type": "Municipality", "Verification_Status": "", "Area_SqKM": 0.15972044525791484}, "geometry": {"type": "Point", "coordinates": [-162.2868061703904, 63.51968543410276]}}, {"type": "Feature", "properties": {"PWSID": "AK2340387", "PWS_Name": "UNALAKLEET CITY WATER SUPPLY", "Primacy_Agency": "AK", "Population_Served_Count": 757, "Service_Connections_Count": 245, "Service_Area_Type": "Municipality", "Verification_Status": "", "Area_SqKM": 1.1789268399686548}, "geometry": {"type": "Point", "coordinates": [-160.79434112110192, 63.881849991384485]}}, {"type": "Feature", "properties": {"PWSID": "AK2340248", "PWS_Name": "BERING ST SD - TELLER SC/WASH", "Primacy_Agency": "AK", "Population_Served_Count": 295, "Service_Connections_Count": 3, "Service_Area_Type": "Municipality", "Verification_Status": "", "Area_SqKM": 3.555788149909394}, "geometry": {"type": "Point", "coordinates": [-166.33508159649597, 65.25585684711048]}}, {"type": "Feature", "properties": {"PWSID": "AK2340191", "PWS_Name": "WALES WATER SYSTEM", "Primacy_Agency": "AK", "Population_Served_Count": 173, "Service_Connections_Count": 6, "Service_Area_Type": "Municipality", "Verification_Status": "", "Area_SqKM": 0.1717772747083254}, "geometry": {"type": "Point", "coordinates": [-168.0937753720861, 65.61341149771629]}}, {"type": "Feature", "properties": {"PWSID": "AK2340167", "PWS_Name": "KOYUK PUBLIC WATER SYSTEM", "Primacy_Agency": "AK", "Population_Served_Count": 277, "Service_Connections_Count": 82, "Service_Area_Type": "Municipality", "Verification_Status": "", "Area_SqKM": 0.26521787099239064}, "geometry": {"type": "Point", "coordinates": [-161.1582397939658, 64.93232913638474]}}, {"type": "Feature", "properties": {"PWSID": "AK2340125", "PWS_Name": "BUCKLAND WATER SYSTEM", "Primacy_Agency": "AK", "Population_Served_Count": 600, "Service_Connections_Count": 108, "Service_Area_Type": "Municipality", "Verification_Status": "", "Area_SqKM": 1.745666432122096}, "geometry": {"type": "Point", "coordinates": [-161.1314052690692, 65.97968097377851]}}, {"type": "Feature", "properties": {"PWSID": "AK2340117", "PWS_Name": "KIVALINA WATER SYSTEM", "Primacy_Agency": "AK", "Population_Served_Count": 452, "Service_Connections_Count": 0, "Service_Area_Type": "Municipality", "Verification_Status": "", "Area_SqKM": 0.4349519075954889}, "geometry": {"type": "Point", "coordinates": [-164.5544579078302, 67.73345555813914]}}, {"type": "Feature", "properties": {"PWSID": "AK2280171", "PWS_Name": "ANVIK WATER SYSTEM", "Primacy_Agency": "AK", "Population_Served_Count": 96, "Service_Connections_Count": 4, "Service_Area_Type": "Municipality", "Verification_Status": "", "Area_SqKM": 18.083906919092964}, "geometry": {"type": "Point", "coordinates": [-160.21639241557293, 62.656010158824856]}}, {"type": "Feature", "properties": {"PWSID": "AK2280066", "PWS_Name": "GRAYLING WATER SYSTEM", "Primacy_Agency": "AK", "Population_Served_Count": 195, "Service_Connections_Count": 60, "Service_Area_Type": "Municipality", "Verification_Status": "", "Area_SqKM": 0.6705073478018702}, "geometry": {"type": "Point", "coordinates": [-160.0645102406168, 62.9101275962582]}}, {"type": "Feature", "properties": {"PWSID": "AK2280040", "PWS_Name": "SHAGELUK WATER SYSTEM", "Primacy_Agency": "AK", "Population_Served_Count": 60, "Service_Connections_Count": 40, "Service_Area_Type": "Municipality", "Verification_Status": "", "Area_SqKM": 0.08569436410645999}, "geometry": {"type": "Point", "coordinates": [-159.5304665333869, 62.65473621502481]}}, {"type": "Feature", "properties": {"PWSID": "AK2271562", "PWS_Name": "MEKORYUK WASHETERIA RESERVOIR", "Primacy_Agency": "AK", "Population_Served_Count": 198, "Service_Connections_Count": 5, "Service_Area_Type": "Other Area", "Verification_Status": "", "Area_SqKM": 0.020398044047429377}, "geometry": {"type": "Point", "coordinates": [-166.18808134160267, 60.3876528082919]}}, {"type": "Feature", "properties": {"PWSID": "AK2271211", "PWS_Name": "TUNTUTULIAK WASHETERIA AND WATERING PT", "Primacy_Agency": "AK", "Population_Served_Count": 350, "Service_Connections_Count": 1, "Service_Area_Type": "Municipality", "Verification_Status": "", "Area_SqKM": 0.09194797412985063}, "geometry": {"type": "Point", "coordinates": [-162.6730234235964, 60.342379593686125]}}, {"type": "Feature", "properties": {"PWSID": "AK2271148", "PWS_Name": "BETHEL TRAILER COURT", "Primacy_Agency": "AK", "Population_Served_Count": 446, "Service_Connections_Count": 80, "Service_Area_Type": "Subdivision", "Verification_Status": "", "Area_SqKM": 2.13243168609272}, "geometry": {"type": "Point", "coordinates": [-161.7921922323541, 60.7939766345152]}}, {"type": "Feature", "properties": {"PWSID": "AK2271059", "PWS_Name": "PLATINUM CITY WATER SYSTEM", "Primacy_Agency": "AK", "Population_Served_Count": 51, "Service_Connections_Count": 15, "Service_Area_Type": "Municipality", "Verification_Status": "", "Area_SqKM": 0.003403398390091333}, "geometry": {"type": "Point", "coordinates": [-161.81888428565046, 59.01277518540426]}}, {"type": "Feature", "properties": {"PWSID": "AK2271033", "PWS_Name": "ATMAUTLUAK WATER SYSTEM", "Primacy_Agency": "AK", "Population_Served_Count": 311, "Service_Connections_Count": 2, "Service_Area_Type": "Municipality", "Verification_Status": "", "Area_SqKM": 0.028707151723286008}, "geometry": {"type": "Point", "coordinates": [-162.27979883863395, 60.856232474189376]}}, {"type": "Feature", "properties": {"PWSID": "AK2271025", "PWS_Name": "KONGIGANAK WATER SYSTEM", "Primacy_Agency": "AK", "Population_Served_Count": 547, "Service_Connections_Count": 3, "Service_Area_Type": "Municipality", "Verification_Status": "", "Area_SqKM": 5.210680159665139}, "geometry": {"type": "Point", "coordinates": [-162.87240098741418, 59.964453038609825]}}, {"type": "Feature", "properties": {"PWSID": "AK2270736", "PWS_Name": "KIPNUK WATER SYSTEM", "Primacy_Agency": "AK", "Population_Served_Count": 639, "Service_Connections_Count": 3, "Service_Area_Type": "Municipality", "Verification_Status": "", "Area_SqKM": 0.1442163565374058}, "geometry": {"type": "Point", "coordinates": [-164.04122819315893, 59.935356164141545]}}, {"type": "Feature", "properties": {"PWSID": "AK2270320", "PWS_Name": "CHEVAK WATER SYSTEM", "Primacy_Agency": "AK", "Population_Served_Count": 938, "Service_Connections_Count": 182, "Service_Area_Type": "Municipality", "Verification_Status": "", "Area_SqKM": 2.9615862678476472}, "geometry": {"type": "Point", "coordinates": [-165.5885009643647, 61.52766065936931]}}, {"type": "Feature", "properties": {"PWSID": "AK2270299", "PWS_Name": "EMMONAK WATER SYSTEM", "Primacy_Agency": "AK", "Population_Served_Count": 820, "Service_Connections_Count": 180, "Service_Area_Type": "Municipality", "Verification_Status": "", "Area_SqKM": 3.4825371519019512}, "geometry": {"type": "Point", "coordinates": [-164.5316997100864, 62.7816317037491]}}, {"type": "Feature", "properties": {"PWSID": "AK2270281", "PWS_Name": "EEK WATER SYSTEM", "Primacy_Agency": "AK", "Population_Served_Count": 280, "Service_Connections_Count": 220, "Service_Area_Type": "Municipality", "Verification_Status": "", "Area_SqKM": 83.59749904407171}, "geometry": {"type": "Point", "coordinates": [-162.14170914843723, 60.20321745716159]}}, {"type": "Feature", "properties": {"PWSID": "AK2270223", "PWS_Name": "TULUKSAK WATER SYSTEM", "Primacy_Agency": "AK", "Population_Served_Count": 373, "Service_Connections_Count": 5, "Service_Area_Type": "Municipality", "Verification_Status": "", "Area_SqKM": 0.10527728699752033}, "geometry": {"type": "Point", "coordinates": [-160.96099114501476, 61.09918856204047]}}, {"type": "Feature", "properties": {"PWSID": "AK2270215", "PWS_Name": "TOKSOOK BAY WATER SYSTEM", "Primacy_Agency": "AK", "Population_Served_Count": 661, "Service_Connections_Count": 124, "Service_Area_Type": "Municipality", "Verification_Status": "", "Area_SqKM": 0.8868774335348919}, "geometry": {"type": "Point", "coordinates": [-165.10774247682738, 60.53560232095256]}}, {"type": "Feature", "properties": {"PWSID": "AK2270184", "PWS_Name": "SCAMMON BAY WATER SYSTEM", "Primacy_Agency": "AK", "Population_Served_Count": 637, "Service_Connections_Count": 97, "Service_Area_Type": "Municipality", "Verification_Status": "", "Area_SqKM": 1.212584791585799}, "geometry": {"type": "Point", "coordinates": [-165.5836031845468, 61.84295521539397]}}, {"type": "Feature", "properties": {"PWSID": "AK2270150", "PWS_Name": "MOUNTAIN VILLAGE WATER SYSTEM", "Primacy_Agency": "AK", "Population_Served_Count": 850, "Service_Connections_Count": 180, "Service_Area_Type": "Municipality", "Verification_Status": "", "Area_SqKM": 0.29041350222207984}, "geometry": {"type": "Point", "coordinates": [-163.7271004840566, 62.087274436394495]}}, {"type": "Feature", "properties": {"PWSID": "AK2263014", "PWS_Name": "FAA KING SALMON FAMILY HOUSING", "Primacy_Agency": "AK", "Population_Served_Count": 61, "Service_Connections_Count": 27, "Service_Area_Type": "Residential Area", "Verification_Status": "", "Area_SqKM": 0.13586806886034103}, "geometry": {"type": "Point", "coordinates": [-156.7051050215014, 58.70036003927983]}}, {"type": "Feature", "properties": {"PWSID": "AK2262246", "PWS_Name": "MANOKOTAK HEIGHTS W/S", "Primacy_Agency": "AK", "Population_Served_Count": 215, "Service_Connections_Count": 25, "Service_Area_Type": "Municipality", "Verification_Status": "", "Area_SqKM": 0.03205546164721756}, "geometry": {"type": "Point", "coordinates": [-159.055584057207, 58.981459328542044]}}, {"type": "Feature", "properties": {"PWSID": "AK2260820", "PWS_Name": "NUNAPITCHUK WATER SYSTEM", "Primacy_Agency": "AK", "Population_Served_Count": 496, "Service_Connections_Count": 10, "Service_Area_Type": "Municipality", "Verification_Status": "", "Area_SqKM": 0.773981420177964}, "geometry": {"type": "Point", "coordinates": [-162.4683838494574, 60.89909089152271]}}, {"type": "Feature", "properties": {"PWSID": "AK2260359", "PWS_Name": "PERRYVILLE WATER SYSTEM", "Primacy_Agency": "AK", "Population_Served_Count": 130, "Service_Connections_Count": 55, "Service_Area_Type": "Municipality", "Verification_Status": "", "Area_SqKM": 0.08488232443632399}, "geometry": {"type": "Point", "coordinates": [-159.14764177017665, 55.91087828078305]}}, {"type": "Feature", "properties": {"PWSID": "AK2260202", "PWS_Name": "CLARKS POINT WATER SYSTEM", "Primacy_Agency": "AK", "Population_Served_Count": 128, "Service_Connections_Count": 15, "Service_Area_Type": "Municipality", "Verification_Status": "", "Area_SqKM": 2.298033831542317}, "geometry": {"type": "Point", "coordinates": [-158.55082341535783, 58.83721491617621]}}, {"type": "Feature", "properties": {"PWSID": "AK2260040", "PWS_Name": "KOLIGANEK WATER SYSTEM", "Primacy_Agency": "AK", "Population_Served_Count": 170, "Service_Connections_Count": 40, "Service_Area_Type": "Municipality", "Verification_Status": "", "Area_SqKM": 0.018316369200338346}, "geometry": {"type": "Point", "coordinates": [-157.27899248298831, 59.72754489274816]}}, {"type": "Feature", "properties": {"PWSID": "AK2250134", "PWS_Name": "LARSEN BAY WATER SYSTEM", "Primacy_Agency": "AK", "Population_Served_Count": 271, "Service_Connections_Count": 89, "Service_Area_Type": "Municipality", "Verification_Status": "", "Area_SqKM": 4.884347623260236}, "geometry": {"type": "Point", "coordinates": [-153.98437251576937, 57.53713345437621]}}, {"type": "Feature", "properties": {"PWSID": "AK2250126", "PWS_Name": "USCG STATION KODIAK", "Primacy_Agency": "AK", "Population_Served_Count": 3092, "Service_Connections_Count": 466, "Service_Area_Type": "Residential Area", "Verification_Status": "", "Area_SqKM": 0.11844730125453687}, "geometry": {"type": "Point", "coordinates": [-152.53716705065818, 57.74101683126459]}}, {"type": "Feature", "properties": {"PWSID": "AK2249099", "PWS_Name": "STERLING MOOSE RIVER MANOR", "Primacy_Agency": "AK", "Population_Served_Count": 33, "Service_Connections_Count": 2, "Service_Area_Type": "Institution", "Verification_Status": "", "Area_SqKM": 0.185890918383859}, "geometry": {"type": "Point", "coordinates": [-150.8815500295364, 60.513380555657285]}}, {"type": "Feature", "properties": {"PWSID": "AK2241088", "PWS_Name": "NIKISKI VILLAGE TC", "Primacy_Agency": "AK", "Population_Served_Count": 150, "Service_Connections_Count": 63, "Service_Area_Type": "Mobile Home Park", "Verification_Status": "", "Area_SqKM": 0.360957989100483}, "geometry": {"type": "Point", "coordinates": [-151.32484345683304, 60.686310156770894]}}, {"type": "Feature", "properties": {"PWSID": "AK2240456", "PWS_Name": "HOMER WATER SYSTEM", "Primacy_Agency": "AK", "Population_Served_Count": 7008, "Service_Connections_Count": 2685, "Service_Area_Type": "Municipality", "Verification_Status": "", "Area_SqKM": 15.477023972375369}, "geometry": {"type": "Point", "coordinates": [-151.51057817511096, 59.647776975334885]}}, {"type": "Feature", "properties": {"PWSID": "AK2212005", "PWS_Name": "SUN VALLEY HEIGHTS NORTH", "Primacy_Agency": "AK", "Population_Served_Count": 51, "Service_Connections_Count": 12, "Service_Area_Type": "Subdivision", "Verification_Status": "", "Area_SqKM": 0.02970434547852901}, "geometry": {"type": "Point", "coordinates": [-149.64275902871543, 60.91932452850037]}}, {"type": "Feature", "properties": {"PWSID": "AK2111566", "PWS_Name": "HAINES BOROUGH", "Primacy_Agency": "AK", "Population_Served_Count": 2376, "Service_Connections_Count": 664, "Service_Area_Type": "Municipality", "Verification_Status": "", "Area_SqKM": 7.141964071570263}, "geometry": {"type": "Point", "coordinates": [-135.45014872955326, 59.2327335597674]}}, {"type": "Feature", "properties": {"PWSID": "AK2130075", "PWS_Name": "SITKA", "Primacy_Agency": "AK", "Population_Served_Count": 9448, "Service_Connections_Count": 3620, "Service_Area_Type": "Other Area", "Verification_Status": "", "Area_SqKM": 8.33318008297058}, "geometry": {"type": "Point", "coordinates": [-135.32766802210455, 57.06477679836237]}}, {"type": "Feature", "properties": {"PWSID": "AK2210906", "PWS_Name": "MOA MUNICIPALITY OF ANCHORAGE", "Primacy_Agency": "AK", "Population_Served_Count": 221351, "Service_Connections_Count": 59801, "Service_Area_Type": "Municipality", "Verification_Status": "", "Area_SqKM": 360.0546301721944}, "geometry": {"type": "Point", "coordinates": [-149.6306092058789, 61.23556694415522]}}, {"type": "Feature", "properties": {"PWSID": "AK2310730", "PWS_Name": "GOLDEN HEART UTILITIES", "Primacy_Agency": "AK", "Population_Served_Count": 78324, "Service_Connections_Count": 6951, "Service_Area_Type": "Municipality", "Verification_Status": "", "Area_SqKM": 25.89123852043082}, "geometry": {"type": "Point", "coordinates": [-147.73877208002102, 64.83564001412745]}}]}