{"type": "FeatureCollection", "features": [{"type": "Feature", "properties": {"PWSID": "HI0000169", "PWS_Name": "HAWAIIAN OCEAN VIEW ESTATES", "Primacy_Agency": "HI", "Population_Served_Count": 1000, "Service_Connections_Count": 6, "Service_Area_Type": "Residential Area", "Verification_Status": "", "Area_SqKM": 0.5550996118208312}, "geometry": {"type": "Point", "coordinates": [-155.0591101905096, 19.728745378108577]}}, {"type": "Feature", "properties": {"PWSID": "HI0000437", "PWS_Name": "MOLOAA IRRIGATION COOPERATIVE", "Primacy_Agency": "HI", "Population_Served_Count": 100, "Service_Connections_Count": 65, "Service_Area_Type": "Industrial/Agricultural", "Verification_Status": "", "Area_SqKM": 0.4391007322686869}, "geometry": {"type": "Point", "coordinates": [-159.3179485941322, 22.166189063880044]}}, {"type": "Feature", "properties": {"PWSID": "HI0000434", "PWS_Name": "KALAHEO-KOLOA", "Primacy_Agency": "HI", "Population_Served_Count": 12660, "Service_Connections_Count": 5376, "Service_Area_Type": "Residential Area", "Verification_Status": "", "Area_SqKM": 28.527345317922624}, "geometry": {"type": "Point", "coordinates": [-159.49231802236042, 21.908293694406282]}}, {"type": "Feature", "properties": {"PWSID": "HI0000432", "PWS_Name": "ANAHOLA FARM LOTS", "Primacy_Agency": "HI", "Population_Served_Count": 385, "Service_Connections_Count": 77, "Service_Area_Type": "Residential Area", "Verification_Status": "", "Area_SqKM": 1.8512448614509525}, "geometry": {"type": "Point", "coordinates": [-159.31743505243222, 22.140419412158405]}}, {"type": "Feature", "properties": {"PWSID": "HI0000430", "PWS_Name": "PACIFIC MISSILE RANGE FACILITY", "Primacy_Agency": "HI", "Population_Served_Count": 1200, "Service_Connections_Count": 188, "Service_Area_Type": "Institution", "Verification_Status": "", "Area_SqKM": 379.7244957853214}, "geometry": {"type": "Point", "coordinates": [-159.69984757700416, 22.057179424243195]}}, {"type": "Feature", "properties": {"PWSID": "HI0000428", "PWS_Name": "PRINCEVILLE", "Primacy_Agency": "HI", "Population_Served_Count": 6911, "Service_Connections_Count": 1103, "Service_Area_Type": "Residential Area", "Verification_Status": "", "Area_SqKM": 10.522623084093677}, "geometry": {"type": "Point", "coordinates": [-159.45143830283018, 22.21200070879741]}}, {"type": "Feature", "properties": {"PWSID": "HI0000423", "PWS_Name": "KEALIA", "Primacy_Agency": "HI", "Population_Served_Count": 260, "Service_Connections_Count": 69, "Service_Area_Type": "Residential Area", "Verification_Status": "", "Area_SqKM": 0.8373689107973946}, "geometry": {"type": "Point", "coordinates": [-159.30970696083452, 22.10902842205063]}}, {"type": "Feature", "properties": {"PWSID": "HI0000417", "PWS_Name": "GAY & ROBINSON", "Primacy_Agency": "HI", "Population_Served_Count": 1271, "Service_Connections_Count": 325, "Service_Area_Type": "Residential Area", "Verification_Status": "", "Area_SqKM": 0.5088556241287613}, "geometry": {"type": "Point", "coordinates": [-159.62140106924824, 21.916587254683616]}}, {"type": "Feature", "properties": {"PWSID": "HI0000415", "PWS_Name": "HAENA-WAINIHA", "Primacy_Agency": "HI", "Population_Served_Count": 833, "Service_Connections_Count": 424, "Service_Area_Type": "Residential Area", "Verification_Status": "", "Area_SqKM": 6.412689736495321}, "geometry": {"type": "Point", "coordinates": [-159.55101159789515, 22.21379707290591]}}, {"type": "Feature", "properties": {"PWSID": "HI0000407", "PWS_Name": "KILAUEA", "Primacy_Agency": "HI", "Population_Served_Count": 3420, "Service_Connections_Count": 1601, "Service_Area_Type": "Residential Area", "Verification_Status": "", "Area_SqKM": 10.956273602610466}, "geometry": {"type": "Point", "coordinates": [-159.39821620918332, 22.21324588848212]}}, {"type": "Feature", "properties": {"PWSID": "HI0000406", "PWS_Name": "KEKAHA-WAIMEA", "Primacy_Agency": "HI", "Population_Served_Count": 5998, "Service_Connections_Count": 1926, "Service_Area_Type": "Residential Area", "Verification_Status": "", "Area_SqKM": 7.859385202380252}, "geometry": {"type": "Point", "coordinates": [-159.69648336081454, 21.96708390124236]}}, {"type": "Feature", "properties": {"PWSID": "HI0000404", "PWS_Name": "HANAPEPE-ELEELE", "Primacy_Agency": "HI", "Population_Served_Count": 5592, "Service_Connections_Count": 1795, "Service_Area_Type": "Residential Area", "Verification_Status": "", "Area_SqKM": 4.750289662862243}, "geometry": {"type": "Point", "coordinates": [-159.5835224754605, 21.90919006189234]}}, {"type": "Feature", "properties": {"PWSID": "HI0000403", "PWS_Name": "HANALEI", "Primacy_Agency": "HI", "Population_Served_Count": 500, "Service_Connections_Count": 404, "Service_Area_Type": "Residential Area", "Verification_Status": "", "Area_SqKM": 0.913708979638396}, "geometry": {"type": "Point", "coordinates": [-159.49817001491883, 22.20574423335036]}}, {"type": "Feature", "properties": {"PWSID": "HI0000401", "PWS_Name": "ANAHOLA", "Primacy_Agency": "HI", "Population_Served_Count": 2473, "Service_Connections_Count": 682, "Service_Area_Type": "Residential Area", "Verification_Status": "", "Area_SqKM": 10.751778733017435}, "geometry": {"type": "Point", "coordinates": [-159.30735950131358, 22.133257796890852]}}, {"type": "Feature", "properties": {"PWSID": "HI0000400", "PWS_Name": "LIHUE-KAPAA", "Primacy_Agency": "HI", "Population_Served_Count": 34854, "Service_Connections_Count": 11482, "Service_Area_Type": "Residential Area", "Verification_Status": "", "Area_SqKM": 63.15617059764453}, "geometry": {"type": "Point", "coordinates": [-159.35469858861705, 22.02915644664517]}}, {"type": "Feature", "properties": {"PWSID": "HI0000367", "PWS_Name": "MILILANI", "Primacy_Agency": "HI", "Population_Served_Count": 50573, "Service_Connections_Count": 11915, "Service_Area_Type": "Residential Area", "Verification_Status": "", "Area_SqKM": 7.833433395810517}, "geometry": {"type": "Point", "coordinates": [-158.0012494124655, 21.47086604126813]}}, {"type": "Feature", "properties": {"PWSID": "HI0000366", "PWS_Name": "WAIALEE-SUNSET BEACH", "Primacy_Agency": "HI", "Population_Served_Count": 4916, "Service_Connections_Count": 1331, "Service_Area_Type": "Residential Area", "Verification_Status": "", "Area_SqKM": 9.002667740637781}, "geometry": {"type": "Point", "coordinates": [-158.0404968801127, 21.652353849075116]}}, {"type": "Feature", "properties": {"PWSID": "HI0000365", "PWS_Name": "KAHUKU", "Primacy_Agency": "HI", "Population_Served_Count": 2730, "Service_Connections_Count": 457, "Service_Area_Type": "Residential Area", "Verification_Status": "", "Area_SqKM": 0.6987845293149697}, "geometry": {"type": "Point", "coordinates": [-157.95065562058997, 21.674814473508373]}}, {"type": "Feature", "properties": {"PWSID": "HI0000360", "PWS_Name": "JOINT BASE PEARL HARBOR-HICKAM", "Primacy_Agency": "HI", "Population_Served_Count": 65230, "Service_Connections_Count": 7619, "Service_Area_Type": "Institution", "Verification_Status": "", "Area_SqKM": 0.3650140302510351}, "geometry": {"type": "Point", "coordinates": [-157.96020150687957, 21.420243382898878]}}, {"type": "Feature", "properties": {"PWSID": "HI0000356", "PWS_Name": "MARINE CORPS BASE HAWAII", "Primacy_Agency": "HI", "Population_Served_Count": 16300, "Service_Connections_Count": 2555, "Service_Area_Type": "Institution", "Verification_Status": "", "Area_SqKM": 0.014423135245687049}, "geometry": {"type": "Point", "coordinates": [-158.01710744993267, 21.330181174993847]}}, {"type": "Feature", "properties": {"PWSID": "HI0000231", "PWS_Name": "MAUNALOA-KALUAKOI", "Primacy_Agency": "HI", "Population_Served_Count": 1000, "Service_Connections_Count": 358, "Service_Area_Type": "Residential Area", "Verification_Status": "", "Area_SqKM": 0.5401428438737877}, "geometry": {"type": "Point", "coordinates": [-157.20966310409176, 21.136971797916214]}}, {"type": "Feature", "properties": {"PWSID": "HI0000230", "PWS_Name": "HOOLEHUA", "Primacy_Agency": "HI", "Population_Served_Count": 2400, "Service_Connections_Count": 587, "Service_Area_Type": "Residential Area", "Verification_Status": "", "Area_SqKM": 4.1370053970279566}, "geometry": {"type": "Point", "coordinates": [-157.01598697027572, 21.096299829621707]}}, {"type": "Feature", "properties": {"PWSID": "HI0000222", "PWS_Name": "HALEAKALA NATIONAL PARK", "Primacy_Agency": "HI", "Population_Served_Count": 1200, "Service_Connections_Count": 17, "Service_Area_Type": "Recreation Area", "Verification_Status": "", "Area_SqKM": 0.6463063659396059}, "geometry": {"type": "Point", "coordinates": [-156.27452244210235, 20.806058594754433]}}, {"type": "Feature", "properties": {"PWSID": "HI0000209", "PWS_Name": "OLOWALU", "Primacy_Agency": "HI", "Population_Served_Count": 100, "Service_Connections_Count": 56, "Service_Area_Type": "Other Residential", "Verification_Status": "", "Area_SqKM": 13.296360678083982}, "geometry": {"type": "Point", "coordinates": [-156.66060669203546, 20.86890474131333]}}, {"type": "Feature", "properties": {"PWSID": "HI0000237", "PWS_Name": "LANAI CITY", "Primacy_Agency": "HI", "Population_Served_Count": 3200, "Service_Connections_Count": 1350, "Service_Area_Type": "Residential Area", "Verification_Status": "", "Area_SqKM": 6.827581831283931}, "geometry": {"type": "Point", "coordinates": [-156.92289576185775, 20.831950796870817]}}, {"type": "Feature", "properties": {"PWSID": "HI0000239", "PWS_Name": "KALAUPAPA NHP", "Primacy_Agency": "HI", "Population_Served_Count": 110, "Service_Connections_Count": 138, "Service_Area_Type": "Recreation Area", "Verification_Status": "", "Area_SqKM": 0.18413451306030132}, "geometry": {"type": "Point", "coordinates": [-156.98143064867668, 21.18945813510861]}}, {"type": "Feature", "properties": {"PWSID": "HI0000243", "PWS_Name": "HANA WATER SYSTEMS - NORTH", "Primacy_Agency": "HI", "Population_Served_Count": 160, "Service_Connections_Count": 88, "Service_Area_Type": "Residential Area", "Verification_Status": "", "Area_SqKM": 0.5331537579281571}, "geometry": {"type": "Point", "coordinates": [-156.0198215101043, 20.785879042809807]}}, {"type": "Feature", "properties": {"PWSID": "HI0000245", "PWS_Name": "KIPU", "Primacy_Agency": "HI", "Population_Served_Count": 80, "Service_Connections_Count": 20, "Service_Area_Type": "Residential Area", "Verification_Status": "", "Area_SqKM": 175.99151498050415}, "geometry": {"type": "Point", "coordinates": [-157.2185833168657, 21.14939914689522]}}, {"type": "Feature", "properties": {"PWSID": "HI0000248", "PWS_Name": "KAWELA PLANTATION", "Primacy_Agency": "HI", "Population_Served_Count": 553, "Service_Connections_Count": 158, "Service_Area_Type": "Industrial/Agricultural", "Verification_Status": "", "Area_SqKM": 0.41699248279603074}, "geometry": {"type": "Point", "coordinates": [-156.9607867533848, 21.067689865852746]}}, {"type": "Feature", "properties": {"PWSID": "HI0000249", "PWS_Name": "KAHAKULOA WATER CO.", "Primacy_Agency": "HI", "Population_Served_Count": 150, "Service_Connections_Count": 48, "Service_Area_Type": "Residential Area", "Verification_Status": "", "Area_SqKM": 0.17724550023242616}, "geometry": {"type": "Point", "coordinates": [-156.53789612444902, 20.966953033176186]}}, {"type": "Feature", "properties": {"PWSID": "HI0000251", "PWS_Name": "MAHANALUA NUI SUBDIVISON", "Primacy_Agency": "HI", "Population_Served_Count": 606, "Service_Connections_Count": 343, "Service_Area_Type": "Residential Area", "Verification_Status": "", "Area_SqKM": 1.0115953765853694}, "geometry": {"type": "Point", "coordinates": [-156.64176948542973, 20.848833315310873]}}, {"type": "Feature", "properties": {"PWSID": "HI0000252", "PWS_Name": "WEST KUIAHA MEADOWS", "Primacy_Agency": "HI", "Population_Served_Count": 60, "Service_Connections_Count": 15, "Service_Area_Type": "Residential Area", "Verification_Status": "", "Area_SqKM": 3.905524010458643}, "geometry": {"type": "Point", "coordinates": [-156.2959534013696, 20.913523347252482]}}, {"type": "Feature", "properties": {"PWSID": "HI0000254", "PWS_Name": "MAUNAOLU PLANTATION", "Primacy_Agency": "HI", "Population_Served_Count": 100, "Service_Connections_Count": 37, "Service_Area_Type": "Industrial/Agricultural", "Verification_Status": "", "Area_SqKM": 12.885944631710297}, "geometry": {"type": "Point", "coordinates": [-156.33848892293773, 20.886135983912773]}}, {"type": "Feature", "properties": {"PWSID": "HI0000256", "PWS_Name": "MAUI HIGHLANDS", "Primacy_Agency": "HI", "Population_Served_Count": 26, "Service_Connections_Count": 100, "Service_Area_Type": "Residential Area", "Verification_Status": "", "Area_SqKM": 8.654731000462936}, "geometry": {"type": "Point", "coordinates": [-156.44389530267273, 20.770373178392298]}}, {"type": "Feature", "properties": {"PWSID": "HI0000266", "PWS_Name": "BALDWIN RANCH ESTATES", "Primacy_Agency": "HI", "Population_Served_Count": 32, "Service_Connections_Count": 12, "Service_Area_Type": "Residential Area", "Verification_Status": "", "Area_SqKM": 0.03290079831333374}, "geometry": {"type": "Point", "coordinates": [-156.32664877023632, 20.812916183783805]}}, {"type": "Feature", "properties": {"PWSID": "HI0000303", "PWS_Name": "KUNIA VILLAGE", "Primacy_Agency": "HI", "Population_Served_Count": 650, "Service_Connections_Count": 138, "Service_Area_Type": "Residential Area", "Verification_Status": "", "Area_SqKM": 0.015082315846738132}, "geometry": {"type": "Point", "coordinates": [-158.06121454815218, 21.46066232599888]}}, {"type": "Feature", "properties": {"PWSID": "HI0000309", "PWS_Name": "WAIALUA SUGAR PUMP 2", "Primacy_Agency": "HI", "Population_Served_Count": 400, "Service_Connections_Count": 120, "Service_Area_Type": "Industrial/Agricultural", "Verification_Status": "", "Area_SqKM": 0.5673156092795965}, "geometry": {"type": "Point", "coordinates": [-158.12232026578627, 21.561809816118977]}}, {"type": "Feature", "properties": {"PWSID": "HI0000315", "PWS_Name": "KAHUKU AIR BASE", "Primacy_Agency": "HI", "Population_Served_Count": 75, "Service_Connections_Count": 21, "Service_Area_Type": "Residential Area", "Verification_Status": "", "Area_SqKM": 1.7612302802972006}, "geometry": {"type": "Point", "coordinates": [-157.94313219630618, 21.67772567314954]}}, {"type": "Feature", "properties": {"PWSID": "HI0000325", "PWS_Name": "LAIE WATER COMPANY", "Primacy_Agency": "HI", "Population_Served_Count": 5577, "Service_Connections_Count": 750, "Service_Area_Type": "Residential Area", "Verification_Status": "", "Area_SqKM": 3.274835166529526}, "geometry": {"type": "Point", "coordinates": [-157.92545825152848, 21.646423623395375]}}, {"type": "Feature", "properties": {"PWSID": "HI0000328", "PWS_Name": "KIPAPA ACRES C.P.R.", "Primacy_Agency": "HI", "Population_Served_Count": 43, "Service_Connections_Count": 15, "Service_Area_Type": "Residential Area", "Verification_Status": "", "Area_SqKM": 0.5145779419270055}, "geometry": {"type": "Point", "coordinates": [-158.00713798581864, 21.428640824243427]}}, {"type": "Feature", "properties": {"PWSID": "HI0000331", "PWS_Name": "HNL-WINDWARD-PEARL HARBOR", "Primacy_Agency": "HI", "Population_Served_Count": 631389, "Service_Connections_Count": 106491, "Service_Area_Type": "Residential Area", "Verification_Status": "", "Area_SqKM": 322.6824134254149}, "geometry": {"type": "Point", "coordinates": [-157.82983910874793, 21.364704433641904]}}, {"type": "Feature", "properties": {"PWSID": "HI0000332", "PWS_Name": "WAIALUA-HALEIWA", "Primacy_Agency": "HI", "Population_Served_Count": 9996, "Service_Connections_Count": 2821, "Service_Area_Type": "Residential Area", "Verification_Status": "", "Area_SqKM": 9.701904021831762}, "geometry": {"type": "Point", "coordinates": [-158.11902032886354, 21.584262988898896]}}, {"type": "Feature", "properties": {"PWSID": "HI0000333", "PWS_Name": "WAHIAWA", "Primacy_Agency": "HI", "Population_Served_Count": 23348, "Service_Connections_Count": 4906, "Service_Area_Type": "Residential Area", "Verification_Status": "", "Area_SqKM": 13.561151563109963}, "geometry": {"type": "Point", "coordinates": [-158.01950348436404, 21.496992269011866]}}, {"type": "Feature", "properties": {"PWSID": "HI0000334", "PWS_Name": "WAIPIO HEIGHTS", "Primacy_Agency": "HI", "Population_Served_Count": 11516, "Service_Connections_Count": 2255, "Service_Area_Type": "Residential Area", "Verification_Status": "", "Area_SqKM": 3.683509661466055}, "geometry": {"type": "Point", "coordinates": [-158.002607017794, 21.430030691453908]}}, {"type": "Feature", "properties": {"PWSID": "HI0000337", "PWS_Name": "ALIAMANU", "Primacy_Agency": "HI", "Population_Served_Count": 6406, "Service_Connections_Count": 1090, "Service_Area_Type": "Industrial/Agricultural", "Verification_Status": "", "Area_SqKM": 0.07740702269802542}, "geometry": {"type": "Point", "coordinates": [-158.0616304847349, 21.458454823681762]}}, {"type": "Feature", "properties": {"PWSID": "HI0000341", "PWS_Name": "FORT SHAFTER", "Primacy_Agency": "HI", "Population_Served_Count": 7067, "Service_Connections_Count": 377, "Service_Area_Type": "Institution", "Verification_Status": "", "Area_SqKM": 1.4417677592573466}, "geometry": {"type": "Point", "coordinates": [-157.88154436287226, 21.34056706858066]}}, {"type": "Feature", "properties": {"PWSID": "HI0000345", "PWS_Name": "SCHOFIELD BARRACKS", "Primacy_Agency": "HI", "Population_Served_Count": 37920, "Service_Connections_Count": 2922, "Service_Area_Type": "Institution", "Verification_Status": "", "Area_SqKM": 6.988648658862722}, "geometry": {"type": "Point", "coordinates": [-158.06198827867607, 21.496425801160406]}}, {"type": "Feature", "properties": {"PWSID": "HI0000346", "PWS_Name": "TRIPLER ARMY MEDICAL CNTR", "Primacy_Agency": "HI", "Population_Served_Count": 5555, "Service_Connections_Count": 125, "Service_Area_Type": "Medical Facility", "Verification_Status": "", "Area_SqKM": 0.564703035189015}, "geometry": {"type": "Point", "coordinates": [-157.89006846360527, 21.363102336409177]}}, {"type": "Feature", "properties": {"PWSID": "HI0000354", "PWS_Name": "CAMP STOVER", "Primacy_Agency": "HI", "Population_Served_Count": 595, "Service_Connections_Count": 200, "Service_Area_Type": "Institution", "Verification_Status": "", "Area_SqKM": 1.2020642470090253}, "geometry": {"type": "Point", "coordinates": [-157.8822606870613, 21.32225868705474]}}, {"type": "Feature", "properties": {"PWSID": "HI0000355", "PWS_Name": "BARBERS POINT", "Primacy_Agency": "HI", "Population_Served_Count": 5256, "Service_Connections_Count": 165, "Service_Area_Type": "Institution", "Verification_Status": "", "Area_SqKM": 1.2846915511990356}, "geometry": {"type": "Point", "coordinates": [-158.0681283955458, 21.32070879731745]}}, {"type": "Feature", "properties": {"PWSID": "HI0000205", "PWS_Name": "KAANAPALI", "Primacy_Agency": "HI", "Population_Served_Count": 8000, "Service_Connections_Count": 700, "Service_Area_Type": "Hotel/Motel", "Verification_Status": "", "Area_SqKM": 3.822924240278219}, "geometry": {"type": "Point", "coordinates": [-156.68834995204588, 20.925505860605927]}}, {"type": "Feature", "properties": {"PWSID": "HI0000204", "PWS_Name": "KAPALUA", "Primacy_Agency": "HI", "Population_Served_Count": 4200, "Service_Connections_Count": 390, "Service_Area_Type": "Residential Area", "Verification_Status": "", "Area_SqKM": 1.1077300465404196}, "geometry": {"type": "Point", "coordinates": [-156.63732159483928, 21.00712665974992]}}, {"type": "Feature", "properties": {"PWSID": "HI0000201", "PWS_Name": "HANA WATER SYSTEMS - SOUTH", "Primacy_Agency": "HI", "Population_Served_Count": 816, "Service_Connections_Count": 81, "Service_Area_Type": "Residential Area", "Verification_Status": "", "Area_SqKM": 1.173840006945467}, "geometry": {"type": "Point", "coordinates": [-155.99007601055666, 20.763849979332385]}}, {"type": "Feature", "properties": {"PWSID": "HI0000165", "PWS_Name": "KONA WATER SERVICE COMPANY", "Primacy_Agency": "HI", "Population_Served_Count": 260, "Service_Connections_Count": 243, "Service_Area_Type": "Industrial/Agricultural", "Verification_Status": "", "Area_SqKM": 0.022718504420900724}, "geometry": {"type": "Point", "coordinates": [-155.99516207148082, 19.81821121423598]}}, {"type": "Feature", "properties": {"PWSID": "HI0000164", "PWS_Name": "KAWAIHAE UNIT #1", "Primacy_Agency": "HI", "Population_Served_Count": 193, "Service_Connections_Count": 140, "Service_Area_Type": "Residential Area", "Verification_Status": "", "Area_SqKM": 0.15940526359393253}, "geometry": {"type": "Point", "coordinates": [-155.83881421906955, 20.054459780843775]}}, {"type": "Feature", "properties": {"PWSID": "HI0000163", "PWS_Name": "KAUPULEHU", "Primacy_Agency": "HI", "Population_Served_Count": 1945, "Service_Connections_Count": 452, "Service_Area_Type": "Residential Area", "Verification_Status": "", "Area_SqKM": 1.9037339905411959}, "geometry": {"type": "Point", "coordinates": [-155.9889365333189, 19.815263175742867]}}, {"type": "Feature", "properties": {"PWSID": "HI0000162", "PWS_Name": "WAIKI'I RANCH", "Primacy_Agency": "HI", "Population_Served_Count": 102, "Service_Connections_Count": 124, "Service_Area_Type": "Residential Area", "Verification_Status": "", "Area_SqKM": 0.062436474579718626}, "geometry": {"type": "Point", "coordinates": [-155.53643427940924, 19.757109485288783]}}, {"type": "Feature", "properties": {"PWSID": "HI0000161", "PWS_Name": "HAINA", "Primacy_Agency": "HI", "Population_Served_Count": 4563, "Service_Connections_Count": 1690, "Service_Area_Type": "Residential Area", "Verification_Status": "", "Area_SqKM": 14.523403031612297}, "geometry": {"type": "Point", "coordinates": [-155.45437374031215, 20.06367114008183]}}, {"type": "Feature", "properties": {"PWSID": "HI0000160", "PWS_Name": "LALAMILO", "Primacy_Agency": "HI", "Population_Served_Count": 1895, "Service_Connections_Count": 702, "Service_Area_Type": "Residential Area", "Verification_Status": "", "Area_SqKM": 11.217782890069582}, "geometry": {"type": "Point", "coordinates": [-155.8295754645616, 19.98884081616914]}}, {"type": "Feature", "properties": {"PWSID": "HI0000156", "PWS_Name": "HAWAIIAN SHORES", "Primacy_Agency": "HI", "Population_Served_Count": 1360, "Service_Connections_Count": 483, "Service_Area_Type": "Residential Area", "Verification_Status": "", "Area_SqKM": 0.22150612746665865}, "geometry": {"type": "Point", "coordinates": [-154.94986352278073, 19.615969545474833]}}, {"type": "Feature", "properties": {"PWSID": "HI0000154", "PWS_Name": "HAKALAU-WAILEA", "Primacy_Agency": "HI", "Population_Served_Count": 402, "Service_Connections_Count": 145, "Service_Area_Type": "Residential Area", "Verification_Status": "", "Area_SqKM": 2.0380913458229126}, "geometry": {"type": "Point", "coordinates": [-155.12694723195267, 19.889922968516455]}}, {"type": "Feature", "properties": {"PWSID": "HI0000153", "PWS_Name": "KULANI CORRECTIONAL FACILITY", "Primacy_Agency": "HI", "Population_Served_Count": 250, "Service_Connections_Count": 15, "Service_Area_Type": "Institution", "Verification_Status": "", "Area_SqKM": 76.22292933498328}, "geometry": {"type": "Point", "coordinates": [-155.3874949201942, 19.716472993627395]}}, {"type": "Feature", "properties": {"PWSID": "HI0000151", "PWS_Name": "KOHALA RANCH WATER CO.", "Primacy_Agency": "HI", "Population_Served_Count": 850, "Service_Connections_Count": 447, "Service_Area_Type": "Residential Area", "Verification_Status": "", "Area_SqKM": 7.821689854239796}, "geometry": {"type": "Point", "coordinates": [-155.81836531573825, 20.08882256094013]}}, {"type": "Feature", "properties": {"PWSID": "HI0000150", "PWS_Name": "NAPUU WATER INC.", "Primacy_Agency": "HI", "Population_Served_Count": 468, "Service_Connections_Count": 147, "Service_Area_Type": "Residential Area", "Verification_Status": "", "Area_SqKM": 0.5588568667486205}, "geometry": {"type": "Point", "coordinates": [-155.8345499536299, 19.815765027743147]}}, {"type": "Feature", "properties": {"PWSID": "HI0000146", "PWS_Name": "HAWAII VOLCANOES NAT.PARK", "Primacy_Agency": "HI", "Population_Served_Count": 5205, "Service_Connections_Count": 55, "Service_Area_Type": "Recreation Area", "Verification_Status": "", "Area_SqKM": 4.97705752884909}, "geometry": {"type": "Point", "coordinates": [-155.24395711962575, 19.435602774063074]}}, {"type": "Feature", "properties": {"PWSID": "HI0000139", "PWS_Name": "NIULII", "Primacy_Agency": "HI", "Population_Served_Count": 254, "Service_Connections_Count": 94, "Service_Area_Type": "Residential Area", "Verification_Status": "", "Area_SqKM": 0.446305249144281}, "geometry": {"type": "Point", "coordinates": [-155.75104925969887, 20.21476408916526]}}, {"type": "Feature", "properties": {"PWSID": "HI0000135", "PWS_Name": "WAIKOLOA", "Primacy_Agency": "HI", "Population_Served_Count": 12100, "Service_Connections_Count": 2120, "Service_Area_Type": "Residential Area", "Verification_Status": "", "Area_SqKM": 30.26925859730878}, "geometry": {"type": "Point", "coordinates": [-155.8626680126454, 19.931496698921684]}}, {"type": "Feature", "properties": {"PWSID": "HI0000134", "PWS_Name": "PAAUILO", "Primacy_Agency": "HI", "Population_Served_Count": 716, "Service_Connections_Count": 251, "Service_Area_Type": "Residential Area", "Verification_Status": "", "Area_SqKM": 1.7410572700375748}, "geometry": {"type": "Point", "coordinates": [-155.36776002964055, 20.04004154447636]}}, {"type": "Feature", "properties": {"PWSID": "HI0000101", "PWS_Name": "HILO", "Primacy_Agency": "HI", "Population_Served_Count": 39477, "Service_Connections_Count": 14621, "Service_Area_Type": "Residential Area", "Verification_Status": "", "Area_SqKM": 145.68550547095353}, "geometry": {"type": "Point", "coordinates": [-155.08587356576774, 19.712053759567524]}}, {"type": "Feature", "properties": {"PWSID": "HI0000102", "PWS_Name": "LAUPAHOEHOE-KAPEHU", "Primacy_Agency": "HI", "Population_Served_Count": 1169, "Service_Connections_Count": 433, "Service_Area_Type": "Residential Area", "Verification_Status": "", "Area_SqKM": 4.920837846912853}, "geometry": {"type": "Point", "coordinates": [-155.24560959788514, 19.985278019472595]}}, {"type": "Feature", "properties": {"PWSID": "HI0000104", "PWS_Name": "OOKALA (DWS)", "Primacy_Agency": "HI", "Population_Served_Count": 264, "Service_Connections_Count": 90, "Service_Area_Type": "Residential Area", "Verification_Status": "", "Area_SqKM": 0.45529137839570194}, "geometry": {"type": "Point", "coordinates": [-155.2782704631916, 20.011886573638595]}}, {"type": "Feature", "properties": {"PWSID": "HI0000105", "PWS_Name": "HONOMU", "Primacy_Agency": "HI", "Population_Served_Count": 645, "Service_Connections_Count": 239, "Service_Area_Type": "Residential Area", "Verification_Status": "", "Area_SqKM": 10.772212940025641}, "geometry": {"type": "Point", "coordinates": [-155.1269207902057, 19.876961395880347]}}, {"type": "Feature", "properties": {"PWSID": "HI0000106", "PWS_Name": "PEPEEKEO", "Primacy_Agency": "HI", "Population_Served_Count": 1450, "Service_Connections_Count": 537, "Service_Area_Type": "Residential Area", "Verification_Status": "", "Area_SqKM": 2.8692969620777737}, "geometry": {"type": "Point", "coordinates": [-155.1050306836069, 19.831422733285105]}}, {"type": "Feature", "properties": {"PWSID": "HI0000107", "PWS_Name": "PAPAIKOU", "Primacy_Agency": "HI", "Population_Served_Count": 2203, "Service_Connections_Count": 816, "Service_Area_Type": "Residential Area", "Verification_Status": "", "Area_SqKM": 8.38622172488072}, "geometry": {"type": "Point", "coordinates": [-155.10102131169054, 19.790533329038926]}}, {"type": "Feature", "properties": {"PWSID": "HI0000108", "PWS_Name": "WAIOHINU-NAALEHU", "Primacy_Agency": "HI", "Population_Served_Count": 2948, "Service_Connections_Count": 1092, "Service_Area_Type": "Residential Area", "Verification_Status": "", "Area_SqKM": 14.771042960224754}, "geometry": {"type": "Point", "coordinates": [-155.77228828874078, 19.127332675052163]}}, {"type": "Feature", "properties": {"PWSID": "HI0000109", "PWS_Name": "PAHALA", "Primacy_Agency": "HI", "Population_Served_Count": 1226, "Service_Connections_Count": 454, "Service_Area_Type": "Residential Area", "Verification_Status": "", "Area_SqKM": 1.6637410680301714}, "geometry": {"type": "Point", "coordinates": [-155.47747142207533, 19.200590798650403]}}, {"type": "Feature", "properties": {"PWSID": "HI0000110", "PWS_Name": "KALAPANA", "Primacy_Agency": "HI", "Population_Served_Count": 275, "Service_Connections_Count": 102, "Service_Area_Type": "Residential Area", "Verification_Status": "", "Area_SqKM": 1.2905995294195185}, "geometry": {"type": "Point", "coordinates": [-154.94250719565972, 19.39612974553344]}}, {"type": "Feature", "properties": {"PWSID": "HI0000111", "PWS_Name": "PAHOA", "Primacy_Agency": "HI", "Population_Served_Count": 1885, "Service_Connections_Count": 698, "Service_Area_Type": "Residential Area", "Verification_Status": "", "Area_SqKM": 22.98063814783352}, "geometry": {"type": "Point", "coordinates": [-154.9321750022165, 19.525159813697385]}}, {"type": "Feature", "properties": {"PWSID": "HI0000112", "PWS_Name": "OLAA-MOUNTAIN VIEW", "Primacy_Agency": "HI", "Population_Served_Count": 6467, "Service_Connections_Count": 2395, "Service_Area_Type": "Residential Area", "Verification_Status": "", "Area_SqKM": 21.420604519444172}, "geometry": {"type": "Point", "coordinates": [-155.06837870029844, 19.580632141458164]}}, {"type": "Feature", "properties": {"PWSID": "HI0000114", "PWS_Name": "PUNALU'U", "Primacy_Agency": "HI", "Population_Served_Count": 200, "Service_Connections_Count": 21, "Service_Area_Type": "Residential Area", "Verification_Status": "", "Area_SqKM": 77.45092038292927}, "geometry": {"type": "Point", "coordinates": [-155.632301752706, 18.98074107742483]}}, {"type": "Feature", "properties": {"PWSID": "HI0000117", "PWS_Name": "HAWAIIAN BEACHES", "Primacy_Agency": "HI", "Population_Served_Count": 3546, "Service_Connections_Count": 1304, "Service_Area_Type": "Residential Area", "Verification_Status": "", "Area_SqKM": 19.63567825573985}, "geometry": {"type": "Point", "coordinates": [-154.92018249050847, 19.54229056651735]}}, {"type": "Feature", "properties": {"PWSID": "HI0000129", "PWS_Name": "NORTH KOHALA", "Primacy_Agency": "HI", "Population_Served_Count": 4933, "Service_Connections_Count": 1827, "Service_Area_Type": "Residential Area", "Verification_Status": "", "Area_SqKM": 14.034414172087196}, "geometry": {"type": "Point", "coordinates": [-155.82354397694704, 20.228662730496644]}}, {"type": "Feature", "properties": {"PWSID": "HI0000130", "PWS_Name": "SOUTH KOHALA", "Primacy_Agency": "HI", "Population_Served_Count": 9612, "Service_Connections_Count": 3560, "Service_Area_Type": "Residential Area", "Verification_Status": "", "Area_SqKM": 24.852033507836918}, "geometry": {"type": "Point", "coordinates": [-155.66798743831515, 20.030618509602974]}}, {"type": "Feature", "properties": {"PWSID": "HI0000131", "PWS_Name": "NORTH KONA", "Primacy_Agency": "HI", "Population_Served_Count": 29581, "Service_Connections_Count": 10956, "Service_Area_Type": "Residential Area", "Verification_Status": "", "Area_SqKM": 91.45518351482633}, "geometry": {"type": "Point", "coordinates": [-155.96461277113048, 19.612254545769773]}}, {"type": "Feature", "properties": {"PWSID": "HI0000132", "PWS_Name": "SOUTH KONA", "Primacy_Agency": "HI", "Population_Served_Count": 6512, "Service_Connections_Count": 2412, "Service_Area_Type": "Residential Area", "Verification_Status": "", "Area_SqKM": 31.684593652451245}, "geometry": {"type": "Point", "coordinates": [-155.89739961377106, 19.48638058375394]}}, {"type": "Feature", "properties": {"PWSID": "HI0000133", "PWS_Name": "KUKUIHAELE", "Primacy_Agency": "HI", "Population_Served_Count": 483, "Service_Connections_Count": 165, "Service_Area_Type": "Residential Area", "Verification_Status": "", "Area_SqKM": 3.0164457086197665}, "geometry": {"type": "Point", "coordinates": [-155.56576217576756, 20.122100475776968]}}, {"type": "Feature", "properties": {"PWSID": "HI0000335", "PWS_Name": "WAIPAHU-EWA-WAIANAE", "Primacy_Agency": "HI", "Population_Served_Count": 217479, "Service_Connections_Count": 40092, "Service_Area_Type": "Residential Area", "Verification_Status": "", "Area_SqKM": 139.68042412095167}, "geometry": {"type": "Point", "coordinates": [-158.09875873012845, 21.397883078139518]}}, {"type": "Feature", "properties": {"PWSID": "HI0000217", "PWS_Name": "HANA", "Primacy_Agency": "HI", "Population_Served_Count": 1284, "Service_Connections_Count": 428, "Service_Area_Type": "Residential Area", "Verification_Status": "", "Area_SqKM": 5.088416020461602}, "geometry": {"type": "Point", "coordinates": [-156.0000803297147, 20.731873137360775]}}, {"type": "Feature", "properties": {"PWSID": "HI0000218", "PWS_Name": "HONOKOHAU", "Primacy_Agency": "HI", "Population_Served_Count": 42, "Service_Connections_Count": 15, "Service_Area_Type": "Residential Area", "Verification_Status": "", "Area_SqKM": 0.3905308897479038}, "geometry": {"type": "Point", "coordinates": [-156.6065188450604, 21.00986678844505]}}, {"type": "Feature", "properties": {"PWSID": "HI0000235", "PWS_Name": "KALAE", "Primacy_Agency": "HI", "Population_Served_Count": 360, "Service_Connections_Count": 120, "Service_Area_Type": "Residential Area", "Verification_Status": "", "Area_SqKM": 0.6073331678390775}, "geometry": {"type": "Point", "coordinates": [-157.00385665550945, 21.16212606067881]}}, {"type": "Feature", "properties": {"PWSID": "HI0000234", "PWS_Name": "KAUNAKAKAI", "Primacy_Agency": "HI", "Population_Served_Count": 3702, "Service_Connections_Count": 1234, "Service_Area_Type": "Residential Area", "Verification_Status": "", "Area_SqKM": 4.908890988010898}, "geometry": {"type": "Point", "coordinates": [-156.9911041236213, 21.07946290781381]}}, {"type": "Feature", "properties": {"PWSID": "HI0000219", "PWS_Name": "KEANAE", "Primacy_Agency": "HI", "Population_Served_Count": 270, "Service_Connections_Count": 90, "Service_Area_Type": "Residential Area", "Verification_Status": "", "Area_SqKM": 1.49518524200481}, "geometry": {"type": "Point", "coordinates": [-156.14011043241499, 20.8524775803417]}}, {"type": "Feature", "properties": {"PWSID": "HI0000229", "PWS_Name": "KUALAPUU", "Primacy_Agency": "HI", "Population_Served_Count": 500, "Service_Connections_Count": 172, "Service_Area_Type": "Residential Area", "Verification_Status": "", "Area_SqKM": 0.2692484548537024}, "geometry": {"type": "Point", "coordinates": [-157.00530017179588, 21.1631371671045]}}, {"type": "Feature", "properties": {"PWSID": "HI0000214", "PWS_Name": "LAHAINA", "Primacy_Agency": "HI", "Population_Served_Count": 20065, "Service_Connections_Count": 3236, "Service_Area_Type": "Residential Area", "Verification_Status": "", "Area_SqKM": 10.700513240225927}, "geometry": {"type": "Point", "coordinates": [-156.67512619832425, 20.927602376061504]}}, {"type": "Feature", "properties": {"PWSID": "HI0000247", "PWS_Name": "LOWER KULA", "Primacy_Agency": "HI", "Population_Served_Count": 3522, "Service_Connections_Count": 1064, "Service_Area_Type": "Residential Area", "Verification_Status": "", "Area_SqKM": 19.724029545966275}, "geometry": {"type": "Point", "coordinates": [-156.32942734676848, 20.792899943217833]}}, {"type": "Feature", "properties": {"PWSID": "HI0000213", "PWS_Name": "MAKAWAO", "Primacy_Agency": "HI", "Population_Served_Count": 29868, "Service_Connections_Count": 6675, "Service_Area_Type": "Residential Area", "Verification_Status": "", "Area_SqKM": 40.01678187737867}, "geometry": {"type": "Point", "coordinates": [-156.3141340155075, 20.887701065493548]}}, {"type": "Feature", "properties": {"PWSID": "HI0000220", "PWS_Name": "NAHIKU", "Primacy_Agency": "HI", "Population_Served_Count": 107, "Service_Connections_Count": 43, "Service_Area_Type": "Residential Area", "Verification_Status": "", "Area_SqKM": 0.7649400656563322}, "geometry": {"type": "Point", "coordinates": [-156.08999715103116, 20.81885617668303]}}, {"type": "Feature", "properties": {"PWSID": "HI0000233", "PWS_Name": "UALAPUE", "Primacy_Agency": "HI", "Population_Served_Count": 1119, "Service_Connections_Count": 407, "Service_Area_Type": "Residential Area", "Verification_Status": "", "Area_SqKM": 4.935289245109397}, "geometry": {"type": "Point", "coordinates": [-156.81678266734636, 21.07035008632005]}}, {"type": "Feature", "properties": {"PWSID": "HI0000215", "PWS_Name": "UPPER KULA", "Primacy_Agency": "HI", "Population_Served_Count": 7686, "Service_Connections_Count": 2346, "Service_Area_Type": "Residential Area", "Verification_Status": "", "Area_SqKM": 21.756452953835133}, "geometry": {"type": "Point", "coordinates": [-156.3358182340722, 20.7285943268121]}}, {"type": "Feature", "properties": {"PWSID": "HI0000212", "PWS_Name": "WAILUKU", "Primacy_Agency": "HI", "Population_Served_Count": 74511, "Service_Connections_Count": 20287, "Service_Area_Type": "Residential Area", "Verification_Status": "", "Area_SqKM": 60.44437285738453}, "geometry": {"type": "Point", "coordinates": [-156.45860200985, 20.82627132347257]}}]}