{"type": "FeatureCollection", "features": [{"type": "Feature", "properties": {"PWSID": "KY0241001", "PWS_Name": "FORT CAMPBELL", "Primacy_Agency": "KY", "Population_Served_Count": 22000, "Service_Connections_Count": 6494, "Service_Area_Type": "Residential Area", "Verification_Status": "", "Area_SqKM": 10.954625938655811}, "geometry": {"type": "Point", "coordinates": [-87.46172297792472, 36.65735491539751]}}, {"type": "Feature", "properties": {"PWSID": "KY0183106", "PWS_Name": "CENTER RIDGE WATER DISTRICT #4", "Primacy_Agency": "KY", "Population_Served_Count": 105, "Service_Connections_Count": 50, "Service_Area_Type": "Residential Area", "Verification_Status": "", "Area_SqKM": 0.7227928251100048}, "geometry": {"type": "Point", "coordinates": [-88.12782243205558, 36.73154597082844]}}, {"type": "Feature", "properties": {"PWSID": "KY0730522", "PWS_Name": "LOCUST VALLEY MOBILE EST", "Primacy_Agency": "KY", "Population_Served_Count": 94, "Service_Connections_Count": 35, "Service_Area_Type": "Residential Area", "Verification_Status": "", "Area_SqKM": 0.22063616277103323}, "geometry": {"type": "Point", "coordinates": [-88.74556712513994, 37.065490441151866]}}, {"type": "Feature", "properties": {"PWSID": "KY0900312", "PWS_Name": "NEW HAVEN MUNICIPAL WATER WORKS", "Primacy_Agency": "KY", "Population_Served_Count": 1357, "Service_Connections_Count": 581, "Service_Area_Type": "Residential Area", "Verification_Status": "", "Area_SqKM": 16.161684456194443}, "geometry": {"type": "Point", "coordinates": [-85.59142111987072, 37.65955488010055]}}, {"type": "Feature", "properties": {"PWSID": "KY0210419", "PWS_Name": "WEST CARROLL WATER DISTRICT- HENRY CO #2", "Primacy_Agency": "KY", "Population_Served_Count": 116, "Service_Connections_Count": 16, "Service_Area_Type": "Residential Area", "Verification_Status": "", "Area_SqKM": 25.852456800059255}, "geometry": {"type": "Point", "coordinates": [-85.18385907754168, 38.623755230615316]}}, {"type": "Feature", "properties": {"PWSID": "KY0560258", "PWS_Name": "LOUISVILLE WATER COMPANY", "Primacy_Agency": "KY", "Population_Served_Count": 764769, "Service_Connections_Count": 311310, "Service_Area_Type": "Residential Area", "Verification_Status": "", "Area_SqKM": 1517.0172270529322}, "geometry": {"type": "Point", "coordinates": [-85.61618757469135, 38.1964973403684]}}, {"type": "Feature", "properties": {"PWSID": "KY0080928", "PWS_Name": "RIVERSIDE 25 LLC", "Primacy_Agency": "KY", "Population_Served_Count": 49, "Service_Connections_Count": 6, "Service_Area_Type": "Residential Area", "Verification_Status": "", "Area_SqKM": 0.5489153003590115}, "geometry": {"type": "Point", "coordinates": [-84.82497386671095, 38.97082478174157]}}, {"type": "Feature", "properties": {"PWSID": "KY0080910", "PWS_Name": "TRAPPS WATER COMPANY", "Primacy_Agency": "KY", "Population_Served_Count": 200, "Service_Connections_Count": 1, "Service_Area_Type": "Wholesaler of Water", "Verification_Status": "", "Area_SqKM": 0.17938665783526075}, "geometry": {"type": "Point", "coordinates": [-84.84799011452452, 39.03007141441304]}}]}