{"type": "FeatureCollection", "features": [{"type": "Feature", "properties": {"PWSID": "DE0000597", "PWS_Name": "LAUREL WATER DEPARTMENT", "Primacy_Agency": "DE", "Population_Served_Count": 3984, "Service_Connections_Count": 1656, "Service_Area_Type": "Municipality", "Verification_Status": "", "Area_SqKM": 6.713019420589085}, "geometry": {"type": "Point", "coordinates": [-75.56766951104969, 38.55498872741206]}}, {"type": "Feature", "properties": {"PWSID": "DE0000599", "PWS_Name": "SCOTTSDALE MOBILE HOME PARK", "Primacy_Agency": "DE", "Population_Served_Count": 300, "Service_Connections_Count": 91, "Service_Area_Type": "Mobile Home Park", "Verification_Status": "", "Area_SqKM": 0.04368032956086327}, "geometry": {"type": "Point", "coordinates": [-75.54998153912678, 38.49899011891092]}}, {"type": "Feature", "properties": {"PWSID": "DE0000102", "PWS_Name": "UPCOUNTRY MANUFACTURED HOME COMMUNITY", "Primacy_Agency": "DE", "Population_Served_Count": 65, "Service_Connections_Count": 34, "Service_Area_Type": "Mobile Home Park", "Verification_Status": "", "Area_SqKM": 0.20516813608224058}, "geometry": {"type": "Point", "coordinates": [-75.64178421662422, 38.61880394288554]}}, {"type": "Feature", "properties": {"PWSID": "DE0000442", "PWS_Name": "SUSSEX MANOR MOBILE HOME PARK", "Primacy_Agency": "DE", "Population_Served_Count": 195, "Service_Connections_Count": 87, "Service_Area_Type": "Mobile Home Park", "Verification_Status": "", "Area_SqKM": 0.19703057195777024}, "geometry": {"type": "Point", "coordinates": [-75.59818897247443, 38.611020189055495]}}, {"type": "Feature", "properties": {"PWSID": "DE0000651", "PWS_Name": "MOBILE GARDENS I", "Primacy_Agency": "DE", "Population_Served_Count": 476, "Service_Connections_Count": 156, "Service_Area_Type": "Mobile Home Park", "Verification_Status": "", "Area_SqKM": 0.1852670260825891}, "geometry": {"type": "Point", "coordinates": [-75.58577912819412, 38.636303868716]}}, {"type": "Feature", "properties": {"PWSID": "DE0000226", "PWS_Name": "HOLLY VIEW MOBILE HOME PARK", "Primacy_Agency": "DE", "Population_Served_Count": 207, "Service_Connections_Count": 69, "Service_Area_Type": "Mobile Home Park", "Verification_Status": "", "Area_SqKM": 0.14056456328420922}, "geometry": {"type": "Point", "coordinates": [-75.58516832461486, 38.63315470870556]}}, {"type": "Feature", "properties": {"PWSID": "DE0000521", "PWS_Name": "CAREY ESTATES, LLC", "Primacy_Agency": "DE", "Population_Served_Count": 312, "Service_Connections_Count": 103, "Service_Area_Type": "Mobile Home Park", "Verification_Status": "", "Area_SqKM": 0.2523479067977091}, "geometry": {"type": "Point", "coordinates": [-75.36474038660698, 38.55665225421731]}}, {"type": "Feature", "properties": {"PWSID": "DE0000438", "PWS_Name": "BRIARWOOD MANOR MHP", "Primacy_Agency": "DE", "Population_Served_Count": 296, "Service_Connections_Count": 67, "Service_Area_Type": "Mobile Home Park", "Verification_Status": "", "Area_SqKM": 0.0870812385153819}, "geometry": {"type": "Point", "coordinates": [-75.5441781640132, 38.545075840850366]}}, {"type": "Feature", "properties": {"PWSID": "DE0000567", "PWS_Name": "DELMAR UTILITY COMM  (TN OF DELMAR)", "Primacy_Agency": "DE", "Population_Served_Count": 2027, "Service_Connections_Count": 765, "Service_Area_Type": "Municipality", "Verification_Status": "", "Area_SqKM": 1.6853640706824362}, "geometry": {"type": "Point", "coordinates": [-75.5660231129891, 38.461470732861905]}}, {"type": "Feature", "properties": {"PWSID": "DE0000568", "PWS_Name": "HOLLY OAK MOBILE HOME PARK", "Primacy_Agency": "DE", "Population_Served_Count": 210, "Service_Connections_Count": 71, "Service_Area_Type": "Mobile Home Park", "Verification_Status": "", "Area_SqKM": 0.178916544651112}, "geometry": {"type": "Point", "coordinates": [-75.57284199637964, 38.46625299462396]}}, {"type": "Feature", "properties": {"PWSID": "DE0020020", "PWS_Name": "COUNTRY GROVE", "Primacy_Agency": "DE", "Population_Served_Count": 426, "Service_Connections_Count": 269, "Service_Area_Type": "Residential Area", "Verification_Status": "", "Area_SqKM": 0.38377257735272086}, "geometry": {"type": "Point", "coordinates": [-75.57030456129074, 38.501811883860725]}}, {"type": "Feature", "properties": {"PWSID": "DE00A0699", "PWS_Name": "SANDY RIDGE PUMP DISTRICT", "Primacy_Agency": "DE", "Population_Served_Count": 243, "Service_Connections_Count": 70, "Service_Area_Type": "Mobile Home Park", "Verification_Status": "", "Area_SqKM": 0.224437539091155}, "geometry": {"type": "Point", "coordinates": [-75.54391575575957, 38.54912413201146]}}, {"type": "Feature", "properties": {"PWSID": "DE0000600", "PWS_Name": "SHADY ACRES MOBILE HOME PARK", "Primacy_Agency": "DE", "Population_Served_Count": 152, "Service_Connections_Count": 51, "Service_Area_Type": "Mobile Home Park", "Verification_Status": "", "Area_SqKM": 0.10308400778699792}, "geometry": {"type": "Point", "coordinates": [-75.55435435657868, 38.56171846203341]}}, {"type": "Feature", "properties": {"PWSID": "DE0000865", "PWS_Name": "BLADES, TOWN OF", "Primacy_Agency": "DE", "Population_Served_Count": 1200, "Service_Connections_Count": 570, "Service_Area_Type": "Municipality", "Verification_Status": "", "Area_SqKM": 2.439682922944674}, "geometry": {"type": "Point", "coordinates": [-75.60696618061215, 38.633296510874956]}}, {"type": "Feature", "properties": {"PWSID": "DE0002275", "PWS_Name": "GREENWOOD COUNTRY RETIREMENT", "Primacy_Agency": "DE", "Population_Served_Count": 50, "Service_Connections_Count": 28, "Service_Area_Type": "Other Residential", "Verification_Status": "", "Area_SqKM": 0.15995275508299767}, "geometry": {"type": "Point", "coordinates": [-75.70739688073849, 38.85062793463176]}}, {"type": "Feature", "properties": {"PWSID": "DE00A0326", "PWS_Name": "CLEARBROOKE ESTATES PUMP DISTRICT", "Primacy_Agency": "DE", "Population_Served_Count": 768, "Service_Connections_Count": 239, "Service_Area_Type": "Residential Area", "Verification_Status": "", "Area_SqKM": 2.4103855933869447}, "geometry": {"type": "Point", "coordinates": [-75.59473492324359, 38.68744114784397]}}, {"type": "Feature", "properties": {"PWSID": "DE00A0327", "PWS_Name": "GREEN ACRES PUMP DISTRICT", "Primacy_Agency": "DE", "Population_Served_Count": 213, "Service_Connections_Count": 72, "Service_Area_Type": "Residential Area", "Verification_Status": "", "Area_SqKM": 4.202495682356589}, "geometry": {"type": "Point", "coordinates": [-75.60468899448188, 38.67539011943042]}}, {"type": "Feature", "properties": {"PWSID": "DE0000265", "PWS_Name": "LAUREL VILLAGE MOBILE HOME PARK", "Primacy_Agency": "DE", "Population_Served_Count": 918, "Service_Connections_Count": 310, "Service_Area_Type": "Mobile Home Park", "Verification_Status": "", "Area_SqKM": 0.4756757489831865}, "geometry": {"type": "Point", "coordinates": [-75.5784174538586, 38.589945450847935]}}, {"type": "Feature", "properties": {"PWSID": "DE0000270", "PWS_Name": "PINE RIDGE MOBILE HOME PARK", "Primacy_Agency": "DE", "Population_Served_Count": 222, "Service_Connections_Count": 73, "Service_Area_Type": "Mobile Home Park", "Verification_Status": "", "Area_SqKM": 0.10934211333041566}, "geometry": {"type": "Point", "coordinates": [-75.58515754959255, 38.604328707014666]}}, {"type": "Feature", "properties": {"PWSID": "DE0000464", "PWS_Name": "PEPPER RIDGE PARK", "Primacy_Agency": "DE", "Population_Served_Count": 209, "Service_Connections_Count": 60, "Service_Area_Type": "Mobile Home Park", "Verification_Status": "", "Area_SqKM": 3.4720895849161626}, "geometry": {"type": "Point", "coordinates": [-75.22603887264297, 38.4962916452398]}}, {"type": "Feature", "properties": {"PWSID": "DE0000569", "PWS_Name": "STAGE VILLAGE MHC", "Primacy_Agency": "DE", "Population_Served_Count": 93, "Service_Connections_Count": 25, "Service_Area_Type": "Mobile Home Park", "Verification_Status": "", "Area_SqKM": 0.03010736527029131}, "geometry": {"type": "Point", "coordinates": [-75.55045152845942, 38.4676045297267]}}, {"type": "Feature", "properties": {"PWSID": "DE0000654", "PWS_Name": "SELBYVILLE WATER DEPARTMENT", "Primacy_Agency": "DE", "Population_Served_Count": 3502, "Service_Connections_Count": 2321, "Service_Area_Type": "Municipality", "Verification_Status": "", "Area_SqKM": 5.8458843522539725}, "geometry": {"type": "Point", "coordinates": [-75.21923326612128, 38.45984637625223]}}, {"type": "Feature", "properties": {"PWSID": "DE0000817", "PWS_Name": "COUNTRYSIDE HAMLET", "Primacy_Agency": "DE", "Population_Served_Count": 66, "Service_Connections_Count": 45, "Service_Area_Type": "Mobile Home Park", "Verification_Status": "", "Area_SqKM": 0.2031896329182319}, "geometry": {"type": "Point", "coordinates": [-75.23586803323815, 38.50360775837458]}}, {"type": "Feature", "properties": {"PWSID": "DE0020021", "PWS_Name": "PEPPER CREEK DISTRICT (TUI)", "Primacy_Agency": "DE", "Population_Served_Count": 414, "Service_Connections_Count": 139, "Service_Area_Type": "Residential Area", "Verification_Status": "", "Area_SqKM": 2.104117300173266}, "geometry": {"type": "Point", "coordinates": [-75.2063045800278, 38.560995613346044]}}, {"type": "Feature", "properties": {"PWSID": "DE00A0379", "PWS_Name": "POINT FARM", "Primacy_Agency": "DE", "Population_Served_Count": 270, "Service_Connections_Count": 95, "Service_Area_Type": "Residential Area", "Verification_Status": "", "Area_SqKM": 0.10605073373992707}, "geometry": {"type": "Point", "coordinates": [-75.19777732499274, 38.556134487462764]}}, {"type": "Feature", "properties": {"PWSID": "DE00A0799", "PWS_Name": "DAGSBORO WATER DEPT", "Primacy_Agency": "DE", "Population_Served_Count": 934, "Service_Connections_Count": 510, "Service_Area_Type": "Municipality", "Verification_Status": "", "Area_SqKM": 1.2531970360379794}, "geometry": {"type": "Point", "coordinates": [-75.25105148770001, 38.54718211500039]}}, {"type": "Feature", "properties": {"PWSID": "DE0000523", "PWS_Name": "HOLIDAY ACRES, LLC", "Primacy_Agency": "DE", "Population_Served_Count": 132, "Service_Connections_Count": 41, "Service_Area_Type": "Mobile Home Park", "Verification_Status": "", "Area_SqKM": 0.6426008684960998}, "geometry": {"type": "Point", "coordinates": [-75.27014386402321, 38.57765007051562]}}, {"type": "Feature", "properties": {"PWSID": "DE00A0279", "PWS_Name": "WOODLANDS OF MILLSBORO PUMP DISTRICT", "Primacy_Agency": "DE", "Population_Served_Count": 171, "Service_Connections_Count": 57, "Service_Area_Type": "Residential Area", "Verification_Status": "", "Area_SqKM": 0.7885320828473504}, "geometry": {"type": "Point", "coordinates": [-75.33222058683319, 38.56992001705174]}}, {"type": "Feature", "properties": {"PWSID": "DE0000155", "PWS_Name": "BRIDGEVILLE MALL (TUI)", "Primacy_Agency": "DE", "Population_Served_Count": 550, "Service_Connections_Count": 58, "Service_Area_Type": "Restaurant", "Verification_Status": "", "Area_SqKM": 0.8490354705569036}, "geometry": {"type": "Point", "coordinates": [-75.59199120000343, 38.720129580017776]}}, {"type": "Feature", "properties": {"PWSID": "DE0000275", "PWS_Name": "COUNTRY REST HOME", "Primacy_Agency": "DE", "Population_Served_Count": 65, "Service_Connections_Count": 7, "Service_Area_Type": "Institution", "Verification_Status": "", "Area_SqKM": 6.892159542220555}, "geometry": {"type": "Point", "coordinates": [-75.62083690622642, 38.81927577329123]}}, {"type": "Feature", "properties": {"PWSID": "DE0000558", "PWS_Name": "GREENWOOD WATER DEPARTMENT", "Primacy_Agency": "DE", "Population_Served_Count": 973, "Service_Connections_Count": 494, "Service_Area_Type": "Municipality", "Verification_Status": "", "Area_SqKM": 2.3613902875980286}, "geometry": {"type": "Point", "coordinates": [-75.58789425082949, 38.81218183467891]}}, {"type": "Feature", "properties": {"PWSID": "DE0000559", "PWS_Name": "BRIDGEVILLE WATER DEPARTMENT", "Primacy_Agency": "DE", "Population_Served_Count": 2256, "Service_Connections_Count": 1851, "Service_Area_Type": "Municipality", "Verification_Status": "", "Area_SqKM": 11.512611060488819}, "geometry": {"type": "Point", "coordinates": [-75.59627888971707, 38.7165841073242]}}, {"type": "Feature", "properties": {"PWSID": "DE0000112", "PWS_Name": "DOVE ESTATES", "Primacy_Agency": "DE", "Population_Served_Count": 111, "Service_Connections_Count": 38, "Service_Area_Type": "Mobile Home Park", "Verification_Status": "", "Area_SqKM": 0.0226243942580689}, "geometry": {"type": "Point", "coordinates": [-75.55326855001391, 38.65309954984306]}}, {"type": "Feature", "properties": {"PWSID": "DE00A0377", "PWS_Name": "HOME TOWN VILLAGE OF COOL BRANCH", "Primacy_Agency": "DE", "Population_Served_Count": 654, "Service_Connections_Count": 324, "Service_Area_Type": "Residential Area", "Verification_Status": "", "Area_SqKM": 0.8116525329035498}, "geometry": {"type": "Point", "coordinates": [-75.5468843702084, 38.623496899235676]}}, {"type": "Feature", "properties": {"PWSID": "DE0000221", "PWS_Name": "BETHANY BAY PUMP DISTRICT", "Primacy_Agency": "DE", "Population_Served_Count": 51000, "Service_Connections_Count": 13969, "Service_Area_Type": "Residential Area", "Verification_Status": "", "Area_SqKM": 43.27712714656825}, "geometry": {"type": "Point", "coordinates": [-75.10382933019203, 38.56892406555564]}}, {"type": "Feature", "properties": {"PWSID": "DE0000439", "PWS_Name": "CAPE WINDSOR COMMUNITY ASSOCIATION INC", "Primacy_Agency": "DE", "Population_Served_Count": 600, "Service_Connections_Count": 250, "Service_Area_Type": "Mobile Home Park", "Verification_Status": "", "Area_SqKM": 0.288173569411364}, "geometry": {"type": "Point", "coordinates": [-75.05527442057229, 38.45614352339138]}}, {"type": "Feature", "properties": {"PWSID": "DE0000465", "PWS_Name": "SWANN KEYS", "Primacy_Agency": "DE", "Population_Served_Count": 1764, "Service_Connections_Count": 596, "Service_Area_Type": "Mobile Home Park", "Verification_Status": "", "Area_SqKM": 0.5837843860848869}, "geometry": {"type": "Point", "coordinates": [-75.09276361801734, 38.4799941848514]}}, {"type": "Feature", "properties": {"PWSID": "DE0000556", "PWS_Name": "BETHANY BEACH WATER DEPARTMENT", "Primacy_Agency": "DE", "Population_Served_Count": 12000, "Service_Connections_Count": 3447, "Service_Area_Type": "Municipality", "Verification_Status": "", "Area_SqKM": 2.9018930983081885}, "geometry": {"type": "Point", "coordinates": [-75.06820095942773, 38.53896698435364]}}, {"type": "Feature", "properties": {"PWSID": "DE0020027", "PWS_Name": "OCEAN VIEW WATER DEPARTMENT", "Primacy_Agency": "DE", "Population_Served_Count": 2039, "Service_Connections_Count": 975, "Service_Area_Type": "Municipality", "Verification_Status": "", "Area_SqKM": 0.03192200962557922}, "geometry": {"type": "Point", "coordinates": [-75.11620453321706, 38.53215846652745]}}, {"type": "Feature", "properties": {"PWSID": "DE0000557", "PWS_Name": "SUSSEX SHORES WATER COMPANY", "Primacy_Agency": "DE", "Population_Served_Count": 12450, "Service_Connections_Count": 2286, "Service_Area_Type": "Municipality", "Verification_Status": "", "Area_SqKM": 0.8306178495977496}, "geometry": {"type": "Point", "coordinates": [-75.06013093188865, 38.55067500396183]}}, {"type": "Feature", "properties": {"PWSID": "DE0000252", "PWS_Name": "BAYSHORE MOBILE HOME PARK", "Primacy_Agency": "DE", "Population_Served_Count": 533, "Service_Connections_Count": 308, "Service_Area_Type": "Other Transient Area", "Verification_Status": "", "Area_SqKM": 0.25811705871437196}, "geometry": {"type": "Point", "coordinates": [-75.08806612105381, 38.57624147852946]}}, {"type": "Feature", "properties": {"PWSID": "DE0000227", "PWS_Name": "INDIAN RIVER ACRES PUMP DISTRICT", "Primacy_Agency": "DE", "Population_Served_Count": 300, "Service_Connections_Count": 51, "Service_Area_Type": "Residential Area", "Verification_Status": "", "Area_SqKM": 3.592563422067892}, "geometry": {"type": "Point", "coordinates": [-75.16790432028483, 38.5697075783425]}}, {"type": "Feature", "properties": {"PWSID": "DE00A0837", "PWS_Name": "BAYSIDE PUMP DISTRICT (TUI)", "Primacy_Agency": "DE", "Population_Served_Count": 8400, "Service_Connections_Count": 1456, "Service_Area_Type": "Other Residential", "Verification_Status": "", "Area_SqKM": 0.7651436435015053}, "geometry": {"type": "Point", "coordinates": [-75.12167774921014, 38.456973310807115]}}, {"type": "Feature", "properties": {"PWSID": "DE00A0516", "PWS_Name": "SEA WINDS PUMP DISTRICT", "Primacy_Agency": "DE", "Population_Served_Count": 141, "Service_Connections_Count": 42, "Service_Area_Type": "Residential Area", "Verification_Status": "", "Area_SqKM": 1.1316188862504923}, "geometry": {"type": "Point", "coordinates": [-75.18216118828782, 38.561580259531155]}}, {"type": "Feature", "properties": {"PWSID": "DE00A0169", "PWS_Name": "MALLARD LAKES", "Primacy_Agency": "DE", "Population_Served_Count": 1500, "Service_Connections_Count": 479, "Service_Area_Type": "Residential Area", "Verification_Status": "", "Area_SqKM": 0.0744031874151188}, "geometry": {"type": "Point", "coordinates": [-75.05291586279859, 38.45869841429237]}}, {"type": "Feature", "properties": {"PWSID": "DE00A0334", "PWS_Name": "EAST NCC DISTRICT", "Primacy_Agency": "DE", "Population_Served_Count": 5538, "Service_Connections_Count": 1917, "Service_Area_Type": "Residential Area", "Verification_Status": "", "Area_SqKM": 8.418140647188197}, "geometry": {"type": "Point", "coordinates": [-75.6521173472408, 39.50975903829522]}}, {"type": "Feature", "properties": {"PWSID": "DE0000634", "PWS_Name": "MUNICIPAL SERVICES COMMISSION", "Primacy_Agency": "DE", "Population_Served_Count": 5549, "Service_Connections_Count": 2320, "Service_Area_Type": "Municipality", "Verification_Status": "", "Area_SqKM": 10.477589497192087}, "geometry": {"type": "Point", "coordinates": [-75.55957568349363, 39.667377568299685]}}, {"type": "Feature", "properties": {"PWSID": "DE0000399", "PWS_Name": "CARPENTERS ROW", "Primacy_Agency": "DE", "Population_Served_Count": 60, "Service_Connections_Count": 21, "Service_Area_Type": "Residential Area", "Verification_Status": "", "Area_SqKM": 0.7056379978342636}, "geometry": {"type": "Point", "coordinates": [-75.59513709995954, 39.78622087199102]}}, {"type": "Feature", "properties": {"PWSID": "DE00A0347", "PWS_Name": "NORTH WEST PUMP DISTRICT", "Primacy_Agency": "DE", "Population_Served_Count": 4149, "Service_Connections_Count": 1366, "Service_Area_Type": "Residential Area", "Verification_Status": "", "Area_SqKM": 2.700039834328834}, "geometry": {"type": "Point", "coordinates": [-75.7410580210501, 39.5173487780311]}}, {"type": "Feature", "properties": {"PWSID": "DE0000140", "PWS_Name": "SUMMIT POND PUMP DISTRICT", "Primacy_Agency": "DE", "Population_Served_Count": 177, "Service_Connections_Count": 60, "Service_Area_Type": "Residential Area", "Verification_Status": "", "Area_SqKM": 2.0714733257872893}, "geometry": {"type": "Point", "coordinates": [-75.71514308125329, 39.52630935570546]}}, {"type": "Feature", "properties": {"PWSID": "DE00A0868", "PWS_Name": "KENTON PUMP DISTRICT", "Primacy_Agency": "DE", "Population_Served_Count": 465, "Service_Connections_Count": 149, "Service_Area_Type": "Residential Area", "Verification_Status": "", "Area_SqKM": 0.4758859602070744}, "geometry": {"type": "Point", "coordinates": [-75.66223965189637, 39.22440798752172]}}, {"type": "Feature", "properties": {"PWSID": "DE00A0697", "PWS_Name": "BRUMBLEY'S FAMILY PARK", "Primacy_Agency": "DE", "Population_Served_Count": 48, "Service_Connections_Count": 30, "Service_Area_Type": "Residential Area", "Verification_Status": "", "Area_SqKM": 0.0761774991119546}, "geometry": {"type": "Point", "coordinates": [-75.30593478989881, 38.81923080996694]}}, {"type": "Feature", "properties": {"PWSID": "DE00A0696", "PWS_Name": "FOX POINTE SUBDIVISION", "Primacy_Agency": "DE", "Population_Served_Count": 500, "Service_Connections_Count": 258, "Service_Area_Type": "Residential Area", "Verification_Status": "", "Area_SqKM": 0.0558665947243924}, "geometry": {"type": "Point", "coordinates": [-75.58611954021285, 39.217205219998355]}}, {"type": "Feature", "properties": {"PWSID": "DE00A0684", "PWS_Name": "WEST DOVER PUMP DISTRICT", "Primacy_Agency": "DE", "Population_Served_Count": 1665, "Service_Connections_Count": 547, "Service_Area_Type": "Residential Area", "Verification_Status": "", "Area_SqKM": 1.4554323200252972}, "geometry": {"type": "Point", "coordinates": [-75.5833873285535, 39.189331477730406]}}, {"type": "Feature", "properties": {"PWSID": "DE00A0522", "PWS_Name": "GRANTS WAY PUMP DISTRICT (TUI)", "Primacy_Agency": "DE", "Population_Served_Count": 639, "Service_Connections_Count": 297, "Service_Area_Type": "Residential Area", "Verification_Status": "", "Area_SqKM": 7.725212717090024}, "geometry": {"type": "Point", "coordinates": [-75.26911492138673, 38.79298836490637]}}, {"type": "Feature", "properties": {"PWSID": "DE00A0440", "PWS_Name": "BARKERS LANDING", "Primacy_Agency": "DE", "Population_Served_Count": 498, "Service_Connections_Count": 237, "Service_Area_Type": "Residential Area", "Verification_Status": "", "Area_SqKM": 0.6049916942600378}, "geometry": {"type": "Point", "coordinates": [-75.46409547241892, 39.056163641344696]}}, {"type": "Feature", "properties": {"PWSID": "DE00A0420", "PWS_Name": "MISTY PINES PUMP DISTRICT", "Primacy_Agency": "DE", "Population_Served_Count": 168, "Service_Connections_Count": 55, "Service_Area_Type": "Residential Area", "Verification_Status": "", "Area_SqKM": 0.2974103452721228}, "geometry": {"type": "Point", "coordinates": [-75.47882899323957, 39.05745790598731]}}, {"type": "Feature", "properties": {"PWSID": "DE00A0411", "PWS_Name": "LONG FARM ESTATES PUMP DISTRICT", "Primacy_Agency": "DE", "Population_Served_Count": 123, "Service_Connections_Count": 41, "Service_Area_Type": "Residential Area", "Verification_Status": "", "Area_SqKM": 0.10360807123176578}, "geometry": {"type": "Point", "coordinates": [-75.72123542302948, 39.122847469242785]}}, {"type": "Feature", "properties": {"PWSID": "DE00A0369", "PWS_Name": "WEBBS LANDING PUMP DISTRICT", "Primacy_Agency": "DE", "Population_Served_Count": 105, "Service_Connections_Count": 36, "Service_Area_Type": "Residential Area", "Verification_Status": "", "Area_SqKM": 10.121773233665857}, "geometry": {"type": "Point", "coordinates": [-75.23068468439476, 38.80166659502918]}}, {"type": "Feature", "properties": {"PWSID": "DE00A0348", "PWS_Name": "CANTERBURY CROSSING PUMP DISTRICT", "Primacy_Agency": "DE", "Population_Served_Count": 471, "Service_Connections_Count": 160, "Service_Area_Type": "Mobile Home Park", "Verification_Status": "", "Area_SqKM": 0.5195798387333749}, "geometry": {"type": "Point", "coordinates": [-75.55271529672083, 39.04521756882599]}}, {"type": "Feature", "properties": {"PWSID": "DE00A0321", "PWS_Name": "TEAL POINT (TUI)", "Primacy_Agency": "DE", "Population_Served_Count": 117, "Service_Connections_Count": 36, "Service_Area_Type": "Residential Area", "Verification_Status": "", "Area_SqKM": 0.030576146690895704}, "geometry": {"type": "Point", "coordinates": [-75.31712788822807, 38.80257071180724]}}, {"type": "Feature", "properties": {"PWSID": "DE00A0159", "PWS_Name": "WILD QUAIL PUMP DISTRICT", "Primacy_Agency": "DE", "Population_Served_Count": 1017, "Service_Connections_Count": 333, "Service_Area_Type": "Residential Area", "Verification_Status": "", "Area_SqKM": 5.19884578420676}, "geometry": {"type": "Point", "coordinates": [-75.62120510304956, 39.13028234418599]}}, {"type": "Feature", "properties": {"PWSID": "DE0020122", "PWS_Name": "WILLOW GROVE MILL", "Primacy_Agency": "DE", "Population_Served_Count": 3090, "Service_Connections_Count": 1026, "Service_Area_Type": "Residential Area", "Verification_Status": "", "Area_SqKM": 7.524668985399875}, "geometry": {"type": "Point", "coordinates": [-75.70358561741234, 39.45298140594508]}}, {"type": "Feature", "properties": {"PWSID": "DE0020117", "PWS_Name": "SEAGLASS AT REHOBOTH BEACH", "Primacy_Agency": "DE", "Population_Served_Count": 674, "Service_Connections_Count": 224, "Service_Area_Type": "Residential Area", "Verification_Status": "", "Area_SqKM": 0.8321378430067721}, "geometry": {"type": "Point", "coordinates": [-75.13476684135601, 38.725811289136615]}}, {"type": "Feature", "properties": {"PWSID": "DE0020022", "PWS_Name": "PONDS OF WILLOW GROVE", "Primacy_Agency": "DE", "Population_Served_Count": 126, "Service_Connections_Count": 79, "Service_Area_Type": "Residential Area", "Verification_Status": "", "Area_SqKM": 0.45728629821232586}, "geometry": {"type": "Point", "coordinates": [-75.58931739992741, 39.08623905794428]}}, {"type": "Feature", "properties": {"PWSID": "DE0002581", "PWS_Name": "FLYING DUTCHMAN MOBILE HOME PARK 2", "Primacy_Agency": "DE", "Population_Served_Count": 60, "Service_Connections_Count": 46, "Service_Area_Type": "Mobile Home Park", "Verification_Status": "", "Area_SqKM": 0.03992413142064271}, "geometry": {"type": "Point", "coordinates": [-75.55260588571662, 39.04026672863087]}}, {"type": "Feature", "properties": {"PWSID": "DE0001605", "PWS_Name": "TALL PINES RESORT COMMUNITY SYS1", "Primacy_Agency": "DE", "Population_Served_Count": 538, "Service_Connections_Count": 480, "Service_Area_Type": "Mobile Home Park", "Verification_Status": "", "Area_SqKM": 0.09509969513267581}, "geometry": {"type": "Point", "coordinates": [-75.23315691949637, 38.738129531694774]}}, {"type": "Feature", "properties": {"PWSID": "DE0000999", "PWS_Name": "ANGOLA CREST II", "Primacy_Agency": "DE", "Population_Served_Count": 159, "Service_Connections_Count": 71, "Service_Area_Type": "Mobile Home Park", "Verification_Status": "", "Area_SqKM": 0.23913066337675068}, "geometry": {"type": "Point", "coordinates": [-75.16548401972508, 38.672569168861806]}}, {"type": "Feature", "properties": {"PWSID": "DE0000991", "PWS_Name": "REHOBOTH PUMP DISTRICT (TUI)", "Primacy_Agency": "DE", "Population_Served_Count": 73860, "Service_Connections_Count": 26801, "Service_Area_Type": "Residential Area", "Verification_Status": "", "Area_SqKM": 4.797270582351671}, "geometry": {"type": "Point", "coordinates": [-75.17065027414588, 38.71752952255755]}}, {"type": "Feature", "properties": {"PWSID": "DE0000987", "PWS_Name": "BLANTON'S MANUFACTURED HOME COMMUNITY", "Primacy_Agency": "DE", "Population_Served_Count": 75, "Service_Connections_Count": 30, "Service_Area_Type": "Mobile Home Park", "Verification_Status": "", "Area_SqKM": 0.01699925368919879}, "geometry": {"type": "Point", "coordinates": [-75.58715542630611, 39.22051371576697]}}, {"type": "Feature", "properties": {"PWSID": "DE0000960", "PWS_Name": "FOREST GROVE PUMP DISTRICT", "Primacy_Agency": "DE", "Population_Served_Count": 330, "Service_Connections_Count": 119, "Service_Area_Type": "Mobile Home Park", "Verification_Status": "", "Area_SqKM": 0.042064891586627226}, "geometry": {"type": "Point", "coordinates": [-75.7170993999849, 39.15389667781015]}}, {"type": "Feature", "properties": {"PWSID": "DE0000939", "PWS_Name": "HOLLY HILL ESTATES", "Primacy_Agency": "DE", "Population_Served_Count": 831, "Service_Connections_Count": 279, "Service_Area_Type": "Mobile Home Park", "Verification_Status": "", "Area_SqKM": 0.37718924708131246}, "geometry": {"type": "Point", "coordinates": [-75.59259964717882, 39.27166220765116]}}, {"type": "Feature", "properties": {"PWSID": "DE0000723", "PWS_Name": "REHOBOTH BEACH WATER DEPARTMENT", "Primacy_Agency": "DE", "Population_Served_Count": 25000, "Service_Connections_Count": 5082, "Service_Area_Type": "Municipality", "Verification_Status": "", "Area_SqKM": 20.1539772010347}, "geometry": {"type": "Point", "coordinates": [-75.10668711803844, 38.71264269803716]}}, {"type": "Feature", "properties": {"PWSID": "DE0000661", "PWS_Name": "WOODLAND TRAILER COURT", "Primacy_Agency": "DE", "Population_Served_Count": 41, "Service_Connections_Count": 22, "Service_Area_Type": "Mobile Home Park", "Verification_Status": "", "Area_SqKM": 0.01216355930506197}, "geometry": {"type": "Point", "coordinates": [-75.58268776945403, 39.307169378274104]}}, {"type": "Feature", "properties": {"PWSID": "DE0000660", "PWS_Name": "HEDGEROW HOLLOW", "Primacy_Agency": "DE", "Population_Served_Count": 147, "Service_Connections_Count": 49, "Service_Area_Type": "Mobile Home Park", "Verification_Status": "", "Area_SqKM": 0.04529748622502362}, "geometry": {"type": "Point", "coordinates": [-75.59020762725852, 39.27552117270761]}}, {"type": "Feature", "properties": {"PWSID": "DE0000645", "PWS_Name": "REHOBOTH BAY COMMUNITY", "Primacy_Agency": "DE", "Population_Served_Count": 1575, "Service_Connections_Count": 528, "Service_Area_Type": "Mobile Home Park", "Verification_Status": "", "Area_SqKM": 0.21052122963374326}, "geometry": {"type": "Point", "coordinates": [-75.12827141624405, 38.68909301620684]}}, {"type": "Feature", "properties": {"PWSID": "DE0000641", "PWS_Name": "SILVER VIEW FARM", "Primacy_Agency": "DE", "Population_Served_Count": 398, "Service_Connections_Count": 148, "Service_Area_Type": "Mobile Home Park", "Verification_Status": "", "Area_SqKM": 0.7218667742366381}, "geometry": {"type": "Point", "coordinates": [-75.11540425724466, 38.70069639444807]}}, {"type": "Feature", "properties": {"PWSID": "DE0000629", "PWS_Name": "MILTON WATER DEPARTMENT", "Primacy_Agency": "DE", "Population_Served_Count": 3200, "Service_Connections_Count": 2121, "Service_Area_Type": "Municipality", "Verification_Status": "", "Area_SqKM": 4.566135199155159}, "geometry": {"type": "Point", "coordinates": [-75.31279524309815, 38.778625002386164]}}, {"type": "Feature", "properties": {"PWSID": "DE0000614", "PWS_Name": "MIDDLETOWN WATER DEPARTMENT", "Primacy_Agency": "DE", "Population_Served_Count": 17700, "Service_Connections_Count": 8336, "Service_Area_Type": "Municipality", "Verification_Status": "", "Area_SqKM": 4.5488230976316855}, "geometry": {"type": "Point", "coordinates": [-75.72208851305673, 39.46888485866781]}}, {"type": "Feature", "properties": {"PWSID": "DE0000613", "PWS_Name": "SOUTHWOOD ACRES PUMP DISTRICT", "Primacy_Agency": "DE", "Population_Served_Count": 591, "Service_Connections_Count": 199, "Service_Area_Type": "Mobile Home Park", "Verification_Status": "", "Area_SqKM": 0.14356182247021387}, "geometry": {"type": "Point", "coordinates": [-75.50267302863001, 39.05271008391743]}}, {"type": "Feature", "properties": {"PWSID": "DE0000611", "PWS_Name": "GRANADA MOBILE HOME COURT", "Primacy_Agency": "DE", "Population_Served_Count": 138, "Service_Connections_Count": 45, "Service_Area_Type": "Mobile Home Park", "Verification_Status": "", "Area_SqKM": 0.08081193780477357}, "geometry": {"type": "Point", "coordinates": [-75.50167720887433, 39.056661311843456]}}, {"type": "Feature", "properties": {"PWSID": "DE0000610", "PWS_Name": "MAGNOLIA WATER DEPARTMENT", "Primacy_Agency": "DE", "Population_Served_Count": 425, "Service_Connections_Count": 145, "Service_Area_Type": "Municipality", "Verification_Status": "", "Area_SqKM": 0.4048018486843205}, "geometry": {"type": "Point", "coordinates": [-75.47674907205327, 39.06958813814213]}}, {"type": "Feature", "properties": {"PWSID": "DE0000606", "PWS_Name": "LOVE CREEK PARK", "Primacy_Agency": "DE", "Population_Served_Count": 210, "Service_Connections_Count": 170, "Service_Area_Type": "Mobile Home Park", "Verification_Status": "", "Area_SqKM": 0.06272026856421019}, "geometry": {"type": "Point", "coordinates": [-75.15797440274595, 38.70316852970893]}}, {"type": "Feature", "properties": {"PWSID": "DE0000602", "PWS_Name": "LEWES BOARD OF PUBLIC WORKS", "Primacy_Agency": "DE", "Population_Served_Count": 9627, "Service_Connections_Count": 3874, "Service_Area_Type": "Municipality", "Verification_Status": "", "Area_SqKM": 20.119687448160004}, "geometry": {"type": "Point", "coordinates": [-75.14418738392288, 38.76097920443346]}}, {"type": "Feature", "properties": {"PWSID": "DE0000596", "PWS_Name": "TWIN MAPLES TRAILER PARK", "Primacy_Agency": "DE", "Population_Served_Count": 123, "Service_Connections_Count": 42, "Service_Area_Type": "Mobile Home Park", "Verification_Status": "", "Area_SqKM": 0.010148549319257991}, "geometry": {"type": "Point", "coordinates": [-75.66751449092777, 39.22131594547373]}}, {"type": "Feature", "properties": {"PWSID": "DE0000579", "PWS_Name": "DOVER AIR FORCE BASE", "Primacy_Agency": "DE", "Population_Served_Count": 11000, "Service_Connections_Count": 180, "Service_Area_Type": "Other Residential", "Verification_Status": "", "Area_SqKM": 9.509909574309741}, "geometry": {"type": "Point", "coordinates": [-75.4648365940313, 39.13167676530891]}}, {"type": "Feature", "properties": {"PWSID": "DE0000573", "PWS_Name": "DOVER AIR PARK", "Primacy_Agency": "DE", "Population_Served_Count": 252, "Service_Connections_Count": 81, "Service_Area_Type": "Mobile Home Park", "Verification_Status": "", "Area_SqKM": 0.1004465227039268}, "geometry": {"type": "Point", "coordinates": [-75.49404245734821, 39.12702209446958]}}, {"type": "Feature", "properties": {"PWSID": "DE0000572", "PWS_Name": "VILLAGE OF GRANDVIEW", "Primacy_Agency": "DE", "Population_Served_Count": 108, "Service_Connections_Count": 36, "Service_Area_Type": "Mobile Home Park", "Verification_Status": "", "Area_SqKM": 0.07548879361071784}, "geometry": {"type": "Point", "coordinates": [-75.49744644948147, 39.15960172904772]}}, {"type": "Feature", "properties": {"PWSID": "DE0000571", "PWS_Name": "DOVER WATER DEPARTMENT", "Primacy_Agency": "DE", "Population_Served_Count": 39491, "Service_Connections_Count": 13408, "Service_Area_Type": "Municipality", "Verification_Status": "", "Area_SqKM": 50.65171787037108}, "geometry": {"type": "Point", "coordinates": [-75.53427564927154, 39.15625247997136]}}, {"type": "Feature", "properties": {"PWSID": "DE0000563", "PWS_Name": "CAMDEN WYOMING SEWER AND WATER AUTHORITY", "Primacy_Agency": "DE", "Population_Served_Count": 5000, "Service_Connections_Count": 2519, "Service_Area_Type": "Municipality", "Verification_Status": "", "Area_SqKM": 0.8192449751602429}, "geometry": {"type": "Point", "coordinates": [-75.56001972912922, 39.11163948651084]}}, {"type": "Feature", "properties": {"PWSID": "DE0000561", "PWS_Name": "LAW MOBILE HOME PARK", "Primacy_Agency": "DE", "Population_Served_Count": 50, "Service_Connections_Count": 13, "Service_Area_Type": "Mobile Home Park", "Verification_Status": "", "Area_SqKM": 0.01910594747157298}, "geometry": {"type": "Point", "coordinates": [-75.50971250740434, 39.095715582992966]}}, {"type": "Feature", "properties": {"PWSID": "DE0000560", "PWS_Name": "HILLTOP TRAILER PARK", "Primacy_Agency": "DE", "Population_Served_Count": 65, "Service_Connections_Count": 42, "Service_Area_Type": "Mobile Home Park", "Verification_Status": "", "Area_SqKM": 0.05405765045053748}, "geometry": {"type": "Point", "coordinates": [-75.51259464409921, 39.09710073298828]}}, {"type": "Feature", "properties": {"PWSID": "DE0000549", "PWS_Name": "WOODS EDGE MOBILE HOME PARK", "Primacy_Agency": "DE", "Population_Served_Count": 45, "Service_Connections_Count": 23, "Service_Area_Type": "Mobile Home Park", "Verification_Status": "", "Area_SqKM": 0.06784329212307738}, "geometry": {"type": "Point", "coordinates": [-75.57349605420917, 39.07562295088189]}}, {"type": "Feature", "properties": {"PWSID": "DE0000548", "PWS_Name": "OAK GROVE ESTATES", "Primacy_Agency": "DE", "Population_Served_Count": 150, "Service_Connections_Count": 50, "Service_Area_Type": "Mobile Home Park", "Verification_Status": "", "Area_SqKM": 0.06911038913699093}, "geometry": {"type": "Point", "coordinates": [-75.49493295805634, 39.15777703145736]}}, {"type": "Feature", "properties": {"PWSID": "DE0000547", "PWS_Name": "PINEWOOD ACRES", "Primacy_Agency": "DE", "Population_Served_Count": 1200, "Service_Connections_Count": 348, "Service_Area_Type": "Mobile Home Park", "Verification_Status": "", "Area_SqKM": 0.15071979317425785}, "geometry": {"type": "Point", "coordinates": [-75.5774636196109, 39.21344287191578]}}, {"type": "Feature", "properties": {"PWSID": "DE0000546", "PWS_Name": "LAKELAND/BEECHWOOD PUMP DISTRICT", "Primacy_Agency": "DE", "Population_Served_Count": 459, "Service_Connections_Count": 168, "Service_Area_Type": "Mobile Home Park", "Verification_Status": "", "Area_SqKM": 0.2252098893424683}, "geometry": {"type": "Point", "coordinates": [-75.51528600224786, 39.130667360694375]}}, {"type": "Feature", "properties": {"PWSID": "DE0000545", "PWS_Name": "KITTS HUMMOCK IMPROVEMENT ASSOC", "Primacy_Agency": "DE", "Population_Served_Count": 305, "Service_Connections_Count": 142, "Service_Area_Type": "Residential Area", "Verification_Status": "", "Area_SqKM": 29.766120300912867}, "geometry": {"type": "Point", "coordinates": [-75.4287100277127, 39.11112893218842]}}, {"type": "Feature", "properties": {"PWSID": "DE0000492", "PWS_Name": "STRIMEL'S MHP LLC.", "Primacy_Agency": "DE", "Population_Served_Count": 40, "Service_Connections_Count": 24, "Service_Area_Type": "Mobile Home Park", "Verification_Status": "", "Area_SqKM": 0.01601757082152131}, "geometry": {"type": "Point", "coordinates": [-75.58128065615203, 39.22071389993397]}}, {"type": "Feature", "properties": {"PWSID": "DE0000468", "PWS_Name": "HARTLY MOBILE HOME PARK", "Primacy_Agency": "DE", "Population_Served_Count": 90, "Service_Connections_Count": 32, "Service_Area_Type": "Mobile Home Park", "Verification_Status": "", "Area_SqKM": 0.011010430684703898}, "geometry": {"type": "Point", "coordinates": [-75.71258058154085, 39.178022945459446]}}, {"type": "Feature", "properties": {"PWSID": "DE0000309", "PWS_Name": "FISHERMANS VILLAGE (TUI)", "Primacy_Agency": "DE", "Population_Served_Count": 129, "Service_Connections_Count": 41, "Service_Area_Type": "Residential Area", "Verification_Status": "", "Area_SqKM": 0.34435900481157944}, "geometry": {"type": "Point", "coordinates": [-75.40126698036948, 39.058564916368525]}}, {"type": "Feature", "properties": {"PWSID": "DE0000251", "PWS_Name": "HENLOPEN ACRES, TOWN OF", "Primacy_Agency": "DE", "Population_Served_Count": 700, "Service_Connections_Count": 205, "Service_Area_Type": "Municipality", "Verification_Status": "", "Area_SqKM": 0.4438587953810172}, "geometry": {"type": "Point", "coordinates": [-75.08533970635376, 38.71886079370177]}}, {"type": "Feature", "properties": {"PWSID": "DE0000238", "PWS_Name": "BROADKILN BEACH WATER COMPANY (TUI)", "Primacy_Agency": "DE", "Population_Served_Count": 3171, "Service_Connections_Count": 742, "Service_Area_Type": "Residential Area", "Verification_Status": "", "Area_SqKM": 0.06611683276694393}, "geometry": {"type": "Point", "coordinates": [-75.23548210569805, 38.847074118871966]}}, {"type": "Feature", "properties": {"PWSID": "DE0000134", "PWS_Name": "WILLOW TREE PROPERTIES LLC", "Primacy_Agency": "DE", "Population_Served_Count": 141, "Service_Connections_Count": 50, "Service_Area_Type": "Mobile Home Park", "Verification_Status": "", "Area_SqKM": 0.021003721734843092}, "geometry": {"type": "Point", "coordinates": [-75.43136861085411, 39.100433575701786]}}, {"type": "Feature", "properties": {"PWSID": "DE0000125", "PWS_Name": "VOSHELLS COVE PUMP DISTRICT", "Primacy_Agency": "DE", "Population_Served_Count": 252, "Service_Connections_Count": 83, "Service_Area_Type": "Residential Area", "Verification_Status": "", "Area_SqKM": 0.21250636257938268}, "geometry": {"type": "Point", "coordinates": [-75.60148800847188, 39.16760974336318]}}, {"type": "Feature", "properties": {"PWSID": "DE0000124", "PWS_Name": "CAMDEN PUMP DISTRICT", "Primacy_Agency": "DE", "Population_Served_Count": 17208, "Service_Connections_Count": 4598, "Service_Area_Type": "Residential Area", "Verification_Status": "", "Area_SqKM": 14.722372785996608}, "geometry": {"type": "Point", "coordinates": [-75.53763066432835, 39.10261293512022]}}, {"type": "Feature", "properties": {"PWSID": "DE0000118", "PWS_Name": "COOPER FARM PUMP DISTRICT", "Primacy_Agency": "DE", "Population_Served_Count": 249, "Service_Connections_Count": 88, "Service_Area_Type": "Residential Area", "Verification_Status": "", "Area_SqKM": 0.04823737613690203}, "geometry": {"type": "Point", "coordinates": [-75.6602795666991, 39.04550348346597]}}, {"type": "Feature", "properties": {"PWSID": "DE0000104", "PWS_Name": "HUNTERS POINTE PUMP DISTRICT", "Primacy_Agency": "DE", "Population_Served_Count": 261, "Service_Connections_Count": 87, "Service_Area_Type": "Residential Area", "Verification_Status": "", "Area_SqKM": 0.10184062386992437}, "geometry": {"type": "Point", "coordinates": [-75.58128804476901, 39.16610961057623]}}, {"type": "Feature", "properties": {"PWSID": "DE0000065", "PWS_Name": "RIDGEWOOD MANOR C/O RHP PROPERTIES", "Primacy_Agency": "DE", "Population_Served_Count": 310, "Service_Connections_Count": 160, "Service_Area_Type": "Mobile Home Park", "Verification_Status": "", "Area_SqKM": 0.0867051707717926}, "geometry": {"type": "Point", "coordinates": [-75.58318484338957, 39.26052597551404]}}, {"type": "Feature", "properties": {"PWSID": "DE0000004", "PWS_Name": "GARRISON LAKE PUMP DISTRICT", "Primacy_Agency": "DE", "Population_Served_Count": 13467, "Service_Connections_Count": 4963, "Service_Area_Type": "Residential Area", "Verification_Status": "", "Area_SqKM": 9.19224733668511}, "geometry": {"type": "Point", "coordinates": [-75.58733743482937, 39.23316769233567]}}, {"type": "Feature", "properties": {"PWSID": "DE0000615", "PWS_Name": "EDS MOBILE HOME PARK", "Primacy_Agency": "DE", "Population_Served_Count": 66, "Service_Connections_Count": 22, "Service_Area_Type": "Mobile Home Park", "Verification_Status": "", "Area_SqKM": 0.024327123318448374}, "geometry": {"type": "Point", "coordinates": [-75.45134598349706, 38.867683849949664]}}, {"type": "Feature", "properties": {"PWSID": "DE0000264", "PWS_Name": "HOMESTEAD PARK", "Primacy_Agency": "DE", "Population_Served_Count": 230, "Service_Connections_Count": 80, "Service_Area_Type": "Mobile Home Park", "Verification_Status": "", "Area_SqKM": 0.10473063024748981}, "geometry": {"type": "Point", "coordinates": [-75.39339468726376, 38.60548158752918]}}, {"type": "Feature", "properties": {"PWSID": "DE00A0679", "PWS_Name": "COUNTRY CLUB VILLAGE (TUI)", "Primacy_Agency": "DE", "Population_Served_Count": 192, "Service_Connections_Count": 56, "Service_Area_Type": "Residential Area", "Verification_Status": "", "Area_SqKM": 1.3439298909289932}, "geometry": {"type": "Point", "coordinates": [-75.35038318061802, 38.66209185510908]}}, {"type": "Feature", "properties": {"PWSID": "DE00A0425", "PWS_Name": "BAYWOOD GREENS", "Primacy_Agency": "DE", "Population_Served_Count": 909, "Service_Connections_Count": 412, "Service_Area_Type": "Residential Area", "Verification_Status": "", "Area_SqKM": 1.5014684146604655}, "geometry": {"type": "Point", "coordinates": [-75.16590280769927, 38.63567756367293]}}, {"type": "Feature", "properties": {"PWSID": "DE00A0404", "PWS_Name": "SOUTH SHORES (TUI)", "Primacy_Agency": "DE", "Population_Served_Count": 402, "Service_Connections_Count": 127, "Service_Area_Type": "Residential Area", "Verification_Status": "", "Area_SqKM": 0.8161049135422702}, "geometry": {"type": "Point", "coordinates": [-75.3809724990651, 38.8643648185108]}}, {"type": "Feature", "properties": {"PWSID": "DE00A0212", "PWS_Name": "MEADOWS AT CUBBAGE POND", "Primacy_Agency": "DE", "Population_Served_Count": 201, "Service_Connections_Count": 67, "Service_Area_Type": "Residential Area", "Verification_Status": "", "Area_SqKM": 0.20528519779337798}, "geometry": {"type": "Point", "coordinates": [-75.39528310677478, 38.857537138197465]}}, {"type": "Feature", "properties": {"PWSID": "DE00A0188", "PWS_Name": "LONG NECK VILLAGE", "Primacy_Agency": "DE", "Population_Served_Count": 345, "Service_Connections_Count": 115, "Service_Area_Type": "Mobile Home Park", "Verification_Status": "", "Area_SqKM": 0.029804604334298313}, "geometry": {"type": "Point", "coordinates": [-75.1670690823287, 38.631360682255725]}}, {"type": "Feature", "properties": {"PWSID": "DE0020112", "PWS_Name": "GREATER ELLENDALE WATER DISTRICT", "Primacy_Agency": "DE", "Population_Served_Count": 350, "Service_Connections_Count": 113, "Service_Area_Type": "Residential Area", "Verification_Status": "", "Area_SqKM": 1.4402097257196875}, "geometry": {"type": "Point", "coordinates": [-75.42332887059905, 38.80805481484926]}}, {"type": "Feature", "properties": {"PWSID": "DE0020111", "PWS_Name": "CAPTAIN'S WAY", "Primacy_Agency": "DE", "Population_Served_Count": 102, "Service_Connections_Count": 86, "Service_Area_Type": "Residential Area", "Verification_Status": "", "Area_SqKM": 0.5680621355771114}, "geometry": {"type": "Point", "coordinates": [-75.38247507009848, 38.79816452588026]}}, {"type": "Feature", "properties": {"PWSID": "DE0020007", "PWS_Name": "FREDERICA PUMP DISTRICT", "Primacy_Agency": "DE", "Population_Served_Count": 861, "Service_Connections_Count": 389, "Service_Area_Type": "Residential Area", "Verification_Status": "", "Area_SqKM": 0.3288327009186008}, "geometry": {"type": "Point", "coordinates": [-75.4750982117464, 39.00622959601469]}}, {"type": "Feature", "properties": {"PWSID": "DE0002605", "PWS_Name": "TALL PINES RESORT COMMUNITY SYS2", "Primacy_Agency": "DE", "Population_Served_Count": 53, "Service_Connections_Count": 23, "Service_Area_Type": "Mobile Home Park", "Verification_Status": "", "Area_SqKM": 0.27596194329762}, "geometry": {"type": "Point", "coordinates": [-75.23210360905107, 38.736705954513376]}}, {"type": "Feature", "properties": {"PWSID": "DE0001646", "PWS_Name": "SHAWNS HIDEAWAY SYSTEM #1", "Primacy_Agency": "DE", "Population_Served_Count": 341, "Service_Connections_Count": 69, "Service_Area_Type": "Recreation Area", "Verification_Status": "", "Area_SqKM": 5.7295120870662615}, "geometry": {"type": "Point", "coordinates": [-75.1627701646823, 38.64774771805748]}}, {"type": "Feature", "properties": {"PWSID": "DE0001254", "PWS_Name": "CROSSWINDS MHP, LLC", "Primacy_Agency": "DE", "Population_Served_Count": 210, "Service_Connections_Count": 70, "Service_Area_Type": "Residential Area", "Verification_Status": "", "Area_SqKM": 0.08884065966442567}, "geometry": {"type": "Point", "coordinates": [-75.39105140374102, 38.86160485657529]}}, {"type": "Feature", "properties": {"PWSID": "DE0000982", "PWS_Name": "SAND HILL MOBILE HOME PARK", "Primacy_Agency": "DE", "Population_Served_Count": 120, "Service_Connections_Count": 36, "Service_Area_Type": "Mobile Home Park", "Verification_Status": "", "Area_SqKM": 0.04261526326523295}, "geometry": {"type": "Point", "coordinates": [-75.363398967089, 38.71019742761984]}}, {"type": "Feature", "properties": {"PWSID": "DE0000949", "PWS_Name": "BRIDGEVILLE PUMP DISTRICT", "Primacy_Agency": "DE", "Population_Served_Count": 1542, "Service_Connections_Count": 548, "Service_Area_Type": "Mobile Home Park", "Verification_Status": "", "Area_SqKM": 0.32818656660455187}, "geometry": {"type": "Point", "coordinates": [-75.55461778722359, 38.72625934775245]}}, {"type": "Feature", "properties": {"PWSID": "DE0000924", "PWS_Name": "QUILLENS POINT", "Primacy_Agency": "DE", "Population_Served_Count": 150, "Service_Connections_Count": 99, "Service_Area_Type": "Residential Area", "Verification_Status": "", "Area_SqKM": 0.3066022332563714}, "geometry": {"type": "Point", "coordinates": [-75.07464757634243, 38.585688487297176]}}, {"type": "Feature", "properties": {"PWSID": "DE0000901", "PWS_Name": "COUNTY SEAT GARDENS", "Primacy_Agency": "DE", "Population_Served_Count": 297, "Service_Connections_Count": 106, "Service_Area_Type": "Mobile Home Park", "Verification_Status": "", "Area_SqKM": 0.18409601666042968}, "geometry": {"type": "Point", "coordinates": [-75.39104733458102, 38.718067269018796]}}, {"type": "Feature", "properties": {"PWSID": "DE0000885", "PWS_Name": "AVALON WOODS OWNERS ASSOC INC", "Primacy_Agency": "DE", "Population_Served_Count": 306, "Service_Connections_Count": 137, "Service_Area_Type": "Mobile Home Park", "Verification_Status": "", "Area_SqKM": 0.13046082348086507}, "geometry": {"type": "Point", "coordinates": [-75.26789306366992, 38.656253860571496]}}, {"type": "Feature", "properties": {"PWSID": "DE0000825", "PWS_Name": "DEWEY BEACH WATER DEPARTMENT", "Primacy_Agency": "DE", "Population_Served_Count": 31000, "Service_Connections_Count": 2771, "Service_Area_Type": "Municipality", "Verification_Status": "", "Area_SqKM": 8.870189533272695}, "geometry": {"type": "Point", "coordinates": [-75.07225381424293, 38.63619447882742]}}, {"type": "Feature", "properties": {"PWSID": "DE0000628", "PWS_Name": "BETHANY CREST LLC", "Primacy_Agency": "DE", "Population_Served_Count": 115, "Service_Connections_Count": 59, "Service_Area_Type": "Mobile Home Park", "Verification_Status": "", "Area_SqKM": 0.01911899447286644}, "geometry": {"type": "Point", "coordinates": [-75.0775470438664, 38.58248073750552]}}, {"type": "Feature", "properties": {"PWSID": "DE0000625", "PWS_Name": "LONG NECK WATER COMPANY", "Primacy_Agency": "DE", "Population_Served_Count": 11000, "Service_Connections_Count": 4753, "Service_Area_Type": "Mobile Home Park", "Verification_Status": "", "Area_SqKM": 12.844980189759818}, "geometry": {"type": "Point", "coordinates": [-75.13766636514899, 38.62856254830574]}}, {"type": "Feature", "properties": {"PWSID": "DE0000623", "PWS_Name": "COUNTRY LIVING MOBILE COURT", "Primacy_Agency": "DE", "Population_Served_Count": 255, "Service_Connections_Count": 119, "Service_Area_Type": "Mobile Home Park", "Verification_Status": "", "Area_SqKM": 0.09109826762422893}, "geometry": {"type": "Point", "coordinates": [-75.35935065006214, 38.585770149950115]}}, {"type": "Feature", "properties": {"PWSID": "DE0000622", "PWS_Name": "MILLSBORO WATER DEPARTMENT", "Primacy_Agency": "DE", "Population_Served_Count": 8568, "Service_Connections_Count": 5494, "Service_Area_Type": "Municipality", "Verification_Status": "", "Area_SqKM": 13.658917353196342}, "geometry": {"type": "Point", "coordinates": [-75.30077035756095, 38.59061716786376]}}, {"type": "Feature", "properties": {"PWSID": "DE0000616", "PWS_Name": "MILFORD WATER DEPARTMENT", "Primacy_Agency": "DE", "Population_Served_Count": 9800, "Service_Connections_Count": 4398, "Service_Area_Type": "Municipality", "Verification_Status": "", "Area_SqKM": 13.79875582456609}, "geometry": {"type": "Point", "coordinates": [-75.43410893481027, 38.919923314603174]}}, {"type": "Feature", "properties": {"PWSID": "DE0000592", "PWS_Name": "GEORGETOWN WATER DEPARTMENT", "Primacy_Agency": "DE", "Population_Served_Count": 7259, "Service_Connections_Count": 2043, "Service_Area_Type": "Municipality", "Verification_Status": "", "Area_SqKM": 6.804726522651807}, "geometry": {"type": "Point", "coordinates": [-75.39343229805806, 38.692870713352164]}}, {"type": "Feature", "properties": {"PWSID": "DE0000587", "PWS_Name": "FREDERICA WATER DEPARTMENT", "Primacy_Agency": "DE", "Population_Served_Count": 950, "Service_Connections_Count": 569, "Service_Area_Type": "Municipality", "Verification_Status": "", "Area_SqKM": 3.5296871900856086}, "geometry": {"type": "Point", "coordinates": [-75.47220249747372, 39.00608909108782]}}, {"type": "Feature", "properties": {"PWSID": "DE0000580", "PWS_Name": "FELTON WATER DEPARTMENT", "Primacy_Agency": "DE", "Population_Served_Count": 1591, "Service_Connections_Count": 609, "Service_Area_Type": "Municipality", "Verification_Status": "", "Area_SqKM": 1.9673986545784077}, "geometry": {"type": "Point", "coordinates": [-75.57581256523507, 39.01203243622552]}}, {"type": "Feature", "properties": {"PWSID": "DE0000276", "PWS_Name": "STOCKLEY CENTER", "Primacy_Agency": "DE", "Population_Served_Count": 749, "Service_Connections_Count": 28, "Service_Area_Type": "Institution", "Verification_Status": "", "Area_SqKM": 0.26691584984183575}, "geometry": {"type": "Point", "coordinates": [-75.31844511996347, 38.62507070774318]}}, {"type": "Feature", "properties": {"PWSID": "DE0000272", "PWS_Name": "SHADY OAK TRAILER COURT", "Primacy_Agency": "DE", "Population_Served_Count": 108, "Service_Connections_Count": 35, "Service_Area_Type": "Mobile Home Park", "Verification_Status": "", "Area_SqKM": 0.0861425832617437}, "geometry": {"type": "Point", "coordinates": [-75.43253188269132, 38.75912678455726]}}, {"type": "Feature", "properties": {"PWSID": "DE0000269", "PWS_Name": "NEW MARKET VILLAGE", "Primacy_Agency": "DE", "Population_Served_Count": 321, "Service_Connections_Count": 124, "Service_Area_Type": "Mobile Home Park", "Verification_Status": "", "Area_SqKM": 0.1213199439110568}, "geometry": {"type": "Point", "coordinates": [-75.38548782618678, 38.809062504308145]}}, {"type": "Feature", "properties": {"PWSID": "DE0000267", "PWS_Name": "COLONIAL ESTATES MOBILE HOME PARK", "Primacy_Agency": "DE", "Population_Served_Count": 165, "Service_Connections_Count": 50, "Service_Area_Type": "Mobile Home Park", "Verification_Status": "", "Area_SqKM": 0.17446398484669334}, "geometry": {"type": "Point", "coordinates": [-75.26301865779693, 38.57932119764336]}}, {"type": "Feature", "properties": {"PWSID": "DE0000260", "PWS_Name": "FISH HOOK MOBILE HOME PARK", "Primacy_Agency": "DE", "Population_Served_Count": 72, "Service_Connections_Count": 62, "Service_Area_Type": "Mobile Home Park", "Verification_Status": "", "Area_SqKM": 0.09896009747034029}, "geometry": {"type": "Point", "coordinates": [-75.33014895213694, 38.64536604920055]}}, {"type": "Feature", "properties": {"PWSID": "DE0000259", "PWS_Name": "ENCHANTED ACRES MHC LLC", "Primacy_Agency": "DE", "Population_Served_Count": 225, "Service_Connections_Count": 75, "Service_Area_Type": "Mobile Home Park", "Verification_Status": "", "Area_SqKM": 0.018596871008870818}, "geometry": {"type": "Point", "coordinates": [-75.55356809999775, 38.712685066655034]}}, {"type": "Feature", "properties": {"PWSID": "DE0000254", "PWS_Name": "CEDAR VILLAGE LLC", "Primacy_Agency": "DE", "Population_Served_Count": 600, "Service_Connections_Count": 146, "Service_Area_Type": "Mobile Home Park", "Verification_Status": "", "Area_SqKM": 0.12132489740838394}, "geometry": {"type": "Point", "coordinates": [-75.39229381677265, 38.859467631366144]}}, {"type": "Feature", "properties": {"PWSID": "DE0000220", "PWS_Name": "HUNTER MILL ESTATES PUMP DISTRICT", "Primacy_Agency": "DE", "Population_Served_Count": 432, "Service_Connections_Count": 144, "Service_Area_Type": "Residential Area", "Verification_Status": "", "Area_SqKM": 0.4087724822255924}, "geometry": {"type": "Point", "coordinates": [-75.26439894995832, 38.736344838482836]}}, {"type": "Feature", "properties": {"PWSID": "DE0000130", "PWS_Name": "LAKE FOREST ESTATES", "Primacy_Agency": "DE", "Population_Served_Count": 225, "Service_Connections_Count": 76, "Service_Area_Type": "Mobile Home Park", "Verification_Status": "", "Area_SqKM": 0.06569159713200982}, "geometry": {"type": "Point", "coordinates": [-75.56562206529605, 38.98330510414251]}}, {"type": "Feature", "properties": {"PWSID": "DE0000129", "PWS_Name": "COUNTRYSIDE ESTATES", "Primacy_Agency": "DE", "Population_Served_Count": 50, "Service_Connections_Count": 21, "Service_Area_Type": "Mobile Home Park", "Verification_Status": "", "Area_SqKM": 0.02713109292996591}, "geometry": {"type": "Point", "coordinates": [-75.58446936519276, 39.03704372599573]}}, {"type": "Feature", "properties": {"PWSID": "DE0000126", "PWS_Name": "HARRINGTON WATER DEPARTMENT", "Primacy_Agency": "DE", "Population_Served_Count": 3562, "Service_Connections_Count": 1251, "Service_Area_Type": "Municipality", "Verification_Status": "", "Area_SqKM": 7.057351737411668}, "geometry": {"type": "Point", "coordinates": [-75.56229877628924, 38.92586112543449]}}, {"type": "Feature", "properties": {"PWSID": "DE0000121", "PWS_Name": "SERENITY MANOR ESTATES", "Primacy_Agency": "DE", "Population_Served_Count": 110, "Service_Connections_Count": 27, "Service_Area_Type": "Mobile Home Park", "Verification_Status": "", "Area_SqKM": 0.12539801627979685}, "geometry": {"type": "Point", "coordinates": [-75.56322716070581, 39.03277888364852]}}, {"type": "Feature", "properties": {"PWSID": "DE0000115", "PWS_Name": "SAND HILL ACRES", "Primacy_Agency": "DE", "Population_Served_Count": 384, "Service_Connections_Count": 128, "Service_Area_Type": "Mobile Home Park", "Verification_Status": "", "Area_SqKM": 0.25256705756572756}, "geometry": {"type": "Point", "coordinates": [-75.3671845503957, 38.71945147872982]}}, {"type": "Feature", "properties": {"PWSID": "DE0000663", "PWS_Name": "WILMINGTON WATER DEPARTMENT", "Primacy_Agency": "DE", "Population_Served_Count": 107976, "Service_Connections_Count": 37915, "Service_Area_Type": "Municipality", "Verification_Status": "", "Area_SqKM": 51.09051016659736}, "geometry": {"type": "Point", "coordinates": [-75.60730195894995, 39.70398243796037]}}]}