{"type": "FeatureCollection", "features": [{"type": "Feature", "properties": {"PWSID": "RI1592023", "PWS_Name": "PRUDENCE ISLAND WATER DISTRICT", "Primacy_Agency": "RI", "Population_Served_Count": 1500, "Service_Connections_Count": 328, "Service_Area_Type": "Residential Area", "Verification_Status": "", "Area_SqKM": 1.4574922842229259}, "geometry": {"type": "Point", "coordinates": [-71.31190904419817, 41.61869286283042]}}, {"type": "Feature", "properties": {"PWSID": "RI1615626", "PWS_Name": "TOUISSET POINT WATER TRUST", "Primacy_Agency": "RI", "Population_Served_Count": 225, "Service_Connections_Count": 81, "Service_Area_Type": "Residential Area", "Verification_Status": "", "Area_SqKM": 0.17117159059102824}, "geometry": {"type": "Point", "coordinates": [-71.23989107790068, 41.70045672126483]}}, {"type": "Feature", "properties": {"PWSID": "RI1647512", "PWS_Name": "CENTRAL BEACH FIRE DISTRICT", "Primacy_Agency": "RI", "Population_Served_Count": 470, "Service_Connections_Count": 184, "Service_Area_Type": "Residential Area", "Verification_Status": "", "Area_SqKM": 0.29374692338616776}, "geometry": {"type": "Point", "coordinates": [-71.71037851658113, 41.33978055962794]}}, {"type": "Feature", "properties": {"PWSID": "RI1900051", "PWS_Name": "WARWICK-POTOWOMUT", "Primacy_Agency": "RI", "Population_Served_Count": 2163, "Service_Connections_Count": 865, "Service_Area_Type": "Residential Area", "Verification_Status": "", "Area_SqKM": 0.038988706932833066}, "geometry": {"type": "Point", "coordinates": [-71.46007331370662, 41.65196929553375]}}, {"type": "Feature", "properties": {"PWSID": "RI2000053", "PWS_Name": "SUNSET COVE PROPERTIES LLC", "Primacy_Agency": "RI", "Population_Served_Count": 30, "Service_Connections_Count": 19, "Service_Area_Type": "Residential Area", "Verification_Status": "", "Area_SqKM": 1.9257718108028035}, "geometry": {"type": "Point", "coordinates": [-71.77049887499135, 41.923753742500104]}}, {"type": "Feature", "properties": {"PWSID": "RI2000059", "PWS_Name": "HARMONY HILL SCHOOL, INC.", "Primacy_Agency": "RI", "Population_Served_Count": 199, "Service_Connections_Count": 8, "Service_Area_Type": "School", "Verification_Status": "", "Area_SqKM": 5.753494515199162}, "geometry": {"type": "Point", "coordinates": [-71.61613278304134, 41.90957719304584]}}, {"type": "Feature", "properties": {"PWSID": "RI2674925", "PWS_Name": "CHARLESTOWN CEDARS LLC", "Primacy_Agency": "RI", "Population_Served_Count": 150, "Service_Connections_Count": 74, "Service_Area_Type": "Mobile Home Park", "Verification_Status": "", "Area_SqKM": 0.05595830200367462}, "geometry": {"type": "Point", "coordinates": [-71.6657264390785, 41.42245973912142]}}, {"type": "Feature", "properties": {"PWSID": "RI2753326", "PWS_Name": "MEADOWLARK, INC.", "Primacy_Agency": "RI", "Population_Served_Count": 183, "Service_Connections_Count": 73, "Service_Area_Type": "Mobile Home Park", "Verification_Status": "", "Area_SqKM": 0.16763760996053792}, "geometry": {"type": "Point", "coordinates": [-71.27642311216565, 41.49897447564033]}}, {"type": "Feature", "properties": {"PWSID": "RI2973130", "PWS_Name": "MAPLEHILL MOBILE HOME PARK", "Primacy_Agency": "RI", "Population_Served_Count": 750, "Service_Connections_Count": 200, "Service_Area_Type": "Mobile Home Park", "Verification_Status": "", "Area_SqKM": 0.18669942914937582}, "geometry": {"type": "Point", "coordinates": [-71.63769842508448, 41.947588900058626]}}, {"type": "Feature", "properties": {"PWSID": "RI2980017", "PWS_Name": "CHURCH WOODS", "Primacy_Agency": "RI", "Population_Served_Count": 98, "Service_Connections_Count": 28, "Service_Area_Type": "Residential Area", "Verification_Status": "", "Area_SqKM": 0.7591459239992926}, "geometry": {"type": "Point", "coordinates": [-71.63199139354111, 41.38169853405288]}}, {"type": "Feature", "properties": {"PWSID": "RI2980452", "PWS_Name": "CNE - HOPKINS HILL ROAD ENTRY POINT", "Primacy_Agency": "RI", "Population_Served_Count": 317, "Service_Connections_Count": 28, "Service_Area_Type": "Residential Area", "Verification_Status": "", "Area_SqKM": 0.7348030136645559}, "geometry": {"type": "Point", "coordinates": [-71.45422391490287, 41.75877535950029]}}, {"type": "Feature", "properties": {"PWSID": "RI2980475", "PWS_Name": "EXETER JOB CORPS CENTER", "Primacy_Agency": "RI", "Population_Served_Count": 300, "Service_Connections_Count": 1, "Service_Area_Type": "Residential Area", "Verification_Status": "", "Area_SqKM": 0.08141448859523723}, "geometry": {"type": "Point", "coordinates": [-71.54290350553383, 41.55538883346207]}}, {"type": "Feature", "properties": {"PWSID": "RI2980476", "PWS_Name": "DOWLING VILLAGE", "Primacy_Agency": "RI", "Population_Served_Count": 2720, "Service_Connections_Count": 16, "Service_Area_Type": "Retail Employees", "Verification_Status": "", "Area_SqKM": 1.1090212490720257}, "geometry": {"type": "Point", "coordinates": [-71.4996716327704, 41.87284101788952]}}, {"type": "Feature", "properties": {"PWSID": "RI2980487", "PWS_Name": "SOUTH TRAIL COMMERCE", "Primacy_Agency": "RI", "Population_Served_Count": 175, "Service_Connections_Count": 11, "Service_Area_Type": "Residential Area", "Verification_Status": "", "Area_SqKM": 0.16001988110204302}, "geometry": {"type": "Point", "coordinates": [-71.52443249965981, 41.55392844000576]}}, {"type": "Feature", "properties": {"PWSID": "RI2051311", "PWS_Name": "HERITAGE PARK HOME CO-OPERATIVE", "Primacy_Agency": "RI", "Population_Served_Count": 60, "Service_Connections_Count": 31, "Service_Area_Type": "Mobile Home Park", "Verification_Status": "", "Area_SqKM": 0.07205485836097308}, "geometry": {"type": "Point", "coordinates": [-71.18992587553099, 41.60880111247721]}}, {"type": "Feature", "properties": {"PWSID": "RI2519424", "PWS_Name": "CHIMERA INC", "Primacy_Agency": "RI", "Population_Served_Count": 133, "Service_Connections_Count": 34, "Service_Area_Type": "Mobile Home Park", "Verification_Status": "", "Area_SqKM": 0.05609552204466888}, "geometry": {"type": "Point", "coordinates": [-71.65971950030257, 41.9005404626713]}}, {"type": "Feature", "properties": {"PWSID": "RI2980001", "PWS_Name": "FOUR SEASONS MHP CO-OP ASSN.", "Primacy_Agency": "RI", "Population_Served_Count": 40, "Service_Connections_Count": 24, "Service_Area_Type": "Mobile Home Park", "Verification_Status": "", "Area_SqKM": 0.024853105195811437}, "geometry": {"type": "Point", "coordinates": [-71.16715297129379, 41.61898655704476]}}, {"type": "Feature", "properties": {"PWSID": "RI2980003", "PWS_Name": "LAWRENCE SUNSET COVE ASSOCIATION", "Primacy_Agency": "RI", "Population_Served_Count": 36, "Service_Connections_Count": 21, "Service_Area_Type": "Mobile Home Park", "Verification_Status": "", "Area_SqKM": 0.0018328652216819976}, "geometry": {"type": "Point", "coordinates": [-71.1942577664535, 41.60632830011645]}}, {"type": "Feature", "properties": {"PWSID": "RI1858428", "PWS_Name": "NARRAGANSETT WATER SYSTEM-POINT JUDITH", "Primacy_Agency": "RI", "Population_Served_Count": 8210, "Service_Connections_Count": 3512, "Service_Area_Type": "Residential Area", "Verification_Status": "", "Area_SqKM": 12.494863328329549}, "geometry": {"type": "Point", "coordinates": [-71.49279587237288, 41.399147613172495]}}, {"type": "Feature", "properties": {"PWSID": "RI1000015", "PWS_Name": "SOUTH KINGSTOWN-MIDDLEBRIDGE", "Primacy_Agency": "RI", "Population_Served_Count": 694, "Service_Connections_Count": 290, "Service_Area_Type": "Residential Area", "Verification_Status": "", "Area_SqKM": 0.7888684884195106}, "geometry": {"type": "Point", "coordinates": [-71.4519372600647, 41.466645006657934]}}, {"type": "Feature", "properties": {"PWSID": "RI1000009", "PWS_Name": "ABBEY LANE COMMUNITY ASSN., INC.", "Primacy_Agency": "RI", "Population_Served_Count": 45, "Service_Connections_Count": 17, "Service_Area_Type": "Residential Area", "Verification_Status": "", "Area_SqKM": 0.10449395009698309}, "geometry": {"type": "Point", "coordinates": [-71.73279802780189, 41.85510441013759]}}, {"type": "Feature", "properties": {"PWSID": "RI1000016", "PWS_Name": "NAVAL STATION, NEWPORT", "Primacy_Agency": "RI", "Population_Served_Count": 7870, "Service_Connections_Count": 925, "Service_Area_Type": "Residential Area", "Verification_Status": "", "Area_SqKM": 0.5668684360848232}, "geometry": {"type": "Point", "coordinates": [-71.24167759172524, 41.51074876171075]}}, {"type": "Feature", "properties": {"PWSID": "RI1000035", "PWS_Name": "CASTLE ROCK CONDOMINIUMS", "Primacy_Agency": "RI", "Population_Served_Count": 292, "Service_Connections_Count": 39, "Service_Area_Type": "Residential Area", "Verification_Status": "", "Area_SqKM": 0.45518489538215146}, "geometry": {"type": "Point", "coordinates": [-71.61937934469353, 41.39044724996206]}}, {"type": "Feature", "properties": {"PWSID": "RI1000045", "PWS_Name": "BETHEL VILLAGE WATER ASSN", "Primacy_Agency": "RI", "Population_Served_Count": 180, "Service_Connections_Count": 53, "Service_Area_Type": "Residential Area", "Verification_Status": "", "Area_SqKM": 0.34571618644031565}, "geometry": {"type": "Point", "coordinates": [-71.79119616081424, 41.42804354124853]}}, {"type": "Feature", "properties": {"PWSID": "RI1000098", "PWS_Name": "LINDHBROOK WATER COMPANY", "Primacy_Agency": "RI", "Population_Served_Count": 200, "Service_Connections_Count": 63, "Service_Area_Type": "Recreation Area", "Verification_Status": "", "Area_SqKM": 0.15122808922658323}, "geometry": {"type": "Point", "coordinates": [-71.72427777769539, 41.46544061194172]}}, {"type": "Feature", "properties": {"PWSID": "RI1559513", "PWS_Name": "SHADY HARBOR FIRE DISTRICT", "Primacy_Agency": "RI", "Population_Served_Count": 300, "Service_Connections_Count": 90, "Service_Area_Type": "Residential Area", "Verification_Status": "", "Area_SqKM": 1.0932950936980816}, "geometry": {"type": "Point", "coordinates": [-71.73946184319773, 41.34560185634074]}}, {"type": "Feature", "properties": {"PWSID": "RI1583825", "PWS_Name": "GLENDALE WATER ASSN", "Primacy_Agency": "RI", "Population_Served_Count": 75, "Service_Connections_Count": 30, "Service_Area_Type": "Residential Area", "Verification_Status": "", "Area_SqKM": 0.08599539137058353}, "geometry": {"type": "Point", "coordinates": [-71.63205978869753, 41.97514938410294]}}, {"type": "Feature", "properties": {"PWSID": "RI1592012", "PWS_Name": "LADD CENTER WATER SYSTEM", "Primacy_Agency": "RI", "Population_Served_Count": 129, "Service_Connections_Count": 7, "Service_Area_Type": "Other Transient Area", "Verification_Status": "", "Area_SqKM": 0.006303466389941555}, "geometry": {"type": "Point", "coordinates": [-71.38837283786441, 41.761822648290284]}}, {"type": "Feature", "properties": {"PWSID": "RI1647511", "PWS_Name": "QUONOCHONTAUG EAST BEACH WATER ASSOCIATI", "Primacy_Agency": "RI", "Population_Served_Count": 300, "Service_Connections_Count": 125, "Service_Area_Type": "Residential Area", "Verification_Status": "", "Area_SqKM": 1.223090780320754}, "geometry": {"type": "Point", "coordinates": [-71.70183083075148, 41.343807669503285]}}, {"type": "Feature", "properties": {"PWSID": "RI1647516", "PWS_Name": "ELEANOR SLATER HOSPITAL ZAMBARANO UNIT", "Primacy_Agency": "RI", "Population_Served_Count": 540, "Service_Connections_Count": 23, "Service_Area_Type": "Institution", "Verification_Status": "", "Area_SqKM": 0.5761417084257774}, "geometry": {"type": "Point", "coordinates": [-71.73344755839388, 41.9944650773308]}}, {"type": "Feature", "properties": {"PWSID": "RI1647529", "PWS_Name": "SHANNOCK WATER DISTRICT", "Primacy_Agency": "RI", "Population_Served_Count": 75, "Service_Connections_Count": 63, "Service_Area_Type": "Residential Area", "Verification_Status": "", "Area_SqKM": 0.3334221429039533}, "geometry": {"type": "Point", "coordinates": [-71.63359635864936, 41.44703107837788]}}, {"type": "Feature", "properties": {"PWSID": "RI1858435", "PWS_Name": "FOSTER SENIOR HOUSING INC.", "Primacy_Agency": "RI", "Population_Served_Count": 31, "Service_Connections_Count": 4, "Service_Area_Type": "Residential Area", "Verification_Status": "", "Area_SqKM": 0.10186741396463775}, "geometry": {"type": "Point", "coordinates": [-71.72770957930956, 41.79958768621728]}}, {"type": "Feature", "properties": {"PWSID": "RI1900020", "PWS_Name": "PAIGE ASSOCIATES", "Primacy_Agency": "RI", "Population_Served_Count": 120, "Service_Connections_Count": 34, "Service_Area_Type": "Residential Area", "Verification_Status": "", "Area_SqKM": 0.2910394285946371}, "geometry": {"type": "Point", "coordinates": [-71.61246627139307, 41.705254357132866]}}, {"type": "Feature", "properties": {"PWSID": "RI1900034", "PWS_Name": "NASONVILLE WATER DISTRICT", "Primacy_Agency": "RI", "Population_Served_Count": 150, "Service_Connections_Count": 50, "Service_Area_Type": "Residential Area", "Verification_Status": "", "Area_SqKM": 0.2009156080803853}, "geometry": {"type": "Point", "coordinates": [-71.61545972149094, 41.98242547182905]}}, {"type": "Feature", "properties": {"PWSID": "RI1900046", "PWS_Name": "UNITED STATES NAVY -FORT ADAMS", "Primacy_Agency": "RI", "Population_Served_Count": 320, "Service_Connections_Count": 45, "Service_Area_Type": "Other Area", "Verification_Status": "", "Area_SqKM": 0.016856528742774633}, "geometry": {"type": "Point", "coordinates": [-71.30659678174788, 41.52756786376699]}}, {"type": "Feature", "properties": {"PWSID": "RI1900053", "PWS_Name": "CANONCHET CLIFFS WATER ASSOCIATION INC.", "Primacy_Agency": "RI", "Population_Served_Count": 154, "Service_Connections_Count": 10, "Service_Area_Type": "Residential Area", "Verification_Status": "", "Area_SqKM": 0.06960351151900124}, "geometry": {"type": "Point", "coordinates": [-71.73849453689157, 41.49009551758699]}}, {"type": "Feature", "properties": {"PWSID": "RI2000083", "PWS_Name": "HEBERT HEALTH CENTER", "Primacy_Agency": "RI", "Population_Served_Count": 200, "Service_Connections_Count": 1, "Service_Area_Type": "Residential Area", "Verification_Status": "", "Area_SqKM": 0.9972326204200288}, "geometry": {"type": "Point", "coordinates": [-71.55622220320956, 41.90839993119245]}}, {"type": "Feature", "properties": {"PWSID": "RI2000165", "PWS_Name": "KINGSTON CENTER", "Primacy_Agency": "RI", "Population_Served_Count": 77, "Service_Connections_Count": 1, "Service_Area_Type": "Institution", "Verification_Status": "", "Area_SqKM": 0.11575717521252978}, "geometry": {"type": "Point", "coordinates": [-71.61752046643147, 41.54996123439416]}}, {"type": "Feature", "properties": {"PWSID": "RI2585312", "PWS_Name": "SPLIT ROCK CORPORATION", "Primacy_Agency": "RI", "Population_Served_Count": 138, "Service_Connections_Count": 55, "Service_Area_Type": "Mobile Home Park", "Verification_Status": "", "Area_SqKM": 0.22380796465882355}, "geometry": {"type": "Point", "coordinates": [-71.54695653341587, 41.53069825001475]}}, {"type": "Feature", "properties": {"PWSID": "RI2585313", "PWS_Name": "MOBILE VILLAGE, INC.", "Primacy_Agency": "RI", "Population_Served_Count": 130, "Service_Connections_Count": 52, "Service_Area_Type": "Mobile Home Park", "Verification_Status": "", "Area_SqKM": 0.2620744817624969}, "geometry": {"type": "Point", "coordinates": [-71.65418371519635, 41.60194442424595]}}, {"type": "Feature", "properties": {"PWSID": "RI2674924", "PWS_Name": "BORDER HILL MOBILE HOME PARK", "Primacy_Agency": "RI", "Population_Served_Count": 75, "Service_Connections_Count": 54, "Service_Area_Type": "Mobile Home Park", "Verification_Status": "", "Area_SqKM": 0.2411151812679489}, "geometry": {"type": "Point", "coordinates": [-71.64440540735978, 41.38534332320004]}}, {"type": "Feature", "properties": {"PWSID": "RI2674928", "PWS_Name": "NINIGRET REALTY", "Primacy_Agency": "RI", "Population_Served_Count": 109, "Service_Connections_Count": 21, "Service_Area_Type": "Interstate Carrier", "Verification_Status": "", "Area_SqKM": 0.2281726973834056}, "geometry": {"type": "Point", "coordinates": [-71.67668408513934, 41.376835948280586]}}, {"type": "Feature", "properties": {"PWSID": "RI2942525", "PWS_Name": "HILLSDALE HOUSING COOPERATIVE, INC.", "Primacy_Agency": "RI", "Population_Served_Count": 170, "Service_Connections_Count": 104, "Service_Area_Type": "Mobile Home Park", "Verification_Status": "", "Area_SqKM": 0.49871968775574566}, "geometry": {"type": "Point", "coordinates": [-71.6200979390297, 41.54835768586812]}}, {"type": "Feature", "properties": {"PWSID": "RI2943224", "PWS_Name": "VILLAGE ON CHOPMIST HILL, THE", "Primacy_Agency": "RI", "Population_Served_Count": 250, "Service_Connections_Count": 86, "Service_Area_Type": "Mobile Home Park", "Verification_Status": "", "Area_SqKM": 0.1322036322141394}, "geometry": {"type": "Point", "coordinates": [-71.66536435564828, 41.89823747036772]}}, {"type": "Feature", "properties": {"PWSID": "RI2980146", "PWS_Name": "LAUREL CREST GLOCESTER HOUSING AUTHORITY", "Primacy_Agency": "RI", "Population_Served_Count": 43, "Service_Connections_Count": 5, "Service_Area_Type": "Residential Area", "Verification_Status": "", "Area_SqKM": 0.20102692310571466}, "geometry": {"type": "Point", "coordinates": [-71.66671777243296, 41.915120710514444]}}, {"type": "Feature", "properties": {"PWSID": "RI2980323", "PWS_Name": "JEMP 1 LLC", "Primacy_Agency": "RI", "Population_Served_Count": 28, "Service_Connections_Count": 1, "Service_Area_Type": "Residential Area", "Verification_Status": "", "Area_SqKM": 0.3834729015377656}, "geometry": {"type": "Point", "coordinates": [-71.57615079139663, 41.83510083646632]}}, {"type": "Feature", "properties": {"PWSID": "RI2980414", "PWS_Name": "ECHO LAKE WATER DISTRICT", "Primacy_Agency": "RI", "Population_Served_Count": 160, "Service_Connections_Count": 64, "Service_Area_Type": "Residential Area", "Verification_Status": "", "Area_SqKM": 0.23194708072050058}, "geometry": {"type": "Point", "coordinates": [-71.7139548348699, 41.92464653609712]}}, {"type": "Feature", "properties": {"PWSID": "RI2980423", "PWS_Name": "SAUGATUCKET SPRINGS", "Primacy_Agency": "RI", "Population_Served_Count": 110, "Service_Connections_Count": 1, "Service_Area_Type": "Residential Area", "Verification_Status": "", "Area_SqKM": 0.7217871278812636}, "geometry": {"type": "Point", "coordinates": [-71.78409800551238, 41.454862469167836]}}, {"type": "Feature", "properties": {"PWSID": "RI2980426", "PWS_Name": "SHADOW WOODS AT DEER BROOK", "Primacy_Agency": "RI", "Population_Served_Count": 300, "Service_Connections_Count": 130, "Service_Area_Type": "Residential Area", "Verification_Status": "", "Area_SqKM": 0.6960886492887932}, "geometry": {"type": "Point", "coordinates": [-71.54563242657089, 41.537003617118245]}}, {"type": "Feature", "properties": {"PWSID": "RI2980447", "PWS_Name": "ROCKVILLE MILL HOPKINTON, LLC", "Primacy_Agency": "RI", "Population_Served_Count": 28, "Service_Connections_Count": 2, "Service_Area_Type": "Residential Area", "Verification_Status": "", "Area_SqKM": 0.43782708886544713}, "geometry": {"type": "Point", "coordinates": [-71.76669246335062, 41.51856512842916]}}, {"type": "Feature", "properties": {"PWSID": "RI2980453", "PWS_Name": "CNE - NEW LONDON TURNPIKE ENTRY POINT", "Primacy_Agency": "RI", "Population_Served_Count": 9999, "Service_Connections_Count": 97, "Service_Area_Type": "Residential Area", "Verification_Status": "", "Area_SqKM": 1.628172250386482}, "geometry": {"type": "Point", "coordinates": [-71.3944275346711, 41.775393707342296]}}, {"type": "Feature", "properties": {"PWSID": "RI2980473", "PWS_Name": "HOPKINTON, TOWN OF", "Primacy_Agency": "RI", "Population_Served_Count": 125, "Service_Connections_Count": 52, "Service_Area_Type": "Residential Area", "Verification_Status": "", "Area_SqKM": 0.49596047925055625}, "geometry": {"type": "Point", "coordinates": [-71.72300138015659, 41.50054165122797]}}, {"type": "Feature", "properties": {"PWSID": "RI1000040", "PWS_Name": "RICHMOND, TOWN OF", "Primacy_Agency": "RI", "Population_Served_Count": 2671, "Service_Connections_Count": 306, "Service_Area_Type": "Residential Area", "Verification_Status": "", "Area_SqKM": 3.7662985894438075}, "geometry": {"type": "Point", "coordinates": [-71.69172987500973, 41.521393270524364]}}, {"type": "Feature", "properties": {"PWSID": "RI1900042", "PWS_Name": "TIVERTON WATER AUTHORITY, TOWN HALL", "Primacy_Agency": "RI", "Population_Served_Count": 3213, "Service_Connections_Count": 694, "Service_Area_Type": "Residential Area", "Verification_Status": "", "Area_SqKM": 3.523366638311488}, "geometry": {"type": "Point", "coordinates": [-71.1485987908698, 41.6419811478084]}}, {"type": "Feature", "properties": {"PWSID": "RI1615614", "PWS_Name": "SLATERSVILLE PUBLIC SUPPLY", "Primacy_Agency": "RI", "Population_Served_Count": 3403, "Service_Connections_Count": 533, "Service_Area_Type": "Residential Area", "Verification_Status": "", "Area_SqKM": 2.8393007736489353}, "geometry": {"type": "Point", "coordinates": [-71.57519796673434, 42.00006286157904]}}]}