{"type": "FeatureCollection", "features": [{"type": "Feature", "properties": {"PWSID": "DC0000004", "PWS_Name": "JOINT BASE ANACOSTIA - BOLLING", "Primacy_Agency": "DC", "Population_Served_Count": 19312, "Service_Connections_Count": 638, "Service_Area_Type": "Other Area", "Verification_Status": "", "Area_SqKM": 0.35388830418533324}, "geometry": {"type": "Point", "coordinates": [-76.999230751652, 38.83040587169523]}}, {"type": "Feature", "properties": {"PWSID": "DC0000002", "PWS_Name": "D.C. WATER AND SEWER AUTHORITY", "Primacy_Agency": "DC", "Population_Served_Count": 632323, "Service_Connections_Count": 140000, "Service_Area_Type": "Residential Area", "Verification_Status": "", "Area_SqKM": 159.73870240360822}, "geometry": {"type": "Point", "coordinates": [-77.03120787887808, 38.890868408436674]}}]}