{"type": "FeatureCollection", "features": [{"type": "Feature", "properties": {"PWSID": "NH2082120", "PWS_Name": "FOX DEN RETIREMENT COMM", "Primacy_Agency": "NH", "Population_Served_Count": 43, "Service_Connections_Count": 30, "Service_Area_Type": "Other Residential", "Verification_Status": "", "Area_SqKM": 0.07727604595010568}, "geometry": {"type": "Point", "coordinates": [-71.155996183936, 42.95868321947251]}}, {"type": "Feature", "properties": {"PWSID": "NH1392070", "PWS_Name": "MIDRIDGE CONDOS", "Primacy_Agency": "NH", "Population_Served_Count": 100, "Service_Connections_Count": 40, "Service_Area_Type": "Homeowners Association", "Verification_Status": "", "Area_SqKM": 0.2591627966654512}, "geometry": {"type": "Point", "coordinates": [-71.36534378130581, 42.853694440590786]}}, {"type": "Feature", "properties": {"PWSID": "NH1932230", "PWS_Name": "LITTLE RIVER VILLAGE", "Primacy_Agency": "NH", "Population_Served_Count": 63, "Service_Connections_Count": 25, "Service_Area_Type": "Subdivision", "Verification_Status": "", "Area_SqKM": 2.8130203668146243}, "geometry": {"type": "Point", "coordinates": [-70.85988530730778, 42.87449082439241]}}, {"type": "Feature", "properties": {"PWSID": "NH0152100", "PWS_Name": "DREW POND", "Primacy_Agency": "NH", "Population_Served_Count": 100, "Service_Connections_Count": 40, "Service_Area_Type": "Subdivision", "Verification_Status": "", "Area_SqKM": 1.205603422286553}, "geometry": {"type": "Point", "coordinates": [-71.00336298038009, 43.2039314352832]}}, {"type": "Feature", "properties": {"PWSID": "NH2003040", "PWS_Name": "STONY BROOK", "Primacy_Agency": "NH", "Population_Served_Count": 167, "Service_Connections_Count": 127, "Service_Area_Type": "Mobile Home Park - Principal Residence", "Verification_Status": "", "Area_SqKM": 0.20791172813752454}, "geometry": {"type": "Point", "coordinates": [-70.99175064125619, 43.33985508930711]}}, {"type": "Feature", "properties": {"PWSID": "NH2052010", "PWS_Name": "MILLVILLE CIRCLE/SOUTH", "Primacy_Agency": "NH", "Population_Served_Count": 48, "Service_Connections_Count": 20, "Service_Area_Type": "Subdivision", "Verification_Status": "", "Area_SqKM": 0.044042109103999506}, "geometry": {"type": "Point", "coordinates": [-71.2140341592842, 42.800147412601746]}}, {"type": "Feature", "properties": {"PWSID": "NH2052060", "PWS_Name": "MILLVILLE CIRCLE/NORTH", "Primacy_Agency": "NH", "Population_Served_Count": 57, "Service_Connections_Count": 23, "Service_Area_Type": "Subdivision", "Verification_Status": "", "Area_SqKM": 0.04993479947433775}, "geometry": {"type": "Point", "coordinates": [-71.21436091102233, 42.80282512244211]}}, {"type": "Feature", "properties": {"PWSID": "NH1951010", "PWS_Name": "PORTSMOUTH WATER WORKS", "Primacy_Agency": "NH", "Population_Served_Count": 33000, "Service_Connections_Count": 7200, "Service_Area_Type": "Municipality", "Verification_Status": "", "Area_SqKM": 32.597323200892376}, "geometry": {"type": "Point", "coordinates": [-70.81194350206687, 43.07752424599154]}}, {"type": "Feature", "properties": {"PWSID": "NH2232110", "PWS_Name": "TURNBERRY", "Primacy_Agency": "NH", "Population_Served_Count": 115, "Service_Connections_Count": 46, "Service_Area_Type": "Subdivision", "Verification_Status": "", "Area_SqKM": 0.12710514914595683}, "geometry": {"type": "Point", "coordinates": [-71.2034389545795, 42.889599056618096]}}, {"type": "Feature", "properties": {"PWSID": "NH1321010", "PWS_Name": "LEBANON WATER DEPT", "Primacy_Agency": "NH", "Population_Served_Count": 10050, "Service_Connections_Count": 3406, "Service_Area_Type": "Municipality", "Verification_Status": "", "Area_SqKM": 15.657893565215442}, "geometry": {"type": "Point", "coordinates": [-72.28193117589417, 43.65202695744362]}}, {"type": "Feature", "properties": {"PWSID": "NH2051010", "PWS_Name": "SALEM WATER DEPT", "Primacy_Agency": "NH", "Population_Served_Count": 21000, "Service_Connections_Count": 6953, "Service_Area_Type": "Municipality", "Verification_Status": "", "Area_SqKM": 31.12334813263041}, "geometry": {"type": "Point", "coordinates": [-71.21556476312199, 42.77842857554179]}}]}