{"type": "FeatureCollection", "features": [{"type": "Feature", "properties": {"PWSID": "NV0000168", "PWS_Name": "TOWN OF MINDEN", "Primacy_Agency": "NV", "Population_Served_Count": 3500, "Service_Connections_Count": 2294, "Service_Area_Type": "Residential Area", "Verification_Status": "", "Area_SqKM": 5.301008285553889}, "geometry": {"type": "Point", "coordinates": [-119.77748436625224, 38.95796853496566]}}, {"type": "Feature", "properties": {"PWSID": "NV0000260", "PWS_Name": "ROUND HILL GID", "Primacy_Agency": "NV", "Population_Served_Count": 1200, "Service_Connections_Count": 429, "Service_Area_Type": "Residential Area", "Verification_Status": "", "Area_SqKM": 0.275502616170446}, "geometry": {"type": "Point", "coordinates": [-119.94104404759317, 38.9892827535465]}}, {"type": "Feature", "properties": {"PWSID": "NV0000271", "PWS_Name": "ELK POINT COUNTRY CLUB", "Primacy_Agency": "NV", "Population_Served_Count": 325, "Service_Connections_Count": 88, "Service_Area_Type": "Residential Area", "Verification_Status": "", "Area_SqKM": 1.98811169326064}, "geometry": {"type": "Point", "coordinates": [-119.94973589311113, 38.985340364089566]}}, {"type": "Feature", "properties": {"PWSID": "NV0002046", "PWS_Name": "HOLBROOK STATION RV AND MHP", "Primacy_Agency": "NV", "Population_Served_Count": 180, "Service_Connections_Count": 84, "Service_Area_Type": "Restaurant", "Verification_Status": "", "Area_SqKM": 0.31743707496051}, "geometry": {"type": "Point", "coordinates": [-119.55470275138447, 38.73505536870178]}}, {"type": "Feature", "properties": {"PWSID": "NV0002050", "PWS_Name": "LOGAN CREEK ESTATES GID", "Primacy_Agency": "NV", "Population_Served_Count": 50, "Service_Connections_Count": 21, "Service_Area_Type": "Residential Area", "Verification_Status": "", "Area_SqKM": 0.39925526752009916}, "geometry": {"type": "Point", "coordinates": [-119.94289711998925, 39.06330180802256]}}, {"type": "Feature", "properties": {"PWSID": "NV0002216", "PWS_Name": "DOUGLAS COUNTY CARSON VALLEY SYSTEM", "Primacy_Agency": "NV", "Population_Served_Count": 6152, "Service_Connections_Count": 3133, "Service_Area_Type": "Residential Area", "Verification_Status": "", "Area_SqKM": 9.101398034794489}, "geometry": {"type": "Point", "coordinates": [-119.7317378485853, 39.036023298661185]}}, {"type": "Feature", "properties": {"PWSID": "NV0000282", "PWS_Name": "STEAMBOAT SPRINGS WATERWORKS INC", "Primacy_Agency": "NV", "Population_Served_Count": 998, "Service_Connections_Count": 298, "Service_Area_Type": "Residential Area", "Verification_Status": "", "Area_SqKM": 2.742076407996392}, "geometry": {"type": "Point", "coordinates": [-119.73679044498653, 39.38256847277369]}}, {"type": "Feature", "properties": {"PWSID": "NV0000765", "PWS_Name": "SUTCLIFFE MOBILE PARK", "Primacy_Agency": "NV", "Population_Served_Count": 60, "Service_Connections_Count": 26, "Service_Area_Type": "Mobile Home Park", "Verification_Status": "", "Area_SqKM": 3.117483318434398}, "geometry": {"type": "Point", "coordinates": [-119.60528600671203, 39.951235501009336]}}, {"type": "Feature", "properties": {"PWSID": "NV0000801", "PWS_Name": "STAMPMILL", "Primacy_Agency": "NV", "Population_Served_Count": 118, "Service_Connections_Count": 46, "Service_Area_Type": "Residential Area", "Verification_Status": "", "Area_SqKM": 0.12011229844842146}, "geometry": {"type": "Point", "coordinates": [-119.49161274990571, 39.5625400692846]}}, {"type": "Feature", "properties": {"PWSID": "NV0004021", "PWS_Name": "SILVER KNOLLS MUTUAL WATER COMPANY", "Primacy_Agency": "NV", "Population_Served_Count": 120, "Service_Connections_Count": 63, "Service_Area_Type": "Residential Area", "Verification_Status": "", "Area_SqKM": 4.720356646974333}, "geometry": {"type": "Point", "coordinates": [-119.91742044418406, 39.66742357014379]}}, {"type": "Feature", "properties": {"PWSID": "NV0005056", "PWS_Name": "CANYON GID", "Primacy_Agency": "NV", "Population_Served_Count": 1310, "Service_Connections_Count": 512, "Service_Area_Type": "Residential Area", "Verification_Status": "", "Area_SqKM": 0.9090534618059706}, "geometry": {"type": "Point", "coordinates": [-119.64789092186311, 39.509983393816576]}}, {"type": "Feature", "properties": {"PWSID": "NV0000280", "PWS_Name": "LARK MOBILE HOME PARK", "Primacy_Agency": "NV", "Population_Served_Count": 30, "Service_Connections_Count": 31, "Service_Area_Type": "Mobile Home Park", "Verification_Status": "", "Area_SqKM": 0.031561245222950694}, "geometry": {"type": "Point", "coordinates": [-119.88244194440689, 39.61294204458094]}}, {"type": "Feature", "properties": {"PWSID": "NV0002526", "PWS_Name": "OLD WASHOE ESTATES", "Primacy_Agency": "NV", "Population_Served_Count": 135, "Service_Connections_Count": 63, "Service_Area_Type": "Residential Area", "Verification_Status": "", "Area_SqKM": 2.1139200804108675}, "geometry": {"type": "Point", "coordinates": [-119.80993194007708, 39.32682580935678]}}, {"type": "Feature", "properties": {"PWSID": "NV0002525", "PWS_Name": "SUNRISE ESTATES", "Primacy_Agency": "NV", "Population_Served_Count": 90, "Service_Connections_Count": 35, "Service_Area_Type": "Residential Area", "Verification_Status": "", "Area_SqKM": 1.5397485608677641}, "geometry": {"type": "Point", "coordinates": [-119.78346600615424, 39.34736375602366]}}, {"type": "Feature", "properties": {"PWSID": "NV0001086", "PWS_Name": "GREAT BASIN WATER CO  SPANISH SPRINGS", "Primacy_Agency": "NV", "Population_Served_Count": 1460, "Service_Connections_Count": 584, "Service_Area_Type": "Residential Area", "Verification_Status": "", "Area_SqKM": 33.06292356604712}, "geometry": {"type": "Point", "coordinates": [-119.70272265226127, 39.66192247909473]}}, {"type": "Feature", "properties": {"PWSID": "NV0000277", "PWS_Name": "CONESTOGA MHP", "Primacy_Agency": "NV", "Population_Served_Count": 120, "Service_Connections_Count": 56, "Service_Area_Type": "Mobile Home Park", "Verification_Status": "", "Area_SqKM": 0.04454932087421103}, "geometry": {"type": "Point", "coordinates": [-119.28012029189827, 39.633072868038305]}}, {"type": "Feature", "properties": {"PWSID": "NV0000240", "PWS_Name": "STOREY COUNTY WATER DISTRICT", "Primacy_Agency": "NV", "Population_Served_Count": 1420, "Service_Connections_Count": 757, "Service_Area_Type": "Residential Area", "Verification_Status": "", "Area_SqKM": 2.509004479532394}, "geometry": {"type": "Point", "coordinates": [-119.64389103390198, 39.28956134469691]}}, {"type": "Feature", "properties": {"PWSID": "NV0000211", "PWS_Name": "SUN VALLEY GID", "Primacy_Agency": "NV", "Population_Served_Count": 17000, "Service_Connections_Count": 6236, "Service_Area_Type": "Residential Area", "Verification_Status": "", "Area_SqKM": 15.265413138505421}, "geometry": {"type": "Point", "coordinates": [-119.78412643383277, 39.58261426335212]}}, {"type": "Feature", "properties": {"PWSID": "NV0000207", "PWS_Name": "GREAT BASIN WATER CO  COLD SPRINGS", "Primacy_Agency": "NV", "Population_Served_Count": 9650, "Service_Connections_Count": 3849, "Service_Area_Type": "Mobile Home Park", "Verification_Status": "", "Area_SqKM": 7.781166943966016}, "geometry": {"type": "Point", "coordinates": [-119.97306780048193, 39.68250619233434]}}, {"type": "Feature", "properties": {"PWSID": "NV0000196", "PWS_Name": "VERDI MEADOWS UTILITY COMPANY INC", "Primacy_Agency": "NV", "Population_Served_Count": 510, "Service_Connections_Count": 172, "Service_Area_Type": "Mobile Home Park", "Verification_Status": "", "Area_SqKM": 3.4346470376004974}, "geometry": {"type": "Point", "coordinates": [-119.99432203469793, 39.52185161512194]}}, {"type": "Feature", "properties": {"PWSID": "NV0000190", "PWS_Name": "TRUCKEE MEADOWS WATER AUTHORITY", "Primacy_Agency": "NV", "Population_Served_Count": 442000, "Service_Connections_Count": 120047, "Service_Area_Type": "Residential Area", "Verification_Status": "", "Area_SqKM": 496.6948192790559}, "geometry": {"type": "Point", "coordinates": [-119.81350748759112, 39.51863761026735]}}, {"type": "Feature", "properties": {"PWSID": "NV0000158", "PWS_Name": "INCLINE VILLAGE GID", "Primacy_Agency": "NV", "Population_Served_Count": 9313, "Service_Connections_Count": 7697, "Service_Area_Type": "Residential Area", "Verification_Status": "", "Area_SqKM": 83.23759485119945}, "geometry": {"type": "Point", "coordinates": [-119.95651786768376, 39.27863528145148]}}, {"type": "Feature", "properties": {"PWSID": "NV0000035", "PWS_Name": "GRANDVIEW TERRACE WATER DISTRICT", "Primacy_Agency": "NV", "Population_Served_Count": 328, "Service_Connections_Count": 96, "Service_Area_Type": "Residential Area", "Verification_Status": "", "Area_SqKM": 0.2525316901338848}, "geometry": {"type": "Point", "coordinates": [-119.85666592189357, 39.60801740937925]}}, {"type": "Feature", "properties": {"PWSID": "NV0000032", "PWS_Name": "DAYTON VALLEY WATER SYSTEM", "Primacy_Agency": "NV", "Population_Served_Count": 15830, "Service_Connections_Count": 7100, "Service_Area_Type": "Residential Area", "Verification_Status": "", "Area_SqKM": 30.540348767473958}, "geometry": {"type": "Point", "coordinates": [-119.55068280958439, 39.27471730165143]}}, {"type": "Feature", "properties": {"PWSID": "NV0002540", "PWS_Name": "FAIRGROUNDS/SUNRISE ESTATES", "Primacy_Agency": "NV", "Population_Served_Count": 1011, "Service_Connections_Count": 53, "Service_Area_Type": "Residential Area", "Verification_Status": "", "Area_SqKM": 0.7841193346913822}, "geometry": {"type": "Point", "coordinates": [-119.68017287872516, 38.89302094467761]}}, {"type": "Feature", "properties": {"PWSID": "NV0000959", "PWS_Name": "FOOTHILL WATER SYSTEM", "Primacy_Agency": "NV", "Population_Served_Count": 346, "Service_Connections_Count": 203, "Service_Area_Type": "Residential Area", "Verification_Status": "", "Area_SqKM": 0.07262620336998522}, "geometry": {"type": "Point", "coordinates": [-119.82812464996375, 38.90783410627702]}}, {"type": "Feature", "properties": {"PWSID": "NV0000356", "PWS_Name": "GLENBROOK WATER COOPERATIVE INC", "Primacy_Agency": "NV", "Population_Served_Count": 1000, "Service_Connections_Count": 288, "Service_Area_Type": "Residential Area", "Verification_Status": "", "Area_SqKM": 2.111630492164974}, "geometry": {"type": "Point", "coordinates": [-119.94015681034989, 39.08827013752742]}}, {"type": "Feature", "properties": {"PWSID": "NV0000355", "PWS_Name": "INDIAN HILLS GID", "Primacy_Agency": "NV", "Population_Served_Count": 5962, "Service_Connections_Count": 2036, "Service_Area_Type": "Residential Area", "Verification_Status": "", "Area_SqKM": 6.3431930582588825}, "geometry": {"type": "Point", "coordinates": [-119.78187234097554, 39.09359655902409]}}, {"type": "Feature", "properties": {"PWSID": "NV0000259", "PWS_Name": "CAVE ROCK SKYLAND", "Primacy_Agency": "NV", "Population_Served_Count": 1267, "Service_Connections_Count": 526, "Service_Area_Type": "Residential Area", "Verification_Status": "", "Area_SqKM": 4.833157591099072}, "geometry": {"type": "Point", "coordinates": [-119.9448251362227, 39.03406029002611]}}, {"type": "Feature", "properties": {"PWSID": "NV0000258", "PWS_Name": "ZEPHYR COVE WATER UTILITY DISTR", "Primacy_Agency": "NV", "Population_Served_Count": 1209, "Service_Connections_Count": 496, "Service_Area_Type": "Residential Area", "Verification_Status": "", "Area_SqKM": 18.60791836330269}, "geometry": {"type": "Point", "coordinates": [-119.92278254424569, 38.99967615868172]}}, {"type": "Feature", "properties": {"PWSID": "NV0000239", "PWS_Name": "TOPAZ RANCH ESTATES GID AND WATER CO", "Primacy_Agency": "NV", "Population_Served_Count": 1545, "Service_Connections_Count": 748, "Service_Area_Type": "Residential Area", "Verification_Status": "", "Area_SqKM": 12.447245220102266}, "geometry": {"type": "Point", "coordinates": [-119.51314964151305, 38.74168339081456]}}, {"type": "Feature", "properties": {"PWSID": "NV0000172", "PWS_Name": "PINEVIEW ESTATES", "Primacy_Agency": "NV", "Population_Served_Count": 450, "Service_Connections_Count": 219, "Service_Area_Type": "Residential Area", "Verification_Status": "", "Area_SqKM": 0.25262165676076437}, "geometry": {"type": "Point", "coordinates": [-119.6467386129245, 38.85115513142514]}}, {"type": "Feature", "properties": {"PWSID": "NV0000070", "PWS_Name": "TOPAZ LAKE WATER CO INC", "Primacy_Agency": "NV", "Population_Served_Count": 40, "Service_Connections_Count": 19, "Service_Area_Type": "Residential Area", "Verification_Status": "", "Area_SqKM": 1.1083407414116409}, "geometry": {"type": "Point", "coordinates": [-119.54579021051714, 38.6948365410571]}}, {"type": "Feature", "properties": {"PWSID": "NV0000067", "PWS_Name": "PINION PINES MHP", "Primacy_Agency": "NV", "Population_Served_Count": 30, "Service_Connections_Count": 24, "Service_Area_Type": "Mobile Home Park", "Verification_Status": "", "Area_SqKM": 0.19738261161130943}, "geometry": {"type": "Point", "coordinates": [-119.55220766923352, 38.730080015455165]}}, {"type": "Feature", "properties": {"PWSID": "NV0000066", "PWS_Name": "GARDNERVILLE RANCHOS GID", "Primacy_Agency": "NV", "Population_Served_Count": 11300, "Service_Connections_Count": 4428, "Service_Area_Type": "Residential Area", "Verification_Status": "", "Area_SqKM": 22.070872672272646}, "geometry": {"type": "Point", "coordinates": [-119.74715249171635, 38.895118935164064]}}, {"type": "Feature", "properties": {"PWSID": "NV0000065", "PWS_Name": "GARDNERVILLE WATER COMPANY", "Primacy_Agency": "NV", "Population_Served_Count": 4500, "Service_Connections_Count": 2439, "Service_Area_Type": "Residential Area", "Verification_Status": "", "Area_SqKM": 6.593423594342295}, "geometry": {"type": "Point", "coordinates": [-119.74450190414863, 38.939817639527504]}}, {"type": "Feature", "properties": {"PWSID": "NV0000030", "PWS_Name": "SIERRA ESTATES GID", "Primacy_Agency": "NV", "Population_Served_Count": 170, "Service_Connections_Count": 68, "Service_Area_Type": "Residential Area", "Verification_Status": "", "Area_SqKM": 0.3349855226596742}, "geometry": {"type": "Point", "coordinates": [-119.78775751118573, 39.102383877696916]}}, {"type": "Feature", "properties": {"PWSID": "NV0000028", "PWS_Name": "TERRACE GARDEN APARTMENTS", "Primacy_Agency": "NV", "Population_Served_Count": 60, "Service_Connections_Count": 45, "Service_Area_Type": "Other Residential", "Verification_Status": "", "Area_SqKM": 0.01701136519211215}, "geometry": {"type": "Point", "coordinates": [-119.75688909094855, 39.160031572433816]}}, {"type": "Feature", "properties": {"PWSID": "NV0000017", "PWS_Name": "COTTONWOOD MHP", "Primacy_Agency": "NV", "Population_Served_Count": 250, "Service_Connections_Count": 91, "Service_Area_Type": "Mobile Home Park", "Verification_Status": "", "Area_SqKM": 0.12778251651208358}, "geometry": {"type": "Point", "coordinates": [-119.76549574690439, 39.1956197177155]}}, {"type": "Feature", "properties": {"PWSID": "NV0000004", "PWS_Name": "KINGSBURY GID", "Primacy_Agency": "NV", "Population_Served_Count": 3839, "Service_Connections_Count": 2480, "Service_Area_Type": "Residential Area", "Verification_Status": "", "Area_SqKM": 108.1998852919437}, "geometry": {"type": "Point", "coordinates": [-119.91619921158271, 39.01875216829604]}}, {"type": "Feature", "properties": {"PWSID": "NV0000073", "PWS_Name": "HAWTHORNE UTILITIES", "Primacy_Agency": "NV", "Population_Served_Count": 2700, "Service_Connections_Count": 1984, "Service_Area_Type": "Residential Area", "Verification_Status": "", "Area_SqKM": 0.9979029620519128}, "geometry": {"type": "Point", "coordinates": [-118.62692352298524, 38.53019441503942]}}, {"type": "Feature", "properties": {"PWSID": "NV0000268", "PWS_Name": "WALKER LAKE GID", "Primacy_Agency": "NV", "Population_Served_Count": 450, "Service_Connections_Count": 210, "Service_Area_Type": "Residential Area", "Verification_Status": "", "Area_SqKM": 2.3524797523054124}, "geometry": {"type": "Point", "coordinates": [-118.75755609738795, 38.648174155895994]}}, {"type": "Feature", "properties": {"PWSID": "NV0000357", "PWS_Name": "HAWTHORNE ARMY DEPOT", "Primacy_Agency": "NV", "Population_Served_Count": 300, "Service_Connections_Count": 500, "Service_Area_Type": "Residential Area", "Verification_Status": "", "Area_SqKM": 2.125506264245134}, "geometry": {"type": "Point", "coordinates": [-118.62566196313848, 38.52302454205642]}}, {"type": "Feature", "properties": {"PWSID": "NV0000074", "PWS_Name": "MINA LUNING WATER SYSTEM", "Primacy_Agency": "NV", "Population_Served_Count": 280, "Service_Connections_Count": 286, "Service_Area_Type": "Residential Area", "Verification_Status": "", "Area_SqKM": 1.177219792064835}, "geometry": {"type": "Point", "coordinates": [-118.11071711373579, 38.38798230691545]}}, {"type": "Feature", "properties": {"PWSID": "NV0000237", "PWS_Name": "TONOPAH PUBLIC UTILITIES", "Primacy_Agency": "NV", "Population_Served_Count": 2853, "Service_Connections_Count": 1517, "Service_Area_Type": "Residential Area", "Verification_Status": "", "Area_SqKM": 8.059502591959976}, "geometry": {"type": "Point", "coordinates": [-117.23356404158955, 38.07915831896106]}}, {"type": "Feature", "properties": {"PWSID": "NV0000072", "PWS_Name": "GOLDFIELD TOWN WATER", "Primacy_Agency": "NV", "Population_Served_Count": 350, "Service_Connections_Count": 340, "Service_Area_Type": "Residential Area", "Verification_Status": "", "Area_SqKM": 0.959312410723713}, "geometry": {"type": "Point", "coordinates": [-117.23634771018742, 37.706591728599335]}}, {"type": "Feature", "properties": {"PWSID": "NV0000363", "PWS_Name": "SILVER PEAK WATER SYSTEM", "Primacy_Agency": "NV", "Population_Served_Count": 138, "Service_Connections_Count": 71, "Service_Area_Type": "Residential Area", "Verification_Status": "", "Area_SqKM": 0.097211569777294}, "geometry": {"type": "Point", "coordinates": [-117.63523025121633, 37.75477119360519]}}, {"type": "Feature", "properties": {"PWSID": "NV0000005", "PWS_Name": "ALAMO SEWER AND WATER GID", "Primacy_Agency": "NV", "Population_Served_Count": 900, "Service_Connections_Count": 398, "Service_Area_Type": "Residential Area", "Verification_Status": "", "Area_SqKM": 3.1316547823372805}, "geometry": {"type": "Point", "coordinates": [-115.16733281970598, 37.36771594566624]}}, {"type": "Feature", "properties": {"PWSID": "NV0000082", "PWS_Name": "INDIAN SPRINGS WATER CO INC", "Primacy_Agency": "NV", "Population_Served_Count": 900, "Service_Connections_Count": 195, "Service_Area_Type": "Residential Area", "Verification_Status": "", "Area_SqKM": 34.26075459218585}, "geometry": {"type": "Point", "coordinates": [-115.66841708887264, 36.584215598783466]}}, {"type": "Feature", "properties": {"PWSID": "NV0000186", "PWS_Name": "PIOCHE PUBLIC UTILITIES", "Primacy_Agency": "NV", "Population_Served_Count": 700, "Service_Connections_Count": 598, "Service_Area_Type": "Residential Area", "Verification_Status": "", "Area_SqKM": 4.592867702328993}, "geometry": {"type": "Point", "coordinates": [-114.44670431692738, 37.92817840329347]}}, {"type": "Feature", "properties": {"PWSID": "NV0000187", "PWS_Name": "PIOCHE PUBLIC UTILITIES   CASTLETON", "Primacy_Agency": "NV", "Population_Served_Count": 60, "Service_Connections_Count": 20, "Service_Area_Type": "Residential Area", "Verification_Status": "", "Area_SqKM": 0.10505507120225409}, "geometry": {"type": "Point", "coordinates": [-114.47839042000034, 37.90707461998492]}}, {"type": "Feature", "properties": {"PWSID": "NV0000300", "PWS_Name": "DESERT UTILITIES", "Primacy_Agency": "NV", "Population_Served_Count": 1086, "Service_Connections_Count": 488, "Service_Area_Type": "Residential Area", "Verification_Status": "", "Area_SqKM": 4.093609994578142}, "geometry": {"type": "Point", "coordinates": [-116.00754201799036, 36.27531363051251]}}, {"type": "Feature", "properties": {"PWSID": "NV0000319", "PWS_Name": "ROARK ESTATES WATER ASSOC", "Primacy_Agency": "NV", "Population_Served_Count": 60, "Service_Connections_Count": 27, "Service_Area_Type": "Residential Area", "Verification_Status": "", "Area_SqKM": 0.034774086164740606}, "geometry": {"type": "Point", "coordinates": [-115.2012167001536, 35.93647196682731]}}, {"type": "Feature", "properties": {"PWSID": "NV0000362", "PWS_Name": "BIG FIVE PARK", "Primacy_Agency": "NV", "Population_Served_Count": 65, "Service_Connections_Count": 53, "Service_Area_Type": "Mobile Home Park", "Verification_Status": "", "Area_SqKM": 0.005824657590060988}, "geometry": {"type": "Point", "coordinates": [-116.01949112495763, 36.207252449814675]}}, {"type": "Feature", "properties": {"PWSID": "NV0000369", "PWS_Name": "BIG VALLEY MHP", "Primacy_Agency": "NV", "Population_Served_Count": 50, "Service_Connections_Count": 45, "Service_Area_Type": "Mobile Home Park", "Verification_Status": "", "Area_SqKM": 0.3274328373856938}, "geometry": {"type": "Point", "coordinates": [-116.0212115185103, 36.20923490379243]}}, {"type": "Feature", "properties": {"PWSID": "NV0000402", "PWS_Name": "PLEASANT VALLEY", "Primacy_Agency": "NV", "Population_Served_Count": 110, "Service_Connections_Count": 102, "Service_Area_Type": "Residential Area", "Verification_Status": "", "Area_SqKM": 2.3997935719755983}, "geometry": {"type": "Point", "coordinates": [-115.96757030353992, 36.12495491424371]}}, {"type": "Feature", "properties": {"PWSID": "NV0000408", "PWS_Name": "CALVADA MEADOWS  GBWC", "Primacy_Agency": "NV", "Population_Served_Count": 112, "Service_Connections_Count": 42, "Service_Area_Type": "Residential Area", "Verification_Status": "", "Area_SqKM": 0.16243173943862846}, "geometry": {"type": "Point", "coordinates": [-115.98660359994068, 36.251140533245305]}}, {"type": "Feature", "properties": {"PWSID": "NV0000430", "PWS_Name": "FORT APACHE ANN NE WATER ASSOC", "Primacy_Agency": "NV", "Population_Served_Count": 25, "Service_Connections_Count": 16, "Service_Area_Type": "Residential Area", "Verification_Status": "", "Area_SqKM": 0.03590965118896497}, "geometry": {"type": "Point", "coordinates": [-115.42277570008771, 36.31110400010214]}}, {"type": "Feature", "properties": {"PWSID": "NV0000431", "PWS_Name": "ELKHORN WATER ASSOCIATION LLC", "Primacy_Agency": "NV", "Population_Served_Count": 25, "Service_Connections_Count": 15, "Service_Area_Type": "Residential Area", "Verification_Status": "", "Area_SqKM": 0.04558123749675398}, "geometry": {"type": "Point", "coordinates": [-115.3799236999034, 36.420942299815934]}}, {"type": "Feature", "properties": {"PWSID": "NV0000831", "PWS_Name": "DESERT MIRAGE HOMEOWNERS ASSOCIATION", "Primacy_Agency": "NV", "Population_Served_Count": 230, "Service_Connections_Count": 65, "Service_Area_Type": "Residential Area", "Verification_Status": "", "Area_SqKM": 0.5365008474134515}, "geometry": {"type": "Point", "coordinates": [-116.05763492504366, 36.20393015000795]}}, {"type": "Feature", "properties": {"PWSID": "NV0000920", "PWS_Name": "MOUNTAIN FALLS WATER SYSTEM GBWC", "Primacy_Agency": "NV", "Population_Served_Count": 4198, "Service_Connections_Count": 1612, "Service_Area_Type": "Residential Area", "Verification_Status": "", "Area_SqKM": 0.03267626687314603}, "geometry": {"type": "Point", "coordinates": [-115.99343666671, 36.13017120041162]}}, {"type": "Feature", "properties": {"PWSID": "NV0000926", "PWS_Name": "PAHRUMP UTILITY COMPANY INC", "Primacy_Agency": "NV", "Population_Served_Count": 985, "Service_Connections_Count": 1465, "Service_Area_Type": "Residential Area", "Verification_Status": "", "Area_SqKM": 22.2857473301819}, "geometry": {"type": "Point", "coordinates": [-115.94534883048867, 36.13105404745913]}}, {"type": "Feature", "properties": {"PWSID": "NV0001073", "PWS_Name": "PRIMM VALLEY CASINO RESORTS", "Primacy_Agency": "NV", "Population_Served_Count": 7000, "Service_Connections_Count": 79, "Service_Area_Type": "Restaurant", "Verification_Status": "", "Area_SqKM": 0.7193418530821183}, "geometry": {"type": "Point", "coordinates": [-115.38434089297303, 35.61498957208136]}}, {"type": "Feature", "properties": {"PWSID": "NV0001093", "PWS_Name": "SPRING MOUNTAIN MOTOR SPORTS RANCH", "Primacy_Agency": "NV", "Population_Served_Count": 62, "Service_Connections_Count": 78, "Service_Area_Type": "Other Transient Area", "Verification_Status": "", "Area_SqKM": 3.1652981531360425}, "geometry": {"type": "Point", "coordinates": [-115.9251834602354, 36.16673183635565]}}, {"type": "Feature", "properties": {"PWSID": "NV0002552", "PWS_Name": "ESCAPEE CO OP OF NEVADA", "Primacy_Agency": "NV", "Population_Served_Count": 200, "Service_Connections_Count": 187, "Service_Area_Type": "Residential Area", "Verification_Status": "", "Area_SqKM": 2.2444936513217577}, "geometry": {"type": "Point", "coordinates": [-115.97262058829925, 36.143401798023405]}}, {"type": "Feature", "properties": {"PWSID": "NV0002554", "PWS_Name": "CHIPMUNK RETREAT", "Primacy_Agency": "NV", "Population_Served_Count": 45, "Service_Connections_Count": 20, "Service_Area_Type": "Mobile Home Park", "Verification_Status": "", "Area_SqKM": 0.43379912341475263}, "geometry": {"type": "Point", "coordinates": [-116.03742602448051, 36.204185200077]}}, {"type": "Feature", "properties": {"PWSID": "NV0002571", "PWS_Name": "RANCHO VISTA 4", "Primacy_Agency": "NV", "Population_Served_Count": 50, "Service_Connections_Count": 27, "Service_Area_Type": "Residential Area", "Verification_Status": "", "Area_SqKM": 0.28602549290175616}, "geometry": {"type": "Point", "coordinates": [-116.0697197500856, 36.19560507507889]}}, {"type": "Feature", "properties": {"PWSID": "NV0003005", "PWS_Name": "NPS BOULDER BEACH", "Primacy_Agency": "NV", "Population_Served_Count": 690, "Service_Connections_Count": 70, "Service_Area_Type": "Residential Area", "Verification_Status": "", "Area_SqKM": 0.0050101659322651275}, "geometry": {"type": "Point", "coordinates": [-114.8010204429477, 36.03439644290223]}}, {"type": "Feature", "properties": {"PWSID": "NV0003028", "PWS_Name": "NELLIS AIR FORCE BASE", "Primacy_Agency": "NV", "Population_Served_Count": 19081, "Service_Connections_Count": 1985, "Service_Area_Type": "Residential Area", "Verification_Status": "", "Area_SqKM": 12.021547143220207}, "geometry": {"type": "Point", "coordinates": [-115.04214198661131, 36.25613017096169]}}, {"type": "Feature", "properties": {"PWSID": "NV0005032", "PWS_Name": "COUNTRY VIEW ESTATES GBWC", "Primacy_Agency": "NV", "Population_Served_Count": 1072, "Service_Connections_Count": 399, "Service_Area_Type": "Residential Area", "Verification_Status": "", "Area_SqKM": 2.758939154378626}, "geometry": {"type": "Point", "coordinates": [-116.01538107792936, 36.30616164589458]}}, {"type": "Feature", "properties": {"PWSID": "NV0005033", "PWS_Name": "ANCHOR IN MHP", "Primacy_Agency": "NV", "Population_Served_Count": 36, "Service_Connections_Count": 26, "Service_Area_Type": "Mobile Home Park", "Verification_Status": "", "Area_SqKM": 0.006424786056741896}, "geometry": {"type": "Point", "coordinates": [-116.05179361535761, 36.221796892493]}}, {"type": "Feature", "properties": {"PWSID": "NV0005062", "PWS_Name": "SOUTHERN DESERT CORRECTIONAL CTR  NDOC", "Primacy_Agency": "NV", "Population_Served_Count": 6200, "Service_Connections_Count": 19, "Service_Area_Type": "Institution", "Verification_Status": "", "Area_SqKM": 0.35370513154868455}, "geometry": {"type": "Point", "coordinates": [-115.55573104806265, 36.51597748521434]}}, {"type": "Feature", "properties": {"PWSID": "NV0005066", "PWS_Name": "SUNSET MHP", "Primacy_Agency": "NV", "Population_Served_Count": 90, "Service_Connections_Count": 45, "Service_Area_Type": "Mobile Home Park", "Verification_Status": "", "Area_SqKM": 0.3846020821784352}, "geometry": {"type": "Point", "coordinates": [-116.0361502500737, 36.222358750033166]}}, {"type": "Feature", "properties": {"PWSID": "NV0000076", "PWS_Name": "HENDERSON CITY OF", "Primacy_Agency": "NV", "Population_Served_Count": 336534, "Service_Connections_Count": 131234, "Service_Area_Type": "Residential Area", "Verification_Status": "", "Area_SqKM": 262.6946431661303}, "geometry": {"type": "Point", "coordinates": [-115.03610869739032, 36.0235271598269]}}, {"type": "Feature", "properties": {"PWSID": "NV0004031", "PWS_Name": "SKY RANCH ESTATES", "Primacy_Agency": "NV", "Population_Served_Count": 110, "Service_Connections_Count": 92, "Service_Area_Type": "Residential Area", "Verification_Status": "", "Area_SqKM": 0.5609013744511078}, "geometry": {"type": "Point", "coordinates": [-115.62323690007479, 35.79868073024825]}}, {"type": "Feature", "properties": {"PWSID": "NV0004000", "PWS_Name": "COLD CREEK CANYON HOMEOWNERS", "Primacy_Agency": "NV", "Population_Served_Count": 180, "Service_Connections_Count": 98, "Service_Area_Type": "Residential Area", "Verification_Status": "", "Area_SqKM": 0.08484181791983396}, "geometry": {"type": "Point", "coordinates": [-115.74620832835086, 36.413250911959224]}}, {"type": "Feature", "properties": {"PWSID": "NV0002506", "PWS_Name": "NPS CALLVILLE BAY", "Primacy_Agency": "NV", "Population_Served_Count": 250, "Service_Connections_Count": 152, "Service_Area_Type": "Residential Area", "Verification_Status": "", "Area_SqKM": 0.021067905592154258}, "geometry": {"type": "Point", "coordinates": [-114.728890442815, 36.1417650500001]}}, {"type": "Feature", "properties": {"PWSID": "NV0002503", "PWS_Name": "NPS ECHO BAY", "Primacy_Agency": "NV", "Population_Served_Count": 274, "Service_Connections_Count": 150, "Service_Area_Type": "Residential Area", "Verification_Status": "", "Area_SqKM": 0.16282756122931036}, "geometry": {"type": "Point", "coordinates": [-114.40961277894617, 36.382486373557654]}}, {"type": "Feature", "properties": {"PWSID": "NV0001102", "PWS_Name": "SNWA COYOTE SPRING VALLEY-MOAPA PWS", "Primacy_Agency": "NV", "Population_Served_Count": 25, "Service_Connections_Count": 1, "Service_Area_Type": "Wholesaler of Water", "Verification_Status": "", "Area_SqKM": 5.2071742120063815}, "geometry": {"type": "Point", "coordinates": [-114.65016780900973, 36.66591866905769]}}, {"type": "Feature", "properties": {"PWSID": "NV0000292", "PWS_Name": "SPRING MOUNTAIN YOUTH CAMP", "Primacy_Agency": "NV", "Population_Served_Count": 120, "Service_Connections_Count": 19, "Service_Area_Type": "Institution", "Verification_Status": "", "Area_SqKM": 0.22143630666267328}, "geometry": {"type": "Point", "coordinates": [-115.66527106677083, 36.32448076666442]}}, {"type": "Feature", "properties": {"PWSID": "NV0000289", "PWS_Name": "SOUTHERN NEVADA WATER SYSTEM", "Primacy_Agency": "NV", "Population_Served_Count": 200, "Service_Connections_Count": 32, "Service_Area_Type": "Other Non-transient Area", "Verification_Status": "", "Area_SqKM": 0.02164905961807736}, "geometry": {"type": "Point", "coordinates": [-114.79825594579393, 36.035117591623205]}}, {"type": "Feature", "properties": {"PWSID": "NV0000287", "PWS_Name": "KINGS ROW TP", "Primacy_Agency": "NV", "Population_Served_Count": 860, "Service_Connections_Count": 434, "Service_Area_Type": "Mobile Home Park", "Verification_Status": "", "Area_SqKM": 0.048420248087210155}, "geometry": {"type": "Point", "coordinates": [-115.09498653819439, 36.13713251422975]}}, {"type": "Feature", "properties": {"PWSID": "NV0000270", "PWS_Name": "GREAT BASIN WATER COMPANY", "Primacy_Agency": "NV", "Population_Served_Count": 11322, "Service_Connections_Count": 4357, "Service_Area_Type": "Residential Area", "Verification_Status": "", "Area_SqKM": 57.44680067409768}, "geometry": {"type": "Point", "coordinates": [-116.00597218161194, 36.193583174939064]}}, {"type": "Feature", "properties": {"PWSID": "NV0000185", "PWS_Name": "PANACA FARMSTEAD ASSOCIATION", "Primacy_Agency": "NV", "Population_Served_Count": 900, "Service_Connections_Count": 467, "Service_Area_Type": "Residential Area", "Verification_Status": "", "Area_SqKM": 1.9897222271812807}, "geometry": {"type": "Point", "coordinates": [-114.38565943244629, 37.79218974676833]}}, {"type": "Feature", "properties": {"PWSID": "NV0000167", "PWS_Name": "VIRGIN VALLEY WATER DISTRICT", "Primacy_Agency": "NV", "Population_Served_Count": 26000, "Service_Connections_Count": 11092, "Service_Area_Type": "Residential Area", "Verification_Status": "", "Area_SqKM": 23.4841967174384}, "geometry": {"type": "Point", "coordinates": [-114.08715660380571, 36.81607409730642]}}, {"type": "Feature", "properties": {"PWSID": "NV0000165", "PWS_Name": "MANHATTAN TOWN WATER", "Primacy_Agency": "NV", "Population_Served_Count": 40, "Service_Connections_Count": 122, "Service_Area_Type": "Residential Area", "Verification_Status": "", "Area_SqKM": 0.11919403302635793}, "geometry": {"type": "Point", "coordinates": [-117.07268016799341, 38.53802132802754]}}, {"type": "Feature", "properties": {"PWSID": "NV0000160", "PWS_Name": "MOAPA VALLEY WATER DISTRICT", "Primacy_Agency": "NV", "Population_Served_Count": 8500, "Service_Connections_Count": 3206, "Service_Area_Type": "Residential Area", "Verification_Status": "", "Area_SqKM": 20.377509134847916}, "geometry": {"type": "Point", "coordinates": [-114.46453415062909, 36.583962799847576]}}, {"type": "Feature", "properties": {"PWSID": "NV0000147", "PWS_Name": "BERMUDA PALMS MANAGEMENT LLC", "Primacy_Agency": "NV", "Population_Served_Count": 60, "Service_Connections_Count": 66, "Service_Area_Type": "Mobile Home Park", "Verification_Status": "", "Area_SqKM": 0.013134757174726099}, "geometry": {"type": "Point", "coordinates": [-115.15598439958539, 35.9549876998019]}}, {"type": "Feature", "properties": {"PWSID": "NV0000142", "PWS_Name": "KYLE CANYON WATER DISTRICT", "Primacy_Agency": "NV", "Population_Served_Count": 1040, "Service_Connections_Count": 437, "Service_Area_Type": "Residential Area", "Verification_Status": "", "Area_SqKM": 0.35046685794828225}, "geometry": {"type": "Point", "coordinates": [-115.64202939382693, 36.26007978634588]}}, {"type": "Feature", "properties": {"PWSID": "NV0000129", "PWS_Name": "RANCHO COOPERATIVE WATER COMPANY", "Primacy_Agency": "NV", "Population_Served_Count": 112, "Service_Connections_Count": 42, "Service_Area_Type": "Residential Area", "Verification_Status": "", "Area_SqKM": 0.12330863629009658}, "geometry": {"type": "Point", "coordinates": [-115.18023465006505, 36.16557620009872]}}, {"type": "Feature", "properties": {"PWSID": "NV0000109", "PWS_Name": "EQUESTRIAN ESTATES CO OP WATER ASSOC", "Primacy_Agency": "NV", "Population_Served_Count": 108, "Service_Connections_Count": 37, "Service_Area_Type": "Other Area", "Verification_Status": "", "Area_SqKM": 0.019217921625994314}, "geometry": {"type": "Point", "coordinates": [-115.1035070999375, 36.05737885002221]}}, {"type": "Feature", "properties": {"PWSID": "NV0000092", "PWS_Name": "BLUE DIAMOND WATER CO OP INC", "Primacy_Agency": "NV", "Population_Served_Count": 85, "Service_Connections_Count": 14, "Service_Area_Type": "Residential Area", "Verification_Status": "", "Area_SqKM": 0.27762035984163863}, "geometry": {"type": "Point", "coordinates": [-115.40296411207765, 36.04729645912962]}}, {"type": "Feature", "properties": {"PWSID": "NV0000089", "PWS_Name": "JEAN UTILITY SERVICES INC", "Primacy_Agency": "NV", "Population_Served_Count": 560, "Service_Connections_Count": 29, "Service_Area_Type": "Residential Area", "Verification_Status": "", "Area_SqKM": 0.1967432966657478}, "geometry": {"type": "Point", "coordinates": [-115.31512777161218, 35.77481734294209]}}, {"type": "Feature", "properties": {"PWSID": "NV0000011", "PWS_Name": "BOULDER CITY", "Primacy_Agency": "NV", "Population_Served_Count": 15000, "Service_Connections_Count": 6127, "Service_Area_Type": "Residential Area", "Verification_Status": "", "Area_SqKM": 13.601838243203959}, "geometry": {"type": "Point", "coordinates": [-114.83381905183644, 35.97381063873801]}}, {"type": "Feature", "properties": {"PWSID": "NV0000010", "PWS_Name": "BLUE DIAMOND WATER COMPANY", "Primacy_Agency": "NV", "Population_Served_Count": 527, "Service_Connections_Count": 148, "Service_Area_Type": "Residential Area", "Verification_Status": "", "Area_SqKM": 0.2972012228224391}, "geometry": {"type": "Point", "coordinates": [-115.40268668987378, 36.047327434498754]}}, {"type": "Feature", "properties": {"PWSID": "NV0000009", "PWS_Name": "BEATTY WATER AND SANITATION DISTRICT", "Primacy_Agency": "NV", "Population_Served_Count": 1024, "Service_Connections_Count": 587, "Service_Area_Type": "Residential Area", "Verification_Status": "", "Area_SqKM": 1.7497050046199156}, "geometry": {"type": "Point", "coordinates": [-116.75976608464185, 36.90673127248683]}}, {"type": "Feature", "properties": {"PWSID": "NV0000221", "PWS_Name": "SPIRIT MOUNTAIN UTILITY COMPANY", "Primacy_Agency": "NV", "Population_Served_Count": 375, "Service_Connections_Count": 119, "Service_Area_Type": "Mobile Home Park", "Verification_Status": "", "Area_SqKM": 0.00021131971006194033}, "geometry": {"type": "Point", "coordinates": [-114.8796071001498, 35.298502419758066]}}, {"type": "Feature", "properties": {"PWSID": "NV0004092", "PWS_Name": "BIG BEND WATER DISTRICT", "Primacy_Agency": "NV", "Population_Served_Count": 9000, "Service_Connections_Count": 2204, "Service_Area_Type": "Residential Area", "Verification_Status": "", "Area_SqKM": 19.621106991622597}, "geometry": {"type": "Point", "coordinates": [-114.62213001822285, 35.135580161669466]}}, {"type": "Feature", "properties": {"PWSID": "NV0000819", "PWS_Name": "PALM GARDENS WATER CO OP", "Primacy_Agency": "NV", "Population_Served_Count": 42, "Service_Connections_Count": 34, "Service_Area_Type": "Residential Area", "Verification_Status": "", "Area_SqKM": 0.013631891318305481}, "geometry": {"type": "Point", "coordinates": [-114.85792653768166, 35.197064226920844]}}, {"type": "Feature", "properties": {"PWSID": "NV0000219", "PWS_Name": "SEARCHLIGHT WATER COMPANY", "Primacy_Agency": "NV", "Population_Served_Count": 760, "Service_Connections_Count": 484, "Service_Area_Type": "Residential Area", "Verification_Status": "", "Area_SqKM": 2.5385888753216057}, "geometry": {"type": "Point", "coordinates": [-114.91844000065015, 35.46264293857085]}}, {"type": "Feature", "properties": {"PWSID": "NV0000242", "PWS_Name": "WEED HEIGHTS DEVELOPMENT", "Primacy_Agency": "NV", "Population_Served_Count": 340, "Service_Connections_Count": 284, "Service_Area_Type": "Residential Area", "Verification_Status": "", "Area_SqKM": 0.6969045850913327}, "geometry": {"type": "Point", "coordinates": [-119.21452455683308, 38.98636301130262]}}, {"type": "Feature", "properties": {"PWSID": "NV0000255", "PWS_Name": "YERINGTON CITY OF", "Primacy_Agency": "NV", "Population_Served_Count": 5050, "Service_Connections_Count": 1992, "Service_Area_Type": "Residential Area", "Verification_Status": "", "Area_SqKM": 9.043009384048991}, "geometry": {"type": "Point", "coordinates": [-119.17241155609605, 38.979830250025195]}}, {"type": "Feature", "properties": {"PWSID": "NV0000042", "PWS_Name": "EMPIRE MINING COMPANY", "Primacy_Agency": "NV", "Population_Served_Count": 350, "Service_Connections_Count": 127, "Service_Area_Type": "Other Residential", "Verification_Status": "", "Area_SqKM": 0.15350611067623496}, "geometry": {"type": "Point", "coordinates": [-119.34349643336918, 40.575523733293764]}}, {"type": "Feature", "properties": {"PWSID": "NV0000071", "PWS_Name": "GERLACH GID", "Primacy_Agency": "NV", "Population_Served_Count": 180, "Service_Connections_Count": 158, "Service_Area_Type": "Residential Area", "Verification_Status": "", "Area_SqKM": 0.6640211328623039}, "geometry": {"type": "Point", "coordinates": [-119.35854250740707, 40.65187127041906]}}, {"type": "Feature", "properties": {"PWSID": "NV0000223", "PWS_Name": "SILVER SPRINGS MUTUAL WATER COMPANY", "Primacy_Agency": "NV", "Population_Served_Count": 3070, "Service_Connections_Count": 1185, "Service_Area_Type": "Residential Area", "Verification_Status": "", "Area_SqKM": 19.76725656835544}, "geometry": {"type": "Point", "coordinates": [-119.23775866280796, 39.378055109581084]}}, {"type": "Feature", "properties": {"PWSID": "NV0000224", "PWS_Name": "STAGECOACH GID", "Primacy_Agency": "NV", "Population_Served_Count": 1628, "Service_Connections_Count": 658, "Service_Area_Type": "Residential Area", "Verification_Status": "", "Area_SqKM": 4.581158057586591}, "geometry": {"type": "Point", "coordinates": [-119.36740173501266, 39.368457011349044]}}, {"type": "Feature", "properties": {"PWSID": "NV0000045", "PWS_Name": "FALLON CITY OF", "Primacy_Agency": "NV", "Population_Served_Count": 9184, "Service_Connections_Count": 3642, "Service_Area_Type": "Residential Area", "Verification_Status": "", "Area_SqKM": 14.659346846662773}, "geometry": {"type": "Point", "coordinates": [-118.78794858060482, 39.48289305320387]}}, {"type": "Feature", "properties": {"PWSID": "NV0000052", "PWS_Name": "OK MOBILE HOME PARK", "Primacy_Agency": "NV", "Population_Served_Count": 90, "Service_Connections_Count": 34, "Service_Area_Type": "Mobile Home Park", "Verification_Status": "", "Area_SqKM": 0.435043816531055}, "geometry": {"type": "Point", "coordinates": [-118.84771340000856, 39.47990928712787]}}, {"type": "Feature", "properties": {"PWSID": "NV0000054", "PWS_Name": "SAGE VALLEY PARK ANNEX", "Primacy_Agency": "NV", "Population_Served_Count": 130, "Service_Connections_Count": 42, "Service_Area_Type": "Mobile Home Park", "Verification_Status": "", "Area_SqKM": 0.13693342737908806}, "geometry": {"type": "Point", "coordinates": [-118.85466134506744, 39.48757768902224]}}, {"type": "Feature", "properties": {"PWSID": "NV0000161", "PWS_Name": "LOVELOCK MEADOWS WATER DISTRICT", "Primacy_Agency": "NV", "Population_Served_Count": 3562, "Service_Connections_Count": 1436, "Service_Area_Type": "Residential Area", "Verification_Status": "", "Area_SqKM": 5.597085485634449}, "geometry": {"type": "Point", "coordinates": [-118.45990824306945, 40.195804951861675]}}, {"type": "Feature", "properties": {"PWSID": "NV0000303", "PWS_Name": "OLD RIVER WATER COMPANY", "Primacy_Agency": "NV", "Population_Served_Count": 300, "Service_Connections_Count": 111, "Service_Area_Type": "Residential Area", "Verification_Status": "", "Area_SqKM": 0.07328039291729424}, "geometry": {"type": "Point", "coordinates": [-118.78457306855017, 39.497941644068]}}, {"type": "Feature", "properties": {"PWSID": "NV0000350", "PWS_Name": "FALLON NAVAL AIR STATION", "Primacy_Agency": "NV", "Population_Served_Count": 3000, "Service_Connections_Count": 550, "Service_Area_Type": "Residential Area", "Verification_Status": "", "Area_SqKM": 7.29366296393655}, "geometry": {"type": "Point", "coordinates": [-118.70431821285736, 39.41891890379335]}}, {"type": "Feature", "properties": {"PWSID": "NV0000406", "PWS_Name": "SAND CREEK", "Primacy_Agency": "NV", "Population_Served_Count": 953, "Service_Connections_Count": 459, "Service_Area_Type": "Residential Area", "Verification_Status": "", "Area_SqKM": 1.803139937244025}, "geometry": {"type": "Point", "coordinates": [-118.81736096093076, 39.474668668947864]}}, {"type": "Feature", "properties": {"PWSID": "NV0002023", "PWS_Name": "SAGE VALLEY MHP LLC", "Primacy_Agency": "NV", "Population_Served_Count": 188, "Service_Connections_Count": 45, "Service_Area_Type": "Mobile Home Park", "Verification_Status": "", "Area_SqKM": 0.5090765800716348}, "geometry": {"type": "Point", "coordinates": [-118.8460277837223, 39.48660588839841]}}, {"type": "Feature", "properties": {"PWSID": "NV0003068", "PWS_Name": "CARSON RIVER ESTATES", "Primacy_Agency": "NV", "Population_Served_Count": 105, "Service_Connections_Count": 35, "Service_Area_Type": "Residential Area", "Verification_Status": "", "Area_SqKM": 0.5246738887460978}, "geometry": {"type": "Point", "coordinates": [-118.78057850457252, 39.49454639242437]}}, {"type": "Feature", "properties": {"PWSID": "NV0000063", "PWS_Name": "GABBS WATER SYSTEM", "Primacy_Agency": "NV", "Population_Served_Count": 411, "Service_Connections_Count": 186, "Service_Area_Type": "Residential Area", "Verification_Status": "", "Area_SqKM": 0.47368278836346905}, "geometry": {"type": "Point", "coordinates": [-117.928503410478, 38.86366069313825]}}, {"type": "Feature", "properties": {"PWSID": "NV0000226", "PWS_Name": "IMLAY WATER SYSTEM", "Primacy_Agency": "NV", "Population_Served_Count": 200, "Service_Connections_Count": 89, "Service_Area_Type": "Residential Area", "Verification_Status": "", "Area_SqKM": 0.22123623149109503}, "geometry": {"type": "Point", "coordinates": [-118.15013361157777, 40.659161134532226]}}, {"type": "Feature", "properties": {"PWSID": "NV0000252", "PWS_Name": "STAR CITY PROPERTIES", "Primacy_Agency": "NV", "Population_Served_Count": 285, "Service_Connections_Count": 135, "Service_Area_Type": "Residential Area", "Verification_Status": "", "Area_SqKM": 0.6830508553604526}, "geometry": {"type": "Point", "coordinates": [-117.76274905632022, 40.92489788119171]}}, {"type": "Feature", "properties": {"PWSID": "NV0000809", "PWS_Name": "DUTCHMAN ACRES", "Primacy_Agency": "NV", "Population_Served_Count": 260, "Service_Connections_Count": 167, "Service_Area_Type": "Residential Area", "Verification_Status": "", "Area_SqKM": 0.3236996368819492}, "geometry": {"type": "Point", "coordinates": [-117.75820559248108, 40.833196061549415]}}, {"type": "Feature", "properties": {"PWSID": "NV0003079", "PWS_Name": "GOLD COUNTRY ESTATES", "Primacy_Agency": "NV", "Population_Served_Count": 1695, "Service_Connections_Count": 421, "Service_Area_Type": "Residential Area", "Verification_Status": "", "Area_SqKM": 5.450554288685975}, "geometry": {"type": "Point", "coordinates": [-117.78803619122127, 40.916139385717045]}}, {"type": "Feature", "properties": {"PWSID": "NV0000248", "PWS_Name": "WINNEMUCCA CITY OF", "Primacy_Agency": "NV", "Population_Served_Count": 8066, "Service_Connections_Count": 3934, "Service_Area_Type": "Residential Area", "Verification_Status": "", "Area_SqKM": 14.23539689241728}, "geometry": {"type": "Point", "coordinates": [-117.72647514841515, 40.9687322370936]}}, {"type": "Feature", "properties": {"PWSID": "NV0005029", "PWS_Name": "GOLCONDA GID", "Primacy_Agency": "NV", "Population_Served_Count": 60, "Service_Connections_Count": 152, "Service_Area_Type": "Residential Area", "Verification_Status": "", "Area_SqKM": 0.39878092526386844}, "geometry": {"type": "Point", "coordinates": [-117.48584492505839, 40.95264909102998]}}, {"type": "Feature", "properties": {"PWSID": "NV0000006", "PWS_Name": "LANDER CO SEWER AND WATER DIST 2  AUSTIN", "Primacy_Agency": "NV", "Population_Served_Count": 350, "Service_Connections_Count": 230, "Service_Area_Type": "Residential Area", "Verification_Status": "", "Area_SqKM": 5.296292619547643}, "geometry": {"type": "Point", "coordinates": [-117.0673359534423, 39.49904048926698]}}, {"type": "Feature", "properties": {"PWSID": "NV0000008", "PWS_Name": "LANDER CO SEWER AND WATER DIST 1  BM", "Primacy_Agency": "NV", "Population_Served_Count": 3635, "Service_Connections_Count": 1495, "Service_Area_Type": "Residential Area", "Verification_Status": "", "Area_SqKM": 11.685835303559353}, "geometry": {"type": "Point", "coordinates": [-116.94447442440482, 40.64614998002958]}}, {"type": "Feature", "properties": {"PWSID": "NV0000014", "PWS_Name": "CARLIN UTILITIES", "Primacy_Agency": "NV", "Population_Served_Count": 2500, "Service_Connections_Count": 836, "Service_Area_Type": "Residential Area", "Verification_Status": "", "Area_SqKM": 3.2114551318521816}, "geometry": {"type": "Point", "coordinates": [-116.11386996705754, 40.71529512308619]}}, {"type": "Feature", "properties": {"PWSID": "NV0000036", "PWS_Name": "GREAT BASIN WATER CO  SPRING CREEK", "Primacy_Agency": "NV", "Population_Served_Count": 9340, "Service_Connections_Count": 3708, "Service_Area_Type": "Residential Area", "Verification_Status": "", "Area_SqKM": 3.4878540237413422}, "geometry": {"type": "Point", "coordinates": [-115.56041054999125, 40.709142724996724]}}, {"type": "Feature", "properties": {"PWSID": "NV0000038", "PWS_Name": "ELY MUNICIPAL WATER DEPARTMENT", "Primacy_Agency": "NV", "Population_Served_Count": 5000, "Service_Connections_Count": 2301, "Service_Area_Type": "Residential Area", "Verification_Status": "", "Area_SqKM": 6.500524345023636}, "geometry": {"type": "Point", "coordinates": [-114.87534150240971, 39.25044783725624]}}, {"type": "Feature", "properties": {"PWSID": "NV0000043", "PWS_Name": "CRESCENT VALLEY WATER SYSTEM", "Primacy_Agency": "NV", "Population_Served_Count": 340, "Service_Connections_Count": 209, "Service_Area_Type": "Residential Area", "Verification_Status": "", "Area_SqKM": 2.2270270025175876}, "geometry": {"type": "Point", "coordinates": [-116.57957474287862, 40.413194929638216]}}, {"type": "Feature", "properties": {"PWSID": "NV0000044", "PWS_Name": "EUREKA WATER ASSOCIATION", "Primacy_Agency": "NV", "Population_Served_Count": 450, "Service_Connections_Count": 417, "Service_Area_Type": "Residential Area", "Verification_Status": "", "Area_SqKM": 1.9955055275227453}, "geometry": {"type": "Point", "coordinates": [-115.96150187581422, 39.51162648396212]}}, {"type": "Feature", "properties": {"PWSID": "NV0000163", "PWS_Name": "MCGILL WATER AND SEWER DIST", "Primacy_Agency": "NV", "Population_Served_Count": 1200, "Service_Connections_Count": 634, "Service_Area_Type": "Residential Area", "Verification_Status": "", "Area_SqKM": 1.2510411457223802}, "geometry": {"type": "Point", "coordinates": [-114.77694626980237, 39.40457229423141]}}, {"type": "Feature", "properties": {"PWSID": "NV0000164", "PWS_Name": "RUTH WATER DISTRICT", "Primacy_Agency": "NV", "Population_Served_Count": 470, "Service_Connections_Count": 291, "Service_Area_Type": "Residential Area", "Verification_Status": "", "Area_SqKM": 36.17986005155195}, "geometry": {"type": "Point", "coordinates": [-115.02429060398303, 39.267010794166744]}}, {"type": "Feature", "properties": {"PWSID": "NV0000218", "PWS_Name": "CARVERS SMOKEY VALLEY RV AND MHP", "Primacy_Agency": "NV", "Population_Served_Count": 250, "Service_Connections_Count": 115, "Service_Area_Type": "Mobile Home Park", "Verification_Status": "", "Area_SqKM": 3.565840927781625}, "geometry": {"type": "Point", "coordinates": [-117.15318591540245, 38.781599107695094]}}, {"type": "Feature", "properties": {"PWSID": "NV0000245", "PWS_Name": "WELLS MUNICIPAL WATER DEPARTMENT", "Primacy_Agency": "NV", "Population_Served_Count": 1300, "Service_Connections_Count": 681, "Service_Area_Type": "Residential Area", "Verification_Status": "", "Area_SqKM": 3.742947856779615}, "geometry": {"type": "Point", "coordinates": [-114.96302752753569, 41.10634352451271]}}, {"type": "Feature", "properties": {"PWSID": "NV0000246", "PWS_Name": "WEST WENDOVER WATER SYSTEM", "Primacy_Agency": "NV", "Population_Served_Count": 4535, "Service_Connections_Count": 1308, "Service_Area_Type": "Residential Area", "Verification_Status": "", "Area_SqKM": 3.852529955304447}, "geometry": {"type": "Point", "coordinates": [-114.08861281397566, 40.735912939497084]}}, {"type": "Feature", "properties": {"PWSID": "NV0000265", "PWS_Name": "KINGSTON TOWN WATER UTILITIES", "Primacy_Agency": "NV", "Population_Served_Count": 350, "Service_Connections_Count": 173, "Service_Area_Type": "Residential Area", "Verification_Status": "", "Area_SqKM": 1.23572268338194}, "geometry": {"type": "Point", "coordinates": [-117.05468037198936, 39.22574999448013]}}, {"type": "Feature", "properties": {"PWSID": "NV0000272", "PWS_Name": "ELKO CITY OF", "Primacy_Agency": "NV", "Population_Served_Count": 23000, "Service_Connections_Count": 8138, "Service_Area_Type": "Residential Area", "Verification_Status": "", "Area_SqKM": 47.6190313626086}, "geometry": {"type": "Point", "coordinates": [-115.78071022085415, 40.8589557615632]}}, {"type": "Feature", "properties": {"PWSID": "NV0000273", "PWS_Name": "LAMOILLE WATER USERS ASSOC", "Primacy_Agency": "NV", "Population_Served_Count": 200, "Service_Connections_Count": 60, "Service_Area_Type": "Residential Area", "Verification_Status": "", "Area_SqKM": 0.09302256669418159}, "geometry": {"type": "Point", "coordinates": [-115.47978590005177, 40.72884583323927]}}, {"type": "Feature", "properties": {"PWSID": "NV0000351", "PWS_Name": "SOUTH CRESTVIEW HOMEOWNERS", "Primacy_Agency": "NV", "Population_Served_Count": 60, "Service_Connections_Count": 27, "Service_Area_Type": "Residential Area", "Verification_Status": "", "Area_SqKM": 0.22308461526435225}, "geometry": {"type": "Point", "coordinates": [-115.82957838473678, 40.842889776854385]}}, {"type": "Feature", "properties": {"PWSID": "NV0000863", "PWS_Name": "BAKER WATER AND SEWER GID", "Primacy_Agency": "NV", "Population_Served_Count": 85, "Service_Connections_Count": 101, "Service_Area_Type": "Residential Area", "Verification_Status": "", "Area_SqKM": 0.03707864343920998}, "geometry": {"type": "Point", "coordinates": [-114.12390227061229, 39.01147387641737]}}, {"type": "Feature", "properties": {"PWSID": "NV0002075", "PWS_Name": "RUBY DOME HOLDINGS DBA ELKO RV PARK", "Primacy_Agency": "NV", "Population_Served_Count": 357, "Service_Connections_Count": 121, "Service_Area_Type": "Other Transient Area", "Verification_Status": "", "Area_SqKM": 0.6018078991432878}, "geometry": {"type": "Point", "coordinates": [-115.59438109513287, 40.95900413344643]}}, {"type": "Feature", "properties": {"PWSID": "NV0002574", "PWS_Name": "DEVILS GATE GID DISTRICT 1", "Primacy_Agency": "NV", "Population_Served_Count": 65, "Service_Connections_Count": 35, "Service_Area_Type": "Residential Area", "Verification_Status": "", "Area_SqKM": 0.21629206832609232}, "geometry": {"type": "Point", "coordinates": [-116.01948092008692, 39.56103887999356]}}, {"type": "Feature", "properties": {"PWSID": "NV0004017", "PWS_Name": "OASIS MHP", "Primacy_Agency": "NV", "Population_Served_Count": 46, "Service_Connections_Count": 25, "Service_Area_Type": "Mobile Home Park", "Verification_Status": "", "Area_SqKM": 0.24267208633687687}, "geometry": {"type": "Point", "coordinates": [-114.47191532818492, 41.03221217216787]}}, {"type": "Feature", "properties": {"PWSID": "NV0004074", "PWS_Name": "ROUND MOUNTAIN PUC", "Primacy_Agency": "NV", "Population_Served_Count": 1200, "Service_Connections_Count": 450, "Service_Area_Type": "Residential Area", "Verification_Status": "", "Area_SqKM": 1.2928889595968556}, "geometry": {"type": "Point", "coordinates": [-117.15965521873993, 38.69486139995889]}}, {"type": "Feature", "properties": {"PWSID": "NV0005027", "PWS_Name": "GREAT BASIN WATER CO  SPRING CREEK MHP", "Primacy_Agency": "NV", "Population_Served_Count": 3640, "Service_Connections_Count": 1448, "Service_Area_Type": "Mobile Home Park", "Verification_Status": "", "Area_SqKM": 29.424027467179627}, "geometry": {"type": "Point", "coordinates": [-115.62196601039264, 40.77377561066501]}}, {"type": "Feature", "properties": {"PWSID": "NV0005028", "PWS_Name": "SHOSHONE ESTATES WATER CO INC", "Primacy_Agency": "NV", "Population_Served_Count": 240, "Service_Connections_Count": 91, "Service_Area_Type": "Residential Area", "Verification_Status": "", "Area_SqKM": 0.23868970985406787}, "geometry": {"type": "Point", "coordinates": [-117.16721281147919, 38.78048246549376]}}, {"type": "Feature", "properties": {"PWSID": "NV0000169", "PWS_Name": "MONTELLO WATER SYSTEM", "Primacy_Agency": "NV", "Population_Served_Count": 287, "Service_Connections_Count": 114, "Service_Area_Type": "Residential Area", "Verification_Status": "", "Area_SqKM": 0.2733680140311892}, "geometry": {"type": "Point", "coordinates": [-114.19501011984619, 41.262728100056826]}}, {"type": "Feature", "properties": {"PWSID": "NV0000162", "PWS_Name": "MCDERMITT WATER SYSTEM", "Primacy_Agency": "NV", "Population_Served_Count": 200, "Service_Connections_Count": 110, "Service_Area_Type": "Residential Area", "Verification_Status": "", "Area_SqKM": 0.1882093232318482}, "geometry": {"type": "Point", "coordinates": [-117.71980450909682, 41.996092445370344]}}, {"type": "Feature", "properties": {"PWSID": "NV0003032", "PWS_Name": "OROVADA WATER DISTRICT", "Primacy_Agency": "NV", "Population_Served_Count": 200, "Service_Connections_Count": 63, "Service_Area_Type": "Residential Area", "Verification_Status": "", "Area_SqKM": 0.3482959306392392}, "geometry": {"type": "Point", "coordinates": [-117.68525455185814, 41.63617995599668]}}, {"type": "Feature", "properties": {"PWSID": "NV0000088", "PWS_Name": "JACKPOT WATER SYSTEM", "Primacy_Agency": "NV", "Population_Served_Count": 1240, "Service_Connections_Count": 460, "Service_Area_Type": "Residential Area", "Verification_Status": "", "Area_SqKM": 0.7239398105845949}, "geometry": {"type": "Point", "coordinates": [-114.66957743987636, 41.984786369949816]}}, {"type": "Feature", "properties": {"PWSID": "NV0000170", "PWS_Name": "MOUNTAIN CITY WATER AND SEWER", "Primacy_Agency": "NV", "Population_Served_Count": 30, "Service_Connections_Count": 65, "Service_Area_Type": "Residential Area", "Verification_Status": "", "Area_SqKM": 0.020786074494861223}, "geometry": {"type": "Point", "coordinates": [-115.96389012848, 41.83864913313429]}}, {"type": "Feature", "properties": {"PWSID": "NV0000189", "PWS_Name": "TUSCARORA WATER SYSTEM", "Primacy_Agency": "NV", "Population_Served_Count": 72, "Service_Connections_Count": 38, "Service_Area_Type": "Residential Area", "Verification_Status": "", "Area_SqKM": 0.022268310497032245}, "geometry": {"type": "Point", "coordinates": [-116.22388054551925, 41.31400533638573]}}, {"type": "Feature", "properties": {"PWSID": "NV0002070", "PWS_Name": "JARBIDGE WATER SYSTEM", "Primacy_Agency": "NV", "Population_Served_Count": 200, "Service_Connections_Count": 130, "Service_Area_Type": "Residential Area", "Verification_Status": "", "Area_SqKM": 0.0534041527832506}, "geometry": {"type": "Point", "coordinates": [-115.43052409467958, 41.874224072032895]}}, {"type": "Feature", "properties": {"PWSID": "NV0000090", "PWS_Name": "LAS VEGAS VALLEY WATER DISTRICT", "Primacy_Agency": "NV", "Population_Served_Count": 1539277, "Service_Connections_Count": 442502, "Service_Area_Type": "Residential Area", "Verification_Status": "", "Area_SqKM": 859.8952112517426}, "geometry": {"type": "Point", "coordinates": [-115.16876399390055, 36.11732397318082]}}, {"type": "Feature", "properties": {"PWSID": "NV0000175", "PWS_Name": "NORTH LAS VEGAS UTILITIES", "Primacy_Agency": "NV", "Population_Served_Count": 376515, "Service_Connections_Count": 107617, "Service_Area_Type": "Residential Area", "Verification_Status": "", "Area_SqKM": 400.8543260183016}, "geometry": {"type": "Point", "coordinates": [-115.04318735113384, 36.25620616625831]}}, {"type": "Feature", "properties": {"PWSID": "NV0000015", "PWS_Name": "CARSON CITY PUBLIC WORKS", "Primacy_Agency": "NV", "Population_Served_Count": 59000, "Service_Connections_Count": 19154, "Service_Area_Type": "Residential Area", "Verification_Status": "", "Area_SqKM": 62.56707887512933}, "geometry": {"type": "Point", "coordinates": [-119.76233747265428, 39.17217577668176]}}]}