{"type": "FeatureCollection", "features": [{"type": "Feature", "properties": {"PWSID": "VT0005645", "PWS_Name": "EVERGREEN MHP", "Primacy_Agency": "VT", "Population_Served_Count": 50, "Service_Connections_Count": 19, "Service_Area_Type": "Mobile Home Park", "Verification_Status": "", "Area_SqKM": 0.00966643924437202}, "geometry": {"type": "Point", "coordinates": [-73.21559220016195, 42.75234485857326]}}, {"type": "Feature", "properties": {"PWSID": "VT0005016", "PWS_Name": "BENNINGTON WATER DEPT", "Primacy_Agency": "VT", "Population_Served_Count": 13250, "Service_Connections_Count": 6911, "Service_Area_Type": "Residential Area", "Verification_Status": "", "Area_SqKM": 16.946480532735556}, "geometry": {"type": "Point", "coordinates": [-73.19298031936626, 42.88996476873424]}}, {"type": "Feature", "properties": {"PWSID": "VT0005333", "PWS_Name": "SPRINGFIELD WATER DEPT", "Primacy_Agency": "VT", "Population_Served_Count": 9800, "Service_Connections_Count": 2500, "Service_Area_Type": "Residential Area", "Verification_Status": "", "Area_SqKM": 21.525461496990143}, "geometry": {"type": "Point", "coordinates": [-72.49822031986272, 43.3064739514963]}}, {"type": "Feature", "properties": {"PWSID": "VT0005312", "PWS_Name": "CHIMNEY HILL", "Primacy_Agency": "VT", "Population_Served_Count": 2594, "Service_Connections_Count": 545, "Service_Area_Type": "Residential Area", "Verification_Status": "", "Area_SqKM": 0.7981529299110046}, "geometry": {"type": "Point", "coordinates": [-73.00875981556753, 42.82314709749805]}}, {"type": "Feature", "properties": {"PWSID": "VT0020791", "PWS_Name": "APPLEGATE APARTMENTS", "Primacy_Agency": "VT", "Population_Served_Count": 273, "Service_Connections_Count": 104, "Service_Area_Type": "Residential Area", "Verification_Status": "", "Area_SqKM": 3.27510189529695}, "geometry": {"type": "Point", "coordinates": [-73.20866823776163, 42.90437382250683]}}, {"type": "Feature", "properties": {"PWSID": "VT0005305", "PWS_Name": "WINHALL STRATTON F D 1", "Primacy_Agency": "VT", "Population_Served_Count": 6200, "Service_Connections_Count": 2267, "Service_Area_Type": "Residential Area", "Verification_Status": "", "Area_SqKM": 3.800351420330008}, "geometry": {"type": "Point", "coordinates": [-72.89581550531285, 43.10884422602905]}}, {"type": "Feature", "properties": {"PWSID": "VT0005563", "PWS_Name": "BEAR CREEK CONDOMINIUM", "Primacy_Agency": "VT", "Population_Served_Count": 116, "Service_Connections_Count": 42, "Service_Area_Type": "Residential Area", "Verification_Status": "", "Area_SqKM": 0.10215578613515142}, "geometry": {"type": "Point", "coordinates": [-72.7812688981144, 43.09882231887942]}}, {"type": "Feature", "properties": {"PWSID": "VT0005593", "PWS_Name": "SOUTH VILLAGE", "Primacy_Agency": "VT", "Population_Served_Count": 445, "Service_Connections_Count": 79, "Service_Area_Type": "Residential Area", "Verification_Status": "", "Area_SqKM": 0.06502200219913498}, "geometry": {"type": "Point", "coordinates": [-72.88992566114595, 44.137417122127495]}}, {"type": "Feature", "properties": {"PWSID": "VT0005590", "PWS_Name": "HIGH RIDGE CONDOMINIUM", "Primacy_Agency": "VT", "Population_Served_Count": 500, "Service_Connections_Count": 118, "Service_Area_Type": "Residential Area", "Verification_Status": "", "Area_SqKM": 2.2901938073369243}, "geometry": {"type": "Point", "coordinates": [-72.778186569914, 43.635634267979135]}}, {"type": "Feature", "properties": {"PWSID": "VT0005537", "PWS_Name": "KARME CHOLING", "Primacy_Agency": "VT", "Population_Served_Count": 140, "Service_Connections_Count": 4, "Service_Area_Type": "Other Residential", "Verification_Status": "", "Area_SqKM": 0.19847772296240174}, "geometry": {"type": "Point", "coordinates": [-72.07555662461453, 44.303114107646905]}}, {"type": "Feature", "properties": {"PWSID": "VT0005525", "PWS_Name": "STERLING RIDGE WATER", "Primacy_Agency": "VT", "Population_Served_Count": 66, "Service_Connections_Count": 25, "Service_Area_Type": "Residential Area", "Verification_Status": "", "Area_SqKM": 0.570001111639195}, "geometry": {"type": "Point", "coordinates": [-72.86731384912552, 44.14101188642824]}}, {"type": "Feature", "properties": {"PWSID": "VT0005618", "PWS_Name": "SUNRISE COMMUNITY WATER SYSTEM", "Primacy_Agency": "VT", "Population_Served_Count": 829, "Service_Connections_Count": 258, "Service_Area_Type": "Residential Area", "Verification_Status": "", "Area_SqKM": 0.11397749421313892}, "geometry": {"type": "Point", "coordinates": [-72.70636851620466, 43.5990642439246]}}, {"type": "Feature", "properties": {"PWSID": "VT0005490", "PWS_Name": "GREENES MHP", "Primacy_Agency": "VT", "Population_Served_Count": 39, "Service_Connections_Count": 14, "Service_Area_Type": "Mobile Home Park", "Verification_Status": "", "Area_SqKM": 0.041187338692240054}, "geometry": {"type": "Point", "coordinates": [-72.64888580002211, 43.97032845708897]}}, {"type": "Feature", "properties": {"PWSID": "VT0005419", "PWS_Name": "BRIDGEWATER MILL", "Primacy_Agency": "VT", "Population_Served_Count": 108, "Service_Connections_Count": 42, "Service_Area_Type": "Residential Area", "Verification_Status": "", "Area_SqKM": 0.15994699780832303}, "geometry": {"type": "Point", "coordinates": [-72.63415865770841, 43.587380384524664]}}, {"type": "Feature", "properties": {"PWSID": "VT0005404", "PWS_Name": "WOODSIDE MANOR", "Primacy_Agency": "VT", "Population_Served_Count": 240, "Service_Connections_Count": 91, "Service_Area_Type": "Mobile Home Park", "Verification_Status": "", "Area_SqKM": 0.018474574344032473}, "geometry": {"type": "Point", "coordinates": [-72.35208464549366, 43.61095539997074]}}, {"type": "Feature", "properties": {"PWSID": "VT0005284", "PWS_Name": "EDWARD FARRAR UTILITY DISTRICT", "Primacy_Agency": "VT", "Population_Served_Count": 6003, "Service_Connections_Count": 1087, "Service_Area_Type": "Residential Area", "Verification_Status": "", "Area_SqKM": 4.80579273813698}, "geometry": {"type": "Point", "coordinates": [-72.73513959109418, 44.32549543299883]}}, {"type": "Feature", "properties": {"PWSID": "VT0005272", "PWS_Name": "MONTPELIER WATER SYSTEM", "Primacy_Agency": "VT", "Population_Served_Count": 8912, "Service_Connections_Count": 2981, "Service_Area_Type": "Residential Area", "Verification_Status": "", "Area_SqKM": 23.619373610486768}, "geometry": {"type": "Point", "coordinates": [-72.55814662553766, 44.253859186971894]}}, {"type": "Feature", "properties": {"PWSID": "VT0005229", "PWS_Name": "RUTLAND CITY WATER DEPT", "Primacy_Agency": "VT", "Population_Served_Count": 18500, "Service_Connections_Count": 6121, "Service_Area_Type": "Residential Area", "Verification_Status": "", "Area_SqKM": 33.19734661027622}, "geometry": {"type": "Point", "coordinates": [-72.9658674933367, 43.62297503241499]}}, {"type": "Feature", "properties": {"PWSID": "VT0005218", "PWS_Name": "FAIR HAVEN WATER DEPT", "Primacy_Agency": "VT", "Population_Served_Count": 3076, "Service_Connections_Count": 900, "Service_Area_Type": "Residential Area", "Verification_Status": "", "Area_SqKM": 7.9514871964383245}, "geometry": {"type": "Point", "coordinates": [-73.26546981579284, 43.592908373463956]}}, {"type": "Feature", "properties": {"PWSID": "VT0005211", "PWS_Name": "BRANDON FIRE DISTRICT 1", "Primacy_Agency": "VT", "Population_Served_Count": 3963, "Service_Connections_Count": 1257, "Service_Area_Type": "Residential Area", "Verification_Status": "", "Area_SqKM": 15.300130575681253}, "geometry": {"type": "Point", "coordinates": [-73.07802293888071, 43.814273198785216]}}, {"type": "Feature", "properties": {"PWSID": "VT0005139", "PWS_Name": "GRAND ISLE FIRE DISTRICT 4", "Primacy_Agency": "VT", "Population_Served_Count": 1078, "Service_Connections_Count": 365, "Service_Area_Type": "Residential Area", "Verification_Status": "", "Area_SqKM": 13.279118371426772}, "geometry": {"type": "Point", "coordinates": [-73.31825776532641, 44.72187073607091]}}, {"type": "Feature", "properties": {"PWSID": "VT0005130", "PWS_Name": "ST ALBANS WATER DEPT", "Primacy_Agency": "VT", "Population_Served_Count": 10200, "Service_Connections_Count": 4000, "Service_Area_Type": "Residential Area", "Verification_Status": "", "Area_SqKM": 20.361679847965558}, "geometry": {"type": "Point", "coordinates": [-73.09658236592949, 44.83031692474947]}}, {"type": "Feature", "properties": {"PWSID": "VT0005117", "PWS_Name": "FAIRFAX WATER DEPT", "Primacy_Agency": "VT", "Population_Served_Count": 1550, "Service_Connections_Count": 286, "Service_Area_Type": "Residential Area", "Verification_Status": "", "Area_SqKM": 2.7293845590908807}, "geometry": {"type": "Point", "coordinates": [-72.99287419695864, 44.6696183256635]}}, {"type": "Feature", "properties": {"PWSID": "VT0005102", "PWS_Name": "WINOOSKI WATER DEPT", "Primacy_Agency": "VT", "Population_Served_Count": 8500, "Service_Connections_Count": 1744, "Service_Area_Type": "Residential Area", "Verification_Status": "", "Area_SqKM": 3.2988542962757212}, "geometry": {"type": "Point", "coordinates": [-73.18041389022757, 44.492337651249066]}}, {"type": "Feature", "properties": {"PWSID": "VT0005091", "PWS_Name": "SOUTH BURLINGTON CITY WATER SYSTEM", "Primacy_Agency": "VT", "Population_Served_Count": 19500, "Service_Connections_Count": 8205, "Service_Area_Type": "Residential Area", "Verification_Status": "", "Area_SqKM": 28.666217241118016}, "geometry": {"type": "Point", "coordinates": [-73.17118048629257, 44.444262045179656]}}, {"type": "Feature", "properties": {"PWSID": "VT0005083", "PWS_Name": "MILTON MOBILE HOME PARK", "Primacy_Agency": "VT", "Population_Served_Count": 260, "Service_Connections_Count": 99, "Service_Area_Type": "Mobile Home Park", "Verification_Status": "", "Area_SqKM": 0.117892529273068}, "geometry": {"type": "Point", "coordinates": [-73.13538788332242, 44.62655907772084]}}, {"type": "Feature", "properties": {"PWSID": "VT0005065", "PWS_Name": "ESSEX TOWN WATER SYSTEM", "Primacy_Agency": "VT", "Population_Served_Count": 9734, "Service_Connections_Count": 3325, "Service_Area_Type": "Residential Area", "Verification_Status": "", "Area_SqKM": 28.577660482237647}, "geometry": {"type": "Point", "coordinates": [-73.07465576197013, 44.51145860430671]}}, {"type": "Feature", "properties": {"PWSID": "VT0005059", "PWS_Name": "COLCHESTER FIRE DISTRICT 2", "Primacy_Agency": "VT", "Population_Served_Count": 8300, "Service_Connections_Count": 2800, "Service_Area_Type": "Residential Area", "Verification_Status": "", "Area_SqKM": 12.490805341658875}, "geometry": {"type": "Point", "coordinates": [-73.27239797805784, 44.545670005831695]}}, {"type": "Feature", "properties": {"PWSID": "VT0005053", "PWS_Name": "BURLINGTON DEPT PUBLIC WORKS WATER DIV", "Primacy_Agency": "VT", "Population_Served_Count": 42000, "Service_Connections_Count": 9900, "Service_Area_Type": "Residential Area", "Verification_Status": "", "Area_SqKM": 22.67361861997804}, "geometry": {"type": "Point", "coordinates": [-73.25553305004054, 44.507875945355664]}}, {"type": "Feature", "properties": {"PWSID": "VT0005043", "PWS_Name": "RYEGATE FIRE DISTRICT 2", "Primacy_Agency": "VT", "Population_Served_Count": 131, "Service_Connections_Count": 50, "Service_Area_Type": "Residential Area", "Verification_Status": "", "Area_SqKM": 0.4092149233614156}, "geometry": {"type": "Point", "coordinates": [-72.06493699055328, 44.20008000948023]}}, {"type": "Feature", "properties": {"PWSID": "VT0005042", "PWS_Name": "PEACHAM FIRE DISTRICT 1", "Primacy_Agency": "VT", "Population_Served_Count": 150, "Service_Connections_Count": 57, "Service_Area_Type": "Residential Area", "Verification_Status": "", "Area_SqKM": 0.6877232971666731}, "geometry": {"type": "Point", "coordinates": [-72.17053001583116, 44.32284936447667]}}, {"type": "Feature", "properties": {"PWSID": "VT0005010", "PWS_Name": "VERGENNES PANTON WATER DISTRICT", "Primacy_Agency": "VT", "Population_Served_Count": 5100, "Service_Connections_Count": 2140, "Service_Area_Type": "Residential Area", "Verification_Status": "", "Area_SqKM": 9.317623334011259}, "geometry": {"type": "Point", "coordinates": [-73.25196380317998, 44.16259738095428]}}, {"type": "Feature", "properties": {"PWSID": "VT0005002", "PWS_Name": "BRISTOL WATER DEPT", "Primacy_Agency": "VT", "Population_Served_Count": 2103, "Service_Connections_Count": 695, "Service_Area_Type": "Residential Area", "Verification_Status": "", "Area_SqKM": 4.124330304127253}, "geometry": {"type": "Point", "coordinates": [-73.08000768517853, 44.13273820004906]}}, {"type": "Feature", "properties": {"PWSID": "VT0020855", "PWS_Name": "COLONIAL ESTATES HOMEOWNERS ASSN", "Primacy_Agency": "VT", "Population_Served_Count": 79, "Service_Connections_Count": 30, "Service_Area_Type": "Residential Area", "Verification_Status": "", "Area_SqKM": 0.6384416628548434}, "geometry": {"type": "Point", "coordinates": [-72.99440844598031, 44.65290021937206]}}, {"type": "Feature", "properties": {"PWSID": "VT0021015", "PWS_Name": "COMMON PASTURES HOA", "Primacy_Agency": "VT", "Population_Served_Count": 69, "Service_Connections_Count": 26, "Service_Area_Type": "Residential Area", "Verification_Status": "", "Area_SqKM": 0.016640287703221457}, "geometry": {"type": "Point", "coordinates": [-73.24806544757716, 44.290362928466664]}}, {"type": "Feature", "properties": {"PWSID": "VT0005331", "PWS_Name": "ROYALTON TERRACE", "Primacy_Agency": "VT", "Population_Served_Count": 60, "Service_Connections_Count": 28, "Service_Area_Type": "Mobile Home Park", "Verification_Status": "", "Area_SqKM": 0.006871316200239089}, "geometry": {"type": "Point", "coordinates": [-72.5155799875009, 43.83338008727224]}}, {"type": "Feature", "properties": {"PWSID": "VT0005555", "PWS_Name": "WEST BURKE HOUSING", "Primacy_Agency": "VT", "Population_Served_Count": 40, "Service_Connections_Count": 15, "Service_Area_Type": "Other Residential", "Verification_Status": "", "Area_SqKM": 0.6665045856987046}, "geometry": {"type": "Point", "coordinates": [-71.97171900921678, 44.65261558387724]}}, {"type": "Feature", "properties": {"PWSID": "VT0005381", "PWS_Name": "SHEFFIELD FIRE DISTRICT 1", "Primacy_Agency": "VT", "Population_Served_Count": 50, "Service_Connections_Count": 20, "Service_Area_Type": "Residential Area", "Verification_Status": "", "Area_SqKM": 0.43753011241855316}, "geometry": {"type": "Point", "coordinates": [-72.11500738767977, 44.59976678825053]}}, {"type": "Feature", "properties": {"PWSID": "VT0005208", "PWS_Name": "ALPINE HAVEN", "Primacy_Agency": "VT", "Population_Served_Count": 250, "Service_Connections_Count": 60, "Service_Area_Type": "Hotel/Motel", "Verification_Status": "", "Area_SqKM": 0.19126600920443512}, "geometry": {"type": "Point", "coordinates": [-72.53128032373597, 44.89203260562011]}}, {"type": "Feature", "properties": {"PWSID": "VT0005195", "PWS_Name": "DERBY CENTER WATER SYSTEM", "Primacy_Agency": "VT", "Population_Served_Count": 1400, "Service_Connections_Count": 900, "Service_Area_Type": "Residential Area", "Verification_Status": "", "Area_SqKM": 5.012394978340746}, "geometry": {"type": "Point", "coordinates": [-72.11550500547915, 44.934821722792215]}}, {"type": "Feature", "properties": {"PWSID": "VT0005156", "PWS_Name": "JOHNSON VILLAGE WATER DEPT", "Primacy_Agency": "VT", "Population_Served_Count": 1350, "Service_Connections_Count": 434, "Service_Area_Type": "Residential Area", "Verification_Status": "", "Area_SqKM": 4.869481371769947}, "geometry": {"type": "Point", "coordinates": [-72.68452472641482, 44.63783028256727]}}, {"type": "Feature", "properties": {"PWSID": "VT0005155", "PWS_Name": "MOUNTAIN VIEW MHP", "Primacy_Agency": "VT", "Population_Served_Count": 75, "Service_Connections_Count": 31, "Service_Area_Type": "Mobile Home Park", "Verification_Status": "", "Area_SqKM": 0.20660212015490087}, "geometry": {"type": "Point", "coordinates": [-72.61435389187898, 44.656678398040796]}}, {"type": "Feature", "properties": {"PWSID": "VT0005125", "PWS_Name": "MONTGOMERY WATER SYSTEM", "Primacy_Agency": "VT", "Population_Served_Count": 530, "Service_Connections_Count": 190, "Service_Area_Type": "Residential Area", "Verification_Status": "", "Area_SqKM": 0.1749155036366603}, "geometry": {"type": "Point", "coordinates": [-72.63776606974771, 44.89928977454786]}}, {"type": "Feature", "properties": {"PWSID": "VT0005039", "PWS_Name": "HARDWICK TOWN WATER SYSTEM", "Primacy_Agency": "VT", "Population_Served_Count": 1900, "Service_Connections_Count": 803, "Service_Area_Type": "Residential Area", "Verification_Status": "", "Area_SqKM": 4.003218273092563}, "geometry": {"type": "Point", "coordinates": [-72.36479139706722, 44.49863780704313]}}, {"type": "Feature", "properties": {"PWSID": "VT0005033", "PWS_Name": "BURKE FIRE DISTRICT 1", "Primacy_Agency": "VT", "Population_Served_Count": 142, "Service_Connections_Count": 54, "Service_Area_Type": "Residential Area", "Verification_Status": "", "Area_SqKM": 0.8099826105598472}, "geometry": {"type": "Point", "coordinates": [-71.94188741570677, 44.590985810783515]}}, {"type": "Feature", "properties": {"PWSID": "VT0005165", "PWS_Name": "MOUNTAINSIDE RESORT", "Primacy_Agency": "VT", "Population_Served_Count": 240, "Service_Connections_Count": 90, "Service_Area_Type": "Residential Area", "Verification_Status": "", "Area_SqKM": 0.3188384357650279}, "geometry": {"type": "Point", "coordinates": [-72.71857813044761, 44.47724636360812]}}, {"type": "Feature", "properties": {"PWSID": "VT0005515", "PWS_Name": "CASTLETON MEADOWS", "Primacy_Agency": "VT", "Population_Served_Count": 107, "Service_Connections_Count": 41, "Service_Area_Type": "Residential Area", "Verification_Status": "", "Area_SqKM": 0.1871635529884577}, "geometry": {"type": "Point", "coordinates": [-73.21012771176396, 43.610719411439504]}}, {"type": "Feature", "properties": {"PWSID": "VT0005584", "PWS_Name": "PARSONS HILL PARTNERSHIP", "Primacy_Agency": "VT", "Population_Served_Count": 32, "Service_Connections_Count": 12, "Service_Area_Type": "Residential Area", "Verification_Status": "", "Area_SqKM": 0.229652672987882}, "geometry": {"type": "Point", "coordinates": [-73.20112902694756, 43.60881108024745]}}, {"type": "Feature", "properties": {"PWSID": "VT0005646", "PWS_Name": "VILLAGE AT EAGLE RISE", "Primacy_Agency": "VT", "Population_Served_Count": 63, "Service_Connections_Count": 24, "Service_Area_Type": "Residential Area", "Verification_Status": "", "Area_SqKM": 0.09414193101957245}, "geometry": {"type": "Point", "coordinates": [-73.04594499592953, 43.172859538461495]}}, {"type": "Feature", "properties": {"PWSID": "VT0020439", "PWS_Name": "COVERED BRIDGE HIGHLAND", "Primacy_Agency": "VT", "Population_Served_Count": 40, "Service_Connections_Count": 16, "Service_Area_Type": "Residential Area", "Verification_Status": "", "Area_SqKM": 0.21355202314731997}, "geometry": {"type": "Point", "coordinates": [-72.74289935831963, 44.487068676682505]}}, {"type": "Feature", "properties": {"PWSID": "VT0020471", "PWS_Name": "OLCOTT FALLS MANOR MHP", "Primacy_Agency": "VT", "Population_Served_Count": 104, "Service_Connections_Count": 40, "Service_Area_Type": "Mobile Home Park", "Verification_Status": "", "Area_SqKM": 0.2744908938986295}, "geometry": {"type": "Point", "coordinates": [-72.3084007419005, 43.681110571906196]}}, {"type": "Feature", "properties": {"PWSID": "VT0020552", "PWS_Name": "STERLING SPRING", "Primacy_Agency": "VT", "Population_Served_Count": 200, "Service_Connections_Count": 71, "Service_Area_Type": "Residential Area", "Verification_Status": "", "Area_SqKM": 0.32036984083550024}, "geometry": {"type": "Point", "coordinates": [-72.32266351426573, 43.66621070473023]}}, {"type": "Feature", "properties": {"PWSID": "VT0020603", "PWS_Name": "BLACK MOUNTAIN PARK", "Primacy_Agency": "VT", "Population_Served_Count": 50, "Service_Connections_Count": 29, "Service_Area_Type": "Mobile Home Park", "Verification_Status": "", "Area_SqKM": 0.22020424601701558}, "geometry": {"type": "Point", "coordinates": [-72.56272492489707, 42.884004852451234]}}, {"type": "Feature", "properties": {"PWSID": "VT0020605", "PWS_Name": "GLEN PARK", "Primacy_Agency": "VT", "Population_Served_Count": 55, "Service_Connections_Count": 21, "Service_Area_Type": "Mobile Home Park", "Verification_Status": "", "Area_SqKM": 0.16523451098418526}, "geometry": {"type": "Point", "coordinates": [-72.59908054957124, 42.85530309718087]}}, {"type": "Feature", "properties": {"PWSID": "VT0005202", "PWS_Name": "NEWPORT CITY WATER SYSTEM", "Primacy_Agency": "VT", "Population_Served_Count": 4766, "Service_Connections_Count": 2200, "Service_Area_Type": "Residential Area", "Verification_Status": "", "Area_SqKM": 16.25037617798921}, "geometry": {"type": "Point", "coordinates": [-72.22873585849439, 44.924705221512674]}}, {"type": "Feature", "properties": {"PWSID": "VT0005319", "PWS_Name": "HARTFORD WATER DEPT", "Primacy_Agency": "VT", "Population_Served_Count": 7600, "Service_Connections_Count": 2100, "Service_Area_Type": "Residential Area", "Verification_Status": "", "Area_SqKM": 18.76595931442146}, "geometry": {"type": "Point", "coordinates": [-72.36705196675207, 43.70751549430812]}}, {"type": "Feature", "properties": {"PWSID": "VT0005163", "PWS_Name": "STOWE WATER DEPT", "Primacy_Agency": "VT", "Population_Served_Count": 3600, "Service_Connections_Count": 1370, "Service_Area_Type": "Residential Area", "Verification_Status": "", "Area_SqKM": 82.49707066113108}, "geometry": {"type": "Point", "coordinates": [-72.74179701907912, 44.48792353953835]}}, {"type": "Feature", "properties": {"PWSID": "VT0005290", "PWS_Name": "BRATTLEBORO WATER DEPT", "Primacy_Agency": "VT", "Population_Served_Count": 12200, "Service_Connections_Count": 3600, "Service_Area_Type": "Residential Area", "Verification_Status": "", "Area_SqKM": 28.99415075672933}, "geometry": {"type": "Point", "coordinates": [-72.58069886801107, 42.83406154348883]}}, {"type": "Feature", "properties": {"PWSID": "VT0005212", "PWS_Name": "CASTLETON FIRE DISTRICT 1", "Primacy_Agency": "VT", "Population_Served_Count": 1940, "Service_Connections_Count": 358, "Service_Area_Type": "Residential Area", "Verification_Status": "", "Area_SqKM": 5.565358637956286}, "geometry": {"type": "Point", "coordinates": [-73.1777757939154, 43.60557160672693]}}, {"type": "Feature", "properties": {"PWSID": "VT0005594", "PWS_Name": "WINDY HOLLOW", "Primacy_Agency": "VT", "Population_Served_Count": 118, "Service_Connections_Count": 45, "Service_Area_Type": "Mobile Home Park", "Verification_Status": "", "Area_SqKM": 0.9372050170595966}, "geometry": {"type": "Point", "coordinates": [-73.22851956758272, 43.59708213148302]}}, {"type": "Feature", "properties": {"PWSID": "VT0020889", "PWS_Name": "CASTLETON FIRE DISTRICT 3", "Primacy_Agency": "VT", "Population_Served_Count": 500, "Service_Connections_Count": 312, "Service_Area_Type": "Residential Area", "Verification_Status": "", "Area_SqKM": 5.201762491284672}, "geometry": {"type": "Point", "coordinates": [-73.2112013487551, 43.61256657611373]}}, {"type": "Feature", "properties": {"PWSID": "VT0005022", "PWS_Name": "MANCHESTER WATER DEPT", "Primacy_Agency": "VT", "Population_Served_Count": 4140, "Service_Connections_Count": 1580, "Service_Area_Type": "Residential Area", "Verification_Status": "", "Area_SqKM": 19.097456019109185}, "geometry": {"type": "Point", "coordinates": [-73.05080300582546, 43.16945561225555]}}]}