{"type": "FeatureCollection", "features": [{"type": "Feature", "properties": {"name": "Alfred Merritt Smith WTP / SNWA", "state": "NV", "operator": "SNWA", "feature_kind": "Drinking water treatment plant", "source": "Public utility records (curated)"}, "geometry": {"type": "Point", "coordinates": [-114.9, 36.1]}}, {"type": "Feature", "properties": {"name": "River Mountains WTP", "state": "NV", "operator": "SNWA", "feature_kind": "Drinking water treatment plant", "source": "Public utility records (curated)"}, "geometry": {"type": "Point", "coordinates": [-114.95, 36.0]}}]}