{"type": "FeatureCollection", "features": [{"type": "Feature", "properties": {"name": "Jensen Water Treatment Plant", "state": "CA", "operator": "MWD", "capacity_mgd": 750, "feature_kind": "Drinking water treatment plant", "source": "Public utility records (curated)"}, "geometry": {"type": "Point", "coordinates": [-118.53, 34.28]}}, {"type": "Feature", "properties": {"name": "Diemer Water Treatment Plant", "state": "CA", "operator": "MWD", "capacity_mgd": 520, "feature_kind": "Drinking water treatment plant", "source": "Public utility records (curated)"}, "geometry": {"type": "Point", "coordinates": [-117.82, 33.91]}}, {"type": "Feature", "properties": {"name": "Skinner Water Treatment Plant", "state": "CA", "operator": "MWD", "capacity_mgd": 630, "feature_kind": "Drinking water treatment plant", "source": "Public utility records (curated)"}, "geometry": {"type": "Point", "coordinates": [-117.08, 33.58]}}, {"type": "Feature", "properties": {"name": "Weymouth Water Treatment Plant", "state": "CA", "operator": "MWD", "capacity_mgd": 520, "feature_kind": "Drinking water treatment plant", "source": "Public utility records (curated)"}, "geometry": {"type": "Point", "coordinates": [-117.84, 34.1]}}, {"type": "Feature", "properties": {"name": "Mills Water Treatment Plant", "state": "CA", "operator": "MWD", "feature_kind": "Drinking water treatment plant", "source": "Public utility records (curated)"}, "geometry": {"type": "Point", "coordinates": [-117.3, 34.05]}}, {"type": "Feature", "properties": {"name": "Hetch Hetchy / SF regional system", "state": "CA", "operator": "SFPUC", "feature_kind": "Drinking water treatment plant", "source": "Public utility records (curated)"}, "geometry": {"type": "Point", "coordinates": [-122.42, 37.5]}}]}