{"type": "FeatureCollection", "features": [{"type": "Feature", "properties": {"name": "Marston Water Treatment Plant", "state": "CO", "operator": "Denver Water", "feature_kind": "Drinking water treatment plant", "source": "Public utility records (curated)"}, "geometry": {"type": "Point", "coordinates": [-105.1, 39.65]}}, {"type": "Feature", "properties": {"name": "Foothills Water Treatment Plant", "state": "CO", "operator": "Denver Water", "feature_kind": "Drinking water treatment plant", "source": "Public utility records (curated)"}, "geometry": {"type": "Point", "coordinates": [-105.15, 39.55]}}]}