{"type": "FeatureCollection", "features": [{"type": "Feature", "properties": {"name": "Baxter Water Treatment Plant", "state": "PA", "operator": "PWD", "feature_kind": "Drinking water treatment plant", "source": "Public utility records (curated)"}, "geometry": {"type": "Point", "coordinates": [-75.0, 40.05]}}, {"type": "Feature", "properties": {"name": "Belmont Water Treatment Plant", "state": "PA", "operator": "PWD", "feature_kind": "Drinking water treatment plant", "source": "Public utility records (curated)"}, "geometry": {"type": "Point", "coordinates": [-75.22, 39.99]}}, {"type": "Feature", "properties": {"name": "Queen Lane Water Treatment Plant", "state": "PA", "operator": "PWD", "feature_kind": "Drinking water treatment plant", "source": "Public utility records (curated)"}, "geometry": {"type": "Point", "coordinates": [-75.2, 40.02]}}, {"type": "Feature", "properties": {"name": "Pittsburgh Aspinwall WTP area", "state": "PA", "operator": "PWSA", "feature_kind": "Drinking water treatment plant", "source": "Public utility records (curated)"}, "geometry": {"type": "Point", "coordinates": [-79.9, 40.49]}}]}