{"type": "FeatureCollection", "features": [{"type": "Feature", "properties": {"name": "Fairfax County Corbalis WTP", "state": "VA", "operator": "Fairfax Water", "feature_kind": "Drinking water treatment plant", "source": "Public utility records (curated)"}, "geometry": {"type": "Point", "coordinates": [-77.4, 39.0]}}, {"type": "Feature", "properties": {"name": "Richmond WTP", "state": "VA", "operator": "City of Richmond", "feature_kind": "Drinking water treatment plant", "source": "Public utility records (curated)"}, "geometry": {"type": "Point", "coordinates": [-77.45, 37.55]}}]}