{"type": "FeatureCollection", "features": [{"type": "Feature", "properties": {"name": "Jardine Water Purification Plant", "state": "IL", "operator": "City of Chicago", "capacity_mgd": 1000, "feature_kind": "Drinking water treatment plant", "source": "Public utility records (curated)"}, "geometry": {"type": "Point", "coordinates": [-87.61, 41.9]}}, {"type": "Feature", "properties": {"name": "South Water Purification Plant", "state": "IL", "operator": "City of Chicago", "feature_kind": "Drinking water treatment plant", "source": "Public utility records (curated)"}, "geometry": {"type": "Point", "coordinates": [-87.55, 41.75]}}]}