{"type": "FeatureCollection", "features": [{"type": "Feature", "properties": {"name": "Milwaukee Linnwood WTP", "state": "WI", "operator": "Milwaukee Water Works", "feature_kind": "Drinking water treatment plant", "source": "Public utility records (curated)"}, "geometry": {"type": "Point", "coordinates": [-87.88, 43.08]}}, {"type": "Feature", "properties": {"name": "Milwaukee Howard Avenue WTP", "state": "WI", "operator": "Milwaukee Water Works", "feature_kind": "Drinking water treatment plant", "source": "Public utility records (curated)"}, "geometry": {"type": "Point", "coordinates": [-87.92, 42.95]}}]}