{"type": "FeatureCollection", "features": [{"type": "Feature", "properties": {"name": "Hemphill Water Treatment Plant", "state": "GA", "operator": "Atlanta DWM", "feature_kind": "Drinking water treatment plant", "source": "Public utility records (curated)"}, "geometry": {"type": "Point", "coordinates": [-84.42, 33.8]}}, {"type": "Feature", "properties": {"name": "Chattahoochee WTP", "state": "GA", "operator": "Atlanta DWM", "feature_kind": "Drinking water treatment plant", "source": "Public utility records (curated)"}, "geometry": {"type": "Point", "coordinates": [-84.45, 33.9]}}]}