{"type": "FeatureCollection", "features": [{"type": "Feature", "properties": {"name": "New Orleans Carrollton WTP", "state": "LA", "operator": "Sewerage & Water Board", "feature_kind": "Drinking water treatment plant", "source": "Public utility records (curated)"}, "geometry": {"type": "Point", "coordinates": [-90.13, 29.96]}}, {"type": "Feature", "properties": {"name": "New Orleans Algiers WTP", "state": "LA", "operator": "Sewerage & Water Board", "feature_kind": "Drinking water treatment plant", "source": "Public utility records (curated)"}, "geometry": {"type": "Point", "coordinates": [-90.02, 29.92]}}]}