{"type": "FeatureCollection", "features": [{"type": "Feature", "properties": {"name": "Catskill-Delaware system / UV Facility area", "state": "NY", "operator": "NYC DEP", "type": "Drinking Water Treatment", "capacity_mgd": 2100, "feature_kind": "Drinking water treatment plant", "source": "Public utility records (curated)"}, "geometry": {"type": "Point", "coordinates": [-73.98, 41.11]}}, {"type": "Feature", "properties": {"name": "Croton Water Filtration Plant", "state": "NY", "operator": "NYC DEP", "type": "Drinking Water Treatment", "feature_kind": "Drinking water treatment plant", "source": "Public utility records (curated)"}, "geometry": {"type": "Point", "coordinates": [-73.89, 40.88]}}]}