{"type": "FeatureCollection", "features": [{"type": "Feature", "properties": {"name": "Cedar Water Treatment Facility", "state": "WA", "operator": "Seattle Public Utilities", "feature_kind": "Drinking water treatment plant", "source": "Public utility records (curated)"}, "geometry": {"type": "Point", "coordinates": [-121.95, 47.4]}}, {"type": "Feature", "properties": {"name": "Tolt Water Treatment Facility", "state": "WA", "operator": "Seattle Public Utilities", "feature_kind": "Drinking water treatment plant", "source": "Public utility records (curated)"}, "geometry": {"type": "Point", "coordinates": [-121.85, 47.7]}}]}