{"type": "FeatureCollection", "features": [{"type": "Feature", "properties": {"name": "Water Works Park", "state": "MI", "operator": "GLWA", "feature_kind": "Drinking water treatment plant", "source": "Public utility records (curated)"}, "geometry": {"type": "Point", "coordinates": [-83.0, 42.35]}}, {"type": "Feature", "properties": {"name": "Springwells WTP", "state": "MI", "operator": "GLWA", "feature_kind": "Drinking water treatment plant", "source": "Public utility records (curated)"}, "geometry": {"type": "Point", "coordinates": [-83.15, 42.3]}}]}