{"type": "FeatureCollection", "features": [{"type": "Feature", "properties": {"name": "Hialeah Water Treatment Plant", "state": "FL", "operator": "Miami-Dade Water", "feature_kind": "Drinking water treatment plant", "source": "Public utility records (curated)"}, "geometry": {"type": "Point", "coordinates": [-80.3, 25.85]}}, {"type": "Feature", "properties": {"name": "Orlando Conserv II / regional supply area", "state": "FL", "operator": "OUC / regional", "feature_kind": "Drinking water treatment plant", "source": "Public utility records (curated)"}, "geometry": {"type": "Point", "coordinates": [-81.45, 28.45]}}, {"type": "Feature", "properties": {"name": "Tampa David L. Tippin WTP", "state": "FL", "operator": "City of Tampa", "feature_kind": "Drinking water treatment plant", "source": "Public utility records (curated)"}, "geometry": {"type": "Point", "coordinates": [-82.5, 28.0]}}]}