{"type": "FeatureCollection", "features": [{"type": "Feature", "properties": {"name": "Raleigh E.M. Johnson WTP", "state": "NC", "operator": "City of Raleigh", "feature_kind": "Drinking water treatment plant", "source": "Public utility records (curated)"}, "geometry": {"type": "Point", "coordinates": [-78.7, 35.85]}}, {"type": "Feature", "properties": {"name": "Charlotte Franklin WTP", "state": "NC", "operator": "Charlotte Water", "feature_kind": "Drinking water treatment plant", "source": "Public utility records (curated)"}, "geometry": {"type": "Point", "coordinates": [-80.9, 35.25]}}]}