{"type": "FeatureCollection", "features": [{"type": "Feature", "properties": {"name": "Baldwin Water Treatment Plant", "state": "OH", "operator": "Cleveland Water", "feature_kind": "Drinking water treatment plant", "source": "Public utility records (curated)"}, "geometry": {"type": "Point", "coordinates": [-81.65, 41.5]}}, {"type": "Feature", "properties": {"name": "Nottingham WTP", "state": "OH", "operator": "Cleveland Water", "feature_kind": "Drinking water treatment plant", "source": "Public utility records (curated)"}, "geometry": {"type": "Point", "coordinates": [-81.55, 41.55]}}, {"type": "Feature", "properties": {"name": "Cincinnati Richard Miller WTP", "state": "OH", "operator": "GCWW", "feature_kind": "Drinking water treatment plant", "source": "Public utility records (curated)"}, "geometry": {"type": "Point", "coordinates": [-84.5, 39.1]}}]}