{"type": "FeatureCollection", "features": [{"type": "Feature", "properties": {"name": "H.B. Zachry Water Purification Plant", "state": "TX", "operator": "SAWS", "capacity_mgd": 225, "feature_kind": "Drinking water treatment plant", "source": "Public utility records (curated)"}, "geometry": {"type": "Point", "coordinates": [-98.55, 29.45]}}, {"type": "Feature", "properties": {"name": "East Side Water Treatment Plant", "state": "TX", "operator": "Dallas Water Utilities", "feature_kind": "Drinking water treatment plant", "source": "Public utility records (curated)"}, "geometry": {"type": "Point", "coordinates": [-96.55, 32.85]}}, {"type": "Feature", "properties": {"name": "Elm Fork WTP", "state": "TX", "operator": "Dallas Water Utilities", "feature_kind": "Drinking water treatment plant", "source": "Public utility records (curated)"}, "geometry": {"type": "Point", "coordinates": [-96.95, 33.0]}}, {"type": "Feature", "properties": {"name": "Northeast Water Purification Plant", "state": "TX", "operator": "City of Houston", "feature_kind": "Drinking water treatment plant", "source": "Public utility records (curated)"}, "geometry": {"type": "Point", "coordinates": [-95.15, 29.95]}}, {"type": "Feature", "properties": {"name": "East Water Purification Plant", "state": "TX", "operator": "City of Houston", "feature_kind": "Drinking water treatment plant", "source": "Public utility records (curated)"}, "geometry": {"type": "Point", "coordinates": [-95.2, 29.75]}}, {"type": "Feature", "properties": {"name": "Kay Bailey Hutchison Desal (El Paso)", "state": "TX", "operator": "El Paso Water", "feature_kind": "Drinking water treatment plant", "source": "Public utility records (curated)"}, "geometry": {"type": "Point", "coordinates": [-106.4, 31.8]}}]}