{"type": "FeatureCollection", "features": [{"type": "Feature", "properties": {"name": "Nashville Omohundro WTP", "state": "TN", "operator": "Metro Water Services", "feature_kind": "Drinking water treatment plant", "source": "Public utility records (curated)"}, "geometry": {"type": "Point", "coordinates": [-86.75, 36.2]}}, {"type": "Feature", "properties": {"name": "Memphis Sheahan WTP", "state": "TN", "operator": "MLGW", "feature_kind": "Drinking water treatment plant", "source": "Public utility records (curated)"}, "geometry": {"type": "Point", "coordinates": [-89.95, 35.12]}}]}