{"type": "FeatureCollection", "features": [{"type": "Feature", "properties": {"name": "Hawthorne WTP", "state": "MO", "operator": "Kansas City Water", "feature_kind": "Drinking water treatment plant", "source": "Public utility records (curated)"}, "geometry": {"type": "Point", "coordinates": [-94.62, 39.14]}}, {"type": "Feature", "properties": {"name": "St. Louis Chain of Rocks WTP", "state": "MO", "operator": "City of St. Louis", "feature_kind": "Drinking water treatment plant", "source": "Public utility records (curated)"}, "geometry": {"type": "Point", "coordinates": [-90.18, 38.75]}}]}