{"type": "FeatureCollection", "features": [{"type": "Feature", "properties": {"name": "Fridley Softening Plant / Minneapolis system", "state": "MN", "operator": "City of Minneapolis", "feature_kind": "Drinking water treatment plant", "source": "Public utility records (curated)"}, "geometry": {"type": "Point", "coordinates": [-93.27, 45.08]}}, {"type": "Feature", "properties": {"name": "St. Paul McCarrons WTP", "state": "MN", "operator": "Saint Paul Regional Water", "feature_kind": "Drinking water treatment plant", "source": "Public utility records (curated)"}, "geometry": {"type": "Point", "coordinates": [-93.05, 45.0]}}]}