{"type": "FeatureCollection", "features": [{"type": "Feature", "properties": {"name": "Washington Aqueduct Dalecarlia", "state": "DC", "operator": "USACE Washington Aqueduct", "feature_kind": "Drinking water treatment plant", "source": "Public utility records (curated)"}, "geometry": {"type": "Point", "coordinates": [-77.1, 38.94]}}, {"type": "Feature", "properties": {"name": "Washington Aqueduct McMillan", "state": "DC", "operator": "USACE Washington Aqueduct", "feature_kind": "Drinking water treatment plant", "source": "Public utility records (curated)"}, "geometry": {"type": "Point", "coordinates": [-77.02, 38.93]}}]}