{"type": "FeatureCollection", "features": [{"type": "Feature", "properties": {"name": "Val Vista Water Treatment Plant", "state": "AZ", "operator": "City of Phoenix", "feature_kind": "Drinking water treatment plant", "source": "Public utility records (curated)"}, "geometry": {"type": "Point", "coordinates": [-111.85, 33.45]}}, {"type": "Feature", "properties": {"name": "Union Hills WTP", "state": "AZ", "operator": "City of Phoenix", "feature_kind": "Drinking water treatment plant", "source": "Public utility records (curated)"}, "geometry": {"type": "Point", "coordinates": [-112.05, 33.7]}}, {"type": "Feature", "properties": {"name": "Tucson Hayden-Udall WTP area", "state": "AZ", "operator": "Tucson Water", "feature_kind": "Drinking water treatment plant", "source": "Public utility records (curated)"}, "geometry": {"type": "Point", "coordinates": [-111.0, 32.25]}}]}