{"type": "FeatureCollection", "features": [{"type": "Feature", "geometry": {"type": "Point", "coordinates": [-149.158184185423, 60.948825904409]}, "properties": {"CWP_NAME": "GIRDWOOD WW TREATMENT FACILITY", "CWP_STREET": "RUANE RD", "CWP_CITY": "GIRDWOOD", "CWP_STATE": "AK", "CWP_ZIP": "99587", "CWP_COUNTY": null, "NPDES_ID": "AK0047856", "REGISTRY_ID": "110009038086", "CWP_FACILITY_TYPE_INDICATOR": "POTW", "CWP_MAJOR_MINOR_STATUS": "Major", "CWP_PERMIT_STATUS_DESC": "Admin Continued", "STATE_WATER_BODY_NAME": null, "CWP_CSO_FLAG": "N"}}, {"type": "Feature", "geometry": {"type": "Point", "coordinates": [-165.576286932494, 61.8424732169343]}, "properties": {"CWP_NAME": "SCAMMON BAY WWTP", "CWP_STREET": "400 MAIN ST", "CWP_CITY": "SCAMMON BAY", "CWP_STATE": "AK", "CWP_ZIP": "99662", "CWP_COUNTY": "Wade Hampton (CA)", "NPDES_ID": "AK0021563", "REGISTRY_ID": "110028071217", "CWP_FACILITY_TYPE_INDICATOR": "POTW", "CWP_MAJOR_MINOR_STATUS": "Minor", "CWP_PERMIT_STATUS_DESC": "Terminated", "STATE_WATER_BODY_NAME": "KUN RIVER", "CWP_CSO_FLAG": "N"}}, {"type": "Feature", "geometry": {"type": "Point", "coordinates": [-164.523778789544, 62.7756799856045]}, "properties": {"CWP_NAME": "CITY OF EMMONAK WATER PLANT", "CWP_STREET": "DELTA STREET", "CWP_CITY": "EMMONAK", "CWP_STATE": "AK", "CWP_ZIP": "99581", "CWP_COUNTY": "Wade Hampton (CA)", "NPDES_ID": "AK0029556", "REGISTRY_ID": "110020073846", "CWP_FACILITY_TYPE_INDICATOR": "POTW", "CWP_MAJOR_MINOR_STATUS": "Minor", "CWP_PERMIT_STATUS_DESC": "Terminated", "STATE_WATER_BODY_NAME": "QANELGUMCAK LAKE (SEWAGE LAGOON)", "CWP_CSO_FLAG": "N"}}, {"type": "Feature", "geometry": {"type": "Point", "coordinates": [-165.576286932494, 61.8424732169343]}, "properties": {"CWP_NAME": "SCAMMON BAY LAGOON", "CWP_STREET": "CITY OF SCAMMON BAY", "CWP_CITY": "SCAMMON BAY", "CWP_STATE": "AK", "CWP_ZIP": "99662", "CWP_COUNTY": null, "NPDES_ID": "AKG573018", "REGISTRY_ID": "110028071217", "CWP_FACILITY_TYPE_INDICATOR": "POTW", "CWP_MAJOR_MINOR_STATUS": "Minor", "CWP_PERMIT_STATUS_DESC": "Effective", "STATE_WATER_BODY_NAME": "KUN RIVER", "CWP_CSO_FLAG": "N"}}, {"type": "Feature", "geometry": {"type": "Point", "coordinates": [-156.959160843345, 64.7406601471079]}, "properties": {"CWP_NAME": "GALENA 2 LAGOON", "CWP_STREET": "CITY OF GALENA", "CWP_CITY": "GALENA", "CWP_STATE": "AK", "CWP_ZIP": "99741", "CWP_COUNTY": null, "NPDES_ID": "AKG573037", "REGISTRY_ID": "110024571499", "CWP_FACILITY_TYPE_INDICATOR": "POTW", "CWP_MAJOR_MINOR_STATUS": "Minor", "CWP_PERMIT_STATUS_DESC": "Effective", "STATE_WATER_BODY_NAME": null, "CWP_CSO_FLAG": "N"}}, {"type": "Feature", "geometry": {"type": "Point", "coordinates": [-136.221552874666, 57.9566658135438]}, "properties": {"CWP_NAME": "PELICAN, CITY OF (WWTP)", "CWP_STREET": "159 BREAKWATER ROAD", "CWP_CITY": "PELICAN", "CWP_STATE": "AK", "CWP_ZIP": "99832", "CWP_COUNTY": null, "NPDES_ID": "AK0043532", "REGISTRY_ID": "110010112083", "CWP_FACILITY_TYPE_INDICATOR": "POTW", "CWP_MAJOR_MINOR_STATUS": "Minor", "CWP_PERMIT_STATUS_DESC": "Admin Continued", "STATE_WATER_BODY_NAME": "LISIANSKI INLET", "CWP_CSO_FLAG": "N"}}, {"type": "Feature", "geometry": {"type": "Point", "coordinates": [-152.355469044922, 57.805068228559]}, "properties": {"CWP_NAME": "KODIAK WASTEWATER TREATMENT FACILITY", "CWP_STREET": "2853 SPRUCE CAPE ROAD", "CWP_CITY": "KODIAK", "CWP_STATE": "AK", "CWP_ZIP": "99615", "CWP_COUNTY": "Kodiak Island", "NPDES_ID": "AK0021555", "REGISTRY_ID": "110039718847", "CWP_FACILITY_TYPE_INDICATOR": "POTW", "CWP_MAJOR_MINOR_STATUS": "Major", "CWP_PERMIT_STATUS_DESC": "Effective", "STATE_WATER_BODY_NAME": "WOODY ISLAND CHANNEL", "CWP_CSO_FLAG": "N"}}, {"type": "Feature", "geometry": {"type": "Point", "coordinates": [-156.682776276927, 71.323850795491]}, "properties": {"CWP_NAME": "BARROW WWTF", "CWP_STREET": "9999 LAURA MADISON STREET", "CWP_CITY": "BARROW", "CWP_STATE": "AK", "CWP_ZIP": "99723", "CWP_COUNTY": "North Slope", "NPDES_ID": "AKG572006", "REGISTRY_ID": "110064179954", "CWP_FACILITY_TYPE_INDICATOR": "POTW", "CWP_MAJOR_MINOR_STATUS": "Minor", "CWP_PERMIT_STATUS_DESC": "Admin Continued", "STATE_WATER_BODY_NAME": "CHUKCHI SEA", "CWP_CSO_FLAG": "N"}}, {"type": "Feature", "geometry": {"type": "Point", "coordinates": [-135.424785924707, 58.1078086927246]}, "properties": {"CWP_NAME": "HOONAH WWTF", "CWP_STREET": "322 HARBOR WAY", "CWP_CITY": "HOONAH", "CWP_STATE": "AK", "CWP_ZIP": "99829", "CWP_COUNTY": null, "NPDES_ID": "AKG572022", "REGISTRY_ID": "110020073873", "CWP_FACILITY_TYPE_INDICATOR": "POTW", "CWP_MAJOR_MINOR_STATUS": "Minor", "CWP_PERMIT_STATUS_DESC": "Admin Continued", "STATE_WATER_BODY_NAME": "PORT FREDERICK", "CWP_CSO_FLAG": "N"}}, {"type": "Feature", "geometry": {"type": "Point", "coordinates": [-162.038075107907, 63.4832624041654]}, "properties": {"CWP_NAME": "ST MICHAEL LAGOON", "CWP_STREET": "P.O. BOX 70", "CWP_CITY": "ST. MICHAEL", "CWP_STATE": "AK", "CWP_ZIP": "99659", "CWP_COUNTY": null, "NPDES_ID": "AKG573017", "REGISTRY_ID": "110056343568", "CWP_FACILITY_TYPE_INDICATOR": "POTW", "CWP_MAJOR_MINOR_STATUS": "Minor", "CWP_PERMIT_STATUS_DESC": "Effective", "STATE_WATER_BODY_NAME": "NORTON SOUND", "CWP_CSO_FLAG": "N"}}, {"type": "Feature", "geometry": {"type": "Point", "coordinates": [-162.514701253067, 60.9016642219683]}, "properties": {"CWP_NAME": "OLD KASIGLUK LAGOON", "CWP_STREET": "OLD KASIGLUK LAGOON", "CWP_CITY": "KASIGLUK", "CWP_STATE": "AK", "CWP_ZIP": "99609", "CWP_COUNTY": "Bethel (CA)", "NPDES_ID": "AKG573041", "REGISTRY_ID": "110070072423", "CWP_FACILITY_TYPE_INDICATOR": "POTW", "CWP_MAJOR_MINOR_STATUS": "Minor", "CWP_PERMIT_STATUS_DESC": "Effective", "STATE_WATER_BODY_NAME": "JOHNSON RIVER", "CWP_CSO_FLAG": "N"}}, {"type": "Feature", "geometry": {"type": "Point", "coordinates": [-160.307839358812, 61.5403441395637]}, "properties": {"CWP_NAME": "UPPER KALSKAG LAGOON", "CWP_STREET": "P.O. BOX 80", "CWP_CITY": "UPPER KALSKAG", "CWP_STATE": "AK", "CWP_ZIP": "99607", "CWP_COUNTY": null, "NPDES_ID": "AKG573026", "REGISTRY_ID": "110043272598", "CWP_FACILITY_TYPE_INDICATOR": "POTW", "CWP_MAJOR_MINOR_STATUS": "Minor", "CWP_PERMIT_STATUS_DESC": "Effective", "STATE_WATER_BODY_NAME": "KUSKOKWIM RIVER", "CWP_CSO_FLAG": "N"}}, {"type": "Feature", "geometry": {"type": "Point", "coordinates": [-161.03917534482, 66.8316846404628]}, "properties": {"CWP_NAME": "NOORVIK LAGOON", "CWP_STREET": "P.O. BOX 146", "CWP_CITY": "NOORVIK", "CWP_STATE": "AK", "CWP_ZIP": "99763", "CWP_COUNTY": "Northwest Arctic", "NPDES_ID": "AKG573035", "REGISTRY_ID": "110037096040", "CWP_FACILITY_TYPE_INDICATOR": "POTW", "CWP_MAJOR_MINOR_STATUS": "Minor", "CWP_PERMIT_STATUS_DESC": "Effective", "STATE_WATER_BODY_NAME": "WETLANDS", "CWP_CSO_FLAG": "N"}}, {"type": "Feature", "geometry": {"type": "Point", "coordinates": [-146.26666336206, 61.1195554615114]}, "properties": {"CWP_NAME": "VALDEZ WW TREATMENT FACILITY", "CWP_STREET": "800 S SAWMILL RD", "CWP_CITY": "VALDEZ", "CWP_STATE": "AK", "CWP_ZIP": "99686", "CWP_COUNTY": null, "NPDES_ID": "AK0021431", "REGISTRY_ID": "110010112403", "CWP_FACILITY_TYPE_INDICATOR": "POTW", "CWP_MAJOR_MINOR_STATUS": "Major", "CWP_PERMIT_STATUS_DESC": "Effective", "STATE_WATER_BODY_NAME": "VALDEZ, PORT", "CWP_CSO_FLAG": "N"}}, {"type": "Feature", "geometry": {"type": "Point", "coordinates": [-131.598419762557, 55.3191878819416]}, "properties": {"CWP_NAME": "SAXMAN, CITY OF", "CWP_STREET": "RR 2 BOX 2 - SAXMAN", "CWP_CITY": "KETCHIKAN", "CWP_STATE": "AK", "CWP_ZIP": "99901", "CWP_COUNTY": "Ketchikan Gateway", "NPDES_ID": "AK0046655", "REGISTRY_ID": "110010111869", "CWP_FACILITY_TYPE_INDICATOR": "POTW", "CWP_MAJOR_MINOR_STATUS": "Other/Nonclassified", "CWP_PERMIT_STATUS_DESC": "Pending", "STATE_WATER_BODY_NAME": "TONGASS NARROWS (EAST CHANNEL)", "CWP_CSO_FLAG": "N"}}, {"type": "Feature", "geometry": {"type": "Point", "coordinates": [-156.735044500846, 58.703343624221]}, "properties": {"CWP_NAME": "KING SALMON LAGOON", "CWP_STREET": "PO BOX 189", "CWP_CITY": "NAKNEK", "CWP_STATE": "AK", "CWP_ZIP": "99633", "CWP_COUNTY": "Bristol Bay", "NPDES_ID": "AKG573029", "REGISTRY_ID": "110056343657", "CWP_FACILITY_TYPE_INDICATOR": "POTW", "CWP_MAJOR_MINOR_STATUS": "Minor", "CWP_PERMIT_STATUS_DESC": "Effective", "STATE_WATER_BODY_NAME": "NAKNEK RIVER", "CWP_CSO_FLAG": "N"}}, {"type": "Feature", "geometry": {"type": "Point", "coordinates": [-159.260377510191, 61.5770492336287]}, "properties": {"CWP_NAME": "CHUATHBALUK WASTEWATER LAGOON", "CWP_STREET": "PO BOX CHU", "CWP_CITY": "CHUATHBALUK", "CWP_STATE": "AK", "CWP_ZIP": "99557", "CWP_COUNTY": null, "NPDES_ID": "AKG573002", "REGISTRY_ID": "110056343229", "CWP_FACILITY_TYPE_INDICATOR": "POTW", "CWP_MAJOR_MINOR_STATUS": "Minor", "CWP_PERMIT_STATUS_DESC": "Effective", "STATE_WATER_BODY_NAME": "KUSKOKWIM RIVER, UNNAMED WETLANDS AREA", "CWP_CSO_FLAG": "N"}}, {"type": "Feature", "geometry": {"type": "Point", "coordinates": [-152.886971088899, 57.8661348081118]}, "properties": {"CWP_NAME": "PORT LIONS, CITY OF", "CWP_STREET": "207 SPRUCE DRIVE", "CWP_CITY": "PORT LIONS", "CWP_STATE": "AK", "CWP_ZIP": "99550", "CWP_COUNTY": "Kodiak Island", "NPDES_ID": "AK0025666", "REGISTRY_ID": "110010112341", "CWP_FACILITY_TYPE_INDICATOR": "POTW", "CWP_MAJOR_MINOR_STATUS": "Minor", "CWP_PERMIT_STATUS_DESC": "Terminated", "STATE_WATER_BODY_NAME": "SETTLER COVE", "CWP_CSO_FLAG": "N"}}, {"type": "Feature", "geometry": {"type": "Point", "coordinates": [-165.455830241025, 64.5031100295441]}, "properties": {"CWP_NAME": "NOME JOINT UTILITY SYSTEM", "CWP_STREET": "W 5TH & W K STREETS", "CWP_CITY": "NOME", "CWP_STATE": "AK", "CWP_ZIP": "99762", "CWP_COUNTY": "Nome (CA)", "NPDES_ID": "AK0021539", "REGISTRY_ID": "110070205551", "CWP_FACILITY_TYPE_INDICATOR": "POTW", "CWP_MAJOR_MINOR_STATUS": "Minor", "CWP_PERMIT_STATUS_DESC": "Terminated", "STATE_WATER_BODY_NAME": "NORTON SOUND (PREVIOUSLY SNAKE RVR)", "CWP_CSO_FLAG": "N"}}, {"type": "Feature", "geometry": {"type": "Point", "coordinates": [-162.676336926548, 60.3428408220522]}, "properties": {"CWP_NAME": "TUNTUTULIAK SCHOOL WWTF", "CWP_STREET": "GENERAL DELIVERY", "CWP_CITY": "TUNTUTULIAK", "CWP_STATE": "AK", "CWP_ZIP": "99680", "CWP_COUNTY": null, "NPDES_ID": "AKG572026", "REGISTRY_ID": "110055090976", "CWP_FACILITY_TYPE_INDICATOR": "POTW", "CWP_MAJOR_MINOR_STATUS": "Minor", "CWP_PERMIT_STATUS_DESC": "Admin Continued", "STATE_WATER_BODY_NAME": "TUNDRA POND", "CWP_CSO_FLAG": "N"}}, {"type": "Feature", "geometry": {"type": "Point", "coordinates": [-158.452329702546, 59.0435550628053]}, "properties": {"CWP_NAME": "DILLINGHAM, CITY OF", "CWP_STREET": "141 MAIN STREET", "CWP_CITY": "DILLINGHAM", "CWP_STATE": "AK", "CWP_ZIP": "99576", "CWP_COUNTY": "Dillingham (CA)", "NPDES_ID": "AK0021873", "REGISTRY_ID": "110055981362", "CWP_FACILITY_TYPE_INDICATOR": "POTW", "CWP_MAJOR_MINOR_STATUS": "Minor", "CWP_PERMIT_STATUS_DESC": "Terminated", "STATE_WATER_BODY_NAME": "NUSHAGAK RIVER", "CWP_CSO_FLAG": "N"}}, {"type": "Feature", "geometry": {"type": "Point", "coordinates": [-162.087335145027, 61.8847832672394]}, "properties": {"CWP_NAME": "MARSHALL SEWAGE LAGOON", "CWP_STREET": "UNKNOWN", "CWP_CITY": "MARSHALL", "CWP_STATE": "AK", "CWP_ZIP": "99585", "CWP_COUNTY": "Wade Hampton (CA)", "NPDES_ID": "AKG573009", "REGISTRY_ID": "110038011344", "CWP_FACILITY_TYPE_INDICATOR": "POTW", "CWP_MAJOR_MINOR_STATUS": "Minor", "CWP_PERMIT_STATUS_DESC": "Terminated", "STATE_WATER_BODY_NAME": "WETLANDS , UNNAMED POND", "CWP_CSO_FLAG": "N"}}, {"type": "Feature", "geometry": {"type": "Point", "coordinates": [-135.459044440264, 59.2335800029396]}, "properties": {"CWP_NAME": "HAINES, MUNICIPALITY OF WWTP", "CWP_STREET": "229 FAIR DRIVE", "CWP_CITY": "HAINES", "CWP_STATE": "AK", "CWP_ZIP": "99827", "CWP_COUNTY": "Haines", "NPDES_ID": "AK0021385", "REGISTRY_ID": "110000761453", "CWP_FACILITY_TYPE_INDICATOR": "POTW", "CWP_MAJOR_MINOR_STATUS": "Major", "CWP_PERMIT_STATUS_DESC": "Admin Continued", "STATE_WATER_BODY_NAME": "PORTAGE COVE", "CWP_CSO_FLAG": "N"}}, {"type": "Feature", "geometry": {"type": "Point", "coordinates": [-164.523778789544, 62.7756799856045]}, "properties": {"CWP_NAME": "EMMONAK LAGOON", "CWP_STREET": "NORTH OF EMMONAK CITY", "CWP_CITY": "EMMONAK", "CWP_STATE": "AK", "CWP_ZIP": "99581", "CWP_COUNTY": null, "NPDES_ID": "AKG573006", "REGISTRY_ID": "110020073846", "CWP_FACILITY_TYPE_INDICATOR": "POTW", "CWP_MAJOR_MINOR_STATUS": "Minor", "CWP_PERMIT_STATUS_DESC": "Effective", "STATE_WATER_BODY_NAME": "YUKON RIVER", "CWP_CSO_FLAG": "N"}}, {"type": "Feature", "geometry": {"type": "Point", "coordinates": [-169.540004861594, 56.5987314353031]}, "properties": {"CWP_NAME": "ST GEORGE, CITY OF", "CWP_STREET": "SAINT GEORGE ISLAND", "CWP_CITY": "ST GEORGE", "CWP_STATE": "AK", "CWP_ZIP": "99660", "CWP_COUNTY": null, "NPDES_ID": "AK0043427", "REGISTRY_ID": "110010112074", "CWP_FACILITY_TYPE_INDICATOR": "POTW", "CWP_MAJOR_MINOR_STATUS": "Other/Nonclassified", "CWP_PERMIT_STATUS_DESC": "Pending", "STATE_WATER_BODY_NAME": "BERING SEA", "CWP_CSO_FLAG": "N"}}, {"type": "Feature", "geometry": {"type": "Point", "coordinates": [-151.053107817847, 70.227603529091]}, "properties": {"CWP_NAME": "NUIQSUT WWTF", "CWP_STREET": "CITY OF NUIQSUT", "CWP_CITY": "NUIQSUT", "CWP_STATE": "AK", "CWP_ZIP": "99789", "CWP_COUNTY": "North Slope", "NPDES_ID": "AKG572033", "REGISTRY_ID": "110028072895", "CWP_FACILITY_TYPE_INDICATOR": "POTW", "CWP_MAJOR_MINOR_STATUS": "Minor", "CWP_PERMIT_STATUS_DESC": "Admin Continued", "STATE_WATER_BODY_NAME": "UNNAMED POND", "CWP_CSO_FLAG": "N"}}, {"type": "Feature", "geometry": {"type": "Point", "coordinates": [-132.517344595998, 55.679282593094]}, "properties": {"CWP_NAME": "THORNE BAY WWTF", "CWP_STREET": "120 FREEMAN DR", "CWP_CITY": "THORNE BAY", "CWP_STATE": "AK", "CWP_ZIP": "99919", "CWP_COUNTY": null, "NPDES_ID": "AKG572045", "REGISTRY_ID": "110020073926", "CWP_FACILITY_TYPE_INDICATOR": "POTW", "CWP_MAJOR_MINOR_STATUS": "Minor", "CWP_PERMIT_STATUS_DESC": "Admin Continued", "STATE_WATER_BODY_NAME": "THORNE BAY", "CWP_CSO_FLAG": "N"}}, {"type": "Feature", "geometry": {"type": "Point", "coordinates": [-161.168215438412, 65.9754302872215]}, "properties": {"CWP_NAME": "BUCKLAND LAGOON", "CWP_STREET": "PO BOX 49", "CWP_CITY": "BUCKLAND", "CWP_STATE": "AK", "CWP_ZIP": "99727", "CWP_COUNTY": "Northwest Arctic", "NPDES_ID": "AKG573028", "REGISTRY_ID": "110043272785", "CWP_FACILITY_TYPE_INDICATOR": "POTW", "CWP_MAJOR_MINOR_STATUS": "Minor", "CWP_PERMIT_STATUS_DESC": "Effective", "STATE_WATER_BODY_NAME": "BUCKLAND RIVER", "CWP_CSO_FLAG": "N"}}, {"type": "Feature", "geometry": {"type": "Point", "coordinates": [-149.441937693389, 60.0719194693258]}, "properties": {"CWP_NAME": "LOWELL POINT WWTF", "CWP_STREET": "(UNKNOWN ADDRESS)", "CWP_CITY": "SEWARD", "CWP_STATE": "AK", "CWP_ZIP": "99664", "CWP_COUNTY": "Kenai Peninsula", "NPDES_ID": "AK0021890", "REGISTRY_ID": "110010112261", "CWP_FACILITY_TYPE_INDICATOR": "POTW", "CWP_MAJOR_MINOR_STATUS": "Major", "CWP_PERMIT_STATUS_DESC": "Effective", "STATE_WATER_BODY_NAME": null, "CWP_CSO_FLAG": "N"}}, {"type": "Feature", "geometry": {"type": "Point", "coordinates": [-135.424785924707, 58.1078086927246]}, "properties": {"CWP_NAME": "CITY OF HOONAH-STP", "CWP_STREET": "300 FRONT STREET", "CWP_CITY": "HOONAH", "CWP_STATE": "AK", "CWP_ZIP": "99829", "CWP_COUNTY": null, "NPDES_ID": "AK0024775", "REGISTRY_ID": "110020073873", "CWP_FACILITY_TYPE_INDICATOR": "POTW", "CWP_MAJOR_MINOR_STATUS": "Minor", "CWP_PERMIT_STATUS_DESC": "Terminated", "STATE_WATER_BODY_NAME": "PORT FREDERICK", "CWP_CSO_FLAG": "N"}}, {"type": "Feature", "geometry": {"type": "Point", "coordinates": [-132.380252284393, 56.4530862775678]}, "properties": {"CWP_NAME": "WRANGELL, CITY OF WWTP", "CWP_STREET": "MILE MARKER 1.7 ON ZIMOVIA HIGHWAY", "CWP_CITY": "WRANGELL", "CWP_STATE": "AK", "CWP_ZIP": "99929", "CWP_COUNTY": null, "NPDES_ID": "AK0021466", "REGISTRY_ID": "110064637898", "CWP_FACILITY_TYPE_INDICATOR": "POTW", "CWP_MAJOR_MINOR_STATUS": "Major", "CWP_PERMIT_STATUS_DESC": "Admin Continued", "STATE_WATER_BODY_NAME": "ZIMOVIA STRAITS", "CWP_CSO_FLAG": "N"}}, {"type": "Feature", "geometry": {"type": "Point", "coordinates": [-134.385403456124, 58.2859582497458]}, "properties": {"CWP_NAME": "JUNEAU DOUGLAS WW TREATMENT FACILITY", "CWP_STREET": "1540 THANE RD", "CWP_CITY": "JUNEAU", "CWP_STATE": "AK", "CWP_ZIP": "99801", "CWP_COUNTY": null, "NPDES_ID": "AK0023213", "REGISTRY_ID": "110010680423", "CWP_FACILITY_TYPE_INDICATOR": "POTW", "CWP_MAJOR_MINOR_STATUS": "Major", "CWP_PERMIT_STATUS_DESC": "Effective", "STATE_WATER_BODY_NAME": "GASTINEAU CHANNEL", "CWP_CSO_FLAG": "Y"}}, {"type": "Feature", "geometry": {"type": "Point", "coordinates": [-158.112443224761, 64.7182560426549]}, "properties": {"CWP_NAME": "NULATO SEWAGE LAGOONS", "CWP_STREET": "UNKNOWN", "CWP_CITY": "NULATO", "CWP_STATE": "AK", "CWP_ZIP": "99765", "CWP_COUNTY": "Yukon-Koyukuk (CA)", "NPDES_ID": "AKG570064", "REGISTRY_ID": "110037994597", "CWP_FACILITY_TYPE_INDICATOR": "POTW", "CWP_MAJOR_MINOR_STATUS": "Minor", "CWP_PERMIT_STATUS_DESC": "Admin Continued", "STATE_WATER_BODY_NAME": "WETLANDS, YUKON RIVER", "CWP_CSO_FLAG": "N"}}, {"type": "Feature", "geometry": {"type": "Point", "coordinates": [-133.143227748515, 55.4674462973013]}, "properties": {"CWP_NAME": "CRAIG, CITY OF", "CWP_STREET": "202 COLD STORAGE ROAD", "CWP_CITY": "CRAIG", "CWP_STATE": "AK", "CWP_ZIP": "99921", "CWP_COUNTY": null, "NPDES_ID": "AK0021491", "REGISTRY_ID": "110039727267", "CWP_FACILITY_TYPE_INDICATOR": "POTW", "CWP_MAJOR_MINOR_STATUS": "Minor", "CWP_PERMIT_STATUS_DESC": "Terminated", "STATE_WATER_BODY_NAME": "KLAWAK INLET-BUCARELLI BAY", "CWP_CSO_FLAG": "N"}}, {"type": "Feature", "geometry": {"type": "Point", "coordinates": [-162.893729781879, 59.9567124105779]}, "properties": {"CWP_NAME": "KONGIGANAK LAGOON", "CWP_STREET": "PO BOX P.O. BOX 5036", "CWP_CITY": "KONGIGANAK", "CWP_STATE": "AK", "CWP_ZIP": "99559", "CWP_COUNTY": null, "NPDES_ID": "AKG573008", "REGISTRY_ID": "110056343489", "CWP_FACILITY_TYPE_INDICATOR": "POTW", "CWP_MAJOR_MINOR_STATUS": "Minor", "CWP_PERMIT_STATUS_DESC": "Effective", "STATE_WATER_BODY_NAME": "KONGIGANAK RIVER, KONGNIGNANOHK RIVER", "CWP_CSO_FLAG": "N"}}, {"type": "Feature", "geometry": {"type": "Point", "coordinates": [-162.263274387213, 64.6159286951178]}, "properties": {"CWP_NAME": "ELIM, CITY OF", "CWP_STREET": "101 HILLSIDE STREET", "CWP_CITY": "ELIM", "CWP_STATE": "AK", "CWP_ZIP": "97739", "CWP_COUNTY": "Nome (CA)", "NPDES_ID": "AK0026204", "REGISTRY_ID": "110011382388", "CWP_FACILITY_TYPE_INDICATOR": "POTW", "CWP_MAJOR_MINOR_STATUS": "Other/Nonclassified", "CWP_PERMIT_STATUS_DESC": "Not Needed", "STATE_WATER_BODY_NAME": "NORTON BAY", "CWP_CSO_FLAG": "N"}}, {"type": "Feature", "geometry": {"type": "Point", "coordinates": [-147.364235823676, 64.7445720473288]}, "properties": {"CWP_NAME": "NORTH POLE WW TREATMENT FACILITY", "CWP_STREET": "125 SNOWMAN LANE", "CWP_CITY": "NORTH POLE", "CWP_STATE": "AK", "CWP_ZIP": "99705", "CWP_COUNTY": "Fairbanks North Star", "NPDES_ID": "AK0021393", "REGISTRY_ID": "110010112396", "CWP_FACILITY_TYPE_INDICATOR": "POTW", "CWP_MAJOR_MINOR_STATUS": "Minor", "CWP_PERMIT_STATUS_DESC": "Admin Continued", "STATE_WATER_BODY_NAME": "TANANA RIVER", "CWP_CSO_FLAG": "N"}}, {"type": "Feature", "geometry": {"type": "Point", "coordinates": [-151.532225325767, 59.641664612093]}, "properties": {"CWP_NAME": "HOMER WW TREATMENT FACILITY", "CWP_STREET": "3575 HEATH ST", "CWP_CITY": "HOMER", "CWP_STATE": "AK", "CWP_ZIP": "99603", "CWP_COUNTY": "Kenai Peninsula", "NPDES_ID": "AK0021245", "REGISTRY_ID": "110064041923", "CWP_FACILITY_TYPE_INDICATOR": "POTW", "CWP_MAJOR_MINOR_STATUS": "Major", "CWP_PERMIT_STATUS_DESC": "Effective", "STATE_WATER_BODY_NAME": "KACHEMAK BAY", "CWP_CSO_FLAG": "N"}}, {"type": "Feature", "geometry": {"type": "Point", "coordinates": [-132.932980348113, 56.8170400279011]}, "properties": {"CWP_NAME": "PETERSBURG, CITY OF WWTP", "CWP_STREET": "1404 NORTH 14TH STREET", "CWP_CITY": "PETERSBURG", "CWP_STATE": "AK", "CWP_ZIP": "99833", "CWP_COUNTY": null, "NPDES_ID": "AK0021458", "REGISTRY_ID": "110000760917", "CWP_FACILITY_TYPE_INDICATOR": "POTW", "CWP_MAJOR_MINOR_STATUS": "Major", "CWP_PERMIT_STATUS_DESC": "Admin Continued", "STATE_WATER_BODY_NAME": "FREDERICK SOUND", "CWP_CSO_FLAG": "N"}}, {"type": "Feature", "geometry": {"type": "Point", "coordinates": [-135.232084919125, 57.0439593222631]}, "properties": {"CWP_NAME": "SITKA, CITY & BOROUGH OF", "CWP_STREET": "4400 SAWMILL CREEK ROAD", "CWP_CITY": "SITKA", "CWP_STATE": "AK", "CWP_ZIP": "99835", "CWP_COUNTY": "Sitka City and Borough", "NPDES_ID": "AKG572039", "REGISTRY_ID": "110070157590", "CWP_FACILITY_TYPE_INDICATOR": "POTW", "CWP_MAJOR_MINOR_STATUS": "Minor", "CWP_PERMIT_STATUS_DESC": "Terminated", "STATE_WATER_BODY_NAME": "SILVER BAY", "CWP_CSO_FLAG": "N"}}, {"type": "Feature", "geometry": {"type": "Point", "coordinates": [-147.773939126226, 64.802790484862]}, "properties": {"CWP_NAME": "CITY OF FAIRBANKS AND GOLDEN HEART UTILITIES INC WWTF", "CWP_STREET": "4247 PEGER RD", "CWP_CITY": "FAIRBANKS", "CWP_STATE": "AK", "CWP_ZIP": "99709", "CWP_COUNTY": "Fairbanks North Star", "NPDES_ID": "AK0023451", "REGISTRY_ID": "110039716117", "CWP_FACILITY_TYPE_INDICATOR": "POTW", "CWP_MAJOR_MINOR_STATUS": "Major", "CWP_PERMIT_STATUS_DESC": "Effective", "STATE_WATER_BODY_NAME": null, "CWP_CSO_FLAG": "N"}}, {"type": "Feature", "geometry": {"type": "Point", "coordinates": [-131.59406965689, 55.1236734710289]}, "properties": {"CWP_NAME": "METLAKATLA SEWER TREATMENT PLANT", "CWP_STREET": "100 OCEAN VIEW ROAD (ANNETTE ISLAND RESERVE)", "CWP_CITY": "METLAKATLA INDIAN COMMUNITY", "CWP_STATE": "AK", "CWP_ZIP": "99926", "CWP_COUNTY": "Prince-of-Wales-Hyder,AK", "NPDES_ID": "AK0053813", "REGISTRY_ID": "110070816870", "CWP_FACILITY_TYPE_INDICATOR": "POTW", "CWP_MAJOR_MINOR_STATUS": "Minor", "CWP_PERMIT_STATUS_DESC": "Effective", "STATE_WATER_BODY_NAME": "NICHOLS PASSAGE", "CWP_CSO_FLAG": "N"}}, {"type": "Feature", "geometry": {"type": "Point", "coordinates": [-157.429983685864, 70.4885864942536]}, "properties": {"CWP_NAME": "ATQASUK WWTF", "CWP_STREET": "CITY OF ATQASUK", "CWP_CITY": "ATQASUK", "CWP_STATE": "AK", "CWP_ZIP": "99791", "CWP_COUNTY": "North Slope", "NPDES_ID": "AKG572001", "REGISTRY_ID": "110035854117", "CWP_FACILITY_TYPE_INDICATOR": "POTW", "CWP_MAJOR_MINOR_STATUS": "Minor", "CWP_PERMIT_STATUS_DESC": "Admin Continued", "STATE_WATER_BODY_NAME": "KIGARAK LAKE", "CWP_CSO_FLAG": "N"}}, {"type": "Feature", "geometry": {"type": "Point", "coordinates": [-150.023531806455, 61.1964261940921]}, "properties": {"CWP_NAME": "ANCHORAGE, MUNICIPALITY OF - JOHN M. ASPLUND WPCF", "CWP_STREET": "2300 HUTSON DRIVE", "CWP_CITY": "ANCHORAGE", "CWP_STATE": "AK", "CWP_ZIP": "99503", "CWP_COUNTY": "Anchorage Municipality", "NPDES_ID": "AK0022551", "REGISTRY_ID": "110000523595", "CWP_FACILITY_TYPE_INDICATOR": "POTW", "CWP_MAJOR_MINOR_STATUS": "Major", "CWP_PERMIT_STATUS_DESC": "Admin Continued", "STATE_WATER_BODY_NAME": "KNIK ARM OF COOK INLET", "CWP_CSO_FLAG": "N"}}, {"type": "Feature", "geometry": {"type": "Point", "coordinates": [-176.646267617752, 51.8751644478577]}, "properties": {"CWP_NAME": "ADAK REUSE CORPORATION (ARC)", "CWP_STREET": "P.O. BOX 1999", "CWP_CITY": "ADAK", "CWP_STATE": "AK", "CWP_ZIP": "99546", "CWP_COUNTY": null, "NPDES_ID": "AK0020281", "REGISTRY_ID": "110038070002", "CWP_FACILITY_TYPE_INDICATOR": "POTW", "CWP_MAJOR_MINOR_STATUS": "Minor", "CWP_PERMIT_STATUS_DESC": "Terminated", "STATE_WATER_BODY_NAME": "KULUK BAY", "CWP_CSO_FLAG": "N"}}, {"type": "Feature", "geometry": {"type": "Point", "coordinates": [-162.717248019648, 55.2089184437622]}, "properties": {"CWP_NAME": "COLD BAY LAGOON", "CWP_STREET": "BARROW ROAD, BLOCK 32", "CWP_CITY": "COLD BAY", "CWP_STATE": "AK", "CWP_ZIP": "99571", "CWP_COUNTY": "Aleutians East", "NPDES_ID": "AKG573003", "REGISTRY_ID": "110056343443", "CWP_FACILITY_TYPE_INDICATOR": "POTW", "CWP_MAJOR_MINOR_STATUS": "Minor", "CWP_PERMIT_STATUS_DESC": "Effective", "STATE_WATER_BODY_NAME": "COLD BAY", "CWP_CSO_FLAG": "N"}}, {"type": "Feature", "geometry": {"type": "Point", "coordinates": [-151.276321129486, 60.5533694021281]}, "properties": {"CWP_NAME": "KENAI WW TREATMENT FACILITY", "CWP_STREET": "1450 KENAI AVE", "CWP_CITY": "KENAI", "CWP_STATE": "AK", "CWP_ZIP": "99611", "CWP_COUNTY": "Kenai Peninsula", "NPDES_ID": "AK0021377", "REGISTRY_ID": "110010679391", "CWP_FACILITY_TYPE_INDICATOR": "POTW", "CWP_MAJOR_MINOR_STATUS": "Major", "CWP_PERMIT_STATUS_DESC": "Effective", "STATE_WATER_BODY_NAME": "COOK INLET", "CWP_CSO_FLAG": "N"}}, {"type": "Feature", "geometry": {"type": "Point", "coordinates": [-146.675843028667, 60.8599121411892]}, "properties": {"CWP_NAME": "TATITLEK VILLAGE COUNCIL STP", "CWP_STREET": "505 COPPER MOUNTAIN STREET", "CWP_CITY": "TATITLEK", "CWP_STATE": "AK", "CWP_ZIP": "99677", "CWP_COUNTY": null, "NPDES_ID": "AK0021521", "REGISTRY_ID": "110009037899", "CWP_FACILITY_TYPE_INDICATOR": "POTW", "CWP_MAJOR_MINOR_STATUS": "Minor", "CWP_PERMIT_STATUS_DESC": "Terminated", "STATE_WATER_BODY_NAME": "TATITLEK NARROWS", "CWP_CSO_FLAG": "N"}}, {"type": "Feature", "geometry": {"type": "Point", "coordinates": [-149.114268023508, 61.5609431286177]}, "properties": {"CWP_NAME": "PALMER, CITY OF - PALMER WWTP", "CWP_STREET": "1392 SOUTH BROOKS ROAD", "CWP_CITY": "PALMER", "CWP_STATE": "AK", "CWP_ZIP": "99645", "CWP_COUNTY": "Matanuska-Susitna", "NPDES_ID": "AK0022497", "REGISTRY_ID": "110039730459", "CWP_FACILITY_TYPE_INDICATOR": "POTW", "CWP_MAJOR_MINOR_STATUS": "Minor", "CWP_PERMIT_STATUS_DESC": "Admin Continued", "STATE_WATER_BODY_NAME": "MATANUSKA RIVER", "CWP_CSO_FLAG": "N"}}, {"type": "Feature", "geometry": {"type": "Point", "coordinates": [-149.592731458256, 61.321110063518]}, "properties": {"CWP_NAME": "EAGLE RIVER WW TREATMENT FACILITY", "CWP_STREET": "15524 ARTILLERY RD", "CWP_CITY": "EAGLE RIVER", "CWP_STATE": "AK", "CWP_ZIP": "99577", "CWP_COUNTY": "Anchorage Municipality", "NPDES_ID": "AK0022543", "REGISTRY_ID": "110010112289", "CWP_FACILITY_TYPE_INDICATOR": "POTW", "CWP_MAJOR_MINOR_STATUS": "Major", "CWP_PERMIT_STATUS_DESC": "Effective", "STATE_WATER_BODY_NAME": null, "CWP_CSO_FLAG": "N"}}, {"type": "Feature", "geometry": {"type": "Point", "coordinates": [-134.560708795171, 57.4872127693847]}, "properties": {"CWP_NAME": "ANGOON, CITY OF", "CWP_STREET": "WASTEWATER TREATMENT PLANT", "CWP_CITY": "ANGOON", "CWP_STATE": "AK", "CWP_ZIP": "99820", "CWP_COUNTY": "Sitka City and Borough", "NPDES_ID": "AK0029149", "REGISTRY_ID": "110011382208", "CWP_FACILITY_TYPE_INDICATOR": "POTW", "CWP_MAJOR_MINOR_STATUS": "Minor", "CWP_PERMIT_STATUS_DESC": "Terminated", "STATE_WATER_BODY_NAME": "CHATHAM STRAIT", "CWP_CSO_FLAG": "N"}}, {"type": "Feature", "geometry": {"type": "Point", "coordinates": [-164.063976939722, 59.9298989480319]}, "properties": {"CWP_NAME": "KIPNUK COMMUNITY SEWAGE LAGOON", "CWP_STREET": "PO BOX 57", "CWP_CITY": "KIPNUK", "CWP_STATE": "AK", "CWP_ZIP": "99614", "CWP_COUNTY": null, "NPDES_ID": "AKG573030", "REGISTRY_ID": "110070149749", "CWP_FACILITY_TYPE_INDICATOR": "POTW", "CWP_MAJOR_MINOR_STATUS": "Minor", "CWP_PERMIT_STATUS_DESC": "Effective", "STATE_WATER_BODY_NAME": "UNNAMED POND", "CWP_CSO_FLAG": "N"}}, {"type": "Feature", "geometry": {"type": "Point", "coordinates": [-160.39467721371, 59.0613064820048]}, "properties": {"CWP_NAME": "TOGIAK VILLAGE LAGOON", "CWP_STREET": "P.O. BOX 190", "CWP_CITY": "TOGIAK", "CWP_STATE": "AK", "CWP_ZIP": "99678", "CWP_COUNTY": null, "NPDES_ID": "AKG573025", "REGISTRY_ID": "110028069989", "CWP_FACILITY_TYPE_INDICATOR": "POTW", "CWP_MAJOR_MINOR_STATUS": "Minor", "CWP_PERMIT_STATUS_DESC": "Effective", "STATE_WATER_BODY_NAME": "WETLANDS", "CWP_CSO_FLAG": "N"}}, {"type": "Feature", "geometry": {"type": "Point", "coordinates": [-148.680323003685, 60.7738718819467]}, "properties": {"CWP_NAME": "WHITTIER, CITY OF - WHITTIER WWTP", "CWP_STREET": "102 DEPOE ROAD", "CWP_CITY": "WHITTIER", "CWP_STATE": "AK", "CWP_ZIP": "99693", "CWP_COUNTY": null, "NPDES_ID": "AK0025402", "REGISTRY_ID": "110039695185", "CWP_FACILITY_TYPE_INDICATOR": "POTW", "CWP_MAJOR_MINOR_STATUS": "Minor", "CWP_PERMIT_STATUS_DESC": "Admin Continued", "STATE_WATER_BODY_NAME": "PASSAGE CANAL, PRINCE WM SOUND", "CWP_CSO_FLAG": "N"}}, {"type": "Feature", "geometry": {"type": "Point", "coordinates": [-164.534037574546, 67.7254787648795]}, "properties": {"CWP_NAME": "MCQUEEN SCHOOL WWTF", "CWP_STREET": "P.O. BOX 51", "CWP_CITY": "KOTZEBUE", "CWP_STATE": "AK", "CWP_ZIP": "99752", "CWP_COUNTY": "Northwest Arctic", "NPDES_ID": "AKG572025", "REGISTRY_ID": "110036462280", "CWP_FACILITY_TYPE_INDICATOR": "POTW", "CWP_MAJOR_MINOR_STATUS": "Minor", "CWP_PERMIT_STATUS_DESC": "Admin Continued", "STATE_WATER_BODY_NAME": "CHUKCHI SEA", "CWP_CSO_FLAG": "N"}}, {"type": "Feature", "geometry": {"type": "Point", "coordinates": [-157.050782973557, 58.7245936546354]}, "properties": {"CWP_NAME": "NAKNEK LAGOON", "CWP_STREET": "NAKNEK VILLAGE COUNCIL", "CWP_CITY": "NAKNEK", "CWP_STATE": "AK", "CWP_ZIP": "99633", "CWP_COUNTY": "Bristol Bay", "NPDES_ID": "AKG573010", "REGISTRY_ID": "110056402879", "CWP_FACILITY_TYPE_INDICATOR": "POTW", "CWP_MAJOR_MINOR_STATUS": "Minor", "CWP_PERMIT_STATUS_DESC": "Effective", "STATE_WATER_BODY_NAME": "NAKNEK RIVER", "CWP_CSO_FLAG": "N"}}, {"type": "Feature", "geometry": {"type": "Point", "coordinates": [-162.886595868776, 61.9380562750119]}, "properties": {"CWP_NAME": "PILOT STATION WASTEWATER LAGOON", "CWP_STREET": "PO BOX 5040", "CWP_CITY": "PILOT STATION", "CWP_STATE": "AK", "CWP_ZIP": "99650", "CWP_COUNTY": null, "NPDES_ID": "AKG573014", "REGISTRY_ID": "110030898358", "CWP_FACILITY_TYPE_INDICATOR": "POTW", "CWP_MAJOR_MINOR_STATUS": "Minor", "CWP_PERMIT_STATUS_DESC": "Effective", "STATE_WATER_BODY_NAME": "YUKON RIVER", "CWP_CSO_FLAG": "N"}}, {"type": "Feature", "geometry": {"type": "Point", "coordinates": [-162.985230588481, 67.5637602587963]}, "properties": {"CWP_NAME": "NOATAK LAGOON", "CWP_STREET": "NATIVE VILLAGE OF NOATAK", "CWP_CITY": "NOATAK", "CWP_STATE": "AK", "CWP_ZIP": "99761", "CWP_COUNTY": "Northwest Arctic", "NPDES_ID": "AKG573012", "REGISTRY_ID": "110054629675", "CWP_FACILITY_TYPE_INDICATOR": "POTW", "CWP_MAJOR_MINOR_STATUS": "Minor", "CWP_PERMIT_STATUS_DESC": "Effective", "STATE_WATER_BODY_NAME": "UNKNOWN FRESH WATER", "CWP_CSO_FLAG": "N"}}, {"type": "Feature", "geometry": {"type": "Point", "coordinates": [-135.322535565447, 59.4539678802196]}, "properties": {"CWP_NAME": "SKAGWAY, MUNICIPALITY OF - SKAGWAY WWTP - 301(H) WAIVER", "CWP_STREET": "POINT STREET AND MAIN STREET", "CWP_CITY": "SKAGWAY", "CWP_STATE": "AK", "CWP_ZIP": "99840", "CWP_COUNTY": "Skagway-Hoonah-Angoon (CA)", "NPDES_ID": "AK0020010", "REGISTRY_ID": "110010622978", "CWP_FACILITY_TYPE_INDICATOR": "POTW", "CWP_MAJOR_MINOR_STATUS": "Major", "CWP_PERMIT_STATUS_DESC": "Admin Continued", "STATE_WATER_BODY_NAME": "TAIYA INLET", "CWP_CSO_FLAG": "N"}}, {"type": "Feature", "geometry": {"type": "Point", "coordinates": [-162.312053052582, 55.0623434103328]}, "properties": {"CWP_NAME": "KING COVE, CITY OF", "CWP_STREET": "WASTEWATER TREATMENT PLANT", "CWP_CITY": "KING COVE", "CWP_STATE": "AK", "CWP_ZIP": "99612", "CWP_COUNTY": "Aleutians East", "NPDES_ID": "AK0044334", "REGISTRY_ID": "110009038157", "CWP_FACILITY_TYPE_INDICATOR": "POTW", "CWP_MAJOR_MINOR_STATUS": "Other/Nonclassified", "CWP_PERMIT_STATUS_DESC": "Pending", "STATE_WATER_BODY_NAME": "KING COVE BAY", "CWP_CSO_FLAG": "N"}}, {"type": "Feature", "geometry": {"type": "Point", "coordinates": [-145.777921892559, 60.535845202184]}, "properties": {"CWP_NAME": "CORDOVA, CITY OF", "CWP_STREET": "#1 SEWER PLANT ROAD", "CWP_CITY": "CORDOVA", "CWP_STATE": "AK", "CWP_ZIP": "99574", "CWP_COUNTY": "Valdez-Cordova (CA)", "NPDES_ID": "AK0021547", "REGISTRY_ID": "110010588603", "CWP_FACILITY_TYPE_INDICATOR": "POTW", "CWP_MAJOR_MINOR_STATUS": "Major", "CWP_PERMIT_STATUS_DESC": "Admin Continued", "STATE_WATER_BODY_NAME": "ORCA INLET", "CWP_CSO_FLAG": "N"}}, {"type": "Feature", "geometry": {"type": "Point", "coordinates": [-158.452329702546, 59.0435550628053]}, "properties": {"CWP_NAME": "DILLINGHAM LAGOON", "CWP_STREET": "TOWER ROAD", "CWP_CITY": "DILLINGHAM", "CWP_STATE": "AK", "CWP_ZIP": "99576", "CWP_COUNTY": null, "NPDES_ID": "AKG573004", "REGISTRY_ID": "110055981362", "CWP_FACILITY_TYPE_INDICATOR": "POTW", "CWP_MAJOR_MINOR_STATUS": "Minor", "CWP_PERMIT_STATUS_DESC": "Effective", "STATE_WATER_BODY_NAME": "NUSHAGAK RIVER", "CWP_CSO_FLAG": "N"}}, {"type": "Feature", "geometry": {"type": "Point", "coordinates": [-149.087905061705, 64.5608393682953]}, "properties": {"CWP_NAME": "NENANA WWTF", "CWP_STREET": "P.O. BOX 70", "CWP_CITY": "NENANA", "CWP_STATE": "AK", "CWP_ZIP": "99760", "CWP_COUNTY": null, "NPDES_ID": "AKG572031", "REGISTRY_ID": "110020045137", "CWP_FACILITY_TYPE_INDICATOR": "POTW", "CWP_MAJOR_MINOR_STATUS": "Minor", "CWP_PERMIT_STATUS_DESC": "Admin Continued", "STATE_WATER_BODY_NAME": "TANANA RIVER", "CWP_CSO_FLAG": "N"}}, {"type": "Feature", "geometry": {"type": "Point", "coordinates": [-157.050782973557, 58.7245936546354]}, "properties": {"CWP_NAME": "NAKNEK, CITY OF", "CWP_STREET": "1 MAIN STREET", "CWP_CITY": "NAKNEK", "CWP_STATE": "AK", "CWP_ZIP": "99633", "CWP_COUNTY": "Bristol Bay", "NPDES_ID": "AK0043362", "REGISTRY_ID": "110056402879", "CWP_FACILITY_TYPE_INDICATOR": "POTW", "CWP_MAJOR_MINOR_STATUS": "Minor", "CWP_PERMIT_STATUS_DESC": "Terminated", "STATE_WATER_BODY_NAME": "NAKNEK RIVER", "CWP_CSO_FLAG": "N"}}, {"type": "Feature", "geometry": {"type": "Point", "coordinates": [-161.923633759971, 59.7375010336925]}, "properties": {"CWP_NAME": "QUINHAGAK SEWAGE LAGOON", "CWP_STREET": "P.O. BOX 149", "CWP_CITY": "QUINHAGAK", "CWP_STATE": "AK", "CWP_ZIP": "99655", "CWP_COUNTY": null, "NPDES_ID": "AKG573015", "REGISTRY_ID": "110020073935", "CWP_FACILITY_TYPE_INDICATOR": "POTW", "CWP_MAJOR_MINOR_STATUS": "Minor", "CWP_PERMIT_STATUS_DESC": "Effective", "STATE_WATER_BODY_NAME": "KONIKTOK RIVER", "CWP_CSO_FLAG": "N"}}, {"type": "Feature", "geometry": {"type": "Point", "coordinates": [-135.379679910963, 57.1279937496243]}, "properties": {"CWP_NAME": "ALASKA MARINE HIGHWAY SYSTEM - SITKA FERRY TERMINAL WWTF", "CWP_STREET": "5307 HALIBUT POINT RD", "CWP_CITY": "SITKA", "CWP_STATE": "AK", "CWP_ZIP": "99835", "CWP_COUNTY": "Sitka City and Borough", "NPDES_ID": "AKG572043", "REGISTRY_ID": "110070116727", "CWP_FACILITY_TYPE_INDICATOR": "POTW", "CWP_MAJOR_MINOR_STATUS": "Minor", "CWP_PERMIT_STATUS_DESC": "Terminated", "STATE_WATER_BODY_NAME": "STARRIGAVIN BAY, SITKA SOUND", "CWP_CSO_FLAG": "N"}}, {"type": "Feature", "geometry": {"type": "Point", "coordinates": [-135.379679910963, 57.1279937496243]}, "properties": {"CWP_NAME": "ALASKA MARINE HIGHWAY SYSTEM - SITKA FERRY TERMINAL WWTF", "CWP_STREET": "5307 HALIBUT POINT RD", "CWP_CITY": "SITKA", "CWP_STATE": "AK", "CWP_ZIP": "99835", "CWP_COUNTY": "Sitka City and Borough", "NPDES_ID": "AKG571065", "REGISTRY_ID": "110070116727", "CWP_FACILITY_TYPE_INDICATOR": "POTW", "CWP_MAJOR_MINOR_STATUS": "Minor", "CWP_PERMIT_STATUS_DESC": "Terminated", "STATE_WATER_BODY_NAME": "STARRIGAVIN BAY, SITKA SOUND", "CWP_CSO_FLAG": "N"}}, {"type": "Feature", "geometry": {"type": "Point", "coordinates": [-151.716548447652, 59.4433164213103]}, "properties": {"CWP_NAME": "CITY OF SELDOVIA", "CWP_STREET": "395 N MAIN STREET", "CWP_CITY": "SELDOVIA", "CWP_STATE": "AK", "CWP_ZIP": "99663", "CWP_COUNTY": "Kenai Peninsula", "NPDES_ID": "AK0021512", "REGISTRY_ID": "110010112421", "CWP_FACILITY_TYPE_INDICATOR": "POTW", "CWP_MAJOR_MINOR_STATUS": "Minor", "CWP_PERMIT_STATUS_DESC": "Terminated", "STATE_WATER_BODY_NAME": "SELDOVIA BAY", "CWP_CSO_FLAG": "N"}}, {"type": "Feature", "geometry": {"type": "Point", "coordinates": [-143.604162486568, 70.1185594164909]}, "properties": {"CWP_NAME": "KAKTOVIK WWTF", "CWP_STREET": "1200 HULA HULA AVENUE", "CWP_CITY": "KAKTOVIK", "CWP_STATE": "AK", "CWP_ZIP": "99747", "CWP_COUNTY": "North Slope", "NPDES_ID": "AKG572024", "REGISTRY_ID": "110030898544", "CWP_FACILITY_TYPE_INDICATOR": "POTW", "CWP_MAJOR_MINOR_STATUS": "Minor", "CWP_PERMIT_STATUS_DESC": "Admin Continued", "STATE_WATER_BODY_NAME": "KAKTOVIK LAGOON", "CWP_CSO_FLAG": "N"}}, {"type": "Feature", "geometry": {"type": "Point", "coordinates": [-166.558309989018, 53.8796040729414]}, "properties": {"CWP_NAME": "UNALASKA WW TREATMENT FACILITY", "CWP_STREET": "CITY OF UNALASKA", "CWP_CITY": "UNALASKA", "CWP_STATE": "AK", "CWP_ZIP": "99685", "CWP_COUNTY": null, "NPDES_ID": "AK0043451", "REGISTRY_ID": "110055981371", "CWP_FACILITY_TYPE_INDICATOR": "POTW", "CWP_MAJOR_MINOR_STATUS": "Major", "CWP_PERMIT_STATUS_DESC": "Admin Continued", "STATE_WATER_BODY_NAME": "UNALASKA BAY", "CWP_CSO_FLAG": "N"}}, {"type": "Feature", "geometry": {"type": "Point", "coordinates": [-151.25814621128, 59.7459167580072]}, "properties": {"CWP_NAME": "MCNEIL CANYON SCHOOL WWTF", "CWP_STREET": "KENAI PENINSULA BOROUGH", "CWP_CITY": "HOMER", "CWP_STATE": "AK", "CWP_ZIP": "99603", "CWP_COUNTY": "Kenai Peninsula", "NPDES_ID": "AKG572027", "REGISTRY_ID": "110020073855", "CWP_FACILITY_TYPE_INDICATOR": "POTW", "CWP_MAJOR_MINOR_STATUS": "Minor", "CWP_PERMIT_STATUS_DESC": "Admin Continued", "STATE_WATER_BODY_NAME": "MCNEIL CREEK", "CWP_CSO_FLAG": "N"}}, {"type": "Feature", "geometry": {"type": "Point", "coordinates": [-159.533202913376, 62.6576348911303]}, "properties": {"CWP_NAME": "SHAGELUK SEWAGE LAGOON", "CWP_STREET": "RIVERSIDE STREET", "CWP_CITY": "SHAGELUK", "CWP_STATE": "AK", "CWP_ZIP": "99665", "CWP_COUNTY": "Yukon-Koyukuk (CA)", "NPDES_ID": "AKG573040", "REGISTRY_ID": "110070002821", "CWP_FACILITY_TYPE_INDICATOR": "POTW", "CWP_MAJOR_MINOR_STATUS": "Minor", "CWP_PERMIT_STATUS_DESC": "Effective", "STATE_WATER_BODY_NAME": "INNOKO RIVER", "CWP_CSO_FLAG": "N"}}, {"type": "Feature", "geometry": {"type": "Point", "coordinates": [-134.597139902326, 58.3619680163483]}, "properties": {"CWP_NAME": "MENDENHALL WW TREATMENT FACILITY", "CWP_STREET": "2009 RADCLIFFE RD", "CWP_CITY": "JUNEAU", "CWP_STATE": "AK", "CWP_ZIP": "99801", "CWP_COUNTY": null, "NPDES_ID": "AK0022951", "REGISTRY_ID": "110009005030", "CWP_FACILITY_TYPE_INDICATOR": "POTW", "CWP_MAJOR_MINOR_STATUS": "Major", "CWP_PERMIT_STATUS_DESC": "Effective", "STATE_WATER_BODY_NAME": "MENDENHALL RIVER", "CWP_CSO_FLAG": "N"}}, {"type": "Feature", "geometry": {"type": "Point", "coordinates": [-166.072623736064, 66.2556258071564]}, "properties": {"CWP_NAME": "SHISHMAREF SCHOOL WW TREATMENT PLANT", "CWP_STREET": "#7 SEAVIEW LANE", "CWP_CITY": "SHISHMAREF", "CWP_STATE": "AK", "CWP_ZIP": "99772", "CWP_COUNTY": null, "NPDES_ID": "AKG573034", "REGISTRY_ID": "110045700620", "CWP_FACILITY_TYPE_INDICATOR": "POTW", "CWP_MAJOR_MINOR_STATUS": "Minor", "CWP_PERMIT_STATUS_DESC": "Effective", "STATE_WATER_BODY_NAME": "SHISHMAREF INLET", "CWP_CSO_FLAG": "N"}}, {"type": "Feature", "geometry": {"type": "Point", "coordinates": [-170.498813058655, 63.6890699821155]}, "properties": {"CWP_NAME": "SAVOONGA JOINT UTILITY", "CWP_STREET": "CITY OF SAVOONGA", "CWP_CITY": "SAVOONGA", "CWP_STATE": "AK", "CWP_ZIP": "99769", "CWP_COUNTY": null, "NPDES_ID": "AKG570097", "REGISTRY_ID": "110040077617", "CWP_FACILITY_TYPE_INDICATOR": "POTW", "CWP_MAJOR_MINOR_STATUS": "Minor", "CWP_PERMIT_STATUS_DESC": "Admin Continued", "STATE_WATER_BODY_NAME": null, "CWP_CSO_FLAG": "N"}}, {"type": "Feature", "geometry": {"type": "Point", "coordinates": [-135.355718331427, 57.0470277906522]}, "properties": {"CWP_NAME": "SITKA, CITY AND BOROUGH OF WWTP", "CWP_STREET": "100 ALICE LOOP RD", "CWP_CITY": "SITKA", "CWP_STATE": "AK", "CWP_ZIP": "99835", "CWP_COUNTY": null, "NPDES_ID": "AK0021474", "REGISTRY_ID": "110000759162", "CWP_FACILITY_TYPE_INDICATOR": "POTW", "CWP_MAJOR_MINOR_STATUS": "Major", "CWP_PERMIT_STATUS_DESC": "Admin Continued", "STATE_WATER_BODY_NAME": "SITKA SOUND (MIDDLE CHANNEL)", "CWP_CSO_FLAG": "N"}}, {"type": "Feature", "geometry": {"type": "Point", "coordinates": [-163.759032687393, 62.0930174034229]}, "properties": {"CWP_NAME": "MOUNTAIN VILLAGE LAGOON", "CWP_STREET": "P.O. BOX 32085", "CWP_CITY": "MOUNTAIN VILLAGE", "CWP_STATE": "AK", "CWP_ZIP": "99632", "CWP_COUNTY": null, "NPDES_ID": "AKG573031", "REGISTRY_ID": "110056402904", "CWP_FACILITY_TYPE_INDICATOR": "POTW", "CWP_MAJOR_MINOR_STATUS": "Minor", "CWP_PERMIT_STATUS_DESC": "Effective", "STATE_WATER_BODY_NAME": "YUKON RIVER", "CWP_CSO_FLAG": "N"}}, {"type": "Feature", "geometry": {"type": "Point", "coordinates": [-134.648425559876, 58.3872740311776]}, "properties": {"CWP_NAME": "AUKE BAY WWTF", "CWP_STREET": "11825 GLACIER HWY", "CWP_CITY": "JUNEAU", "CWP_STATE": "AK", "CWP_ZIP": "99801", "CWP_COUNTY": null, "NPDES_ID": "AKG572004", "REGISTRY_ID": "110020034390", "CWP_FACILITY_TYPE_INDICATOR": "POTW", "CWP_MAJOR_MINOR_STATUS": "Minor", "CWP_PERMIT_STATUS_DESC": "Admin Continued", "STATE_WATER_BODY_NAME": "AUKE BAY", "CWP_CSO_FLAG": "N"}}, {"type": "Feature", "geometry": {"type": "Point", "coordinates": [-134.648425559876, 58.3872740311776]}, "properties": {"CWP_NAME": "JUNEAU, CITY & BOROUGH OF", "CWP_STREET": "AUKE BAY WWTF", "CWP_CITY": "AUKE BAY", "CWP_STATE": "AK", "CWP_ZIP": "99801", "CWP_COUNTY": "Juneau City and Borough", "NPDES_ID": "AK0021407", "REGISTRY_ID": "110020034390", "CWP_FACILITY_TYPE_INDICATOR": "POTW", "CWP_MAJOR_MINOR_STATUS": "Minor", "CWP_PERMIT_STATUS_DESC": "Terminated", "STATE_WATER_BODY_NAME": "AUKE BAY", "CWP_CSO_FLAG": "N"}}, {"type": "Feature", "geometry": {"type": "Point", "coordinates": [-163.005999700229, 69.7401670565778]}, "properties": {"CWP_NAME": "POINT LAY WWTF", "CWP_STREET": "NATIVE VILLAGE OF POINT LAY", "CWP_CITY": "POINT LAY", "CWP_STATE": "AK", "CWP_ZIP": "99759", "CWP_COUNTY": "North Slope", "NPDES_ID": "AKG572036", "REGISTRY_ID": "110064180238", "CWP_FACILITY_TYPE_INDICATOR": "POTW", "CWP_MAJOR_MINOR_STATUS": "Minor", "CWP_PERMIT_STATUS_DESC": "Admin Continued", "STATE_WATER_BODY_NAME": "KASEGULUK LAGOON", "CWP_CSO_FLAG": "N"}}, {"type": "Feature", "geometry": {"type": "Point", "coordinates": [-162.519357915159, 60.8606290597113]}, "properties": {"CWP_NAME": "NEW KASIGLUK SEWAGE LAGOON_2", "CWP_STREET": "NEW KASIGLUK SEWAGE LAGOON", "CWP_CITY": "KASIGLUK", "CWP_STATE": "AK", "CWP_ZIP": "99609", "CWP_COUNTY": "Bethel (CA)", "NPDES_ID": "AKG573039", "REGISTRY_ID": "110069558721", "CWP_FACILITY_TYPE_INDICATOR": "POTW", "CWP_MAJOR_MINOR_STATUS": "Minor", "CWP_PERMIT_STATUS_DESC": "Effective", "STATE_WATER_BODY_NAME": "JOHNSON RIVER", "CWP_CSO_FLAG": "N"}}, {"type": "Feature", "geometry": {"type": "Point", "coordinates": [-149.335549708089, 60.0926497575463]}, "properties": {"CWP_NAME": "SEWARD, CITY OF - SPRING CREEK CORRECTIONAL CENTER", "CWP_STREET": "EAST SIDE OF RESURRECTION BAY", "CWP_CITY": "SEWARD", "CWP_STATE": "AK", "CWP_ZIP": "99664", "CWP_COUNTY": "Kenai Peninsula", "NPDES_ID": "AK0047279", "REGISTRY_ID": "110010111887", "CWP_FACILITY_TYPE_INDICATOR": "POTW", "CWP_MAJOR_MINOR_STATUS": "Minor", "CWP_PERMIT_STATUS_DESC": "Terminated", "STATE_WATER_BODY_NAME": "RESURRECTION BAY", "CWP_CSO_FLAG": "N"}}, {"type": "Feature", "geometry": {"type": "Point", "coordinates": [-149.335549708089, 60.0926497575463]}, "properties": {"CWP_NAME": "SPRING CREEK WWTF", "CWP_STREET": "404 DELPHIN STREET", "CWP_CITY": "SEWARD", "CWP_STATE": "AK", "CWP_ZIP": "99664", "CWP_COUNTY": "Kenai Peninsula", "NPDES_ID": "AK0053724", "REGISTRY_ID": "110010111887", "CWP_FACILITY_TYPE_INDICATOR": "POTW", "CWP_MAJOR_MINOR_STATUS": "Minor", "CWP_PERMIT_STATUS_DESC": "Effective", "STATE_WATER_BODY_NAME": "RESURRECTION BAY", "CWP_CSO_FLAG": "N"}}, {"type": "Feature", "geometry": {"type": "Point", "coordinates": [-164.7238403562, 60.4750516263513]}, "properties": {"CWP_NAME": "NIGHTMUTE LAGOON", "CWP_STREET": "CITY OF NIGHTMUTE", "CWP_CITY": "NIGHTMUTE", "CWP_STATE": "AK", "CWP_ZIP": "99690", "CWP_COUNTY": null, "NPDES_ID": "AKG573013", "REGISTRY_ID": "110056343522", "CWP_FACILITY_TYPE_INDICATOR": "POTW", "CWP_MAJOR_MINOR_STATUS": "Minor", "CWP_PERMIT_STATUS_DESC": "Effective", "STATE_WATER_BODY_NAME": "WETLANDS ADJACENT TO TOKSOOK RIVER", "CWP_CSO_FLAG": "N"}}, {"type": "Feature", "geometry": {"type": "Point", "coordinates": [-157.889581086276, 67.076030964902]}, "properties": {"CWP_NAME": "AMBLER, CITY OF", "CWP_STREET": "CORNER OF REDSTONE AVENUE AND AMBLER AIRPORT", "CWP_CITY": "AMBLER", "CWP_STATE": "AK", "CWP_ZIP": "99786", "CWP_COUNTY": "Northwest Arctic", "NPDES_ID": "AKG570001", "REGISTRY_ID": "110020073775", "CWP_FACILITY_TYPE_INDICATOR": "POTW", "CWP_MAJOR_MINOR_STATUS": "Minor", "CWP_PERMIT_STATUS_DESC": "Terminated", "STATE_WATER_BODY_NAME": "KOBUK RIVER", "CWP_CSO_FLAG": "N"}}, {"type": "Feature", "geometry": {"type": "Point", "coordinates": [-131.696483665083, 55.3569575953528]}, "properties": {"CWP_NAME": "KETCHIKAN, CITY OF WWTP", "CWP_STREET": "3921 TONGASS AVE", "CWP_CITY": "KETCHIKAN", "CWP_STATE": "AK", "CWP_ZIP": "99901", "CWP_COUNTY": "Ketchikan Gateway", "NPDES_ID": "AK0021440", "REGISTRY_ID": "110039716144", "CWP_FACILITY_TYPE_INDICATOR": "POTW", "CWP_MAJOR_MINOR_STATUS": "Major", "CWP_PERMIT_STATUS_DESC": "Admin Continued", "STATE_WATER_BODY_NAME": "TONGASS NARROWS", "CWP_CSO_FLAG": "N"}}, {"type": "Feature", "geometry": {"type": "Point", "coordinates": [-163.162113120504, 62.0540237974095]}, "properties": {"CWP_NAME": "ST  MARYS LAGOON", "CWP_STREET": "P.O. BOX 209", "CWP_CITY": "ST. MARYS", "CWP_STATE": "AK", "CWP_ZIP": "99658", "CWP_COUNTY": null, "NPDES_ID": "AKG573016", "REGISTRY_ID": "110037096068", "CWP_FACILITY_TYPE_INDICATOR": "POTW", "CWP_MAJOR_MINOR_STATUS": "Minor", "CWP_PERMIT_STATUS_DESC": "Effective", "STATE_WATER_BODY_NAME": "ANDREAFSKY RIVER", "CWP_CSO_FLAG": "N"}}, {"type": "Feature", "geometry": {"type": "Point", "coordinates": [-139.749746444136, 59.5589585349561]}, "properties": {"CWP_NAME": "YKUTAT, CITY OF", "CWP_STREET": "350 MAX ITALIO DRIVE", "CWP_CITY": "YAKUTAT", "CWP_STATE": "AK", "CWP_ZIP": "99689", "CWP_COUNTY": "Yakutat City and Borough", "NPDES_ID": "AK0024783", "REGISTRY_ID": "110024461376", "CWP_FACILITY_TYPE_INDICATOR": "POTW", "CWP_MAJOR_MINOR_STATUS": "Minor", "CWP_PERMIT_STATUS_DESC": "Terminated", "STATE_WATER_BODY_NAME": "MONT BAY", "CWP_CSO_FLAG": "N"}}, {"type": "Feature", "geometry": {"type": "Point", "coordinates": [-160.434868948752, 66.9874374159485]}, "properties": {"CWP_NAME": "KIANA SEWAGE LAGOON", "CWP_STREET": "CITY OF KIANA", "CWP_CITY": "KIANA", "CWP_STATE": "AK", "CWP_ZIP": "99749", "CWP_COUNTY": "Northwest Arctic", "NPDES_ID": "AKG573036", "REGISTRY_ID": "110030898349", "CWP_FACILITY_TYPE_INDICATOR": "POTW", "CWP_MAJOR_MINOR_STATUS": "Minor", "CWP_PERMIT_STATUS_DESC": "Effective", "STATE_WATER_BODY_NAME": "WETLANDS", "CWP_CSO_FLAG": "N"}}, {"type": "Feature", "geometry": {"type": "Point", "coordinates": [-151.088062406136, 60.4834597385965]}, "properties": {"CWP_NAME": "SOLDOTNA WW TREATMENT FACILITY", "CWP_STREET": "215 KOBUK ST", "CWP_CITY": "SOLDOTNA", "CWP_STATE": "AK", "CWP_ZIP": "99669", "CWP_COUNTY": "Kenai Peninsula", "NPDES_ID": "AK0020036", "REGISTRY_ID": "110063646390", "CWP_FACILITY_TYPE_INDICATOR": "POTW", "CWP_MAJOR_MINOR_STATUS": "Major", "CWP_PERMIT_STATUS_DESC": "Admin Continued", "STATE_WATER_BODY_NAME": null, "CWP_CSO_FLAG": "N"}}, {"type": "Feature", "geometry": {"type": "Point", "coordinates": [-160.484389916822, 55.3430885984129]}, "properties": {"CWP_NAME": "SAND POINT, CITY OF", "CWP_STREET": "WASTEWATER TREATMENT PLANT", "CWP_CITY": "SAND POINT", "CWP_STATE": "AK", "CWP_ZIP": "99661", "CWP_COUNTY": "Aleutians East", "NPDES_ID": "AK0029254", "REGISTRY_ID": "110039730164", "CWP_FACILITY_TYPE_INDICATOR": "POTW", "CWP_MAJOR_MINOR_STATUS": "Minor", "CWP_PERMIT_STATUS_DESC": "Terminated", "STATE_WATER_BODY_NAME": "POPOF STRAIT", "CWP_CSO_FLAG": "N"}}, {"type": "Feature", "geometry": {"type": "Point", "coordinates": [-133.845013576527, 56.9504642104653]}, "properties": {"CWP_NAME": "FOREST SERVICE KAKE ADMIN SITE WWTF", "CWP_STREET": "UNKOWN", "CWP_CITY": "KAKE", "CWP_STATE": "AK", "CWP_ZIP": "99830", "CWP_COUNTY": null, "NPDES_ID": "AKG572020", "REGISTRY_ID": "110022285150", "CWP_FACILITY_TYPE_INDICATOR": "NON-POTW", "CWP_MAJOR_MINOR_STATUS": "Minor", "CWP_PERMIT_STATUS_DESC": "Admin Continued", "STATE_WATER_BODY_NAME": "KEKU STRAIT", "CWP_CSO_FLAG": "N"}}, {"type": "Feature", "geometry": {"type": "Point", "coordinates": [-133.106244958015, 55.5440874262801]}, "properties": {"CWP_NAME": "CITY OF KLAWOCK WWTP", "CWP_STREET": "609 SUMMIT STREET", "CWP_CITY": "KLAWOCK", "CWP_STATE": "AK", "CWP_ZIP": "99925", "CWP_COUNTY": null, "NPDES_ID": "AK0021504", "REGISTRY_ID": "110012337943", "CWP_FACILITY_TYPE_INDICATOR": "POTW", "CWP_MAJOR_MINOR_STATUS": "Minor", "CWP_PERMIT_STATUS_DESC": "Terminated", "STATE_WATER_BODY_NAME": "KLAWAK INLET PACIFIC OCEAN", "CWP_CSO_FLAG": "N"}}, {"type": "Feature", "geometry": {"type": "Point", "coordinates": [-133.106244958015, 55.5440874262801]}, "properties": {"CWP_NAME": "KLAWOCK, CITY OF", "CWP_STREET": "SW SIDE OF PRINCE OF WALES ISLAND, KLAWOCK ISLAND", "CWP_CITY": "KLAWOCK", "CWP_STATE": "AK", "CWP_ZIP": "99921", "CWP_COUNTY": null, "NPDES_ID": "AK0053376", "REGISTRY_ID": "110012337943", "CWP_FACILITY_TYPE_INDICATOR": "POTW", "CWP_MAJOR_MINOR_STATUS": "Other/Nonclassified", "CWP_PERMIT_STATUS_DESC": "Pending", "STATE_WATER_BODY_NAME": "KLAWOCK INLET", "CWP_CSO_FLAG": "N"}}, {"type": "Feature", "geometry": {"type": "Point", "coordinates": [-160.020444784805, 66.6045943294962]}, "properties": {"CWP_NAME": "SELAWIK  LAGOON", "CWP_STREET": "P.O. BOX 99", "CWP_CITY": "SELAWIK", "CWP_STATE": "AK", "CWP_ZIP": "99770", "CWP_COUNTY": "Northwest Arctic", "NPDES_ID": "AKG573019", "REGISTRY_ID": "110044879496", "CWP_FACILITY_TYPE_INDICATOR": "POTW", "CWP_MAJOR_MINOR_STATUS": "Minor", "CWP_PERMIT_STATUS_DESC": "Effective", "STATE_WATER_BODY_NAME": "TUNDRA", "CWP_CSO_FLAG": "N"}}, {"type": "Feature", "geometry": {"type": "Point", "coordinates": [-150.09151059584, 62.3347097130008]}, "properties": {"CWP_NAME": "TALKEETNA LAGOON", "CWP_STREET": "350 E DAHLIA AVE", "CWP_CITY": "PALMER", "CWP_STATE": "AK", "CWP_ZIP": "99645", "CWP_COUNTY": null, "NPDES_ID": "AKG573033", "REGISTRY_ID": "110037116643", "CWP_FACILITY_TYPE_INDICATOR": "POTW", "CWP_MAJOR_MINOR_STATUS": "Minor", "CWP_PERMIT_STATUS_DESC": "Effective", "STATE_WATER_BODY_NAME": "TALKEETNA RIVER SLOUGH", "CWP_CSO_FLAG": "N"}}, {"type": "Feature", "geometry": {"type": "Point", "coordinates": [-135.886898295781, 58.4541249450279]}, "properties": {"CWP_NAME": "BARTLETT COVE WWTF", "CWP_STREET": "US DOI, NPS", "CWP_CITY": "GUSTAVUS", "CWP_STATE": "AK", "CWP_ZIP": "99826", "CWP_COUNTY": null, "NPDES_ID": "AKG572007", "REGISTRY_ID": "110055500275", "CWP_FACILITY_TYPE_INDICATOR": "NON-POTW", "CWP_MAJOR_MINOR_STATUS": "Minor", "CWP_PERMIT_STATUS_DESC": "Admin Continued", "STATE_WATER_BODY_NAME": "BARTLETT COVE", "CWP_CSO_FLAG": "N"}}, {"type": "Feature", "geometry": {"type": "Point", "coordinates": [174.107657468981, 52.7224640668387]}, "properties": {"CWP_NAME": "EARECKSON AIR STATION LAGOON", "CWP_STREET": "SHEMYA ISLAND", "CWP_CITY": "SHEMYA ISLAND", "CWP_STATE": "AK", "CWP_ZIP": "99666", "CWP_COUNTY": null, "NPDES_ID": "AKG573005", "REGISTRY_ID": "110012177429", "CWP_FACILITY_TYPE_INDICATOR": "NON-POTW", "CWP_MAJOR_MINOR_STATUS": "Minor", "CWP_PERMIT_STATUS_DESC": "Effective", "STATE_WATER_BODY_NAME": null, "CWP_CSO_FLAG": "N"}}, {"type": "Feature", "geometry": {"type": "Point", "coordinates": [-131.760250183339, 55.5416081873299]}, "properties": {"CWP_NAME": "SEAFAC WWTF", "CWP_STREET": "NO. 1 BACK ISLAND", "CWP_CITY": "KETCHIKAN", "CWP_STATE": "AK", "CWP_ZIP": "99901", "CWP_COUNTY": "Ketchikan Gateway", "NPDES_ID": "AKG572040", "REGISTRY_ID": "110024380141", "CWP_FACILITY_TYPE_INDICATOR": "NON-POTW", "CWP_MAJOR_MINOR_STATUS": "Minor", "CWP_PERMIT_STATUS_DESC": "Admin Continued", "STATE_WATER_BODY_NAME": "BEHM CANAL", "CWP_CSO_FLAG": "N"}}, {"type": "Feature", "geometry": {"type": "Point", "coordinates": [-164.664882328531, 62.6817107117461]}, "properties": {"CWP_NAME": "ALAKANUK LAGOON", "CWP_STREET": "ANDERSON STREET", "CWP_CITY": "ALAKANUK", "CWP_STATE": "AK", "CWP_ZIP": "99554", "CWP_COUNTY": null, "NPDES_ID": "AKG573001", "REGISTRY_ID": "110056343210", "CWP_FACILITY_TYPE_INDICATOR": "POTW", "CWP_MAJOR_MINOR_STATUS": "Minor", "CWP_PERMIT_STATUS_DESC": "Effective", "STATE_WATER_BODY_NAME": "UNNAMED POND", "CWP_CSO_FLAG": "N"}}, {"type": "Feature", "geometry": {"type": "Point", "coordinates": [-132.832798727413, 55.2296548016555]}, "properties": {"CWP_NAME": "HYDABURG WWTP", "CWP_STREET": "KLAWOCK HYDABURG HWY", "CWP_CITY": "HYDABURG", "CWP_STATE": "AK", "CWP_ZIP": "99922", "CWP_COUNTY": null, "NPDES_ID": "AK0024741", "REGISTRY_ID": "110009037835", "CWP_FACILITY_TYPE_INDICATOR": "POTW", "CWP_MAJOR_MINOR_STATUS": "Minor", "CWP_PERMIT_STATUS_DESC": "Terminated", "STATE_WATER_BODY_NAME": "SUKKWAN STRAIT", "CWP_CSO_FLAG": "N"}}, {"type": "Feature", "geometry": {"type": "Point", "coordinates": [-164.62873286051, 60.936467653447]}, "properties": {"CWP_NAME": "NEWTOK SCHOOL WWTF", "CWP_STREET": "LOWER KUSKOKWIM SCHOOL DISTRICT - AYAPRUN SCHOOL", "CWP_CITY": "NEWTOK", "CWP_STATE": "AK", "CWP_ZIP": "99559", "CWP_COUNTY": null, "NPDES_ID": "AKG572005", "REGISTRY_ID": "110045688993", "CWP_FACILITY_TYPE_INDICATOR": "POTW", "CWP_MAJOR_MINOR_STATUS": "Minor", "CWP_PERMIT_STATUS_DESC": "Admin Continued", "STATE_WATER_BODY_NAME": "NEWTOK RIVER", "CWP_CSO_FLAG": "N"}}, {"type": "Feature", "geometry": {"type": "Point", "coordinates": [-131.538869336795, 55.294305447983]}, "properties": {"CWP_NAME": "KETCHIKAN GATEWAY BOROUGH", "CWP_STREET": "344 FRONT", "CWP_CITY": "KETCHIKAN", "CWP_STATE": "AK", "CWP_ZIP": "99901", "CWP_COUNTY": "Ketchikan Gateway", "NPDES_ID": "AK0040584", "REGISTRY_ID": "110064600454", "CWP_FACILITY_TYPE_INDICATOR": "POTW", "CWP_MAJOR_MINOR_STATUS": "Other/Nonclassified", "CWP_PERMIT_STATUS_DESC": "Not Needed", "STATE_WATER_BODY_NAME": "CLOVER PASSAGE", "CWP_CSO_FLAG": "N"}}, {"type": "Feature", "geometry": {"type": "Point", "coordinates": [-131.538869336795, 55.294305447983]}, "properties": {"CWP_NAME": "MOUNTAIN POINT WWTF", "CWP_STREET": "5541 SOUTH TONGASS HIGHWAY", "CWP_CITY": "KETCHIKAN", "CWP_STATE": "AK", "CWP_ZIP": "99901", "CWP_COUNTY": "Ketchikan Gateway", "NPDES_ID": "AKG572028", "REGISTRY_ID": "110064600454", "CWP_FACILITY_TYPE_INDICATOR": "POTW", "CWP_MAJOR_MINOR_STATUS": "Minor", "CWP_PERMIT_STATUS_DESC": "Admin Continued", "STATE_WATER_BODY_NAME": "REVILLAGIGEDO CHANNEL", "CWP_CSO_FLAG": "N"}}]}