{"type": "FeatureCollection", "features": [{"type": "Feature", "geometry": {"type": "Point", "coordinates": [-73.018871113348, 44.6633088002414]}, "properties": {"CWP_NAME": "FAIRFAX", "CWP_STREET": "142 HUNT ST", "CWP_CITY": "FAIRFAX", "CWP_STATE": "VT", "CWP_ZIP": "05454", "CWP_COUNTY": null, "NPDES_ID": "VT0101087", "REGISTRY_ID": "110022524721", "CWP_FACILITY_TYPE_INDICATOR": "POTW", "CWP_MAJOR_MINOR_STATUS": "Minor", "CWP_PERMIT_STATUS_DESC": "Effective", "STATE_WATER_BODY_NAME": "LAMOILLE RIVER", "CWP_CSO_FLAG": "N"}}, {"type": "Feature", "geometry": {"type": "Point", "coordinates": [-73.0180616557149, 43.7038192392544]}, "properties": {"CWP_NAME": "PITTSFORD", "CWP_STREET": "305 ARCH ST", "CWP_CITY": "PITTSFORD", "CWP_STATE": "VT", "CWP_ZIP": "05763", "CWP_COUNTY": "Rutland", "NPDES_ID": "VT0100692", "REGISTRY_ID": "110010911193", "CWP_FACILITY_TYPE_INDICATOR": "POTW", "CWP_MAJOR_MINOR_STATUS": "Minor", "CWP_PERMIT_STATUS_DESC": "Effective", "STATE_WATER_BODY_NAME": "FURNACE BROOK", "CWP_CSO_FLAG": "N"}}, {"type": "Feature", "geometry": {"type": "Point", "coordinates": [-73.2987222631021, 44.9652094552022]}, "properties": {"CWP_NAME": "ALBURGH", "CWP_STREET": "1 FIREHOUSE RD", "CWP_CITY": "ALBURGH", "CWP_STATE": "VT", "CWP_ZIP": "05440", "CWP_COUNTY": "Grand Isle", "NPDES_ID": "VT0100005", "REGISTRY_ID": "110010911479", "CWP_FACILITY_TYPE_INDICATOR": "POTW", "CWP_MAJOR_MINOR_STATUS": "Minor", "CWP_PERMIT_STATUS_DESC": "Admin Continued", "STATE_WATER_BODY_NAME": "LAKE CHAMPLAIN", "CWP_CSO_FLAG": "N"}}, {"type": "Feature", "geometry": {"type": "Point", "coordinates": [-71.949050723647, 44.4230890854217]}, "properties": {"CWP_NAME": "ST. JOHNSBURY W F P", "CWP_STREET": "ROUTE 18", "CWP_CITY": "WATERFORD", "CWP_STATE": "VT", "CWP_ZIP": "05819", "CWP_COUNTY": "Caledonia", "NPDES_ID": "VT0020826", "REGISTRY_ID": "110043639462", "CWP_FACILITY_TYPE_INDICATOR": "POTW", "CWP_MAJOR_MINOR_STATUS": "Minor", "CWP_PERMIT_STATUS_DESC": "Terminated", "STATE_WATER_BODY_NAME": " LAGOON DECANT-STILES BROOK", "CWP_CSO_FLAG": "N"}}, {"type": "Feature", "geometry": {"type": "Point", "coordinates": [-72.6240604355313, 43.5876600987081]}, "properties": {"CWP_NAME": "BRIDGEWATER", "CWP_STREET": "7335 US ROUTE 4", "CWP_CITY": "BRIDGEWATER", "CWP_STATE": "VT", "CWP_ZIP": "05034", "CWP_COUNTY": "Windsor", "NPDES_ID": "VT0100846", "REGISTRY_ID": "110010844685", "CWP_FACILITY_TYPE_INDICATOR": "POTW", "CWP_MAJOR_MINOR_STATUS": "Minor", "CWP_PERMIT_STATUS_DESC": "Expired", "STATE_WATER_BODY_NAME": "OTTAUQUECHEE RIV", "CWP_CSO_FLAG": "N"}}, {"type": "Feature", "geometry": {"type": "Point", "coordinates": [-73.1977346241724, 44.4907972108943]}, "properties": {"CWP_NAME": "WINOOSKI", "CWP_STREET": "250 WEST ALLEN ST", "CWP_CITY": "WINOOSKI", "CWP_STATE": "VT", "CWP_ZIP": "05404", "CWP_COUNTY": "Chittenden", "NPDES_ID": "VT0100510", "REGISTRY_ID": "110006620022", "CWP_FACILITY_TYPE_INDICATOR": "POTW", "CWP_MAJOR_MINOR_STATUS": "Major", "CWP_PERMIT_STATUS_DESC": "Effective", "STATE_WATER_BODY_NAME": "WINOOSKI RIVER", "CWP_CSO_FLAG": "Y"}}, {"type": "Feature", "geometry": {"type": "Point", "coordinates": [-72.8341314161701, 44.6411090383726]}, "properties": {"CWP_NAME": "JEFFERSONVILLE", "CWP_STREET": "244 UPPER PLEASANT VALLEY RD", "CWP_CITY": "JEFFERSONVILLE", "CWP_STATE": "VT", "CWP_ZIP": "05464", "CWP_COUNTY": "Addison", "NPDES_ID": "VT0101150", "REGISTRY_ID": "110010910657", "CWP_FACILITY_TYPE_INDICATOR": "POTW", "CWP_MAJOR_MINOR_STATUS": "Minor", "CWP_PERMIT_STATUS_DESC": "Effective", "STATE_WATER_BODY_NAME": "LAMOILLE RIVER", "CWP_CSO_FLAG": "N"}}, {"type": "Feature", "geometry": {"type": "Point", "coordinates": [-72.8806109719432, 42.8693984186547]}, "properties": {"CWP_NAME": "WILMINGTON", "CWP_STREET": "59 FAIRVIEW AVE", "CWP_CITY": "WILMINGTON", "CWP_STATE": "VT", "CWP_ZIP": "05363", "CWP_COUNTY": "Windham", "NPDES_ID": "VT0100706", "REGISTRY_ID": "110010911200", "CWP_FACILITY_TYPE_INDICATOR": "POTW", "CWP_MAJOR_MINOR_STATUS": "Minor", "CWP_PERMIT_STATUS_DESC": "Effective", "STATE_WATER_BODY_NAME": "NORTH BRANCH OF THE DEERFIELD RIVER", "CWP_CSO_FLAG": "N"}}, {"type": "Feature", "geometry": {"type": "Point", "coordinates": [-72.467461415638, 43.2791988810335]}, "properties": {"CWP_NAME": "SPRINGFIELD", "CWP_STREET": "325 CLINTON ST", "CWP_CITY": "SPRINGFIELD", "CWP_STATE": "VT", "CWP_ZIP": "05156", "CWP_COUNTY": "Windsor", "NPDES_ID": "VT0100374", "REGISTRY_ID": "110002052064", "CWP_FACILITY_TYPE_INDICATOR": "POTW", "CWP_MAJOR_MINOR_STATUS": "Major", "CWP_PERMIT_STATUS_DESC": "Admin Continued", "STATE_WATER_BODY_NAME": "BLACK RIVER", "CWP_CSO_FLAG": "Y"}}, {"type": "Feature", "geometry": {"type": "Point", "coordinates": [-73.0863625695433, 44.8297868276823]}, "properties": {"CWP_NAME": "ST ALBANS CITY", "CWP_STREET": "190 REWES DR", "CWP_CITY": "ST ALBANS", "CWP_STATE": "VT", "CWP_ZIP": "05478", "CWP_COUNTY": "Franklin", "NPDES_ID": "VT0100323", "REGISTRY_ID": "110002056220", "CWP_FACILITY_TYPE_INDICATOR": "POTW", "CWP_MAJOR_MINOR_STATUS": "Major", "CWP_PERMIT_STATUS_DESC": "Admin Continued", "STATE_WATER_BODY_NAME": "WETLANDS CONTIGUOUS WITH LAKE CHAMPLAIN", "CWP_CSO_FLAG": "N"}}, {"type": "Feature", "geometry": {"type": "Point", "coordinates": [-72.376171287739, 44.5152785897968]}, "properties": {"CWP_NAME": "HARDWICK", "CWP_STREET": "107 TREATMENT PLANT RD", "CWP_CITY": "HARDWICK", "CWP_STATE": "VT", "CWP_ZIP": "05843", "CWP_COUNTY": "Caledonia", "NPDES_ID": "VT0100137", "REGISTRY_ID": "110039942015", "CWP_FACILITY_TYPE_INDICATOR": "POTW", "CWP_MAJOR_MINOR_STATUS": "Minor", "CWP_PERMIT_STATUS_DESC": "Effective", "STATE_WATER_BODY_NAME": "LAMOILLE RIVER", "CWP_CSO_FLAG": "N"}}, {"type": "Feature", "geometry": {"type": "Point", "coordinates": [-72.3541612611237, 44.3486090046601]}, "properties": {"CWP_NAME": "MARSHFIELD", "CWP_STREET": "232 SCHOOL ST", "CWP_CITY": "MARSHFIELD", "CWP_STATE": "VT", "CWP_ZIP": "05658", "CWP_COUNTY": "Washington", "NPDES_ID": "VT0100471", "REGISTRY_ID": "110010911059", "CWP_FACILITY_TYPE_INDICATOR": "POTW", "CWP_MAJOR_MINOR_STATUS": "Minor", "CWP_PERMIT_STATUS_DESC": "Effective", "STATE_WATER_BODY_NAME": "WINOOSKI RIVER", "CWP_CSO_FLAG": "N"}}, {"type": "Feature", "geometry": {"type": "Point", "coordinates": [-72.5058912926246, 43.8018786532859]}, "properties": {"CWP_NAME": "ROYALTON", "CWP_STREET": "120 DUTTON RD", "CWP_CITY": "ROYALTON", "CWP_STATE": "VT", "CWP_ZIP": "05068", "CWP_COUNTY": "Windsor", "NPDES_ID": "VT0100854", "REGISTRY_ID": "110010911273", "CWP_FACILITY_TYPE_INDICATOR": "POTW", "CWP_MAJOR_MINOR_STATUS": "Minor", "CWP_PERMIT_STATUS_DESC": "Effective", "STATE_WATER_BODY_NAME": "WHITE RIVER", "CWP_CSO_FLAG": "N"}}, {"type": "Feature", "geometry": {"type": "Point", "coordinates": [-72.2000678141416, 44.9394169345521]}, "properties": {"CWP_NAME": "NEWPORT CITY", "CWP_STREET": "94 TREATMENT PLANT LANE", "CWP_CITY": "NEWPORT", "CWP_STATE": "VT", "CWP_ZIP": "05855", "CWP_COUNTY": "Orleans", "NPDES_ID": "VT0100200", "REGISTRY_ID": "110000713595", "CWP_FACILITY_TYPE_INDICATOR": "POTW", "CWP_MAJOR_MINOR_STATUS": "Major", "CWP_PERMIT_STATUS_DESC": "Admin Continued", "STATE_WATER_BODY_NAME": "CLYDE RIVER, LAKE MEMPHREMAGOG, UPPER SOUTH BAY", "CWP_CSO_FLAG": "N"}}, {"type": "Feature", "geometry": {"type": "Point", "coordinates": [-73.1325516307687, 42.8957989126311]}, "properties": {"CWP_NAME": "BENNINGTON WATER TREATMENT FACILITY", "CWP_STREET": "1378 ROUTE 9", "CWP_CITY": "WOODFORD", "CWP_STATE": "VT", "CWP_ZIP": "05210", "CWP_COUNTY": "Bennington", "NPDES_ID": "VT0001147", "REGISTRY_ID": "110017753402", "CWP_FACILITY_TYPE_INDICATOR": "POTW", "CWP_MAJOR_MINOR_STATUS": "Minor", "CWP_PERMIT_STATUS_DESC": "Expired", "STATE_WATER_BODY_NAME": "ROARING BRANCH", "CWP_CSO_FLAG": "N"}}, {"type": "Feature", "geometry": {"type": "Point", "coordinates": [-73.266161246347, 42.7965083395755]}, "properties": {"CWP_NAME": "POWNAL", "CWP_STREET": "52 DEAN RD", "CWP_CITY": "NORTH POWNAL", "CWP_STATE": "VT", "CWP_ZIP": "05260", "CWP_COUNTY": "Bennington", "NPDES_ID": "VT0101281", "REGISTRY_ID": "110013666247", "CWP_FACILITY_TYPE_INDICATOR": "POTW", "CWP_MAJOR_MINOR_STATUS": "Minor", "CWP_PERMIT_STATUS_DESC": "Effective", "STATE_WATER_BODY_NAME": "HOOSIC RIVER", "CWP_CSO_FLAG": "N"}}, {"type": "Feature", "geometry": {"type": "Point", "coordinates": [-72.8570909966146, 42.8978188000709]}, "properties": {"CWP_NAME": "COLD BROOK FD 1 - DIRECT DISCHARGE", "CWP_STREET": "18 COLD BROOK RD", "CWP_CITY": "WILMINGTON", "CWP_STATE": "VT", "CWP_ZIP": "05363", "CWP_COUNTY": "Windham", "NPDES_ID": "VT0101214", "REGISTRY_ID": "110010910684", "CWP_FACILITY_TYPE_INDICATOR": "POTW", "CWP_MAJOR_MINOR_STATUS": "Minor", "CWP_PERMIT_STATUS_DESC": "Expired", "STATE_WATER_BODY_NAME": "NORTH BRANCH DEERFIELD RIVER", "CWP_CSO_FLAG": "N"}}, {"type": "Feature", "geometry": {"type": "Point", "coordinates": [-72.6003615385082, 44.2546298252425]}, "properties": {"CWP_NAME": "MONTPELIER", "CWP_STREET": "949 DOG RIVER RD", "CWP_CITY": "MONTPELIER", "CWP_STATE": "VT", "CWP_ZIP": "05602", "CWP_COUNTY": "Washington", "NPDES_ID": "VT0100196", "REGISTRY_ID": "110000547374", "CWP_FACILITY_TYPE_INDICATOR": "POTW", "CWP_MAJOR_MINOR_STATUS": "Major", "CWP_PERMIT_STATUS_DESC": "Admin Continued", "STATE_WATER_BODY_NAME": "NORTH BRANCH RIVER, WINOOSKI RIVER", "CWP_CSO_FLAG": "Y"}}, {"type": "Feature", "geometry": {"type": "Point", "coordinates": [-72.0167013547597, 44.5250092687503]}, "properties": {"CWP_NAME": "LYNDON", "CWP_STREET": "217 ROSE LANE", "CWP_CITY": "LYNDONVILLE", "CWP_STATE": "VT", "CWP_ZIP": "05851", "CWP_COUNTY": "Caledonia", "NPDES_ID": "VT0100595", "REGISTRY_ID": "110010911111", "CWP_FACILITY_TYPE_INDICATOR": "POTW", "CWP_MAJOR_MINOR_STATUS": "Minor", "CWP_PERMIT_STATUS_DESC": "Expired", "STATE_WATER_BODY_NAME": "PASSUMPSIC RIVER", "CWP_CSO_FLAG": "N"}}, {"type": "Feature", "geometry": {"type": "Point", "coordinates": [-73.1342712766041, 44.9255628419965]}, "properties": {"CWP_NAME": "SWANTON", "CWP_STREET": "33 NORTH ST", "CWP_CITY": "SWANTON", "CWP_STATE": "VT", "CWP_ZIP": "05488", "CWP_COUNTY": "Franklin", "NPDES_ID": "VT0100501", "REGISTRY_ID": "110010911086", "CWP_FACILITY_TYPE_INDICATOR": "POTW", "CWP_MAJOR_MINOR_STATUS": "Major", "CWP_PERMIT_STATUS_DESC": "Effective", "STATE_WATER_BODY_NAME": "MISSISQUOI RIVER", "CWP_CSO_FLAG": "N"}}, {"type": "Feature", "geometry": {"type": "Point", "coordinates": [-73.2687676022724, 44.5279356180696]}, "properties": {"CWP_NAME": "BURLINGTON NORTH", "CWP_STREET": "3000 NORTH AVENUE", "CWP_CITY": "BURLINGTON", "CWP_STATE": "VT", "CWP_ZIP": "05402", "CWP_COUNTY": "Chittenden", "NPDES_ID": "VT0100226", "REGISTRY_ID": "110020045217", "CWP_FACILITY_TYPE_INDICATOR": "POTW", "CWP_MAJOR_MINOR_STATUS": "Major", "CWP_PERMIT_STATUS_DESC": "Admin Continued", "STATE_WATER_BODY_NAME": "WINOOSKI RIVER", "CWP_CSO_FLAG": "N"}}, {"type": "Feature", "geometry": {"type": "Point", "coordinates": [-72.6163622522144, 43.8246431924635]}, "properties": {"CWP_NAME": "BETHEL", "CWP_STREET": "66 VERMONT CASTINGS RD", "CWP_CITY": "BETHEL", "CWP_STATE": "VT", "CWP_ZIP": "05032", "CWP_COUNTY": null, "NPDES_ID": "VT0100048", "REGISTRY_ID": "110010911503", "CWP_FACILITY_TYPE_INDICATOR": "POTW", "CWP_MAJOR_MINOR_STATUS": "Minor", "CWP_PERMIT_STATUS_DESC": "Expired", "STATE_WATER_BODY_NAME": "WHITE RIVER", "CWP_CSO_FLAG": "N"}}, {"type": "Feature", "geometry": {"type": "Point", "coordinates": [-71.8900929759039, 44.813344562878]}, "properties": {"CWP_NAME": "BRIGHTON", "CWP_STREET": "365 MEADOW ST", "CWP_CITY": "BRIGHTON", "CWP_STATE": "VT", "CWP_ZIP": "05846", "CWP_COUNTY": "Essex", "NPDES_ID": "VT0100072", "REGISTRY_ID": "110010911521", "CWP_FACILITY_TYPE_INDICATOR": "POTW", "CWP_MAJOR_MINOR_STATUS": "Minor", "CWP_PERMIT_STATUS_DESC": "Admin Continued", "STATE_WATER_BODY_NAME": "PHERRINS RIVER", "CWP_CSO_FLAG": "N"}}, {"type": "Feature", "geometry": {"type": "Point", "coordinates": [-72.5202111476222, 42.9708284870815]}, "properties": {"CWP_NAME": "PUTNEY", "CWP_STREET": "23 TREATMETN PLANT RD", "CWP_CITY": "PUTNEY", "CWP_STATE": "VT", "CWP_ZIP": "05346", "CWP_COUNTY": "Windham", "NPDES_ID": "VT0100277", "REGISTRY_ID": "110010131883", "CWP_FACILITY_TYPE_INDICATOR": "POTW", "CWP_MAJOR_MINOR_STATUS": "Minor", "CWP_PERMIT_STATUS_DESC": "Expired", "STATE_WATER_BODY_NAME": "SACKETTS BROOK", "CWP_CSO_FLAG": "N"}}, {"type": "Feature", "geometry": {"type": "Point", "coordinates": [-72.8145314588742, 42.7853090960266]}, "properties": {"CWP_NAME": "WHITINGHAM - JACKSONVILLE", "CWP_STREET": "930 VT ROUTE 112", "CWP_CITY": "JACKSONVILLE", "CWP_STATE": "VT", "CWP_ZIP": "05342", "CWP_COUNTY": "Windham", "NPDES_ID": "VT0101044", "REGISTRY_ID": "110010911344", "CWP_FACILITY_TYPE_INDICATOR": "POTW", "CWP_MAJOR_MINOR_STATUS": "Minor", "CWP_PERMIT_STATUS_DESC": "Expired", "STATE_WATER_BODY_NAME": "NORTH RIVER", "CWP_CSO_FLAG": "N"}}, {"type": "Feature", "geometry": {"type": "Point", "coordinates": [-73.0907412960926, 43.789789043908]}, "properties": {"CWP_NAME": "BRANDON", "CWP_STREET": "500 UNION STREET", "CWP_CITY": "BRANDON", "CWP_STATE": "VT", "CWP_ZIP": "05733", "CWP_COUNTY": "Rutland", "NPDES_ID": "VT0100056", "REGISTRY_ID": "110039944157", "CWP_FACILITY_TYPE_INDICATOR": "POTW", "CWP_MAJOR_MINOR_STATUS": "Minor", "CWP_PERMIT_STATUS_DESC": "Effective", "STATE_WATER_BODY_NAME": "NESHOBE RIVER", "CWP_CSO_FLAG": "N"}}, {"type": "Feature", "geometry": {"type": "Point", "coordinates": [-72.1895610178846, 44.75017885861]}, "properties": {"CWP_NAME": "BARTON", "CWP_STREET": "112 MUNICIPAL LANE", "CWP_CITY": "BARTON", "CWP_STATE": "VT", "CWP_ZIP": "05822", "CWP_COUNTY": "Orleans", "NPDES_ID": "VT0100641", "REGISTRY_ID": "110035964463", "CWP_FACILITY_TYPE_INDICATOR": "POTW", "CWP_MAJOR_MINOR_STATUS": "Minor", "CWP_PERMIT_STATUS_DESC": "Effective", "STATE_WATER_BODY_NAME": "BARTON RIVER, CRYSTAL LAKE", "CWP_CSO_FLAG": "N"}}, {"type": "Feature", "geometry": {"type": "Point", "coordinates": [-72.4141514098371, 43.6444190287499]}, "properties": {"CWP_NAME": "HARTFORD - QUECHEE", "CWP_STREET": "142 IZZO PLACE", "CWP_CITY": "HARTFORD", "CWP_STATE": "VT", "CWP_ZIP": "05047", "CWP_COUNTY": "Windsor", "NPDES_ID": "VT0100978", "REGISTRY_ID": "110010844694", "CWP_FACILITY_TYPE_INDICATOR": "POTW", "CWP_MAJOR_MINOR_STATUS": "Minor", "CWP_PERMIT_STATUS_DESC": "Effective", "STATE_WATER_BODY_NAME": "OTTAUQUECHEE RIVER", "CWP_CSO_FLAG": "N"}}, {"type": "Feature", "geometry": {"type": "Point", "coordinates": [-72.500000722218, 43.6667087267168]}, "properties": {"CWP_NAME": "WOODSTOCK - SOUTH", "CWP_STREET": "ROUTE 106, 63 SOUTH ROAD", "CWP_CITY": "SOUTH WOODSTOCK", "CWP_STATE": "VT", "CWP_ZIP": "05486", "CWP_COUNTY": "Windsor", "NPDES_ID": "VT0100749", "REGISTRY_ID": "110010911228", "CWP_FACILITY_TYPE_INDICATOR": "POTW", "CWP_MAJOR_MINOR_STATUS": "Minor", "CWP_PERMIT_STATUS_DESC": "Expired", "STATE_WATER_BODY_NAME": "KEDRON BROOK", "CWP_CSO_FLAG": "N"}}, {"type": "Feature", "geometry": {"type": "Point", "coordinates": [-72.5329510246818, 44.1265060906894]}, "properties": {"CWP_NAME": "WILLIAMSTOWN", "CWP_STREET": "61 VESPER RD", "CWP_CITY": "WILLIAMSTOWN", "CWP_STATE": "VT", "CWP_ZIP": "05679", "CWP_COUNTY": "Orange", "NPDES_ID": "VT0100722", "REGISTRY_ID": "110010131874", "CWP_FACILITY_TYPE_INDICATOR": "POTW", "CWP_MAJOR_MINOR_STATUS": "Minor", "CWP_PERMIT_STATUS_DESC": "Effective", "STATE_WATER_BODY_NAME": "STEVENS BRANCH", "CWP_CSO_FLAG": "N"}}, {"type": "Feature", "geometry": {"type": "Point", "coordinates": [-73.1703115872433, 44.4815593742091]}, "properties": {"CWP_NAME": "SOUTH BURLINGTON - AIRPORT PARKWAY", "CWP_STREET": "1015 AIRPORT PARKWAY", "CWP_CITY": "SOUTH BURLINGTON", "CWP_STATE": "VT", "CWP_ZIP": "05403", "CWP_COUNTY": "Chittenden", "NPDES_ID": "VT0100366", "REGISTRY_ID": "110002052073", "CWP_FACILITY_TYPE_INDICATOR": "POTW", "CWP_MAJOR_MINOR_STATUS": "Major", "CWP_PERMIT_STATUS_DESC": "Effective", "STATE_WATER_BODY_NAME": "WINOOSKI RIVER", "CWP_CSO_FLAG": "N"}}, {"type": "Feature", "geometry": {"type": "Point", "coordinates": [-72.0165727438747, 44.4106478596582]}, "properties": {"CWP_NAME": "ST JOHNSBURY", "CWP_STREET": "799 BAY ST", "CWP_CITY": "ST JOHNSBURY", "CWP_STATE": "VT", "CWP_ZIP": "05819", "CWP_COUNTY": "Caledonia", "NPDES_ID": "VT0100579", "REGISTRY_ID": "110010911102", "CWP_FACILITY_TYPE_INDICATOR": "POTW", "CWP_MAJOR_MINOR_STATUS": "Major", "CWP_PERMIT_STATUS_DESC": "Effective", "STATE_WATER_BODY_NAME": "PASSUMPSAC RIVER, PASSUMPSIC RIVER, SLEEPERS RIVER", "CWP_CSO_FLAG": "Y"}}, {"type": "Feature", "geometry": {"type": "Point", "coordinates": [-72.3286411937989, 44.3903888173335]}, "properties": {"CWP_NAME": "CABOT", "CWP_STREET": "183 SAWMILL RD", "CWP_CITY": "CABOT", "CWP_STATE": "VT", "CWP_ZIP": "05647", "CWP_COUNTY": "Washington", "NPDES_ID": "VT0101257", "REGISTRY_ID": "110010910719", "CWP_FACILITY_TYPE_INDICATOR": "POTW", "CWP_MAJOR_MINOR_STATUS": "Minor", "CWP_PERMIT_STATUS_DESC": "Effective", "STATE_WATER_BODY_NAME": "WINOOSKI RIVER", "CWP_CSO_FLAG": "N"}}, {"type": "Feature", "geometry": {"type": "Point", "coordinates": [-72.3146629764064, 43.6464532990646]}, "properties": {"CWP_NAME": "HARTFORD - WRJ", "CWP_STREET": "319 LATHAM WORKS LANE", "CWP_CITY": "WHITE RIVER JCT", "CWP_STATE": "VT", "CWP_ZIP": "05001", "CWP_COUNTY": "Windsor", "NPDES_ID": "VT0101010", "REGISTRY_ID": "110002047464", "CWP_FACILITY_TYPE_INDICATOR": "POTW", "CWP_MAJOR_MINOR_STATUS": "Major", "CWP_PERMIT_STATUS_DESC": "Effective", "STATE_WATER_BODY_NAME": "CONNECTICUT RIVER, WHITE RIVER", "CWP_CSO_FLAG": "N"}}, {"type": "Feature", "geometry": {"type": "Point", "coordinates": [-73.3409319392094, 44.7194390843884]}, "properties": {"CWP_NAME": "GRAND ISLE FD 4 WTP", "CWP_STREET": "204 WEST SHORE RD", "CWP_CITY": "GRAND ISLE", "CWP_STATE": "VT", "CWP_ZIP": "05458", "CWP_COUNTY": null, "NPDES_ID": "VT0101222", "REGISTRY_ID": "110012686628", "CWP_FACILITY_TYPE_INDICATOR": "POTW", "CWP_MAJOR_MINOR_STATUS": "Minor", "CWP_PERMIT_STATUS_DESC": "Effective", "STATE_WATER_BODY_NAME": "LAKE CHAMPLAIN", "CWP_CSO_FLAG": "N"}}, {"type": "Feature", "geometry": {"type": "Point", "coordinates": [-72.6250011939416, 44.5667090192057]}, "properties": {"CWP_NAME": "MORRISVILLE", "CWP_STREET": "SEWER PLANT RD", "CWP_CITY": "MORRISVILLE", "CWP_STATE": "VT", "CWP_ZIP": "05661", "CWP_COUNTY": "Lamoille", "NPDES_ID": "VT0100480", "REGISTRY_ID": "110039942140", "CWP_FACILITY_TYPE_INDICATOR": "POTW", "CWP_MAJOR_MINOR_STATUS": "Minor", "CWP_PERMIT_STATUS_DESC": "Effective", "STATE_WATER_BODY_NAME": "LAMOILLE RIVER", "CWP_CSO_FLAG": "N"}}, {"type": "Feature", "geometry": {"type": "Point", "coordinates": [-72.5065009893113, 43.1378389177481]}, "properties": {"CWP_NAME": "SAXTONS RIVER", "CWP_STREET": "21 PLANT RD", "CWP_CITY": "ROCKINGHAM", "CWP_STATE": "VT", "CWP_ZIP": "05101", "CWP_COUNTY": "Windham", "NPDES_ID": "VT0100609", "REGISTRY_ID": "110010911120", "CWP_FACILITY_TYPE_INDICATOR": "POTW", "CWP_MAJOR_MINOR_STATUS": "Minor", "CWP_PERMIT_STATUS_DESC": "Effective", "STATE_WATER_BODY_NAME": "SAXTONS RIVER", "CWP_CSO_FLAG": "N"}}, {"type": "Feature", "geometry": {"type": "Point", "coordinates": [-72.9790212585478, 44.9064792305829]}, "properties": {"CWP_NAME": "SHELDON SPRINGS", "CWP_STREET": "350 MILL ST", "CWP_CITY": "SHELDON SPRINGS", "CWP_STATE": "VT", "CWP_ZIP": "05485", "CWP_COUNTY": "Franklin", "NPDES_ID": "VT0100340", "REGISTRY_ID": "110010911610", "CWP_FACILITY_TYPE_INDICATOR": "POTW", "CWP_MAJOR_MINOR_STATUS": "Minor", "CWP_PERMIT_STATUS_DESC": "Effective", "STATE_WATER_BODY_NAME": "MISSISQUOI RIVER", "CWP_CSO_FLAG": "N"}}, {"type": "Feature", "geometry": {"type": "Point", "coordinates": [-72.4259712461017, 44.276259429866]}, "properties": {"CWP_NAME": "PLAINFIELD", "CWP_STREET": "28 RECREATION FIELD RD", "CWP_CITY": "PLAINFIELD", "CWP_STATE": "VT", "CWP_ZIP": "05667", "CWP_COUNTY": "Washington", "NPDES_ID": "VT0100781", "REGISTRY_ID": "110008997791", "CWP_FACILITY_TYPE_INDICATOR": "POTW", "CWP_MAJOR_MINOR_STATUS": "Minor", "CWP_PERMIT_STATUS_DESC": "Effective", "STATE_WATER_BODY_NAME": "WINOOSKI RIVER", "CWP_CSO_FLAG": "N"}}, {"type": "Feature", "geometry": {"type": "Point", "coordinates": [-73.2147479997783, 44.4281881969297]}, "properties": {"CWP_NAME": "SOUTH BURLINGTON - BARTLETT BAY", "CWP_STREET": "15 BARTLETT BAY RD", "CWP_CITY": "SOUTH BURLINGTON", "CWP_STATE": "VT", "CWP_ZIP": "05403", "CWP_COUNTY": "Chittenden", "NPDES_ID": "VT0100358", "REGISTRY_ID": "110010844738", "CWP_FACILITY_TYPE_INDICATOR": "POTW", "CWP_MAJOR_MINOR_STATUS": "Major", "CWP_PERMIT_STATUS_DESC": "Admin Continued", "STATE_WATER_BODY_NAME": "SHELBURNE BAY", "CWP_CSO_FLAG": "N"}}, {"type": "Feature", "geometry": {"type": "Point", "coordinates": [-73.2528216353574, 43.3537985299156]}, "properties": {"CWP_NAME": "PAWLET", "CWP_STREET": "49 RAILROAD AVE", "CWP_CITY": "WEST PAWLET", "CWP_STATE": "VT", "CWP_ZIP": "05775", "CWP_COUNTY": null, "NPDES_ID": "VT0101192", "REGISTRY_ID": "110010910675", "CWP_FACILITY_TYPE_INDICATOR": "POTW", "CWP_MAJOR_MINOR_STATUS": "Minor", "CWP_PERMIT_STATUS_DESC": "Effective", "STATE_WATER_BODY_NAME": "INDIAN RIVER", "CWP_CSO_FLAG": "N"}}, {"type": "Feature", "geometry": {"type": "Point", "coordinates": [-73.3167014325419, 43.8167084473535]}, "properties": {"CWP_NAME": "ORWELL", "CWP_STREET": "SEWER PLANT RD", "CWP_CITY": "ORWELL", "CWP_STATE": "VT", "CWP_ZIP": "05760", "CWP_COUNTY": "Addison", "NPDES_ID": "VT0100676", "REGISTRY_ID": "110039942202", "CWP_FACILITY_TYPE_INDICATOR": "POTW", "CWP_MAJOR_MINOR_STATUS": "Minor", "CWP_PERMIT_STATUS_DESC": "Effective", "STATE_WATER_BODY_NAME": "SOUTH FORK OF EAST CREEK", "CWP_CSO_FLAG": "N"}}, {"type": "Feature", "geometry": {"type": "Point", "coordinates": [-72.4049316464812, 44.9429287804341]}, "properties": {"CWP_NAME": "TROY & JAY", "CWP_STREET": "355 STARR DR", "CWP_CITY": "TROY", "CWP_STATE": "VT", "CWP_ZIP": "05868", "CWP_COUNTY": "Orleans", "NPDES_ID": "VT0101168", "REGISTRY_ID": "110010910666", "CWP_FACILITY_TYPE_INDICATOR": "POTW", "CWP_MAJOR_MINOR_STATUS": "Minor", "CWP_PERMIT_STATUS_DESC": "Effective", "STATE_WATER_BODY_NAME": "MISSISQUOI RIVER", "CWP_CSO_FLAG": "N"}}, {"type": "Feature", "geometry": {"type": "Point", "coordinates": [-72.5075307457375, 43.6298086368458]}, "properties": {"CWP_NAME": "WOODSTOCK", "CWP_STREET": "21705 MAXHAM MEADOW WAY", "CWP_CITY": "WOODSTOCK", "CWP_STATE": "VT", "CWP_ZIP": "05091", "CWP_COUNTY": "Windsor", "NPDES_ID": "VT0100757", "REGISTRY_ID": "110010911237", "CWP_FACILITY_TYPE_INDICATOR": "POTW", "CWP_MAJOR_MINOR_STATUS": "Minor", "CWP_PERMIT_STATUS_DESC": "Admin Continued", "STATE_WATER_BODY_NAME": "KEDRON BROOK, OTTAUQUECHEE RIV", "CWP_CSO_FLAG": "N"}}, {"type": "Feature", "geometry": {"type": "Point", "coordinates": [-72.5492061909018, 42.8410535926934]}, "properties": {"CWP_NAME": "BRATTLEBORO", "CWP_STREET": "340 RIVERSIDE DRIVE", "CWP_CITY": "BRATTLEBORO", "CWP_STATE": "VT", "CWP_ZIP": "05301", "CWP_COUNTY": "Windham", "NPDES_ID": "VT0100064", "REGISTRY_ID": "110005298604", "CWP_FACILITY_TYPE_INDICATOR": "POTW", "CWP_MAJOR_MINOR_STATUS": "Major", "CWP_PERMIT_STATUS_DESC": "Expired", "STATE_WATER_BODY_NAME": "CONNECTICUT RIVER, RETREAT MEADOW, WEST RIVER", "CWP_CSO_FLAG": "N"}}, {"type": "Feature", "geometry": {"type": "Point", "coordinates": [-73.12425999873, 44.6312065909171]}, "properties": {"CWP_NAME": "MILTON", "CWP_STREET": "145 LAMOILLE TERRACE", "CWP_CITY": "MILTON", "CWP_STATE": "VT", "CWP_ZIP": "05468", "CWP_COUNTY": "Chittenden", "NPDES_ID": "VT0100684", "REGISTRY_ID": "110010911184", "CWP_FACILITY_TYPE_INDICATOR": "POTW", "CWP_MAJOR_MINOR_STATUS": "Major", "CWP_PERMIT_STATUS_DESC": "Effective", "STATE_WATER_BODY_NAME": "LAMOILLE RIVER", "CWP_CSO_FLAG": "N"}}, {"type": "Feature", "geometry": {"type": "Point", "coordinates": [-73.2363515179317, 44.3835791167366]}, "properties": {"CWP_NAME": "SHELBURNE 2 (HARBOR RD)", "CWP_STREET": "53 TURTLE LANE", "CWP_CITY": "SHELBURNE", "CWP_STATE": "VT", "CWP_ZIP": "05482", "CWP_COUNTY": "Chittenden", "NPDES_ID": "VT0100820", "REGISTRY_ID": "110010911264", "CWP_FACILITY_TYPE_INDICATOR": "POTW", "CWP_MAJOR_MINOR_STATUS": "Minor", "CWP_PERMIT_STATUS_DESC": "Effective", "STATE_WATER_BODY_NAME": "MCCABES BROOK", "CWP_CSO_FLAG": "N"}}, {"type": "Feature", "geometry": {"type": "Point", "coordinates": [-72.5199702116914, 44.2099820778]}, "properties": {"CWP_NAME": "BARRE CITY", "CWP_STREET": "69 TREATMENT PLANT DR", "CWP_CITY": "BARRE", "CWP_STATE": "VT", "CWP_ZIP": "05641", "CWP_COUNTY": "Washington", "NPDES_ID": "VT0100889", "REGISTRY_ID": "110010809768", "CWP_FACILITY_TYPE_INDICATOR": "POTW", "CWP_MAJOR_MINOR_STATUS": "Major", "CWP_PERMIT_STATUS_DESC": "Effective", "STATE_WATER_BODY_NAME": "STEVENS BRANCH OF THE WINOOSKI RIVER", "CWP_CSO_FLAG": "N"}}, {"type": "Feature", "geometry": {"type": "Point", "coordinates": [-71.7185112380886, 44.4123592801403]}, "properties": {"CWP_NAME": "LUNENBURG FD2", "CWP_STREET": "TREATMENT PLANT RD", "CWP_CITY": "GILMAN", "CWP_STATE": "VT", "CWP_ZIP": "05904", "CWP_COUNTY": "Essex", "NPDES_ID": "VT0101061", "REGISTRY_ID": "110010844701", "CWP_FACILITY_TYPE_INDICATOR": "POTW", "CWP_MAJOR_MINOR_STATUS": "Minor", "CWP_PERMIT_STATUS_DESC": "Expired", "STATE_WATER_BODY_NAME": "CONNECTICUT RIVER", "CWP_CSO_FLAG": "N"}}, {"type": "Feature", "geometry": {"type": "Point", "coordinates": [-73.0565813935364, 43.1601384919374]}, "properties": {"CWP_NAME": "MANCHESTER", "CWP_STREET": "136 BATTENKILL LANE", "CWP_CITY": "MANCHESTER", "CWP_STATE": "VT", "CWP_ZIP": "05255", "CWP_COUNTY": "Bennington", "NPDES_ID": "VT0100170", "REGISTRY_ID": "110024259050", "CWP_FACILITY_TYPE_INDICATOR": "POTW", "CWP_MAJOR_MINOR_STATUS": "Minor", "CWP_PERMIT_STATUS_DESC": "Effective", "STATE_WATER_BODY_NAME": "BATTENKILL", "CWP_CSO_FLAG": "N"}}, {"type": "Feature", "geometry": {"type": "Point", "coordinates": [-73.0305469449859, 43.6627247104332]}, "properties": {"CWP_NAME": "PROCTOR", "CWP_STREET": "29 PATCH ST", "CWP_CITY": "PROCTOR", "CWP_STATE": "VT", "CWP_ZIP": "05765", "CWP_COUNTY": "Rutland", "NPDES_ID": "VT0100528", "REGISTRY_ID": "110010911095", "CWP_FACILITY_TYPE_INDICATOR": "POTW", "CWP_MAJOR_MINOR_STATUS": "Minor", "CWP_PERMIT_STATUS_DESC": "Admin Continued", "STATE_WATER_BODY_NAME": "OTTER CREEK", "CWP_CSO_FLAG": "N"}}, {"type": "Feature", "geometry": {"type": "Point", "coordinates": [-72.9935784974347, 43.6039126365248]}, "properties": {"CWP_NAME": "RUTLAND", "CWP_STREET": "10 GREENS HILL LANE", "CWP_CITY": "RUTLAND", "CWP_STATE": "VT", "CWP_ZIP": "05701", "CWP_COUNTY": "Rutland", "NPDES_ID": "VT0100871", "REGISTRY_ID": "110010911291", "CWP_FACILITY_TYPE_INDICATOR": "POTW", "CWP_MAJOR_MINOR_STATUS": "Major", "CWP_PERMIT_STATUS_DESC": "Effective", "STATE_WATER_BODY_NAME": "EAST CREEK, MOON BROOK, OTTER CREEK", "CWP_CSO_FLAG": "Y"}}, {"type": "Feature", "geometry": {"type": "Point", "coordinates": [-72.7665293344917, 44.3450710563445]}, "properties": {"CWP_NAME": "WATERBURY", "CWP_STREET": "187 US ROUTE 2", "CWP_CITY": "WATERBURY", "CWP_STATE": "VT", "CWP_ZIP": "05676", "CWP_COUNTY": "Washington", "NPDES_ID": "VT0100463", "REGISTRY_ID": "110010911040", "CWP_FACILITY_TYPE_INDICATOR": "POTW", "CWP_MAJOR_MINOR_STATUS": "Minor", "CWP_PERMIT_STATUS_DESC": "Effective", "STATE_WATER_BODY_NAME": "WINOOSKI RIVER", "CWP_CSO_FLAG": "N"}}, {"type": "Feature", "geometry": {"type": "Point", "coordinates": [-72.6839715636821, 44.6355782122654]}, "properties": {"CWP_NAME": "JOHNSON", "CWP_STREET": "110 SEWER PLANT RD", "CWP_CITY": "JOHNSON", "CWP_STATE": "VT", "CWP_ZIP": "05656", "CWP_COUNTY": "Lamoille", "NPDES_ID": "VT0100901", "REGISTRY_ID": "110010911317", "CWP_FACILITY_TYPE_INDICATOR": "POTW", "CWP_MAJOR_MINOR_STATUS": "Minor", "CWP_PERMIT_STATUS_DESC": "Effective", "STATE_WATER_BODY_NAME": "GIHON RIVER", "CWP_CSO_FLAG": "N"}}, {"type": "Feature", "geometry": {"type": "Point", "coordinates": [-73.2334017777185, 44.8922186689462]}, "properties": {"CWP_NAME": "NORTH HERO WATER TREATMENT PLANT", "CWP_STREET": "NORTH END RD EAST", "CWP_CITY": "NORTH HERO", "CWP_STATE": "VT", "CWP_ZIP": "05474", "CWP_COUNTY": "Grand Isle", "NPDES_ID": "VT0101231", "REGISTRY_ID": "110010910693", "CWP_FACILITY_TYPE_INDICATOR": "POTW", "CWP_MAJOR_MINOR_STATUS": "Minor", "CWP_PERMIT_STATUS_DESC": "Effective", "STATE_WATER_BODY_NAME": "LAKE CHAMPLAIN", "CWP_CSO_FLAG": "N"}}, {"type": "Feature", "geometry": {"type": "Point", "coordinates": [-72.4478688256716, 43.9802349338078]}, "properties": {"CWP_NAME": "CHELSEA", "CWP_STREET": "234 VT ROUTE 110", "CWP_CITY": "CHELSEA", "CWP_STATE": "VT", "CWP_ZIP": "05038", "CWP_COUNTY": "Orange", "NPDES_ID": "VT0100943", "REGISTRY_ID": "110010911326", "CWP_FACILITY_TYPE_INDICATOR": "POTW", "CWP_MAJOR_MINOR_STATUS": "Minor", "CWP_PERMIT_STATUS_DESC": "Expired", "STATE_WATER_BODY_NAME": "WHITE RIVER", "CWP_CSO_FLAG": "N"}}, {"type": "Feature", "geometry": {"type": "Point", "coordinates": [-72.6941977456125, 44.4592723886798]}, "properties": {"CWP_NAME": "STOWE", "CWP_STREET": "56 RIVER RD", "CWP_CITY": "STOWE", "CWP_STATE": "VT", "CWP_ZIP": "05672", "CWP_COUNTY": "Lamoille", "NPDES_ID": "VT0100455", "REGISTRY_ID": "110039943915", "CWP_FACILITY_TYPE_INDICATOR": "POTW", "CWP_MAJOR_MINOR_STATUS": "Major", "CWP_PERMIT_STATUS_DESC": "Effective", "STATE_WATER_BODY_NAME": "LITTLE RIVER", "CWP_CSO_FLAG": "N"}}, {"type": "Feature", "geometry": {"type": "Point", "coordinates": [-73.0386237540025, 43.5903472586875]}, "properties": {"CWP_NAME": "WEST RUTLAND", "CWP_STREET": "CLEARWATER BLVD", "CWP_CITY": "WEST RUTLAND", "CWP_STATE": "VT", "CWP_ZIP": "05777", "CWP_COUNTY": "Rutland", "NPDES_ID": "VT0100714", "REGISTRY_ID": "110006620013", "CWP_FACILITY_TYPE_INDICATOR": "POTW", "CWP_MAJOR_MINOR_STATUS": "Major", "CWP_PERMIT_STATUS_DESC": "Admin Continued", "STATE_WATER_BODY_NAME": "CLARENDON RIVER", "CWP_CSO_FLAG": "N"}}, {"type": "Feature", "geometry": {"type": "Point", "coordinates": [-72.3978108157822, 44.9940489527413]}, "properties": {"CWP_NAME": "NORTH TROY", "CWP_STREET": "122 ELKINS DR", "CWP_CITY": "NORTH TROY", "CWP_STATE": "VT", "CWP_ZIP": "05859", "CWP_COUNTY": "Orleans", "NPDES_ID": "VT0100234", "REGISTRY_ID": "110010911576", "CWP_FACILITY_TYPE_INDICATOR": "POTW", "CWP_MAJOR_MINOR_STATUS": "Minor", "CWP_PERMIT_STATUS_DESC": "Effective", "STATE_WATER_BODY_NAME": "MISSISQUOI RIVER", "CWP_CSO_FLAG": "N"}}, {"type": "Feature", "geometry": {"type": "Point", "coordinates": [-73.1262240972319, 44.3321765614401]}, "properties": {"CWP_NAME": "HINESBURG", "CWP_STREET": "10632 ROUTE 116, LAGOON RD", "CWP_CITY": "HINESBURG", "CWP_STATE": "VT", "CWP_ZIP": "05461", "CWP_COUNTY": "Chittenden", "NPDES_ID": "VT0101028", "REGISTRY_ID": "110010911335", "CWP_FACILITY_TYPE_INDICATOR": "POTW", "CWP_MAJOR_MINOR_STATUS": "Major", "CWP_PERMIT_STATUS_DESC": "Effective", "STATE_WATER_BODY_NAME": "LAPLATTE RIVER", "CWP_CSO_FLAG": "N"}}, {"type": "Feature", "geometry": {"type": "Point", "coordinates": [-73.1742361986298, 44.0414886426237]}, "properties": {"CWP_NAME": "MIDDLEBURY", "CWP_STREET": "243 INDUSTRIAL AVE", "CWP_CITY": "MIDDLEBURY", "CWP_STATE": "VT", "CWP_ZIP": "05753", "CWP_COUNTY": "Addison", "NPDES_ID": "VT0100188", "REGISTRY_ID": "110006619999", "CWP_FACILITY_TYPE_INDICATOR": "POTW", "CWP_MAJOR_MINOR_STATUS": "Major", "CWP_PERMIT_STATUS_DESC": "Expired", "STATE_WATER_BODY_NAME": "OTTER CREEK", "CWP_CSO_FLAG": "N"}}, {"type": "Feature", "geometry": {"type": "Point", "coordinates": [-73.2790710722041, 43.5924984287078]}, "properties": {"CWP_NAME": "FAIR HAVEN", "CWP_STREET": "193 MONTGIVEN AVE", "CWP_CITY": "FAIR HAVEN", "CWP_STATE": "VT", "CWP_ZIP": "05743", "CWP_COUNTY": "Rutland", "NPDES_ID": "VT0100129", "REGISTRY_ID": "110008210462", "CWP_FACILITY_TYPE_INDICATOR": "POTW", "CWP_MAJOR_MINOR_STATUS": "Major", "CWP_PERMIT_STATUS_DESC": "Effective", "STATE_WATER_BODY_NAME": "CASTLETON RIVER", "CWP_CSO_FLAG": "N"}}, {"type": "Feature", "geometry": {"type": "Point", "coordinates": [-72.5893807462137, 43.2683089841118]}, "properties": {"CWP_NAME": "CHESTER", "CWP_STREET": "TREATMENT PLANT RD", "CWP_CITY": "CHESTER", "CWP_STATE": "VT", "CWP_ZIP": "05143", "CWP_COUNTY": "Windsor", "NPDES_ID": "VT0100081", "REGISTRY_ID": "110010844710", "CWP_FACILITY_TYPE_INDICATOR": "POTW", "CWP_MAJOR_MINOR_STATUS": "Minor", "CWP_PERMIT_STATUS_DESC": "Expired", "STATE_WATER_BODY_NAME": "WILLIAMS RIVER", "CWP_CSO_FLAG": "N"}}, {"type": "Feature", "geometry": {"type": "Point", "coordinates": [-73.193623821453, 44.4869049445394]}, "properties": {"CWP_NAME": "BURLINGTON RIVER", "CWP_STREET": "267 1/2 RIVERSIDE AVENUE", "CWP_CITY": "BURLINGTON", "CWP_STATE": "VT", "CWP_ZIP": "05402", "CWP_COUNTY": "Chittenden", "NPDES_ID": "VT0100307", "REGISTRY_ID": "110006619917", "CWP_FACILITY_TYPE_INDICATOR": "POTW", "CWP_MAJOR_MINOR_STATUS": "Major", "CWP_PERMIT_STATUS_DESC": "Admin Continued", "STATE_WATER_BODY_NAME": "WINOOSKI RIVER", "CWP_CSO_FLAG": "N"}}, {"type": "Feature", "geometry": {"type": "Point", "coordinates": [-72.1207412234469, 43.9991989526883]}, "properties": {"CWP_NAME": "BRADFORD", "CWP_STREET": "94 DEPOT ST", "CWP_CITY": "BRADFORD", "CWP_STATE": "VT", "CWP_ZIP": "05033", "CWP_COUNTY": "Orange", "NPDES_ID": "VT0100803", "REGISTRY_ID": "110039940464", "CWP_FACILITY_TYPE_INDICATOR": "POTW", "CWP_MAJOR_MINOR_STATUS": "Minor", "CWP_PERMIT_STATUS_DESC": "Expired", "STATE_WATER_BODY_NAME": "WAITS RIVER", "CWP_CSO_FLAG": "N"}}, {"type": "Feature", "geometry": {"type": "Point", "coordinates": [-72.883300839478, 42.7833090010113]}, "properties": {"CWP_NAME": "WHITINGHAM", "CWP_STREET": "6966 VT ROUTE 100", "CWP_CITY": "WHITINGHAM", "CWP_STATE": "VT", "CWP_ZIP": "05361", "CWP_COUNTY": "Windham", "NPDES_ID": "VT0101109", "REGISTRY_ID": "110010911362", "CWP_FACILITY_TYPE_INDICATOR": "POTW", "CWP_MAJOR_MINOR_STATUS": "Minor", "CWP_PERMIT_STATUS_DESC": "Expired", "STATE_WATER_BODY_NAME": "HARRIMAN RESERVOIR", "CWP_CSO_FLAG": "N"}}, {"type": "Feature", "geometry": {"type": "Point", "coordinates": [-72.4432372593107, 43.1295228874459]}, "properties": {"CWP_NAME": "BELLOWS FALLS", "CWP_STREET": "80 MILL ST", "CWP_CITY": "BELLOWS FALLS", "CWP_STATE": "VT", "CWP_ZIP": "05101", "CWP_COUNTY": "Windham", "NPDES_ID": "VT0100013", "REGISTRY_ID": "110010911488", "CWP_FACILITY_TYPE_INDICATOR": "POTW", "CWP_MAJOR_MINOR_STATUS": "Major", "CWP_PERMIT_STATUS_DESC": "Expired", "STATE_WATER_BODY_NAME": "CONNECTICUT RIVER", "CWP_CSO_FLAG": "N"}}, {"type": "Feature", "geometry": {"type": "Point", "coordinates": [-73.2568802476278, 42.9149652631958]}, "properties": {"CWP_NAME": "BENNINGTON", "CWP_STREET": "244 HARRINGTON RD", "CWP_CITY": "BENNINGTON", "CWP_STATE": "VT", "CWP_ZIP": "05201", "CWP_COUNTY": "Bennington", "NPDES_ID": "VT0100021", "REGISTRY_ID": "110016709757", "CWP_FACILITY_TYPE_INDICATOR": "POTW", "CWP_MAJOR_MINOR_STATUS": "Major", "CWP_PERMIT_STATUS_DESC": "Expired", "STATE_WATER_BODY_NAME": "WALLOOMSAC RIVER", "CWP_CSO_FLAG": "N"}}, {"type": "Feature", "geometry": {"type": "Point", "coordinates": [-72.8087210821505, 44.9031391541792]}, "properties": {"CWP_NAME": "ENOSBURG FALLS", "CWP_STREET": "39 ST ALBANS ST", "CWP_CITY": "ENOSBURG FALLS", "CWP_STATE": "VT", "CWP_ZIP": "05450", "CWP_COUNTY": "Franklin", "NPDES_ID": "VT0100102", "REGISTRY_ID": "110010911530", "CWP_FACILITY_TYPE_INDICATOR": "POTW", "CWP_MAJOR_MINOR_STATUS": "Minor", "CWP_PERMIT_STATUS_DESC": "Effective", "STATE_WATER_BODY_NAME": "MISSISQUOI RIVER", "CWP_CSO_FLAG": "N"}}, {"type": "Feature", "geometry": {"type": "Point", "coordinates": [-72.6015009212061, 43.3866085253665]}, "properties": {"CWP_NAME": "CAVENDISH", "CWP_STREET": "37 POWER PLANT RD", "CWP_CITY": "CAVENDISH", "CWP_STATE": "VT", "CWP_ZIP": "05142", "CWP_COUNTY": "Windsor", "NPDES_ID": "VT0100862", "REGISTRY_ID": "110010911282", "CWP_FACILITY_TYPE_INDICATOR": "POTW", "CWP_MAJOR_MINOR_STATUS": "Minor", "CWP_PERMIT_STATUS_DESC": "Expired", "STATE_WATER_BODY_NAME": "BLACK RIVER", "CWP_CSO_FLAG": "N"}}, {"type": "Feature", "geometry": {"type": "Point", "coordinates": [-72.6571924091105, 44.1631291845257]}, "properties": {"CWP_NAME": "NORTHFIELD", "CWP_STREET": "242 DOG RIVER RD", "CWP_CITY": "NORTHFIELD", "CWP_STATE": "VT", "CWP_ZIP": "05663", "CWP_COUNTY": "Washington", "NPDES_ID": "VT0100242", "REGISTRY_ID": "110022525588", "CWP_FACILITY_TYPE_INDICATOR": "POTW", "CWP_MAJOR_MINOR_STATUS": "Major", "CWP_PERMIT_STATUS_DESC": "Effective", "STATE_WATER_BODY_NAME": "DOG RIVER", "CWP_CSO_FLAG": "N"}}, {"type": "Feature", "geometry": {"type": "Point", "coordinates": [-72.7863143780832, 43.6483724360397]}, "properties": {"CWP_NAME": "SHERBURNE FD 1", "CWP_STREET": "107 DEAN HILL RD", "CWP_CITY": "KILLINGTON", "CWP_STATE": "VT", "CWP_ZIP": "05751", "CWP_COUNTY": "Rutland", "NPDES_ID": "VT0101141", "REGISTRY_ID": "110039943844", "CWP_FACILITY_TYPE_INDICATOR": "POTW", "CWP_MAJOR_MINOR_STATUS": "Minor", "CWP_PERMIT_STATUS_DESC": "Expired", "STATE_WATER_BODY_NAME": "OTTAUQUECHEE RIVER", "CWP_CSO_FLAG": "N"}}, {"type": "Feature", "geometry": {"type": "Point", "coordinates": [-72.996051689445, 44.4023192017072]}, "properties": {"CWP_NAME": "RICHMOND", "CWP_STREET": "281 ESPLANADE", "CWP_CITY": "RICHMOND", "CWP_STATE": "VT", "CWP_ZIP": "05477", "CWP_COUNTY": "Chittenden", "NPDES_ID": "VT0100617", "REGISTRY_ID": "110010911139", "CWP_FACILITY_TYPE_INDICATOR": "POTW", "CWP_MAJOR_MINOR_STATUS": "Minor", "CWP_PERMIT_STATUS_DESC": "Effective", "STATE_WATER_BODY_NAME": "WINOOSKI RIVER", "CWP_CSO_FLAG": "N"}}, {"type": "Feature", "geometry": {"type": "Point", "coordinates": [-73.219079139399, 44.472700149356]}, "properties": {"CWP_NAME": "BURLINGTON MAIN", "CWP_STREET": "53 LAVALLEY LANE", "CWP_CITY": "BURLINGTON", "CWP_STATE": "VT", "CWP_ZIP": "05402", "CWP_COUNTY": "Chittenden", "NPDES_ID": "VT0100153", "REGISTRY_ID": "110024908607", "CWP_FACILITY_TYPE_INDICATOR": "POTW", "CWP_MAJOR_MINOR_STATUS": "Major", "CWP_PERMIT_STATUS_DESC": "Admin Continued", "STATE_WATER_BODY_NAME": "LAKE CHAMPLAIN, WETLAND CONTIGUOUS WITH WINOOSKI RIVER", "CWP_CSO_FLAG": "Y"}}, {"type": "Feature", "geometry": {"type": "Point", "coordinates": [-73.3103117397957, 43.7090487872915]}, "properties": {"CWP_NAME": "BENSON", "CWP_STREET": "2760 STAGE ROAD", "CWP_CITY": "BENSON", "CWP_STATE": "VT", "CWP_ZIP": "05731", "CWP_COUNTY": "Rutland", "NPDES_ID": "VT0100498", "REGISTRY_ID": "110055990281", "CWP_FACILITY_TYPE_INDICATOR": "POTW", "CWP_MAJOR_MINOR_STATUS": "Minor", "CWP_PERMIT_STATUS_DESC": "Effective", "STATE_WATER_BODY_NAME": "UT HUBBARDTON RIVER", "CWP_CSO_FLAG": "N"}}, {"type": "Feature", "geometry": {"type": "Point", "coordinates": [-72.6573308885315, 43.9268691465101]}, "properties": {"CWP_NAME": "RANDOLPH", "CWP_STREET": "18 HEDDING DR", "CWP_CITY": "RANDOLPH", "CWP_STATE": "VT", "CWP_ZIP": "05060", "CWP_COUNTY": "Orange", "NPDES_ID": "VT0100285", "REGISTRY_ID": "110008997817", "CWP_FACILITY_TYPE_INDICATOR": "POTW", "CWP_MAJOR_MINOR_STATUS": "Minor", "CWP_PERMIT_STATUS_DESC": "Expired", "STATE_WATER_BODY_NAME": "THIRD BRANCH, THIRD BRANCH OF THE WHITE RIVER", "CWP_CSO_FLAG": "Y"}}, {"type": "Feature", "geometry": {"type": "Point", "coordinates": [-73.2453015136385, 43.5252884838879]}, "properties": {"CWP_NAME": "POULTNEY", "CWP_STREET": "685 YORK ST", "CWP_CITY": "POULTNEY", "CWP_STATE": "VT", "CWP_ZIP": "05764", "CWP_COUNTY": "Rutland", "NPDES_ID": "VT0100269", "REGISTRY_ID": "110002052091", "CWP_FACILITY_TYPE_INDICATOR": "POTW", "CWP_MAJOR_MINOR_STATUS": "Major", "CWP_PERMIT_STATUS_DESC": "Effective", "STATE_WATER_BODY_NAME": "POULTNEY RIVER", "CWP_CSO_FLAG": "N"}}, {"type": "Feature", "geometry": {"type": "Point", "coordinates": [-73.2189712158944, 44.4057492084076]}, "properties": {"CWP_NAME": "SHELBURNE 1 (CROWN RD)", "CWP_STREET": "81 CROWN RD", "CWP_CITY": "SHELBURNE", "CWP_STATE": "VT", "CWP_ZIP": "05482", "CWP_COUNTY": "Chittenden", "NPDES_ID": "VT0100331", "REGISTRY_ID": "110008210453", "CWP_FACILITY_TYPE_INDICATOR": "POTW", "CWP_MAJOR_MINOR_STATUS": "Minor", "CWP_PERMIT_STATUS_DESC": "Admin Continued", "STATE_WATER_BODY_NAME": "SHELBURNE BAY", "CWP_CSO_FLAG": "N"}}, {"type": "Feature", "geometry": {"type": "Point", "coordinates": [-72.3884613564112, 43.4722285039369]}, "properties": {"CWP_NAME": "WINDSOR MAIN", "CWP_STREET": "123 PASCO WAY", "CWP_CITY": "WINDSOR", "CWP_STATE": "VT", "CWP_ZIP": "05089", "CWP_COUNTY": "Windsor", "NPDES_ID": "VT0100919", "REGISTRY_ID": "110002047473", "CWP_FACILITY_TYPE_INDICATOR": "POTW", "CWP_MAJOR_MINOR_STATUS": "Major", "CWP_PERMIT_STATUS_DESC": "Expired", "STATE_WATER_BODY_NAME": "CONNECTICUT RIVER", "CWP_CSO_FLAG": "N"}}, {"type": "Feature", "geometry": {"type": "Point", "coordinates": [-72.2043809555784, 44.8179292964093]}, "properties": {"CWP_NAME": "ORLEANS", "CWP_STREET": "187 MAPLE ST", "CWP_CITY": "ORLEANS", "CWP_STATE": "VT", "CWP_ZIP": "05860", "CWP_COUNTY": "Orleans", "NPDES_ID": "VT0100251", "REGISTRY_ID": "110010911585", "CWP_FACILITY_TYPE_INDICATOR": "POTW", "CWP_MAJOR_MINOR_STATUS": "Minor", "CWP_PERMIT_STATUS_DESC": "Effective", "STATE_WATER_BODY_NAME": "BARTON RIVER", "CWP_CSO_FLAG": "N"}}, {"type": "Feature", "geometry": {"type": "Point", "coordinates": [-73.2164432237086, 44.4463850823847]}, "properties": {"CWP_NAME": "CHAMPLAIN WATER DISTRICT", "CWP_STREET": "403 QUEEN CITY PARK RD", "CWP_CITY": "SOUTH BURLINGTON", "CWP_STATE": "VT", "CWP_ZIP": "05403", "CWP_COUNTY": "Chittenden", "NPDES_ID": "VT0020729", "REGISTRY_ID": "110005298105", "CWP_FACILITY_TYPE_INDICATOR": "POTW", "CWP_MAJOR_MINOR_STATUS": "Minor", "CWP_PERMIT_STATUS_DESC": "Expired", "STATE_WATER_BODY_NAME": "POTASH BROOK", "CWP_CSO_FLAG": "N"}}, {"type": "Feature", "geometry": {"type": "Point", "coordinates": [-73.2590818746541, 44.1663586287128]}, "properties": {"CWP_NAME": "VERGENNES", "CWP_STREET": "CANAL STREET", "CWP_CITY": "VERGENNES", "CWP_STATE": "VT", "CWP_ZIP": "05491", "CWP_COUNTY": "Addison", "NPDES_ID": "VT0100404", "REGISTRY_ID": "110008204898", "CWP_FACILITY_TYPE_INDICATOR": "POTW", "CWP_MAJOR_MINOR_STATUS": "Minor", "CWP_PERMIT_STATUS_DESC": "Admin Continued", "STATE_WATER_BODY_NAME": "OTTER CREEK, POTASH BROOK", "CWP_CSO_FLAG": "Y"}}, {"type": "Feature", "geometry": {"type": "Point", "coordinates": [-72.3933015099891, 43.4833090527305]}, "properties": {"CWP_NAME": "WINDSOR WESTON HEIGHTS", "CWP_STREET": "2379 US ROUTE 5 SOUTH", "CWP_CITY": "WINDSOR", "CWP_STATE": "VT", "CWP_ZIP": "05089", "CWP_COUNTY": "Windsor", "NPDES_ID": "VT0100447", "REGISTRY_ID": "110010911638", "CWP_FACILITY_TYPE_INDICATOR": "POTW", "CWP_MAJOR_MINOR_STATUS": "Minor", "CWP_PERMIT_STATUS_DESC": "Expired", "STATE_WATER_BODY_NAME": "CONNECTICUT RIVE", "CWP_CSO_FLAG": "N"}}, {"type": "Feature", "geometry": {"type": "Point", "coordinates": [-72.4677591145049, 43.6309399855832]}, "properties": {"CWP_NAME": "WOODSTOCK - TAFTSVILLE", "CWP_STREET": "ROUTE 4 EAST, COVERED BRIDGE ROAD", "CWP_CITY": "TAFTSVILLE", "CWP_STATE": "VT", "CWP_ZIP": "05073", "CWP_COUNTY": "Windsor", "NPDES_ID": "VT0100765", "REGISTRY_ID": "110010844676", "CWP_FACILITY_TYPE_INDICATOR": "POTW", "CWP_MAJOR_MINOR_STATUS": "Minor", "CWP_PERMIT_STATUS_DESC": "Effective", "STATE_WATER_BODY_NAME": "OTTAUQUECHEE RIV", "CWP_CSO_FLAG": "N"}}, {"type": "Feature", "geometry": {"type": "Point", "coordinates": [-71.539810530684, 44.9883194011845]}, "properties": {"CWP_NAME": "CANAAN", "CWP_STREET": "281 TREATMENT PLANT RD", "CWP_CITY": "CANAAN", "CWP_STATE": "VT", "CWP_ZIP": "05963", "CWP_COUNTY": "Essex", "NPDES_ID": "VT0100625", "REGISTRY_ID": "110010911148", "CWP_FACILITY_TYPE_INDICATOR": "POTW", "CWP_MAJOR_MINOR_STATUS": "Minor", "CWP_PERMIT_STATUS_DESC": "Expired", "STATE_WATER_BODY_NAME": "CONNECTICUT RIVE", "CWP_CSO_FLAG": "N"}}, {"type": "Feature", "geometry": {"type": "Point", "coordinates": [-73.1216708388596, 44.4810611515011]}, "properties": {"CWP_NAME": "ESSEX JUNCTION", "CWP_STREET": "39 CASCADE ST", "CWP_CITY": "ESSEX JUNCTION", "CWP_STATE": "VT", "CWP_ZIP": "05452", "CWP_COUNTY": null, "NPDES_ID": "VT0100111", "REGISTRY_ID": "110010911549", "CWP_FACILITY_TYPE_INDICATOR": "POTW", "CWP_MAJOR_MINOR_STATUS": "Major", "CWP_PERMIT_STATUS_DESC": "Effective", "STATE_WATER_BODY_NAME": "WINOOSKI RIVER", "CWP_CSO_FLAG": "N"}}, {"type": "Feature", "geometry": {"type": "Point", "coordinates": [-72.6792824116576, 43.3923578895257]}, "properties": {"CWP_NAME": "LUDLOW", "CWP_STREET": "212 PLEASANT ST EXT", "CWP_CITY": "LUDLOW", "CWP_STATE": "VT", "CWP_ZIP": "05149", "CWP_COUNTY": "Windsor", "NPDES_ID": "VT0100145", "REGISTRY_ID": "110008997808", "CWP_FACILITY_TYPE_INDICATOR": "POTW", "CWP_MAJOR_MINOR_STATUS": "Major", "CWP_PERMIT_STATUS_DESC": "Expired", "STATE_WATER_BODY_NAME": "BLACK RIVER", "CWP_CSO_FLAG": "N"}}, {"type": "Feature", "geometry": {"type": "Point", "coordinates": [-72.9381810845975, 42.7619986599011]}, "properties": {"CWP_NAME": "READSBORO", "CWP_STREET": "392 HARRIMAN STATION RD", "CWP_CITY": "READSBORO", "CWP_STATE": "VT", "CWP_ZIP": "05350", "CWP_COUNTY": "Bennington", "NPDES_ID": "VT0100731", "REGISTRY_ID": "110039942266", "CWP_FACILITY_TYPE_INDICATOR": "POTW", "CWP_MAJOR_MINOR_STATUS": "Minor", "CWP_PERMIT_STATUS_DESC": "Expired", "STATE_WATER_BODY_NAME": "DEERFIELD RIVER", "CWP_CSO_FLAG": "N"}}, {"type": "Feature", "geometry": {"type": "Point", "coordinates": [-73.1623481194133, 44.9141531401505]}, "properties": {"CWP_NAME": "SWANTON VILLAGE WATER TREATMENT PLANT", "CWP_STREET": "311 MAQUAM SHORE RD", "CWP_CITY": "SWANTON", "CWP_STATE": "VT", "CWP_ZIP": "05488", "CWP_COUNTY": "Franklin", "NPDES_ID": "VT0020877", "REGISTRY_ID": "110064616928", "CWP_FACILITY_TYPE_INDICATOR": "POTW", "CWP_MAJOR_MINOR_STATUS": "Minor", "CWP_PERMIT_STATUS_DESC": "Effective", "STATE_WATER_BODY_NAME": "LAKE CHAMPLAIN", "CWP_CSO_FLAG": "N"}}, {"type": "Feature", "geometry": {"type": "Point", "coordinates": [-73.2095012952561, 43.6041536470773]}, "properties": {"CWP_NAME": "CASTLETON", "CWP_STREET": "320 VT ROUTE 30", "CWP_CITY": "CASTLETON", "CWP_STATE": "VT", "CWP_ZIP": "05735", "CWP_COUNTY": "Rutland", "NPDES_ID": "VT0100897", "REGISTRY_ID": "110010911308", "CWP_FACILITY_TYPE_INDICATOR": "POTW", "CWP_MAJOR_MINOR_STATUS": "Major", "CWP_PERMIT_STATUS_DESC": "Effective", "STATE_WATER_BODY_NAME": "CASTLETON RIVER", "CWP_CSO_FLAG": "N"}}, {"type": "Feature", "geometry": {"type": "Point", "coordinates": [-72.1472289923079, 44.4111847504428]}, "properties": {"CWP_NAME": "DANVILLE", "CWP_STREET": "406 ROUTE 2 EAST", "CWP_CITY": "DANVILLE", "CWP_STATE": "VT", "CWP_ZIP": "05828", "CWP_COUNTY": "Caledonia", "NPDES_ID": "VT0100633", "REGISTRY_ID": "110039941953", "CWP_FACILITY_TYPE_INDICATOR": "POTW", "CWP_MAJOR_MINOR_STATUS": "Minor", "CWP_PERMIT_STATUS_DESC": "Admin Continued", "STATE_WATER_BODY_NAME": "WATER ANDRIC", "CWP_CSO_FLAG": "N"}}, {"type": "Feature", "geometry": {"type": "Point", "coordinates": [-73.0890974083337, 44.823445706718]}, "properties": {"CWP_NAME": "ST ALBANS NORTHWEST CORRECTIONAL", "CWP_STREET": "LOWER NEWTON RD", "CWP_CITY": "ST ALBANS", "CWP_STATE": "VT", "CWP_ZIP": "05478", "CWP_COUNTY": "Franklin", "NPDES_ID": "VT0101117", "REGISTRY_ID": "110008208750", "CWP_FACILITY_TYPE_INDICATOR": "POTW", "CWP_MAJOR_MINOR_STATUS": "Minor", "CWP_PERMIT_STATUS_DESC": "Admin Continued", "STATE_WATER_BODY_NAME": "STEVENS BROOK", "CWP_CSO_FLAG": "N"}}, {"type": "Feature", "geometry": {"type": "Point", "coordinates": [-72.6799615104896, 44.9863489458136]}, "properties": {"CWP_NAME": "RICHFORD", "CWP_STREET": "1 SEWER PLANT RD", "CWP_CITY": "RICHFORD", "CWP_STATE": "VT", "CWP_ZIP": "05476", "CWP_COUNTY": "Franklin", "NPDES_ID": "VT0100790", "REGISTRY_ID": "110010911246", "CWP_FACILITY_TYPE_INDICATOR": "POTW", "CWP_MAJOR_MINOR_STATUS": "Minor", "CWP_PERMIT_STATUS_DESC": "Effective", "STATE_WATER_BODY_NAME": "MISSISQUOI RIVER", "CWP_CSO_FLAG": "N"}}]}