{"type": "FeatureCollection", "features": [{"type": "Feature", "geometry": {"type": "Point", "coordinates": [-75.521799929019, 39.158794841881]}, "properties": {"CWP_NAME": "DEPARTMENT OF TRANSPORTATION", "CWP_STREET": "P.O. BOX 778", "CWP_CITY": "DOVER", "CWP_STATE": "DE", "CWP_ZIP": "19903", "CWP_COUNTY": "New Castle", "NPDES_ID": "DE0051071", "REGISTRY_ID": "110014336986", "CWP_FACILITY_TYPE_INDICATOR": "POTW", "CWP_MAJOR_MINOR_STATUS": "Major", "CWP_PERMIT_STATUS_DESC": "Expired", "STATE_WATER_BODY_NAME": "DELAWARE RIVER", "CWP_CSO_FLAG": "N"}}, {"type": "Feature", "geometry": {"type": "Point", "coordinates": [-75.5804537072906, 38.7466570461434]}, "properties": {"CWP_NAME": "BRIDGEVILLE WASTEWATER TREATMENT PLANT", "CWP_STREET": "101 NORTH MAIN STREET", "CWP_CITY": "BRIDGEVILLE", "CWP_STATE": "DE", "CWP_ZIP": "19933", "CWP_COUNTY": "Sussex", "NPDES_ID": "DE0020249", "REGISTRY_ID": "110000880761", "CWP_FACILITY_TYPE_INDICATOR": "POTW", "CWP_MAJOR_MINOR_STATUS": "Major", "CWP_PERMIT_STATUS_DESC": "Expired", "STATE_WATER_BODY_NAME": "BRIDGEVILLE BRANCH", "CWP_CSO_FLAG": "N"}}, {"type": "Feature", "geometry": {"type": "Point", "coordinates": [-75.5847875905555, 39.5769526954389]}, "properties": {"CWP_NAME": "DELAWARE CITY WASTEWATER TREATMENT PLANT", "CWP_STREET": "GOVERNOR BACON HEALTH CENTER", "CWP_CITY": "NEW CASTLE", "CWP_STATE": "DE", "CWP_ZIP": "19720", "CWP_COUNTY": "New Castle", "NPDES_ID": "DE0021555", "REGISTRY_ID": "110000710008", "CWP_FACILITY_TYPE_INDICATOR": "POTW", "CWP_MAJOR_MINOR_STATUS": "Minor", "CWP_PERMIT_STATUS_DESC": "Effective", "STATE_WATER_BODY_NAME": "DELAWARE RIVER", "CWP_CSO_FLAG": "N"}}, {"type": "Feature", "geometry": {"type": "Point", "coordinates": [-75.2182012620402, 38.4711478949095]}, "properties": {"CWP_NAME": "SELBYVILLE WASTEWATER TREATMENT FACILITY", "CWP_STREET": "37619 WASTEWATER LANE", "CWP_CITY": "SELBYVILLE", "CWP_STATE": "DE", "CWP_ZIP": "19975", "CWP_COUNTY": "Sussex", "NPDES_ID": "DE0020010", "REGISTRY_ID": "110064642052", "CWP_FACILITY_TYPE_INDICATOR": "POTW", "CWP_MAJOR_MINOR_STATUS": "Major", "CWP_PERMIT_STATUS_DESC": "Admin Continued", "STATE_WATER_BODY_NAME": "ATLANTIC OCEAN", "CWP_CSO_FLAG": "N"}}, {"type": "Feature", "geometry": {"type": "Point", "coordinates": [-75.6171568436932, 38.6345034689011]}, "properties": {"CWP_NAME": "SEAFORD WASTEWATER TREATMENT PLANT", "CWP_STREET": " 403 NANTICOKE AVENUE", "CWP_CITY": "SEAFORD", "CWP_STATE": "DE", "CWP_ZIP": "19973", "CWP_COUNTY": "Sussex", "NPDES_ID": "DE0020265", "REGISTRY_ID": "110039821271", "CWP_FACILITY_TYPE_INDICATOR": "POTW", "CWP_MAJOR_MINOR_STATUS": "Major", "CWP_PERMIT_STATUS_DESC": "Expired", "STATE_WATER_BODY_NAME": "NANTICOKE RIVER", "CWP_CSO_FLAG": "N"}}, {"type": "Feature", "geometry": {"type": "Point", "coordinates": [-75.504336022827, 39.7295478949502]}, "properties": {"CWP_NAME": "CITY OF WILMINGTON REGIONAL WWTP", "CWP_STREET": "12TH STREET & HAY ROAD", "CWP_CITY": "WILMINGTON", "CWP_STATE": "DE", "CWP_ZIP": "19802", "CWP_COUNTY": "New Castle", "NPDES_ID": "DE0020320", "REGISTRY_ID": "110006523770", "CWP_FACILITY_TYPE_INDICATOR": "POTW", "CWP_MAJOR_MINOR_STATUS": "Major", "CWP_PERMIT_STATUS_DESC": "Expired", "STATE_WATER_BODY_NAME": "DELAWARE RIVER", "CWP_CSO_FLAG": "Y"}}, {"type": "Feature", "geometry": {"type": "Point", "coordinates": [-75.2831952932884, 38.5887297777157]}, "properties": {"CWP_NAME": "MILLSBORO SEWAGE TREATMENT PLANT", "CWP_STREET": "STATE STREET", "CWP_CITY": "MILLSBORO", "CWP_STATE": "DE", "CWP_ZIP": "19966", "CWP_COUNTY": "Sussex", "NPDES_ID": "DE0050164", "REGISTRY_ID": "110011367519", "CWP_FACILITY_TYPE_INDICATOR": "POTW", "CWP_MAJOR_MINOR_STATUS": "Minor", "CWP_PERMIT_STATUS_DESC": "Terminated", "STATE_WATER_BODY_NAME": "INDIAN RIVER", "CWP_CSO_FLAG": "N"}}, {"type": "Feature", "geometry": {"type": "Point", "coordinates": [-75.5803071070215, 38.5592445886904]}, "properties": {"CWP_NAME": "LAUREL SEWAGE TREATMENT PLANT", "CWP_STREET": "OLD SAILORS ROAD", "CWP_CITY": "LAUREL", "CWP_STATE": "DE", "CWP_ZIP": "19956", "CWP_COUNTY": "Sussex", "NPDES_ID": "DE0020125", "REGISTRY_ID": "110012890354", "CWP_FACILITY_TYPE_INDICATOR": "POTW", "CWP_MAJOR_MINOR_STATUS": "Minor", "CWP_PERMIT_STATUS_DESC": "Expired", "STATE_WATER_BODY_NAME": "BROAD CREEK", "CWP_CSO_FLAG": "N"}}, {"type": "Feature", "geometry": {"type": "Point", "coordinates": [-75.0932800075791, 38.7001189364303]}, "properties": {"CWP_NAME": "REHOBOTH BEACH WASTEWATER TREATMENT PLANT", "CWP_STREET": "BAY ROAD", "CWP_CITY": "REHOBOTH BEACH", "CWP_STATE": "DE", "CWP_ZIP": "19971", "CWP_COUNTY": "Sussex", "NPDES_ID": "DE0020028", "REGISTRY_ID": "110002320658", "CWP_FACILITY_TYPE_INDICATOR": "POTW", "CWP_MAJOR_MINOR_STATUS": "Major", "CWP_PERMIT_STATUS_DESC": "Expired", "STATE_WATER_BODY_NAME": "LEWES AND REHOBOTH CANAL", "CWP_CSO_FLAG": "N"}}, {"type": "Feature", "geometry": {"type": "Point", "coordinates": [-75.4379785817275, 38.9937674173419]}, "properties": {"CWP_NAME": "KENT COUNTY WASTEWATER TREATMENT FACILITY", "CWP_STREET": "139 MILFORD NECK ROAD", "CWP_CITY": "MILFORD", "CWP_STATE": "DE", "CWP_ZIP": "19963", "CWP_COUNTY": "Sussex", "NPDES_ID": "DE0020338", "REGISTRY_ID": "110054584632", "CWP_FACILITY_TYPE_INDICATOR": "POTW", "CWP_MAJOR_MINOR_STATUS": "Major", "CWP_PERMIT_STATUS_DESC": "Admin Continued", "STATE_WATER_BODY_NAME": "MURDERKILL RIVER", "CWP_CSO_FLAG": "N"}}, {"type": "Feature", "geometry": {"type": "Point", "coordinates": [-75.1338736233094, 38.7790299640904]}, "properties": {"CWP_NAME": "HOWARD SEYMOUR WATER RECLAMATION PLANT", "CWP_STREET": "116 AMERICAN LEGION ROAD", "CWP_CITY": "LEWES", "CWP_STATE": "DE", "CWP_ZIP": "19958", "CWP_COUNTY": "Sussex", "NPDES_ID": "DE0021512", "REGISTRY_ID": "110055374713", "CWP_FACILITY_TYPE_INDICATOR": "POTW", "CWP_MAJOR_MINOR_STATUS": "Major", "CWP_PERMIT_STATUS_DESC": "Effective", "STATE_WATER_BODY_NAME": "LEWES AND REHOBOTH CANAL", "CWP_CSO_FLAG": "N"}}, {"type": "Feature", "geometry": {"type": "Point", "coordinates": [-75.5643027876836, 38.920994258123]}, "properties": {"CWP_NAME": "HARRINGTON, CITY OF", "CWP_STREET": "500 PORTER STREET", "CWP_CITY": "HARRINGTON", "CWP_STATE": "DE", "CWP_ZIP": "19952", "CWP_COUNTY": "Kent", "NPDES_ID": "DE0020036", "REGISTRY_ID": "110010052539", "CWP_FACILITY_TYPE_INDICATOR": "POTW", "CWP_MAJOR_MINOR_STATUS": "Minor", "CWP_PERMIT_STATUS_DESC": "Terminated", "STATE_WATER_BODY_NAME": "BROWN BR TRIB OF THE MURDERKILL RV, BROWNS BRANCH", "CWP_CSO_FLAG": "N"}}, {"type": "Feature", "geometry": {"type": "Point", "coordinates": [-75.3074536245063, 38.7778689330375]}, "properties": {"CWP_NAME": "MILTON WATER RECLAMATION FACILITY", "CWP_STREET": "207 FRONT STREET", "CWP_CITY": "MILTON", "CWP_STATE": "DE", "CWP_ZIP": "19968", "CWP_COUNTY": "Sussex", "NPDES_ID": "DE0021491", "REGISTRY_ID": "110009129371", "CWP_FACILITY_TYPE_INDICATOR": "POTW", "CWP_MAJOR_MINOR_STATUS": "Minor", "CWP_PERMIT_STATUS_DESC": "Expired", "STATE_WATER_BODY_NAME": "BROADKILL RIVER", "CWP_CSO_FLAG": "N"}}, {"type": "Feature", "geometry": {"type": "Point", "coordinates": [-75.0904282465485, 38.5232195558147]}, "properties": {"CWP_NAME": "SOUTH COASTAL REGIONAL WASTEWATER", "CWP_STREET": "33711 SOUTH COASTAL LANE", "CWP_CITY": "FRANKFORD", "CWP_STATE": "DE", "CWP_ZIP": "19945", "CWP_COUNTY": "Sussex", "NPDES_ID": "DE0050008", "REGISTRY_ID": "110010052593", "CWP_FACILITY_TYPE_INDICATOR": "POTW", "CWP_MAJOR_MINOR_STATUS": "Major", "CWP_PERMIT_STATUS_DESC": "Effective", "STATE_WATER_BODY_NAME": "ATLANTIC OCEAN", "CWP_CSO_FLAG": "N"}}, {"type": "Feature", "geometry": {"type": "Point", "coordinates": [-75.3760845034698, 38.6868134541921]}, "properties": {"CWP_NAME": "GEORGETOWN TOWN COUNCIL", "CWP_STREET": "STEVENSON LANE", "CWP_CITY": "GEORGETOWN", "CWP_STATE": "DE", "CWP_ZIP": "19947", "CWP_COUNTY": "Sussex", "NPDES_ID": "DE0020257", "REGISTRY_ID": "110045514001", "CWP_FACILITY_TYPE_INDICATOR": "POTW", "CWP_MAJOR_MINOR_STATUS": "Minor", "CWP_PERMIT_STATUS_DESC": "Terminated", "STATE_WATER_BODY_NAME": null, "CWP_CSO_FLAG": "N"}}, {"type": "Feature", "geometry": {"type": "Point", "coordinates": [-75.574184576424, 39.5127941488925]}, "properties": {"CWP_NAME": "PORT PENN WASTEWATER TREATMENT PLANT", "CWP_STREET": "ROUTE 9", "CWP_CITY": "PORT PENN", "CWP_STATE": "DE", "CWP_ZIP": "19731", "CWP_COUNTY": "New Castle", "NPDES_ID": "DE0021539", "REGISTRY_ID": "110010052566", "CWP_FACILITY_TYPE_INDICATOR": "POTW", "CWP_MAJOR_MINOR_STATUS": "Minor", "CWP_PERMIT_STATUS_DESC": "Expired", "STATE_WATER_BODY_NAME": "DELAWARE RIVER", "CWP_CSO_FLAG": "N"}}, {"type": "Feature", "geometry": {"type": "Point", "coordinates": [-75.648446114295, 39.4550909342052]}, "properties": {"CWP_NAME": "MOT WASTEWATER TREATMENT PLANT - NCC", "CWP_STREET": "810 OLD CORBIT ROAD (COUNTY ROAD 424)", "CWP_CITY": "NEW CASTLE", "CWP_STATE": "DE", "CWP_ZIP": "19720", "CWP_COUNTY": "New Castle", "NPDES_ID": "DE0050547", "REGISTRY_ID": "110000710053", "CWP_FACILITY_TYPE_INDICATOR": "POTW", "CWP_MAJOR_MINOR_STATUS": "Minor", "CWP_PERMIT_STATUS_DESC": "Effective", "STATE_WATER_BODY_NAME": "APPOQUINIMINK RIVER", "CWP_CSO_FLAG": "N"}}]}