{"type": "FeatureCollection", "features": [{"type": "Feature", "geometry": {"type": "Point", "coordinates": [-70.9841002391029, 42.9803091932283]}, "properties": {"CWP_NAME": "ROCKINGHAM COUNTY", "CWP_STREET": "WASTEWATER TREATMENT FACILITY", "CWP_CITY": "BRENTWOOD", "CWP_STATE": "NH", "CWP_ZIP": "03833", "CWP_COUNTY": "Rockingham", "NPDES_ID": "NH0100609", "REGISTRY_ID": "110009840002", "CWP_FACILITY_TYPE_INDICATOR": "POTW", "CWP_MAJOR_MINOR_STATUS": "Minor", "CWP_PERMIT_STATUS_DESC": "Terminated", "STATE_WATER_BODY_NAME": "ICE POND BROOK", "CWP_CSO_FLAG": "N"}}, {"type": "Feature", "geometry": {"type": "Point", "coordinates": [-71.59536433605, 44.4849570695264]}, "properties": {"CWP_NAME": "LANCASTER W W T P", "CWP_STREET": "WATER STREET", "CWP_CITY": "LANCASTER", "CWP_STATE": "NH", "CWP_ZIP": "03584", "CWP_COUNTY": "Coos", "NPDES_ID": "NH0100145", "REGISTRY_ID": "110006619301", "CWP_FACILITY_TYPE_INDICATOR": "POTW", "CWP_MAJOR_MINOR_STATUS": "Major", "CWP_PERMIT_STATUS_DESC": "Effective", "STATE_WATER_BODY_NAME": "CONNECTICUT RIVER", "CWP_CSO_FLAG": "N"}}, {"type": "Feature", "geometry": {"type": "Point", "coordinates": [-72.4325191418767, 43.2258034245536]}, "properties": {"CWP_NAME": "CHARLESTOWN WASTEWATER TREATMENT PLANT", "CWP_STREET": "187 LOWER LANDING ROAD", "CWP_CITY": "CHARLESTOWN", "CWP_STATE": "NH", "CWP_ZIP": "03603", "CWP_COUNTY": "Sullivan", "NPDES_ID": "NH0100765", "REGISTRY_ID": "110006618945", "CWP_FACILITY_TYPE_INDICATOR": "POTW", "CWP_MAJOR_MINOR_STATUS": "Major", "CWP_PERMIT_STATUS_DESC": "Effective", "STATE_WATER_BODY_NAME": "CONNECTICUT RIVER", "CWP_CSO_FLAG": "N"}}, {"type": "Feature", "geometry": {"type": "Point", "coordinates": [-71.4758721688366, 42.8095314859937]}, "properties": {"CWP_NAME": "MERRIMACK WASTE WATER TREATMENT PLANT", "CWP_STREET": "36 MAST ROAD", "CWP_CITY": "MERRIMACK", "CWP_STATE": "NH", "CWP_ZIP": "03054", "CWP_COUNTY": "Hillsborough", "NPDES_ID": "NH0100161", "REGISTRY_ID": "110001522086", "CWP_FACILITY_TYPE_INDICATOR": "POTW", "CWP_MAJOR_MINOR_STATUS": "Major", "CWP_PERMIT_STATUS_DESC": "Admin Continued", "STATE_WATER_BODY_NAME": "MERRIMACK RIVER", "CWP_CSO_FLAG": "N"}}, {"type": "Feature", "geometry": {"type": "Point", "coordinates": [-71.4566295033928, 44.9101368281662]}, "properties": {"CWP_NAME": "TOWN OF COLEBROOK", "CWP_STREET": "WASTEWATER TREATMENT FACILITY", "CWP_CITY": "COLEBROOK", "CWP_STATE": "NH", "CWP_ZIP": "03576", "CWP_COUNTY": "Coos", "NPDES_ID": "NH0100315", "REGISTRY_ID": "110009840093", "CWP_FACILITY_TYPE_INDICATOR": "POTW", "CWP_MAJOR_MINOR_STATUS": "Minor", "CWP_PERMIT_STATUS_DESC": "Terminated", "STATE_WATER_BODY_NAME": "CONNECTICUT RIVER", "CWP_CSO_FLAG": "N"}}, {"type": "Feature", "geometry": {"type": "Point", "coordinates": [-70.7408335507362, 43.0730643948538]}, "properties": {"CWP_NAME": "PORTSMOUTH CITY OF", "CWP_STREET": "END OF PIERCE ISLAND ROAD", "CWP_CITY": "PORTSMOUTH", "CWP_STATE": "NH", "CWP_ZIP": "03801", "CWP_COUNTY": "Rockingham", "NPDES_ID": "NH0100234", "REGISTRY_ID": "110004100623", "CWP_FACILITY_TYPE_INDICATOR": "POTW", "CWP_MAJOR_MINOR_STATUS": "Major", "CWP_PERMIT_STATUS_DESC": "Admin Continued", "STATE_WATER_BODY_NAME": "PISCATAQUA RIVER", "CWP_CSO_FLAG": "Y"}}, {"type": "Feature", "geometry": {"type": "Point", "coordinates": [-71.8864407161424, 43.1177184031337]}, "properties": {"CWP_NAME": "HILLSBOROUGH WWTF", "CWP_STREET": "40 NORTON DR", "CWP_CITY": "HILLSBOROUGH", "CWP_STATE": "NH", "CWP_ZIP": "03244", "CWP_COUNTY": "Hillsborough", "NPDES_ID": "NH0100111", "REGISTRY_ID": "110009840075", "CWP_FACILITY_TYPE_INDICATOR": "POTW", "CWP_MAJOR_MINOR_STATUS": "Minor", "CWP_PERMIT_STATUS_DESC": "Effective", "STATE_WATER_BODY_NAME": "CONTOOCOOK RIVER", "CWP_CSO_FLAG": "N"}}, {"type": "Feature", "geometry": {"type": "Point", "coordinates": [-71.6952007257162, 43.2203085909973]}, "properties": {"CWP_NAME": "TOWN OF HOPKINTON W W T P", "CWP_STREET": "210 PUBLIC WORKS RD.", "CWP_CITY": "HOPKINTON", "CWP_STATE": "NH", "CWP_ZIP": "03229", "CWP_COUNTY": "Merrimack", "NPDES_ID": "NHG580579", "REGISTRY_ID": "110006706671", "CWP_FACILITY_TYPE_INDICATOR": "POTW", "CWP_MAJOR_MINOR_STATUS": "Minor", "CWP_PERMIT_STATUS_DESC": "Effective", "STATE_WATER_BODY_NAME": "CONTOOCOOK  RIVER, CONTOOCOOK RIVER", "CWP_CSO_FLAG": "N"}}, {"type": "Feature", "geometry": {"type": "Point", "coordinates": [-71.928420254124, 44.2014987921765]}, "properties": {"CWP_NAME": "LISBON TOWN OF", "CWP_STREET": "636 BATH RD", "CWP_CITY": "LISBON", "CWP_STATE": "NH", "CWP_ZIP": "03585", "CWP_COUNTY": "Grafton", "NPDES_ID": "NHG580421", "REGISTRY_ID": "110009839951", "CWP_FACILITY_TYPE_INDICATOR": "POTW", "CWP_MAJOR_MINOR_STATUS": "Minor", "CWP_PERMIT_STATUS_DESC": "Effective", "STATE_WATER_BODY_NAME": "AMMONOOSUC RIVER", "CWP_CSO_FLAG": "N"}}, {"type": "Feature", "geometry": {"type": "Point", "coordinates": [-70.8171311502633, 42.9249127488176]}, "properties": {"CWP_NAME": "LEAVITT E. MAGRATH WASTEWATER TREATMENT PLAN", "CWP_STREET": "1 HARDARDT'S WAY", "CWP_CITY": "HAMPTON", "CWP_STATE": "NH", "CWP_ZIP": "03842", "CWP_COUNTY": "Rockingham", "NPDES_ID": "NH0100625", "REGISTRY_ID": "110002320827", "CWP_FACILITY_TYPE_INDICATOR": "POTW", "CWP_MAJOR_MINOR_STATUS": "Major", "CWP_PERMIT_STATUS_DESC": "Effective", "STATE_WATER_BODY_NAME": "TIDE MILL CREEK VIA TRIBUTARY", "CWP_CSO_FLAG": "N"}}, {"type": "Feature", "geometry": {"type": "Point", "coordinates": [-71.9930607571029, 42.8200499413912]}, "properties": {"CWP_NAME": "JAFFREY WASTEWATER TREATMENT FACILITY", "CWP_STREET": "OLD SHARON ROAD", "CWP_CITY": "JAFFREY", "CWP_STATE": "NH", "CWP_ZIP": "03452", "CWP_COUNTY": "Cheshire", "NPDES_ID": "NH0100595", "REGISTRY_ID": "110006619294", "CWP_FACILITY_TYPE_INDICATOR": "POTW", "CWP_MAJOR_MINOR_STATUS": "Major", "CWP_PERMIT_STATUS_DESC": "Admin Continued", "STATE_WATER_BODY_NAME": "CONTOOCOOK RIVER", "CWP_CSO_FLAG": "N"}}, {"type": "Feature", "geometry": {"type": "Point", "coordinates": [-71.6252406174864, 42.8235483171004]}, "properties": {"CWP_NAME": "MILFORD TOWN OF", "CWP_STREET": "564 NASHUA ST", "CWP_CITY": "MILFORD", "CWP_STATE": "NH", "CWP_ZIP": "03055", "CWP_COUNTY": "Hillsborough", "NPDES_ID": "NH0100471", "REGISTRY_ID": "110001523511", "CWP_FACILITY_TYPE_INDICATOR": "POTW", "CWP_MAJOR_MINOR_STATUS": "Major", "CWP_PERMIT_STATUS_DESC": "Effective", "STATE_WATER_BODY_NAME": "SOUHEGAN RIVER", "CWP_CSO_FLAG": "N"}}, {"type": "Feature", "geometry": {"type": "Point", "coordinates": [-71.6521025131729, 43.4128345923179]}, "properties": {"CWP_NAME": "WINNIPESAUKEE RIVER BASIN PROGRAM", "CWP_STREET": "528 RIVER STREET", "CWP_CITY": "FRANKLIN", "CWP_STATE": "NH", "CWP_ZIP": "03235", "CWP_COUNTY": "Merrimack", "NPDES_ID": "NH0100960", "REGISTRY_ID": "110001523343", "CWP_FACILITY_TYPE_INDICATOR": "POTW", "CWP_MAJOR_MINOR_STATUS": "Major", "CWP_PERMIT_STATUS_DESC": "Admin Continued", "STATE_WATER_BODY_NAME": "MERRIMACK RIVER", "CWP_CSO_FLAG": "N"}}, {"type": "Feature", "geometry": {"type": "Point", "coordinates": [-71.8169797599132, 43.1741454784032]}, "properties": {"CWP_NAME": "HENNIKER WASTEWATER TREATMENT FACILITY", "CWP_STREET": "199 RAMSDELL RD", "CWP_CITY": "HENNIKER", "CWP_STATE": "NH", "CWP_ZIP": "03242", "CWP_COUNTY": "Merrimack", "NPDES_ID": "NH0100102", "REGISTRY_ID": "110006619276", "CWP_FACILITY_TYPE_INDICATOR": "POTW", "CWP_MAJOR_MINOR_STATUS": "Major", "CWP_PERMIT_STATUS_DESC": "Admin Continued", "STATE_WATER_BODY_NAME": "CONTOOCOOK RIVER", "CWP_CSO_FLAG": "N"}}, {"type": "Feature", "geometry": {"type": "Point", "coordinates": [-71.5174506527848, 44.5985594533359]}, "properties": {"CWP_NAME": "GROVETON WASTEWATER TREATMENT PLANT", "CWP_STREET": "EAMES STREET", "CWP_CITY": "GROVETON", "CWP_STATE": "NH", "CWP_ZIP": "03582", "CWP_COUNTY": "Coos", "NPDES_ID": "NHG580226", "REGISTRY_ID": "110028120897", "CWP_FACILITY_TYPE_INDICATOR": "POTW", "CWP_MAJOR_MINOR_STATUS": "Minor", "CWP_PERMIT_STATUS_DESC": "Effective", "STATE_WATER_BODY_NAME": "UPPER AMMONOOSUC RIVER", "CWP_CSO_FLAG": "N"}}, {"type": "Feature", "geometry": {"type": "Point", "coordinates": [-71.6745010756347, 44.0373086459669]}, "properties": {"CWP_NAME": "LINCOLN WASTEWATER TREATMENT FACILITY", "CWP_STREET": "16 RECYCLE ROAD", "CWP_CITY": "LINCOLN", "CWP_STATE": "NH", "CWP_ZIP": "03251", "CWP_COUNTY": "Grafton", "NPDES_ID": "NH0100706", "REGISTRY_ID": "110010599708", "CWP_FACILITY_TYPE_INDICATOR": "POTW", "CWP_MAJOR_MINOR_STATUS": "Major", "CWP_PERMIT_STATUS_DESC": "Admin Continued", "STATE_WATER_BODY_NAME": "PEMIGEWASSET, PEMIGEWASSETT", "CWP_CSO_FLAG": "N"}}, {"type": "Feature", "geometry": {"type": "Point", "coordinates": [-72.0490886135538, 43.9782213653304]}, "properties": {"CWP_NAME": "TOWN OF PIERMONT", "CWP_STREET": "WASTEWATER TREATMENT PLANT", "CWP_CITY": "PIERMONT", "CWP_STATE": "NH", "CWP_ZIP": "03779", "CWP_COUNTY": "Grafton", "NPDES_ID": "NH0101231", "REGISTRY_ID": "110009721202", "CWP_FACILITY_TYPE_INDICATOR": "POTW", "CWP_MAJOR_MINOR_STATUS": "Minor", "CWP_PERMIT_STATUS_DESC": "Terminated", "STATE_WATER_BODY_NAME": "EASTMAN BROOK", "CWP_CSO_FLAG": "N"}}, {"type": "Feature", "geometry": {"type": "Point", "coordinates": [-72.4655413426597, 42.9735183617152]}, "properties": {"CWP_NAME": "CHESHIRE COUNTY COMPLEX", "CWP_STREET": "201 RIVER ROAD", "CWP_CITY": "WESTMORELAND", "CWP_STATE": "NH", "CWP_ZIP": "03467", "CWP_COUNTY": "Cheshire", "NPDES_ID": "NHG580391", "REGISTRY_ID": "110003754857", "CWP_FACILITY_TYPE_INDICATOR": "POTW", "CWP_MAJOR_MINOR_STATUS": "Minor", "CWP_PERMIT_STATUS_DESC": "Effective", "STATE_WATER_BODY_NAME": "CONNECTICUT RIVER", "CWP_CSO_FLAG": "N"}}, {"type": "Feature", "geometry": {"type": "Point", "coordinates": [-71.0128003408437, 43.4396092343463]}, "properties": {"CWP_NAME": "MILTON W W T F", "CWP_STREET": "ROUTE 125", "CWP_CITY": "MILTON", "CWP_STATE": "NH", "CWP_ZIP": "03851", "CWP_COUNTY": "Strafford", "NPDES_ID": "NH0100676", "REGISTRY_ID": "110009840011", "CWP_FACILITY_TYPE_INDICATOR": "POTW", "CWP_MAJOR_MINOR_STATUS": "Minor", "CWP_PERMIT_STATUS_DESC": "Terminated", "STATE_WATER_BODY_NAME": "SALMON FALLS RIVER", "CWP_CSO_FLAG": "N"}}, {"type": "Feature", "geometry": {"type": "Point", "coordinates": [-71.807700526998, 42.7724083532993]}, "properties": {"CWP_NAME": "GREENVILLE W W T F", "CWP_STREET": "109 OLD WILTON ROAD", "CWP_CITY": "GREENVILLE", "CWP_STATE": "NH", "CWP_ZIP": "03048", "CWP_COUNTY": "Hillsborough", "NPDES_ID": "NH0100919", "REGISTRY_ID": "110006706680", "CWP_FACILITY_TYPE_INDICATOR": "POTW", "CWP_MAJOR_MINOR_STATUS": "Minor", "CWP_PERMIT_STATUS_DESC": "Terminated", "STATE_WATER_BODY_NAME": "SOUHEGAN RIVER", "CWP_CSO_FLAG": "N"}}, {"type": "Feature", "geometry": {"type": "Point", "coordinates": [-71.6807594589876, 44.024337721534]}, "properties": {"CWP_NAME": "WOODSTOCK WWTF", "CWP_STREET": "OLD DUMP ROAD", "CWP_CITY": "NORTH WOODSTOCK", "CWP_STATE": "NH", "CWP_ZIP": "03262", "CWP_COUNTY": "Grafton", "NPDES_ID": "NH0100293", "REGISTRY_ID": "110009840084", "CWP_FACILITY_TYPE_INDICATOR": "POTW", "CWP_MAJOR_MINOR_STATUS": "Minor", "CWP_PERMIT_STATUS_DESC": "Admin Continued", "STATE_WATER_BODY_NAME": "PEMIGEWASSET RIVER", "CWP_CSO_FLAG": "N"}}, {"type": "Feature", "geometry": {"type": "Point", "coordinates": [-71.7904813005719, 44.30882930515]}, "properties": {"CWP_NAME": "LITTLETON TOWN OF", "CWP_STREET": "323 MEADOW STREET", "CWP_CITY": "LITTLETON", "CWP_STATE": "NH", "CWP_ZIP": "03561", "CWP_COUNTY": "Grafton", "NPDES_ID": "NH0100153", "REGISTRY_ID": "110000737294", "CWP_FACILITY_TYPE_INDICATOR": "POTW", "CWP_MAJOR_MINOR_STATUS": "Major", "CWP_PERMIT_STATUS_DESC": "Effective", "STATE_WATER_BODY_NAME": "AMMONOOSUC RIVER", "CWP_CSO_FLAG": "N"}}, {"type": "Feature", "geometry": {"type": "Point", "coordinates": [-71.8094884111431, 43.2748057145873]}, "properties": {"CWP_NAME": "WARNER W W T F", "CWP_STREET": "RFD #1     JOPPA ROAD", "CWP_CITY": "WARNER", "CWP_STATE": "NH", "CWP_ZIP": "03278", "CWP_COUNTY": "Merrimack", "NPDES_ID": "NH0100498", "REGISTRY_ID": "110007680955", "CWP_FACILITY_TYPE_INDICATOR": "POTW", "CWP_MAJOR_MINOR_STATUS": "Minor", "CWP_PERMIT_STATUS_DESC": "Terminated", "STATE_WATER_BODY_NAME": "WARNER RIVER", "CWP_CSO_FLAG": "N"}}, {"type": "Feature", "geometry": {"type": "Point", "coordinates": [-72.1135079331927, 43.3797925792712]}, "properties": {"CWP_NAME": "SUNAPEE W W T F", "CWP_STREET": "50 TREATMENT PLANT ROAD", "CWP_CITY": "SUNAPEE", "CWP_STATE": "NH", "CWP_ZIP": "03782", "CWP_COUNTY": "Sullivan", "NPDES_ID": "NH0100544", "REGISTRY_ID": "110002320818", "CWP_FACILITY_TYPE_INDICATOR": "POTW", "CWP_MAJOR_MINOR_STATUS": "Major", "CWP_PERMIT_STATUS_DESC": "Admin Continued", "STATE_WATER_BODY_NAME": "SUGAR RIVER", "CWP_CSO_FLAG": "N"}}, {"type": "Feature", "geometry": {"type": "Point", "coordinates": [-71.1842184390621, 44.460029670505]}, "properties": {"CWP_NAME": "BERLIN POLLUTION CONTROL FACILITY", "CWP_STREET": "10 SHELBY ST", "CWP_CITY": "BERLIN", "CWP_STATE": "NH", "CWP_ZIP": "03570", "CWP_COUNTY": "Coos", "NPDES_ID": "NH0100013", "REGISTRY_ID": "110004101409", "CWP_FACILITY_TYPE_INDICATOR": "POTW", "CWP_MAJOR_MINOR_STATUS": "Major", "CWP_PERMIT_STATUS_DESC": "Admin Continued", "STATE_WATER_BODY_NAME": "ANDROSCOGGIN RIVER", "CWP_CSO_FLAG": "Y"}}, {"type": "Feature", "geometry": {"type": "Point", "coordinates": [-71.5174506527848, 44.5985594533359]}, "properties": {"CWP_NAME": "GROVETON SEWER TREATMENT PLANT", "CWP_STREET": "EAMES ST", "CWP_CITY": "GROVETON", "CWP_STATE": "NH", "CWP_ZIP": "03582", "CWP_COUNTY": "Coos", "NPDES_ID": "NH0100226", "REGISTRY_ID": "110028120897", "CWP_FACILITY_TYPE_INDICATOR": "POTW", "CWP_MAJOR_MINOR_STATUS": "Minor", "CWP_PERMIT_STATUS_DESC": "Terminated", "STATE_WATER_BODY_NAME": "AMMONOSUC RIVER", "CWP_CSO_FLAG": "N"}}, {"type": "Feature", "geometry": {"type": "Point", "coordinates": [-71.636921070339, 43.6902790922679]}, "properties": {"CWP_NAME": "ASHLAND TOWN OF", "CWP_STREET": "6 COLLINS STREET", "CWP_CITY": "ASHLAND", "CWP_STATE": "NH", "CWP_ZIP": "03217", "CWP_COUNTY": "Grafton", "NPDES_ID": "NH0100005", "REGISTRY_ID": "110001104359", "CWP_FACILITY_TYPE_INDICATOR": "POTW", "CWP_MAJOR_MINOR_STATUS": "Major", "CWP_PERMIT_STATUS_DESC": "Effective", "STATE_WATER_BODY_NAME": "SQUAM RIVER", "CWP_CSO_FLAG": "N"}}, {"type": "Feature", "geometry": {"type": "Point", "coordinates": [-71.682101265286, 44.2878993831308]}, "properties": {"CWP_NAME": "BETHLEHEM VILLAGE WASTEWATER TREATMENT PLANT", "CWP_STREET": "359 MAPLE STREET", "CWP_CITY": "BETHLEHEM", "CWP_STATE": "NH", "CWP_ZIP": "03574", "CWP_COUNTY": "Grafton", "NPDES_ID": "NH0101392", "REGISTRY_ID": "110028120986", "CWP_FACILITY_TYPE_INDICATOR": "POTW", "CWP_MAJOR_MINOR_STATUS": "Minor", "CWP_PERMIT_STATUS_DESC": "Terminated", "STATE_WATER_BODY_NAME": "AMMONOOSUC RIVER", "CWP_CSO_FLAG": "N"}}, {"type": "Feature", "geometry": {"type": "Point", "coordinates": [-71.5107074908672, 43.9447872819554]}, "properties": {"CWP_NAME": "WATERVILLE VALLEY ADVANCED W W T F", "CWP_STREET": "11 CLEANWATER LANE", "CWP_CITY": "WATERVILLE VALLEY", "CWP_STATE": "NH", "CWP_ZIP": "03125", "CWP_COUNTY": "Grafton", "NPDES_ID": "NH0100781", "REGISTRY_ID": "110006619668", "CWP_FACILITY_TYPE_INDICATOR": "POTW", "CWP_MAJOR_MINOR_STATUS": "Major", "CWP_PERMIT_STATUS_DESC": "Effective", "STATE_WATER_BODY_NAME": "MAD RIVER", "CWP_CSO_FLAG": "N"}}, {"type": "Feature", "geometry": {"type": "Point", "coordinates": [-72.2754713591456, 42.8904983374343]}, "properties": {"CWP_NAME": "KEENE WASTEWATER TREATMENT FACILITY", "CWP_STREET": "AIRPORT ROAD", "CWP_CITY": "SWANZEY", "CWP_STATE": "NH", "CWP_ZIP": "03431", "CWP_COUNTY": "Cheshire", "NPDES_ID": "NH0100790", "REGISTRY_ID": "110002320854", "CWP_FACILITY_TYPE_INDICATOR": "POTW", "CWP_MAJOR_MINOR_STATUS": "Major", "CWP_PERMIT_STATUS_DESC": "Effective", "STATE_WATER_BODY_NAME": "ASHUELOT RIVER", "CWP_CSO_FLAG": "N"}}, {"type": "Feature", "geometry": {"type": "Point", "coordinates": [-71.3325004058137, 42.8662085753021]}, "properties": {"CWP_NAME": "DERRY W W T P", "CWP_STREET": "50 TRANSFER LANE", "CWP_CITY": "DERRY", "CWP_STATE": "NH", "CWP_ZIP": "03038", "CWP_COUNTY": "Rockingham", "NPDES_ID": "NH0100056", "REGISTRY_ID": "110024243978", "CWP_FACILITY_TYPE_INDICATOR": "POTW", "CWP_MAJOR_MINOR_STATUS": "Major", "CWP_PERMIT_STATUS_DESC": "Admin Continued", "STATE_WATER_BODY_NAME": "MERRIMACK RIVER", "CWP_CSO_FLAG": "N"}}, {"type": "Feature", "geometry": {"type": "Point", "coordinates": [-71.5232709758315, 43.1833392592097]}, "properties": {"CWP_NAME": "CONCORD HALL STREET W W T P", "CWP_STREET": "125 HALL ST", "CWP_CITY": "CONCORD", "CWP_STATE": "NH", "CWP_ZIP": "03301", "CWP_COUNTY": "Merrimack", "NPDES_ID": "NH0100901", "REGISTRY_ID": "110023120923", "CWP_FACILITY_TYPE_INDICATOR": "POTW", "CWP_MAJOR_MINOR_STATUS": "Major", "CWP_PERMIT_STATUS_DESC": "Effective", "STATE_WATER_BODY_NAME": "MERRIMACK RIVER", "CWP_CSO_FLAG": "N"}}, {"type": "Feature", "geometry": {"type": "Point", "coordinates": [-72.4920506549738, 42.7803466472573]}, "properties": {"CWP_NAME": "HINSDALE WWTP", "CWP_STREET": "120 RIVER ROAD", "CWP_CITY": "HINSDALE", "CWP_STATE": "NH", "CWP_ZIP": "03451", "CWP_COUNTY": "Cheshire", "NPDES_ID": "NH0100382", "REGISTRY_ID": "110002320792", "CWP_FACILITY_TYPE_INDICATOR": "POTW", "CWP_MAJOR_MINOR_STATUS": "Major", "CWP_PERMIT_STATUS_DESC": "Admin Continued", "STATE_WATER_BODY_NAME": "ASHUELOT RIVER", "CWP_CSO_FLAG": "N"}}, {"type": "Feature", "geometry": {"type": "Point", "coordinates": [-71.6294126978997, 44.7492696634295]}, "properties": {"CWP_NAME": "STRATFORD VILLAGE SYSTEM", "CWP_STREET": "23 CROSS ST", "CWP_CITY": "NORTH STRATFORD", "CWP_STATE": "NH", "CWP_ZIP": "03590", "CWP_COUNTY": "Coos", "NPDES_ID": "NHG580536", "REGISTRY_ID": "110024409022", "CWP_FACILITY_TYPE_INDICATOR": "POTW", "CWP_MAJOR_MINOR_STATUS": "Minor", "CWP_PERMIT_STATUS_DESC": "Effective", "STATE_WATER_BODY_NAME": "UPPER CONNECTICUT", "CWP_CSO_FLAG": "N"}}, {"type": "Feature", "geometry": {"type": "Point", "coordinates": [-71.928420254124, 44.2014987921765]}, "properties": {"CWP_NAME": "LISBON WWTF", "CWP_STREET": "636 BATH ROAD", "CWP_CITY": "LISBON", "CWP_STATE": "NH", "CWP_ZIP": "03585", "CWP_COUNTY": "Grafton", "NPDES_ID": "NH0100421", "REGISTRY_ID": "110009839951", "CWP_FACILITY_TYPE_INDICATOR": "POTW", "CWP_MAJOR_MINOR_STATUS": "Minor", "CWP_PERMIT_STATUS_DESC": "Terminated", "STATE_WATER_BODY_NAME": "AMMONOOSUC RIVER", "CWP_CSO_FLAG": "N"}}, {"type": "Feature", "geometry": {"type": "Point", "coordinates": [-71.7235006250999, 43.5972091330757]}, "properties": {"CWP_NAME": "TOWN OF BRISTOL WWTF", "CWP_STREET": "180 AYRES ISLAND RD", "CWP_CITY": "BRISTOL", "CWP_STATE": "NH", "CWP_ZIP": "03222", "CWP_COUNTY": "Grafton", "NPDES_ID": "NHG580021", "REGISTRY_ID": "110024409013", "CWP_FACILITY_TYPE_INDICATOR": "POTW", "CWP_MAJOR_MINOR_STATUS": "Minor", "CWP_PERMIT_STATUS_DESC": "Effective", "STATE_WATER_BODY_NAME": "PEMIGEWASSETT RIVER", "CWP_CSO_FLAG": "N"}}, {"type": "Feature", "geometry": {"type": "Point", "coordinates": [-72.3893462443492, 42.7702139874036]}, "properties": {"CWP_NAME": "WINCHESTER WASTEWATER TREATMENT PLANT", "CWP_STREET": "64 DUSO ROAD", "CWP_CITY": "WINCHESTER", "CWP_STATE": "NH", "CWP_ZIP": "03470", "CWP_COUNTY": "Cheshire", "NPDES_ID": "NHG580404", "REGISTRY_ID": "110028120977", "CWP_FACILITY_TYPE_INDICATOR": "POTW", "CWP_MAJOR_MINOR_STATUS": "Minor", "CWP_PERMIT_STATUS_DESC": "Effective", "STATE_WATER_BODY_NAME": "ASHUELOT RIVER", "CWP_CSO_FLAG": "N"}}, {"type": "Feature", "geometry": {"type": "Point", "coordinates": [-71.445079368151, 42.7485016828621]}, "properties": {"CWP_NAME": "NASHUA WASTEWATER TREATMENT FACILITY", "CWP_STREET": "SAWMILL RD", "CWP_CITY": "NASHUA", "CWP_STATE": "NH", "CWP_ZIP": "03060", "CWP_COUNTY": "Hillsborough", "NPDES_ID": "NH0100170", "REGISTRY_ID": "110007686110", "CWP_FACILITY_TYPE_INDICATOR": "POTW", "CWP_MAJOR_MINOR_STATUS": "Major", "CWP_PERMIT_STATUS_DESC": "Admin Continued", "STATE_WATER_BODY_NAME": "MERRIMACK RIVER & NASHUA RIVER", "CWP_CSO_FLAG": "Y"}}, {"type": "Feature", "geometry": {"type": "Point", "coordinates": [-72.0364207702259, 44.1464692625187]}, "properties": {"CWP_NAME": "WOODSVILLE W W T F", "CWP_STREET": "KING STREET EXT.", "CWP_CITY": "WOODSVILLE", "CWP_STATE": "NH", "CWP_ZIP": "03785", "CWP_COUNTY": "Grafton", "NPDES_ID": "NH0100978", "REGISTRY_ID": "110009839791", "CWP_FACILITY_TYPE_INDICATOR": "POTW", "CWP_MAJOR_MINOR_STATUS": "Minor", "CWP_PERMIT_STATUS_DESC": "Terminated", "STATE_WATER_BODY_NAME": "AMMONOOSUC & CONNECTICUT RIVER", "CWP_CSO_FLAG": "N"}}, {"type": "Feature", "geometry": {"type": "Point", "coordinates": [-70.965425827913, 43.2675041454363]}, "properties": {"CWP_NAME": "ROCHESTER WWTF", "CWP_STREET": "175 PICKERING ROAD", "CWP_CITY": "GONIC", "CWP_STATE": "NH", "CWP_ZIP": "03839", "CWP_COUNTY": "Strafford", "NPDES_ID": "NH0100668", "REGISTRY_ID": "110006619533", "CWP_FACILITY_TYPE_INDICATOR": "POTW", "CWP_MAJOR_MINOR_STATUS": "Major", "CWP_PERMIT_STATUS_DESC": "Admin Continued", "STATE_WATER_BODY_NAME": "COCHECO RIVER", "CWP_CSO_FLAG": "N"}}, {"type": "Feature", "geometry": {"type": "Point", "coordinates": [-71.526999675758, 44.8698426943538]}, "properties": {"CWP_NAME": "STRATFORD-MILL HOUSE", "CWP_STREET": "1744 US ROUTE 3", "CWP_CITY": "NORTH STRATFORD", "CWP_STATE": "NH", "CWP_ZIP": "03590", "CWP_COUNTY": "Coos", "NPDES_ID": "NHG581214", "REGISTRY_ID": "110024409059", "CWP_FACILITY_TYPE_INDICATOR": "POTW", "CWP_MAJOR_MINOR_STATUS": "Minor", "CWP_PERMIT_STATUS_DESC": "Effective", "STATE_WATER_BODY_NAME": "UPPER CONNECTICUT", "CWP_CSO_FLAG": "N"}}, {"type": "Feature", "geometry": {"type": "Point", "coordinates": [-71.0503425488854, 43.3870330579557]}, "properties": {"CWP_NAME": "FARMINGTON WWTP", "CWP_STREET": "BALDWIN WAY", "CWP_CITY": "FARMINGTON", "CWP_STATE": "NH", "CWP_ZIP": "03835", "CWP_COUNTY": "Strafford", "NPDES_ID": "NH0100854", "REGISTRY_ID": "110006619249", "CWP_FACILITY_TYPE_INDICATOR": "POTW", "CWP_MAJOR_MINOR_STATUS": "Major", "CWP_PERMIT_STATUS_DESC": "Admin Continued", "STATE_WATER_BODY_NAME": "COCHECO RIVER", "CWP_CSO_FLAG": "N"}}, {"type": "Feature", "geometry": {"type": "Point", "coordinates": [-70.833771308181, 42.8673318448486]}, "properties": {"CWP_NAME": "SEABROOK WWTP", "CWP_STREET": "WRIGHTS ISLAND", "CWP_CITY": "SEABROOK", "CWP_STATE": "NH", "CWP_ZIP": "03874", "CWP_COUNTY": "Rockingham", "NPDES_ID": "NH0101303", "REGISTRY_ID": "110006619622", "CWP_FACILITY_TYPE_INDICATOR": "POTW", "CWP_MAJOR_MINOR_STATUS": "Major", "CWP_PERMIT_STATUS_DESC": "Effective", "STATE_WATER_BODY_NAME": "OCEAN DISCHARGE", "CWP_CSO_FLAG": "N"}}, {"type": "Feature", "geometry": {"type": "Point", "coordinates": [-70.7288896480082, 43.0277304617478]}, "properties": {"CWP_NAME": "WALLIS SANDS STATE PARK", "CWP_STREET": "ROUTE 1-A", "CWP_CITY": "RYE", "CWP_STATE": "NH", "CWP_ZIP": "03871", "CWP_COUNTY": "Rockingham", "NPDES_ID": "NH0020966", "REGISTRY_ID": "110009721033", "CWP_FACILITY_TYPE_INDICATOR": "POTW", "CWP_MAJOR_MINOR_STATUS": "Minor", "CWP_PERMIT_STATUS_DESC": "Admin Continued", "STATE_WATER_BODY_NAME": "ATLANTIC OCEAN", "CWP_CSO_FLAG": "N"}}, {"type": "Feature", "geometry": {"type": "Point", "coordinates": [-70.8183218715758, 43.2361807574965]}, "properties": {"CWP_NAME": "TOWN OF ROLLINSFORD W W T F", "CWP_STREET": "5 LOWER MILL ROAD", "CWP_CITY": "ROLLINSFORD", "CWP_STATE": "NH", "CWP_ZIP": "03869", "CWP_COUNTY": "Strafford", "NPDES_ID": "NH0100251", "REGISTRY_ID": "110006706699", "CWP_FACILITY_TYPE_INDICATOR": "POTW", "CWP_MAJOR_MINOR_STATUS": "Minor", "CWP_PERMIT_STATUS_DESC": "Terminated", "STATE_WATER_BODY_NAME": "SALMON FALLS RIVER", "CWP_CSO_FLAG": "N"}}, {"type": "Feature", "geometry": {"type": "Point", "coordinates": [-70.8400917684756, 43.2514638384865]}, "properties": {"CWP_NAME": "CITY OF SOMERSWORTH", "CWP_STREET": "99 BUFFUMSVILLE ROAD", "CWP_CITY": "SOMERSWORTH", "CWP_STATE": "NH", "CWP_ZIP": "03878", "CWP_COUNTY": "Strafford", "NPDES_ID": "NH0100277", "REGISTRY_ID": "110020142987", "CWP_FACILITY_TYPE_INDICATOR": "POTW", "CWP_MAJOR_MINOR_STATUS": "Major", "CWP_PERMIT_STATUS_DESC": "Admin Continued", "STATE_WATER_BODY_NAME": "SALMON FALLS RIVER", "CWP_CSO_FLAG": "N"}}, {"type": "Feature", "geometry": {"type": "Point", "coordinates": [-71.6476805418587, 43.3597188239848]}, "properties": {"CWP_NAME": "MERRIMACK COUNTY NURSING HOME", "CWP_STREET": "325 DANIEL WEBSTER HGHWY", "CWP_CITY": "BOSCAWEN", "CWP_STATE": "NH", "CWP_ZIP": "03303", "CWP_COUNTY": "Merrimack", "NPDES_ID": "NHG580935", "REGISTRY_ID": "110001522399", "CWP_FACILITY_TYPE_INDICATOR": "POTW", "CWP_MAJOR_MINOR_STATUS": "Minor", "CWP_PERMIT_STATUS_DESC": "Effective", "STATE_WATER_BODY_NAME": "MERRIMACK RIVER", "CWP_CSO_FLAG": "N"}}, {"type": "Feature", "geometry": {"type": "Point", "coordinates": [-70.933979211973, 43.0757389729344]}, "properties": {"CWP_NAME": "NEWMARKET TOWN OF", "CWP_STREET": "95 YOUNG LANE", "CWP_CITY": "NEWMARKET", "CWP_STATE": "NH", "CWP_ZIP": "03857", "CWP_COUNTY": "Rockingham", "NPDES_ID": "NH0100196", "REGISTRY_ID": "110006619347", "CWP_FACILITY_TYPE_INDICATOR": "POTW", "CWP_MAJOR_MINOR_STATUS": "Major", "CWP_PERMIT_STATUS_DESC": "Terminated", "STATE_WATER_BODY_NAME": "LAMPREY RIVER", "CWP_CSO_FLAG": "N"}}, {"type": "Feature", "geometry": {"type": "Point", "coordinates": [-71.165800312594, 44.386308632488]}, "properties": {"CWP_NAME": "GORHAM W W T F", "CWP_STREET": "8 MAIN ST", "CWP_CITY": "GORHAM", "CWP_STATE": "NH", "CWP_ZIP": "03581", "CWP_COUNTY": "Coos", "NPDES_ID": "NHG580927", "REGISTRY_ID": "110024409031", "CWP_FACILITY_TYPE_INDICATOR": "POTW", "CWP_MAJOR_MINOR_STATUS": "Minor", "CWP_PERMIT_STATUS_DESC": "Effective", "STATE_WATER_BODY_NAME": "ANDROSCOGGIN RIVER", "CWP_CSO_FLAG": "N"}}, {"type": "Feature", "geometry": {"type": "Point", "coordinates": [-72.3893012782317, 42.7702085914718]}, "properties": {"CWP_NAME": "TOWN OF WINCHESTER", "CWP_STREET": "WASTEWATER TREATMENT FACILITY", "CWP_CITY": "WINCHESTER", "CWP_STATE": "NH", "CWP_ZIP": "03470", "CWP_COUNTY": "Cheshire", "NPDES_ID": "NH0100404", "REGISTRY_ID": "110009839933", "CWP_FACILITY_TYPE_INDICATOR": "POTW", "CWP_MAJOR_MINOR_STATUS": "Minor", "CWP_PERMIT_STATUS_DESC": "Terminated", "STATE_WATER_BODY_NAME": "ASHUELOT RIVER (SEE NH0023035)", "CWP_CSO_FLAG": "N"}}, {"type": "Feature", "geometry": {"type": "Point", "coordinates": [-70.8390989111154, 43.1599038439881]}, "properties": {"CWP_NAME": "DOVER/HUCKLEBERRY HILL W W T F", "CWP_STREET": "484 MIDDLE ROAD", "CWP_CITY": "DOVER", "CWP_STATE": "NH", "CWP_ZIP": "03820", "CWP_COUNTY": "Strafford", "NPDES_ID": "NH0101311", "REGISTRY_ID": "110002061759", "CWP_FACILITY_TYPE_INDICATOR": "POTW", "CWP_MAJOR_MINOR_STATUS": "Major", "CWP_PERMIT_STATUS_DESC": "Admin Continued", "STATE_WATER_BODY_NAME": "PISCATAQUA RIVER", "CWP_CSO_FLAG": "N"}}, {"type": "Feature", "geometry": {"type": "Point", "coordinates": [-72.1780774440507, 42.8352610710547]}, "properties": {"CWP_NAME": "TROY WASTEWATER TREATMENT PLANT", "CWP_STREET": "151 DORT STREET", "CWP_CITY": "TROY", "CWP_STATE": "NH", "CWP_ZIP": "03465", "CWP_COUNTY": "Cheshire", "NPDES_ID": "NH0101052", "REGISTRY_ID": "110009839817", "CWP_FACILITY_TYPE_INDICATOR": "POTW", "CWP_MAJOR_MINOR_STATUS": "Minor", "CWP_PERMIT_STATUS_DESC": "Terminated", "STATE_WATER_BODY_NAME": "ASHUELOT RIVER - SOUTH BRANCH", "CWP_CSO_FLAG": "N"}}, {"type": "Feature", "geometry": {"type": "Point", "coordinates": [-70.9444284335577, 42.9967146303353]}, "properties": {"CWP_NAME": "EXETER  W W T P", "CWP_STREET": "13 NEWFIELDS ROAD", "CWP_CITY": "EXETER", "CWP_STATE": "NH", "CWP_ZIP": "03833", "CWP_COUNTY": "Rockingham", "NPDES_ID": "NH0100871", "REGISTRY_ID": "110002320863", "CWP_FACILITY_TYPE_INDICATOR": "POTW", "CWP_MAJOR_MINOR_STATUS": "Major", "CWP_PERMIT_STATUS_DESC": "Effective", "STATE_WATER_BODY_NAME": "SQUAMSCOTT RIVER", "CWP_CSO_FLAG": "Y"}}, {"type": "Feature", "geometry": {"type": "Point", "coordinates": [-71.1072930724688, 43.9773229743128]}, "properties": {"CWP_NAME": "CONWAY VILLAGE FIRE DISTRICT", "CWP_STREET": "128 WEST MAIN STREET", "CWP_CITY": "CONWAY", "CWP_STATE": "NH", "CWP_ZIP": "03818", "CWP_COUNTY": "Carroll", "NPDES_ID": "NH0100412", "REGISTRY_ID": "110009839942", "CWP_FACILITY_TYPE_INDICATOR": "POTW", "CWP_MAJOR_MINOR_STATUS": "Minor", "CWP_PERMIT_STATUS_DESC": "Terminated", "STATE_WATER_BODY_NAME": "SACO RIVER", "CWP_CSO_FLAG": "N"}}, {"type": "Feature", "geometry": {"type": "Point", "coordinates": [-72.326570853172, 42.8682086346136]}, "properties": {"CWP_NAME": "WEST SWANZY W W T P", "CWP_STREET": "DENMAN THOMPSON HIGHWAY", "CWP_CITY": "WEST SWANZY", "CWP_STATE": "NH", "CWP_ZIP": "03446", "CWP_COUNTY": "Cheshire", "NPDES_ID": "NH0101150", "REGISTRY_ID": "110009839826", "CWP_FACILITY_TYPE_INDICATOR": "POTW", "CWP_MAJOR_MINOR_STATUS": "Minor", "CWP_PERMIT_STATUS_DESC": "Admin Continued", "STATE_WATER_BODY_NAME": "ASHUELOT RIVER", "CWP_CSO_FLAG": "N"}}, {"type": "Feature", "geometry": {"type": "Point", "coordinates": [-70.9034004573629, 43.1377391466494]}, "properties": {"CWP_NAME": "DURHAM WWTP", "CWP_STREET": "WASTEWATER TREATMENT FACILITY", "CWP_CITY": "DURHAM", "CWP_STATE": "NH", "CWP_ZIP": "03824", "CWP_COUNTY": "Strafford", "NPDES_ID": "NH0100455", "REGISTRY_ID": "110006619212", "CWP_FACILITY_TYPE_INDICATOR": "POTW", "CWP_MAJOR_MINOR_STATUS": "Major", "CWP_PERMIT_STATUS_DESC": "Admin Continued", "STATE_WATER_BODY_NAME": "OYSTER RIVER ESTUARY", "CWP_CSO_FLAG": "N"}}, {"type": "Feature", "geometry": {"type": "Point", "coordinates": [-71.9338961444383, 42.9092213382047]}, "properties": {"CWP_NAME": "PETERBOROUGH WASTEWATER TREATMENT PLANT", "CWP_STREET": "110 PHEASANT  ROAD", "CWP_CITY": "PETERBOROUGH", "CWP_STATE": "NH", "CWP_ZIP": "03458", "CWP_COUNTY": "Hillsborough", "NPDES_ID": "NH0100650", "REGISTRY_ID": "110002320836", "CWP_FACILITY_TYPE_INDICATOR": "POTW", "CWP_MAJOR_MINOR_STATUS": "Major", "CWP_PERMIT_STATUS_DESC": "Admin Continued", "STATE_WATER_BODY_NAME": "CONTOOCOOK RIVER", "CWP_CSO_FLAG": "N"}}, {"type": "Feature", "geometry": {"type": "Point", "coordinates": [-71.0593456438204, 43.040156386177]}, "properties": {"CWP_NAME": "EPPING WWTF", "CWP_STREET": "85 LAGOON ROAD", "CWP_CITY": "EPPING", "CWP_STATE": "NH", "CWP_ZIP": "030422440", "CWP_COUNTY": "Rockingham", "NPDES_ID": "NH0100692", "REGISTRY_ID": "110006619230", "CWP_FACILITY_TYPE_INDICATOR": "POTW", "CWP_MAJOR_MINOR_STATUS": "Major", "CWP_PERMIT_STATUS_DESC": "Terminated", "STATE_WATER_BODY_NAME": "LAMPREY RIVER", "CWP_CSO_FLAG": "N"}}, {"type": "Feature", "geometry": {"type": "Point", "coordinates": [-72.0578479355204, 42.7708273364435]}, "properties": {"CWP_NAME": "FRANKLIN PIERCE COLLEGE WATER TREATMENT PLANT", "CWP_STREET": "COLLEGE ROAD", "CWP_CITY": "RINDGE", "CWP_STATE": "NH", "CWP_ZIP": "03461-0060", "CWP_COUNTY": "Cheshire", "NPDES_ID": "NH0101044", "REGISTRY_ID": "110007692906", "CWP_FACILITY_TYPE_INDICATOR": "POTW", "CWP_MAJOR_MINOR_STATUS": "Minor", "CWP_PERMIT_STATUS_DESC": "Terminated", "STATE_WATER_BODY_NAME": "TRIBUTARY TO PEARLY LAKE", "CWP_CSO_FLAG": "N"}}, {"type": "Feature", "geometry": {"type": "Point", "coordinates": [-71.7090179138064, 43.2141230523553]}, "properties": {"CWP_NAME": "TOWN OF HOPKINGTON W W T P", "CWP_STREET": "300 MAPLE STREET", "CWP_CITY": "CONTOOCOOK", "CWP_STATE": "NH", "CWP_ZIP": "03229", "CWP_COUNTY": "Merrimack", "NPDES_ID": "NH0100579", "REGISTRY_ID": "110023028882", "CWP_FACILITY_TYPE_INDICATOR": "POTW", "CWP_MAJOR_MINOR_STATUS": "Minor", "CWP_PERMIT_STATUS_DESC": "Terminated", "STATE_WATER_BODY_NAME": "CONTOOCOOK RIVER", "CWP_CSO_FLAG": "N"}}, {"type": "Feature", "geometry": {"type": "Point", "coordinates": [-71.4627564677692, 43.0711766941036]}, "properties": {"CWP_NAME": "HOOKSETT WASTEWATER TREATMENT FACILITY", "CWP_STREET": "98 EGAWES DRIVE", "CWP_CITY": "HOOKSETT", "CWP_STATE": "NH", "CWP_ZIP": "03106", "CWP_COUNTY": "Merrimack", "NPDES_ID": "NH0100129", "REGISTRY_ID": "110006619285", "CWP_FACILITY_TYPE_INDICATOR": "POTW", "CWP_MAJOR_MINOR_STATUS": "Major", "CWP_PERMIT_STATUS_DESC": "Admin Continued", "STATE_WATER_BODY_NAME": "MERRIMACK RIVER", "CWP_CSO_FLAG": "N"}}, {"type": "Feature", "geometry": {"type": "Point", "coordinates": [-72.3790463453917, 43.3896284571266]}, "properties": {"CWP_NAME": "CLAREMONT CITY OF", "CWP_STREET": "338 PLAINS  RD", "CWP_CITY": "CLAREMONT", "CWP_STATE": "NH", "CWP_ZIP": "03743", "CWP_COUNTY": "Sullivan", "NPDES_ID": "NH0101257", "REGISTRY_ID": "110006618954", "CWP_FACILITY_TYPE_INDICATOR": "POTW", "CWP_MAJOR_MINOR_STATUS": "Major", "CWP_PERMIT_STATUS_DESC": "Admin Continued", "STATE_WATER_BODY_NAME": "SUGAR RIVER", "CWP_CSO_FLAG": "N"}}, {"type": "Feature", "geometry": {"type": "Point", "coordinates": [-71.5893603824786, 43.2843088597947]}, "properties": {"CWP_NAME": "CONCORD-PENACOOK  WWTF", "CWP_STREET": "7 PENACOOK  STREET", "CWP_CITY": "PENACOOK", "CWP_STATE": "NH", "CWP_ZIP": "03301", "CWP_COUNTY": "Merrimack", "NPDES_ID": "NH0100331", "REGISTRY_ID": "110001523469", "CWP_FACILITY_TYPE_INDICATOR": "POTW", "CWP_MAJOR_MINOR_STATUS": "Major", "CWP_PERMIT_STATUS_DESC": "Effective", "STATE_WATER_BODY_NAME": "MERRIMACK RIVER", "CWP_CSO_FLAG": "N"}}, {"type": "Feature", "geometry": {"type": "Point", "coordinates": [-71.4580413242644, 43.1286775579376]}, "properties": {"CWP_NAME": "SUNCOOK WASTEWATER TREATMENT", "CWP_STREET": "35 CANAL ST", "CWP_CITY": "ALLENSTOWN", "CWP_STATE": "NH", "CWP_ZIP": "03275", "CWP_COUNTY": "Merrimack", "NPDES_ID": "NHG580714", "REGISTRY_ID": "110001103369", "CWP_FACILITY_TYPE_INDICATOR": "POTW", "CWP_MAJOR_MINOR_STATUS": "Minor", "CWP_PERMIT_STATUS_DESC": "Terminated", "STATE_WATER_BODY_NAME": "MERRIMACK  RIVER", "CWP_CSO_FLAG": "N"}}, {"type": "Feature", "geometry": {"type": "Point", "coordinates": [-71.4580413242644, 43.1286775579376]}, "properties": {"CWP_NAME": "ALLENSTOWN W W T F", "CWP_STREET": "36 CANAL ST", "CWP_CITY": "ALLENSTOWN", "CWP_STATE": "NH", "CWP_ZIP": "03275", "CWP_COUNTY": "Merrimack", "NPDES_ID": "NH0101390", "REGISTRY_ID": "110001103369", "CWP_FACILITY_TYPE_INDICATOR": "POTW", "CWP_MAJOR_MINOR_STATUS": "Minor", "CWP_PERMIT_STATUS_DESC": "Effective", "STATE_WATER_BODY_NAME": "MERRIMACK RIVER", "CWP_CSO_FLAG": "N"}}, {"type": "Feature", "geometry": {"type": "Point", "coordinates": [-72.2637712173224, 43.540178596565]}, "properties": {"CWP_NAME": "MERIDEN VILLAGE WATER DISTRICT", "CWP_STREET": "90 BONNER ROAD", "CWP_CITY": "PLAINFIELD", "CWP_STATE": "NH", "CWP_ZIP": "03770", "CWP_COUNTY": "Sullivan", "NPDES_ID": "NH0101168", "REGISTRY_ID": "110011032088", "CWP_FACILITY_TYPE_INDICATOR": "POTW", "CWP_MAJOR_MINOR_STATUS": "Minor", "CWP_PERMIT_STATUS_DESC": "Terminated", "STATE_WATER_BODY_NAME": "BLOOD BROOK", "CWP_CSO_FLAG": "N"}}, {"type": "Feature", "geometry": {"type": "Point", "coordinates": [-71.528228124007, 44.4818499135941]}, "properties": {"CWP_NAME": "LANCASTER GRANGE WASTEWATER TREATMENT PLANT", "CWP_STREET": "GRANGE RD", "CWP_CITY": "LANCASTER", "CWP_STATE": "NH", "CWP_ZIP": "03584", "CWP_COUNTY": "Coos", "NPDES_ID": "NHG581249", "REGISTRY_ID": "110028118196", "CWP_FACILITY_TYPE_INDICATOR": "POTW", "CWP_MAJOR_MINOR_STATUS": "Minor", "CWP_PERMIT_STATUS_DESC": "Effective", "STATE_WATER_BODY_NAME": "OTTER BROOK, OTTER POND", "CWP_CSO_FLAG": "N"}}, {"type": "Feature", "geometry": {"type": "Point", "coordinates": [-71.528228124007, 44.4818499135941]}, "properties": {"CWP_NAME": "TOWN OF LANCASTER", "CWP_STREET": "SAND FILTRATION SYSTEM", "CWP_CITY": "LANCASTER", "CWP_STATE": "NH", "CWP_ZIP": "03584", "CWP_COUNTY": "Coos", "NPDES_ID": "NH0101249", "REGISTRY_ID": "110028118196", "CWP_FACILITY_TYPE_INDICATOR": "POTW", "CWP_MAJOR_MINOR_STATUS": "Minor", "CWP_PERMIT_STATUS_DESC": "Terminated", "STATE_WATER_BODY_NAME": "OTTER BROOK", "CWP_CSO_FLAG": "N"}}, {"type": "Feature", "geometry": {"type": "Point", "coordinates": [-71.6866706874561, 43.7578388729963]}, "properties": {"CWP_NAME": "PLYMOUTH VILLAGE WWTF", "CWP_STREET": "GREEN STREET", "CWP_CITY": "PLYMOUTH", "CWP_STATE": "NH", "CWP_ZIP": "03264", "CWP_COUNTY": "Grafton", "NPDES_ID": "NHG580242", "REGISTRY_ID": "110006619454", "CWP_FACILITY_TYPE_INDICATOR": "POTW", "CWP_MAJOR_MINOR_STATUS": "Minor", "CWP_PERMIT_STATUS_DESC": "Effective", "STATE_WATER_BODY_NAME": "PEMIGEWASSET RIVER, _PEMIGEWASSET RIVER", "CWP_CSO_FLAG": "N"}}, {"type": "Feature", "geometry": {"type": "Point", "coordinates": [-72.1819580544783, 43.3766539423995]}, "properties": {"CWP_NAME": "NEWPORT WASTEWATER TREATMENT FACILITY", "CWP_STREET": "20 PUTNAM ROAD", "CWP_CITY": "NEWPORT", "CWP_STATE": "NH", "CWP_ZIP": "03773", "CWP_COUNTY": "Sullivan", "NPDES_ID": "NH0100200", "REGISTRY_ID": "110006619356", "CWP_FACILITY_TYPE_INDICATOR": "POTW", "CWP_MAJOR_MINOR_STATUS": "Major", "CWP_PERMIT_STATUS_DESC": "Effective", "STATE_WATER_BODY_NAME": "SUGAR RIVER", "CWP_CSO_FLAG": "N"}}, {"type": "Feature", "geometry": {"type": "Point", "coordinates": [-72.3205418459287, 43.6368134640871]}, "properties": {"CWP_NAME": "LEBANON WWTF", "CWP_STREET": "28 MARKET STREET", "CWP_CITY": "WEST LEBANON", "CWP_STATE": "NH", "CWP_ZIP": "03784", "CWP_COUNTY": "Grafton", "NPDES_ID": "NH0100366", "REGISTRY_ID": "110002320783", "CWP_FACILITY_TYPE_INDICATOR": "POTW", "CWP_MAJOR_MINOR_STATUS": "Major", "CWP_PERMIT_STATUS_DESC": "Admin Continued", "STATE_WATER_BODY_NAME": "CONNECTICUT RIVER AND MASCOMA RIVER, GREAT BROOK", "CWP_CSO_FLAG": "Y"}}, {"type": "Feature", "geometry": {"type": "Point", "coordinates": [-71.6225985074363, 44.3763027581714]}, "properties": {"CWP_NAME": "WHITEFIELD WWTP", "CWP_STREET": "PARKER RD", "CWP_CITY": "WHITEFIELD", "CWP_STATE": "NH", "CWP_ZIP": "03598", "CWP_COUNTY": "Coos", "NPDES_ID": "NH0100510", "REGISTRY_ID": "110009839979", "CWP_FACILITY_TYPE_INDICATOR": "POTW", "CWP_MAJOR_MINOR_STATUS": "Minor", "CWP_PERMIT_STATUS_DESC": "Terminated", "STATE_WATER_BODY_NAME": "JOHNS RIVER", "CWP_CSO_FLAG": "N"}}, {"type": "Feature", "geometry": {"type": "Point", "coordinates": [-72.2975497747572, 43.6952388315986]}, "properties": {"CWP_NAME": "HANOVER, TOWN OF", "CWP_STREET": "121 SOUTH MAIN STREET", "CWP_CITY": "HANOVER", "CWP_STATE": "NH", "CWP_ZIP": "03755", "CWP_COUNTY": "Grafton", "NPDES_ID": "NH0100099", "REGISTRY_ID": "110002320756", "CWP_FACILITY_TYPE_INDICATOR": "POTW", "CWP_MAJOR_MINOR_STATUS": "Minor", "CWP_PERMIT_STATUS_DESC": "Admin Continued", "STATE_WATER_BODY_NAME": "CONNECTICUT RIVER", "CWP_CSO_FLAG": "N"}}, {"type": "Feature", "geometry": {"type": "Point", "coordinates": [-71.5211900350188, 44.5972770197417]}, "properties": {"CWP_NAME": "NORTHUMBERLAND VILLAGE", "CWP_STREET": "WATER POLLUTION CONTROL FACLTY", "CWP_CITY": "NORTHUMBERLAND", "CWP_STATE": "NH", "CWP_ZIP": "03582", "CWP_COUNTY": "Coos", "NPDES_ID": "NH0101206", "REGISTRY_ID": "110009839835", "CWP_FACILITY_TYPE_INDICATOR": "POTW", "CWP_MAJOR_MINOR_STATUS": "Minor", "CWP_PERMIT_STATUS_DESC": "Terminated", "STATE_WATER_BODY_NAME": "CONNECTICUT RIVER", "CWP_CSO_FLAG": "N"}}, {"type": "Feature", "geometry": {"type": "Point", "coordinates": [-71.3238651386355, 43.2912102672604]}, "properties": {"CWP_NAME": "PITTSFIELD WASTEWATER TREATMENT FACILITY", "CWP_STREET": "127 SOUTH MAIN STREET", "CWP_CITY": "PITTSFIELD", "CWP_STATE": "NH", "CWP_ZIP": "03263", "CWP_COUNTY": "Merrimack", "NPDES_ID": "NH0100986", "REGISTRY_ID": "110006619436", "CWP_FACILITY_TYPE_INDICATOR": "POTW", "CWP_MAJOR_MINOR_STATUS": "Major", "CWP_PERMIT_STATUS_DESC": "Expired", "STATE_WATER_BODY_NAME": "SUNCOOK RIVER", "CWP_CSO_FLAG": "N"}}, {"type": "Feature", "geometry": {"type": "Point", "coordinates": [-70.9352004894586, 43.0380088087343]}, "properties": {"CWP_NAME": "NEWFIELDS W W T F", "CWP_STREET": "HERVEY COURT", "CWP_CITY": "NEWFIELDS", "CWP_STATE": "NH", "CWP_ZIP": "03856", "CWP_COUNTY": "Rockingham", "NPDES_ID": "NH0101192", "REGISTRY_ID": "110011032097", "CWP_FACILITY_TYPE_INDICATOR": "POTW", "CWP_MAJOR_MINOR_STATUS": "Minor", "CWP_PERMIT_STATUS_DESC": "Terminated", "STATE_WATER_BODY_NAME": null, "CWP_CSO_FLAG": "N"}}, {"type": "Feature", "geometry": {"type": "Point", "coordinates": [-71.4579405888637, 42.9444783821401]}, "properties": {"CWP_NAME": "MANCHESTER CITY OF", "CWP_STREET": "300 WINSTON STREET", "CWP_CITY": "MANCHESTER", "CWP_STATE": "NH", "CWP_ZIP": "03103", "CWP_COUNTY": "Hillsborough", "NPDES_ID": "NH0100447", "REGISTRY_ID": "110002320809", "CWP_FACILITY_TYPE_INDICATOR": "POTW", "CWP_MAJOR_MINOR_STATUS": "Major", "CWP_PERMIT_STATUS_DESC": "Admin Continued", "STATE_WATER_BODY_NAME": "MERRIMACK RIVER & PISCATAQUOG RIVER", "CWP_CSO_FLAG": "Y"}}]}