{"type": "FeatureCollection", "features": [{"type": "Feature", "geometry": {"type": "Point", "coordinates": [-106.665981215187, 45.6170459080382]}, "properties": {"CWP_NAME": "MUDDY CLUSTER LAGOONS", "CWP_STREET": "P.O. BOX 747", "CWP_CITY": "LAME DEER", "CWP_STATE": "MT", "CWP_ZIP": "59043", "CWP_COUNTY": "Rosebud", "NPDES_ID": "MTG589603", "REGISTRY_ID": "110070030434", "CWP_FACILITY_TYPE_INDICATOR": "POTW", "CWP_MAJOR_MINOR_STATUS": "Minor", "CWP_PERMIT_STATUS_DESC": "Admin Continued", "STATE_WATER_BODY_NAME": null, "CWP_CSO_FLAG": "N"}}, {"type": "Feature", "geometry": {"type": "Point", "coordinates": [-104.307789306112, 46.3691744075151]}, "properties": {"CWP_NAME": "CITY OF BAKER WWTF", "CWP_STREET": "1.8KM W OF BAKER N OF US 12", "CWP_CITY": "BAKER", "CWP_STATE": "MT", "CWP_ZIP": "59313", "CWP_COUNTY": "Fallon", "NPDES_ID": "MTG580029", "REGISTRY_ID": "110009715040", "CWP_FACILITY_TYPE_INDICATOR": "POTW", "CWP_MAJOR_MINOR_STATUS": "Minor", "CWP_PERMIT_STATUS_DESC": "Effective", "STATE_WATER_BODY_NAME": "SANDSTONE CREEK", "CWP_CSO_FLAG": "N"}}, {"type": "Feature", "geometry": {"type": "Point", "coordinates": [-113.238744093909, 48.4699279980932]}, "properties": {"CWP_NAME": "TWO MEDICINE WATER CO.", "CWP_STREET": "109 NORTH PUBLIC SQUARE", "CWP_CITY": "BROWNING", "CWP_STATE": "MT", "CWP_ZIP": "59417", "CWP_COUNTY": "Glacier", "NPDES_ID": "MT0030687", "REGISTRY_ID": "110032595494", "CWP_FACILITY_TYPE_INDICATOR": "POTW", "CWP_MAJOR_MINOR_STATUS": "Minor", "CWP_PERMIT_STATUS_DESC": "Expired", "STATE_WATER_BODY_NAME": "TWO MEDICINE RIVER", "CWP_CSO_FLAG": "N"}}, {"type": "Feature", "geometry": {"type": "Point", "coordinates": [-108.902621696842, 45.391736733343]}, "properties": {"CWP_NAME": "FROMBERG WASTEWATER TREATMENT FACILITY", "CWP_STREET": "300 RIVER STREET EAST", "CWP_CITY": "FROMBERG", "CWP_STATE": "MT", "CWP_ZIP": "59029", "CWP_COUNTY": "Carbon", "NPDES_ID": "MTG581033", "REGISTRY_ID": "110070202573", "CWP_FACILITY_TYPE_INDICATOR": "POTW", "CWP_MAJOR_MINOR_STATUS": "Minor", "CWP_PERMIT_STATUS_DESC": "Effective", "STATE_WATER_BODY_NAME": "CLARKS FORK OF THE YELLOWSTONE R.", "CWP_CSO_FLAG": "N"}}, {"type": "Feature", "geometry": {"type": "Point", "coordinates": [-105.641123036121, 48.0772289529195]}, "properties": {"CWP_NAME": "CITY OF WOLF POINT WWTF", "CWP_STREET": "WWTF PLANT", "CWP_CITY": "WOLF POINT", "CWP_STATE": "MT", "CWP_ZIP": "59201", "CWP_COUNTY": "Roosevelt", "NPDES_ID": "MT0020532", "REGISTRY_ID": "110028111898", "CWP_FACILITY_TYPE_INDICATOR": "POTW", "CWP_MAJOR_MINOR_STATUS": "Minor", "CWP_PERMIT_STATUS_DESC": "Terminated", "STATE_WATER_BODY_NAME": "MISSOURI RIVER", "CWP_CSO_FLAG": "N"}}, {"type": "Feature", "geometry": {"type": "Point", "coordinates": [-113.125291026223, 48.5952845197977]}, "properties": {"CWP_NAME": "BLACKFEET UTILITIES COMMISSION", "CWP_STREET": "P.O. BOX 850", "CWP_CITY": "BROWNING", "CWP_STATE": "MT", "CWP_ZIP": "59417", "CWP_COUNTY": "Glacier", "NPDES_ID": "MTG589101", "REGISTRY_ID": "110070029558", "CWP_FACILITY_TYPE_INDICATOR": "POTW", "CWP_MAJOR_MINOR_STATUS": "Minor", "CWP_PERMIT_STATUS_DESC": "Admin Continued", "STATE_WATER_BODY_NAME": null, "CWP_CSO_FLAG": "N"}}, {"type": "Feature", "geometry": {"type": "Point", "coordinates": [-110.199706422883, 47.1552848345939]}, "properties": {"CWP_NAME": "TOWN OF STANFORD DOMESTIC WWTF", "CWP_STREET": "S OF CEMETERY ON COUNTY RD 312", "CWP_CITY": "STANFORD", "CWP_STATE": "MT", "CWP_ZIP": "59479", "CWP_COUNTY": "Judith Basin", "NPDES_ID": "MT0022161", "REGISTRY_ID": "110011046965", "CWP_FACILITY_TYPE_INDICATOR": "POTW", "CWP_MAJOR_MINOR_STATUS": "Minor", "CWP_PERMIT_STATUS_DESC": "Expired", "STATE_WATER_BODY_NAME": "SKULL CREEK", "CWP_CSO_FLAG": "N"}}, {"type": "Feature", "geometry": {"type": "Point", "coordinates": [-110.102182341136, 48.1822072922638]}, "properties": {"CWP_NAME": "TOWN OF BIG SANDY - WWTF", "CWP_STREET": "268 LAGOON BEACH ROAD", "CWP_CITY": "BIG SANDY", "CWP_STATE": "MT", "CWP_ZIP": "59520", "CWP_COUNTY": "Chouteau", "NPDES_ID": "MT0022454", "REGISTRY_ID": "110006797029", "CWP_FACILITY_TYPE_INDICATOR": "POTW", "CWP_MAJOR_MINOR_STATUS": "Minor", "CWP_PERMIT_STATUS_DESC": "Terminated", "STATE_WATER_BODY_NAME": "BIG SANDY CREEK", "CWP_CSO_FLAG": "N"}}, {"type": "Feature", "geometry": {"type": "Point", "coordinates": [-106.665981215187, 45.6170459080382]}, "properties": {"CWP_NAME": "BUSBY LAGOONS", "CWP_STREET": "P.O. BOX 747", "CWP_CITY": "LAME DEER", "CWP_STATE": "MT", "CWP_ZIP": "59043", "CWP_COUNTY": "Rosebud", "NPDES_ID": "MTG589602", "REGISTRY_ID": "110070030434", "CWP_FACILITY_TYPE_INDICATOR": "POTW", "CWP_MAJOR_MINOR_STATUS": "Minor", "CWP_PERMIT_STATUS_DESC": "Admin Continued", "STATE_WATER_BODY_NAME": null, "CWP_CSO_FLAG": "N"}}, {"type": "Feature", "geometry": {"type": "Point", "coordinates": [-104.50858140965, 48.5001173083254]}, "properties": {"CWP_NAME": "TOWN OF MEDICINE LAKE WWTF", "CWP_STREET": "RAILROAD AVE S", "CWP_CITY": "MEDICINE LAKE", "CWP_STATE": "MT", "CWP_ZIP": "59247", "CWP_COUNTY": "Sheridan", "NPDES_ID": "MTG580024", "REGISTRY_ID": "110064243509", "CWP_FACILITY_TYPE_INDICATOR": "POTW", "CWP_MAJOR_MINOR_STATUS": "Minor", "CWP_PERMIT_STATUS_DESC": "Terminated", "STATE_WATER_BODY_NAME": "BIG MUDDY CREEK", "CWP_CSO_FLAG": "N"}}, {"type": "Feature", "geometry": {"type": "Point", "coordinates": [-114.105569056688, 47.3250063168423]}, "properties": {"CWP_NAME": "ST IGNATIUS-TOWN OF", "CWP_STREET": "ROUTE1", "CWP_CITY": "ST IGNATIUS", "CWP_STATE": "MT", "CWP_ZIP": "59865", "CWP_COUNTY": "Lake", "NPDES_ID": "MT0020524", "REGISTRY_ID": "110012349823", "CWP_FACILITY_TYPE_INDICATOR": "POTW", "CWP_MAJOR_MINOR_STATUS": "Minor", "CWP_PERMIT_STATUS_DESC": "Terminated", "STATE_WATER_BODY_NAME": "MATT/MISSION CRK", "CWP_CSO_FLAG": "N"}}, {"type": "Feature", "geometry": {"type": "Point", "coordinates": [-105.188622747669, 48.1058400298538]}, "properties": {"CWP_NAME": "POPLAR WWTP", "CWP_STREET": "CITY WWTP SITE", "CWP_CITY": "POPLAR", "CWP_STATE": "MT", "CWP_ZIP": "59255", "CWP_COUNTY": "Roosevelt", "NPDES_ID": "MT0021695", "REGISTRY_ID": "110012355806", "CWP_FACILITY_TYPE_INDICATOR": "POTW", "CWP_MAJOR_MINOR_STATUS": "Minor", "CWP_PERMIT_STATUS_DESC": "Terminated", "STATE_WATER_BODY_NAME": "MISSOURI RIVER", "CWP_CSO_FLAG": "N"}}, {"type": "Feature", "geometry": {"type": "Point", "coordinates": [-114.08311314704, 48.0637868479156]}, "properties": {"CWP_NAME": "BIGFORK WWTP", "CWP_STREET": "108 HARBOR HEIGHTS BLVD", "CWP_CITY": "BIGFORK", "CWP_STATE": "MT", "CWP_ZIP": "59911", "CWP_COUNTY": "Flathead", "NPDES_ID": "MT0020397", "REGISTRY_ID": "110012970669", "CWP_FACILITY_TYPE_INDICATOR": "POTW", "CWP_MAJOR_MINOR_STATUS": "Major", "CWP_PERMIT_STATUS_DESC": "Effective", "STATE_WATER_BODY_NAME": "FLATHEAD LAKE", "CWP_CSO_FLAG": "N"}}, {"type": "Feature", "geometry": {"type": "Point", "coordinates": [-109.784456305033, 48.2627847878382]}, "properties": {"CWP_NAME": "CHIPPEWA CREE TRIBE", "CWP_STREET": "RR1 BOX 644", "CWP_CITY": "BOX ELDER", "CWP_STATE": "MT", "CWP_ZIP": "59521", "CWP_COUNTY": "Hill", "NPDES_ID": "MTG589004", "REGISTRY_ID": "110010826240", "CWP_FACILITY_TYPE_INDICATOR": "POTW", "CWP_MAJOR_MINOR_STATUS": "Minor", "CWP_PERMIT_STATUS_DESC": "Terminated", "STATE_WATER_BODY_NAME": null, "CWP_CSO_FLAG": "N"}}, {"type": "Feature", "geometry": {"type": "Point", "coordinates": [-108.466955900695, 45.8025066564884]}, "properties": {"CWP_NAME": "CITY OF BILLINGS WWTP", "CWP_STREET": "725 HWY 87 E", "CWP_CITY": "BILLINGS", "CWP_STATE": "MT", "CWP_ZIP": "59101", "CWP_COUNTY": "Yellowstone", "NPDES_ID": "MT0022586", "REGISTRY_ID": "110000711016", "CWP_FACILITY_TYPE_INDICATOR": "POTW", "CWP_MAJOR_MINOR_STATUS": "Major", "CWP_PERMIT_STATUS_DESC": "Admin Continued", "STATE_WATER_BODY_NAME": "YELLOWSTONE RIVER", "CWP_CSO_FLAG": "N"}}, {"type": "Feature", "geometry": {"type": "Point", "coordinates": [-112.075290358635, 45.8593129028617]}, "properties": {"CWP_NAME": "WHITEHALL WWTF", "CWP_STREET": "98 HIGHWAY 2 EAST", "CWP_CITY": "WHITEHALL", "CWP_STATE": "MT", "CWP_ZIP": "59759", "CWP_COUNTY": "Jefferson", "NPDES_ID": "MT0020133", "REGISTRY_ID": "110011047009", "CWP_FACILITY_TYPE_INDICATOR": "POTW", "CWP_MAJOR_MINOR_STATUS": "Minor", "CWP_PERMIT_STATUS_DESC": "Expired", "STATE_WATER_BODY_NAME": "BIG PIPESTONE CREEK, BIG PIPESTONE CRK, JEFFERSON RIVER", "CWP_CSO_FLAG": "N"}}, {"type": "Feature", "geometry": {"type": "Point", "coordinates": [-108.340290191905, 47.0058401570555]}, "properties": {"CWP_NAME": "WINNETT WWTF", "CWP_STREET": "8TH AVE E & MAIN ST INTERSECTION", "CWP_CITY": "WINNETT", "CWP_STATE": "MT", "CWP_ZIP": "59087", "CWP_COUNTY": "Petroleum", "NPDES_ID": "MTG580041", "REGISTRY_ID": "110011047116", "CWP_FACILITY_TYPE_INDICATOR": "POTW", "CWP_MAJOR_MINOR_STATUS": "Minor", "CWP_PERMIT_STATUS_DESC": "Effective", "STATE_WATER_BODY_NAME": "MCDONALD CREEK", "CWP_CSO_FLAG": "N"}}, {"type": "Feature", "geometry": {"type": "Point", "coordinates": [-106.665981215187, 45.6170459080382]}, "properties": {"CWP_NAME": "ASHLAND LAGOONS", "CWP_STREET": "P.O. BOX 747", "CWP_CITY": "LAME DEER", "CWP_STATE": "MT", "CWP_ZIP": "59043", "CWP_COUNTY": "Rosebud", "NPDES_ID": "MTG589601", "REGISTRY_ID": "110043266756", "CWP_FACILITY_TYPE_INDICATOR": "POTW", "CWP_MAJOR_MINOR_STATUS": "Minor", "CWP_PERMIT_STATUS_DESC": "Admin Continued", "STATE_WATER_BODY_NAME": null, "CWP_CSO_FLAG": "N"}}, {"type": "Feature", "geometry": {"type": "Point", "coordinates": [-107.580937279817, 45.568033669229]}, "properties": {"CWP_NAME": "HARDIN WWTP", "CWP_STREET": "406 NORTH CHEYENNE AVENUE", "CWP_CITY": "HARDIN", "CWP_STATE": "MT", "CWP_ZIP": "59034", "CWP_COUNTY": "Big Horn", "NPDES_ID": "MT0020834", "REGISTRY_ID": "110020257586", "CWP_FACILITY_TYPE_INDICATOR": "POTW", "CWP_MAJOR_MINOR_STATUS": "Major", "CWP_PERMIT_STATUS_DESC": "Terminated", "STATE_WATER_BODY_NAME": "BIGHORN RIVER", "CWP_CSO_FLAG": "N"}}, {"type": "Feature", "geometry": {"type": "Point", "coordinates": [-109.917762870709, 48.3898958631903]}, "properties": {"CWP_NAME": "NORTHERN WINZ CASINO LAGOON", "CWP_STREET": "16 BLACK PRAIRIE STREET", "CWP_CITY": "BOX ELDER", "CWP_STATE": "MT", "CWP_ZIP": "59521", "CWP_COUNTY": "Hill", "NPDES_ID": "MTG589706", "REGISTRY_ID": "110067602561", "CWP_FACILITY_TYPE_INDICATOR": "POTW", "CWP_MAJOR_MINOR_STATUS": "Minor", "CWP_PERMIT_STATUS_DESC": "Admin Continued", "STATE_WATER_BODY_NAME": null, "CWP_CSO_FLAG": "N"}}, {"type": "Feature", "geometry": {"type": "Point", "coordinates": [-105.641678817286, 48.07724693931]}, "properties": {"CWP_NAME": "WOLF POINT- CITY OF", "CWP_STREET": "201 4TH AVENUE SOUTH", "CWP_CITY": "WOLF POINT", "CWP_STATE": "MT", "CWP_ZIP": "59201", "CWP_COUNTY": "Roosevelt", "NPDES_ID": "MTG589501", "REGISTRY_ID": "110017889445", "CWP_FACILITY_TYPE_INDICATOR": "POTW", "CWP_MAJOR_MINOR_STATUS": "Other/Nonclassified", "CWP_PERMIT_STATUS_DESC": "Not Needed", "STATE_WATER_BODY_NAME": "MISSOURI RIVER", "CWP_CSO_FLAG": "N"}}, {"type": "Feature", "geometry": {"type": "Point", "coordinates": [-115.057323931031, 48.8770563226671]}, "properties": {"CWP_NAME": "TOWN OF EUREKA WWTP", "CWP_STREET": "WEST AVE N", "CWP_CITY": "EUREKA", "CWP_STATE": "MT", "CWP_ZIP": "59917", "CWP_COUNTY": "Lincoln", "NPDES_ID": "MTG581032", "REGISTRY_ID": "110070202780", "CWP_FACILITY_TYPE_INDICATOR": "POTW", "CWP_MAJOR_MINOR_STATUS": "Minor", "CWP_PERMIT_STATUS_DESC": "Effective", "STATE_WATER_BODY_NAME": "TOBACCO RIVER", "CWP_CSO_FLAG": "N"}}, {"type": "Feature", "geometry": {"type": "Point", "coordinates": [-111.953346540561, 48.995840015354]}, "properties": {"CWP_NAME": "SWEET GRASS COMMUNITY WWTF", "CWP_STREET": "LAGOONS", "CWP_CITY": "SWEET GRASS", "CWP_STATE": "MT", "CWP_ZIP": "59484", "CWP_COUNTY": "Toole", "NPDES_ID": "MTG580010", "REGISTRY_ID": "110028116893", "CWP_FACILITY_TYPE_INDICATOR": "POTW", "CWP_MAJOR_MINOR_STATUS": "Minor", "CWP_PERMIT_STATUS_DESC": "Terminated", "STATE_WATER_BODY_NAME": "UNNAMED DRY LAKE", "CWP_CSO_FLAG": "N"}}, {"type": "Feature", "geometry": {"type": "Point", "coordinates": [-108.892400941711, 45.6221736432078]}, "properties": {"CWP_NAME": "PARK CITY COUNTY WASTEWATER TREATMENT FACILITY", "CWP_STREET": "1 MILE E OF PARK CITY- MT 1/4 MILE OFF CEMETERY RD", "CWP_CITY": "PARK CITY DIVISION", "CWP_STATE": "MT", "CWP_ZIP": "59063", "CWP_COUNTY": "Stillwater", "NPDES_ID": "MTG581007", "REGISTRY_ID": "110070204023", "CWP_FACILITY_TYPE_INDICATOR": "POTW", "CWP_MAJOR_MINOR_STATUS": "Minor", "CWP_PERMIT_STATUS_DESC": "Effective", "STATE_WATER_BODY_NAME": "VANDENBERG DRAIN DITCH", "CWP_CSO_FLAG": "N"}}, {"type": "Feature", "geometry": {"type": "Point", "coordinates": [-115.057323931031, 48.8770563226671]}, "properties": {"CWP_NAME": "EUREKA SEWAGE TREATMENT", "CWP_STREET": "WEST AVE N", "CWP_CITY": "EUREKA", "CWP_STATE": "MT", "CWP_ZIP": "59917", "CWP_COUNTY": "Lincoln", "NPDES_ID": "MTG580032", "REGISTRY_ID": "110009860686", "CWP_FACILITY_TYPE_INDICATOR": "POTW", "CWP_MAJOR_MINOR_STATUS": "Minor", "CWP_PERMIT_STATUS_DESC": "Terminated", "STATE_WATER_BODY_NAME": "TOBACCO RIVER", "CWP_CSO_FLAG": "N"}}, {"type": "Feature", "geometry": {"type": "Point", "coordinates": [-112.622172734606, 46.0061262887347]}, "properties": {"CWP_NAME": "ROCKER WWTP", "CWP_STREET": "122030 NISSLER ROAD", "CWP_CITY": "ROCKER", "CWP_STATE": "MT", "CWP_ZIP": "59701", "CWP_COUNTY": "Silver Bow", "NPDES_ID": "MT0027430", "REGISTRY_ID": "110040673946", "CWP_FACILITY_TYPE_INDICATOR": "POTW", "CWP_MAJOR_MINOR_STATUS": "Minor", "CWP_PERMIT_STATUS_DESC": "Admin Continued", "STATE_WATER_BODY_NAME": "SILVER BOW CREEK, SILVER BOW CRK", "CWP_CSO_FLAG": "N"}}, {"type": "Feature", "geometry": {"type": "Point", "coordinates": [-111.194162257277, 45.5845367999119]}, "properties": {"CWP_NAME": "GALLATIN GATEWAY COUNTY WATER AND SEWER DIST WWF", "CWP_STREET": "TRACT 1B1 MINOR SUB 309A", "CWP_CITY": "GALLATIN GATEWAY", "CWP_STATE": "MT", "CWP_ZIP": "59730", "CWP_COUNTY": "Gallatin", "NPDES_ID": "MTX000229", "REGISTRY_ID": "110056407339", "CWP_FACILITY_TYPE_INDICATOR": "POTW", "CWP_MAJOR_MINOR_STATUS": "Minor", "CWP_PERMIT_STATUS_DESC": "Admin Continued", "STATE_WATER_BODY_NAME": "STATE GROUNDWATER", "CWP_CSO_FLAG": "N"}}, {"type": "Feature", "geometry": {"type": "Point", "coordinates": [-111.31372573574, 47.4907993281551]}, "properties": {"CWP_NAME": "GREAT FALLS WTP", "CWP_STREET": "1300 LOWER RIVER ROAD", "CWP_CITY": "GREAT FALLS", "CWP_STATE": "MT", "CWP_ZIP": "59405", "CWP_COUNTY": "Cascade", "NPDES_ID": "MT0000442", "REGISTRY_ID": "110064275859", "CWP_FACILITY_TYPE_INDICATOR": "POTW", "CWP_MAJOR_MINOR_STATUS": "Minor", "CWP_PERMIT_STATUS_DESC": "Effective", "STATE_WATER_BODY_NAME": "MISSOURI RIVER", "CWP_CSO_FLAG": "N"}}, {"type": "Feature", "geometry": {"type": "Point", "coordinates": [-114.043939407206, 47.3412013158087]}, "properties": {"CWP_NAME": "ST. IGNATIUS LAGOONS", "CWP_STREET": "P.O. BOX 103", "CWP_CITY": "SAINT IGNATIUS", "CWP_STATE": "MT", "CWP_ZIP": "59865", "CWP_COUNTY": "Lake", "NPDES_ID": "MTG589019", "REGISTRY_ID": "110043266827", "CWP_FACILITY_TYPE_INDICATOR": "POTW", "CWP_MAJOR_MINOR_STATUS": "Minor", "CWP_PERMIT_STATUS_DESC": "Terminated", "STATE_WATER_BODY_NAME": null, "CWP_CSO_FLAG": "N"}}, {"type": "Feature", "geometry": {"type": "Point", "coordinates": [-112.994540355189, 48.5541468418285]}, "properties": {"CWP_NAME": "BROWNING, TOWN OF", "CWP_STREET": "P.O. BOX 469", "CWP_CITY": "BROWNING", "CWP_STATE": "MT", "CWP_ZIP": "59417", "CWP_COUNTY": "Glacier", "NPDES_ID": "MTG589006", "REGISTRY_ID": "110028111497", "CWP_FACILITY_TYPE_INDICATOR": "POTW", "CWP_MAJOR_MINOR_STATUS": "Minor", "CWP_PERMIT_STATUS_DESC": "Expired", "STATE_WATER_BODY_NAME": null, "CWP_CSO_FLAG": "N"}}, {"type": "Feature", "geometry": {"type": "Point", "coordinates": [-107.918395296555, 45.1885071046045]}, "properties": {"CWP_NAME": "FORT SMITH WATER & SEWER DISTRICT", "CWP_STREET": "P.O. BOX 7596", "CWP_CITY": "FORT SMITH", "CWP_STATE": "MT", "CWP_ZIP": "59035", "CWP_COUNTY": "Big Horn", "NPDES_ID": "MTG589204", "REGISTRY_ID": "110043266818", "CWP_FACILITY_TYPE_INDICATOR": "POTW", "CWP_MAJOR_MINOR_STATUS": "Minor", "CWP_PERMIT_STATUS_DESC": "Admin Continued", "STATE_WATER_BODY_NAME": null, "CWP_CSO_FLAG": "N"}}, {"type": "Feature", "geometry": {"type": "Point", "coordinates": [-108.25417947912, 48.3900075441072]}, "properties": {"CWP_NAME": "DODSON WWTF", "CWP_STREET": "WWTF SITE", "CWP_CITY": "DODSON", "CWP_STATE": "MT", "CWP_ZIP": "59524", "CWP_COUNTY": "Phillips", "NPDES_ID": "MT0021415", "REGISTRY_ID": "110011046894", "CWP_FACILITY_TYPE_INDICATOR": "POTW", "CWP_MAJOR_MINOR_STATUS": "Minor", "CWP_PERMIT_STATUS_DESC": "Terminated", "STATE_WATER_BODY_NAME": "DODSON CREEK", "CWP_CSO_FLAG": "N"}}, {"type": "Feature", "geometry": {"type": "Point", "coordinates": [-114.053706984319, 47.5148127517676]}, "properties": {"CWP_NAME": "WOODCOCK HOME ADDITION (E)", "CWP_STREET": "P.O. BOX  38", "CWP_CITY": "PABLO", "CWP_STATE": "MT", "CWP_ZIP": "59855", "CWP_COUNTY": "Lake", "NPDES_ID": "MT0030554", "REGISTRY_ID": "110009002033", "CWP_FACILITY_TYPE_INDICATOR": "POTW", "CWP_MAJOR_MINOR_STATUS": "Minor", "CWP_PERMIT_STATUS_DESC": "Effective", "STATE_WATER_BODY_NAME": "MIDDLE CROW CREEK", "CWP_CSO_FLAG": "N"}}, {"type": "Feature", "geometry": {"type": "Point", "coordinates": [-106.354178583372, 48.1241744003792]}, "properties": {"CWP_NAME": "TOWN OF NASHUA WWTF", "CWP_STREET": "EAST MILK RIVER DRIVE", "CWP_CITY": "NASHUA", "CWP_STATE": "MT", "CWP_ZIP": "59248", "CWP_COUNTY": "Valley", "NPDES_ID": "MTG580034", "REGISTRY_ID": "110010825786", "CWP_FACILITY_TYPE_INDICATOR": "POTW", "CWP_MAJOR_MINOR_STATUS": "Minor", "CWP_PERMIT_STATUS_DESC": "Effective", "STATE_WATER_BODY_NAME": "MILK RIVER", "CWP_CSO_FLAG": "N"}}, {"type": "Feature", "geometry": {"type": "Point", "coordinates": [-106.665981215187, 45.6170459080382]}, "properties": {"CWP_NAME": "BIRNEY LAGOONS", "CWP_STREET": "P.O. BOX 747", "CWP_CITY": "LAME DEER", "CWP_STATE": "MT", "CWP_ZIP": "59043", "CWP_COUNTY": "Rosebud", "NPDES_ID": "MTG589013", "REGISTRY_ID": "110043266783", "CWP_FACILITY_TYPE_INDICATOR": "POTW", "CWP_MAJOR_MINOR_STATUS": "Minor", "CWP_PERMIT_STATUS_DESC": "Terminated", "STATE_WATER_BODY_NAME": null, "CWP_CSO_FLAG": "N"}}, {"type": "Feature", "geometry": {"type": "Point", "coordinates": [-104.17324271887, 47.0013394324404]}, "properties": {"CWP_NAME": "TOWN OF WIBAUX WASTE WATER TREATMENT PONDS", "CWP_STREET": "NE OF TREATMENT PLANT", "CWP_CITY": "WIBAUX", "CWP_STATE": "MT", "CWP_ZIP": "59353", "CWP_COUNTY": "Wibaux", "NPDES_ID": "MTG580037", "REGISTRY_ID": "110055482552", "CWP_FACILITY_TYPE_INDICATOR": "POTW", "CWP_MAJOR_MINOR_STATUS": "Minor", "CWP_PERMIT_STATUS_DESC": "Expired", "STATE_WATER_BODY_NAME": "BEAVER CREEK - YATES CREEK, TRIBUTARY TO YATES CREEK ETC", "CWP_CSO_FLAG": "N"}}, {"type": "Feature", "geometry": {"type": "Point", "coordinates": [-106.673343968636, 45.6288962752829]}, "properties": {"CWP_NAME": "LAME DEER LAGOON", "CWP_STREET": "NE 1/4 OF  33 AND SE 1/4 OF S 28, T2S, R41E       ", "CWP_CITY": "LAME DEER", "CWP_STATE": "MT", "CWP_ZIP": "59043", "CWP_COUNTY": "Rosebud", "NPDES_ID": "MT0029360", "REGISTRY_ID": "110004010748", "CWP_FACILITY_TYPE_INDICATOR": "POTW", "CWP_MAJOR_MINOR_STATUS": "Minor", "CWP_PERMIT_STATUS_DESC": "Effective", "STATE_WATER_BODY_NAME": "LAME DEER CREEK", "CWP_CSO_FLAG": "N"}}, {"type": "Feature", "geometry": {"type": "Point", "coordinates": [-104.724841154512, 47.1111169391524]}, "properties": {"CWP_NAME": "WEST GLENDIVE WWTP", "CWP_STREET": "PARK AVE JUST SOUTH OF I-94", "CWP_CITY": "GLENDIVE", "CWP_STATE": "MT", "CWP_ZIP": "59330", "CWP_COUNTY": "Dawson", "NPDES_ID": "MT0021733", "REGISTRY_ID": "110011046938", "CWP_FACILITY_TYPE_INDICATOR": "POTW", "CWP_MAJOR_MINOR_STATUS": "Minor", "CWP_PERMIT_STATUS_DESC": "Terminated", "STATE_WATER_BODY_NAME": "YELLOWSTONE RIVER", "CWP_CSO_FLAG": "N"}}, {"type": "Feature", "geometry": {"type": "Point", "coordinates": [-111.067662717936, 45.7220566555817]}, "properties": {"CWP_NAME": "CITY OF BOZEMAN WWTP", "CWP_STREET": "255 MOSS BRIDGE ROAD", "CWP_CITY": "BOZEMAN", "CWP_STATE": "MT", "CWP_ZIP": "59718", "CWP_COUNTY": "Gallatin", "NPDES_ID": "MT0022608", "REGISTRY_ID": "110063101520", "CWP_FACILITY_TYPE_INDICATOR": "POTW", "CWP_MAJOR_MINOR_STATUS": "Major", "CWP_PERMIT_STATUS_DESC": "Admin Continued", "STATE_WATER_BODY_NAME": "EAST GALLATIN RIVER", "CWP_CSO_FLAG": "N"}}, {"type": "Feature", "geometry": {"type": "Point", "coordinates": [-107.580937279817, 45.568033669229]}, "properties": {"CWP_NAME": "HARDIN, CITY OF", "CWP_STREET": "406 N. CHEYENNE AVENUE", "CWP_CITY": "HARDIN", "CWP_STATE": "MT", "CWP_ZIP": "59034", "CWP_COUNTY": "Big Horn", "NPDES_ID": "MT0030759", "REGISTRY_ID": "110020257586", "CWP_FACILITY_TYPE_INDICATOR": "POTW", "CWP_MAJOR_MINOR_STATUS": "Major", "CWP_PERMIT_STATUS_DESC": "Effective", "STATE_WATER_BODY_NAME": "BIG HORN RIVER", "CWP_CSO_FLAG": "N"}}, {"type": "Feature", "geometry": {"type": "Point", "coordinates": [-109.805068778597, 48.2967009211483]}, "properties": {"CWP_NAME": "AZURE LAGOON", "CWP_STREET": "16 BLACK PRAIRIE STREET", "CWP_CITY": "BOX ELDER", "CWP_STATE": "MT", "CWP_ZIP": "59521", "CWP_COUNTY": "Hill", "NPDES_ID": "MTG589703", "REGISTRY_ID": "110067614576", "CWP_FACILITY_TYPE_INDICATOR": "POTW", "CWP_MAJOR_MINOR_STATUS": "Minor", "CWP_PERMIT_STATUS_DESC": "Admin Continued", "STATE_WATER_BODY_NAME": null, "CWP_CSO_FLAG": "N"}}, {"type": "Feature", "geometry": {"type": "Point", "coordinates": [-113.319456899755, 46.348062882451]}, "properties": {"CWP_NAME": "TOWN OF PHILIPSBURG WWTP", "CWP_STREET": "E OF US HWY 10A OPPOSITE DUMP ROAD", "CWP_CITY": "PHILIPSBURG", "CWP_STATE": "MT", "CWP_ZIP": "59858", "CWP_COUNTY": "Granite", "NPDES_ID": "MT0031500", "REGISTRY_ID": "110011049622", "CWP_FACILITY_TYPE_INDICATOR": "POTW", "CWP_MAJOR_MINOR_STATUS": "Minor", "CWP_PERMIT_STATUS_DESC": "Admin Continued", "STATE_WATER_BODY_NAME": "FLINT CREEK", "CWP_CSO_FLAG": "N"}}, {"type": "Feature", "geometry": {"type": "Point", "coordinates": [-106.665981215187, 45.6170459080382]}, "properties": {"CWP_NAME": "BIRNEY LAGOONS", "CWP_STREET": "P.O. BOX 747", "CWP_CITY": "LAME DEER", "CWP_STATE": "MT", "CWP_ZIP": "59043", "CWP_COUNTY": "Rosebud", "NPDES_ID": "MTG589604", "REGISTRY_ID": "110070030434", "CWP_FACILITY_TYPE_INDICATOR": "POTW", "CWP_MAJOR_MINOR_STATUS": "Minor", "CWP_PERMIT_STATUS_DESC": "Admin Continued", "STATE_WATER_BODY_NAME": null, "CWP_CSO_FLAG": "N"}}, {"type": "Feature", "geometry": {"type": "Point", "coordinates": [-112.305707206798, 48.647395825175]}, "properties": {"CWP_NAME": "CITY OF CUT BANK WWTF", "CWP_STREET": "64 NYHAGEN ROAD", "CWP_CITY": "CUT BANK", "CWP_STATE": "MT", "CWP_ZIP": "59427", "CWP_COUNTY": "Glacier", "NPDES_ID": "MT0020141", "REGISTRY_ID": "110000734046", "CWP_FACILITY_TYPE_INDICATOR": "POTW", "CWP_MAJOR_MINOR_STATUS": "Minor", "CWP_PERMIT_STATUS_DESC": "Admin Continued", "STATE_WATER_BODY_NAME": "OLD MAIDS COULEE", "CWP_CSO_FLAG": "N"}}, {"type": "Feature", "geometry": {"type": "Point", "coordinates": [-114.309373653139, 48.1766967159656]}, "properties": {"CWP_NAME": "CITY OF KALISPELL WWTP", "CWP_STREET": "2001 AIRPORT ROAD", "CWP_CITY": "KALISPELL", "CWP_STATE": "MT", "CWP_ZIP": "59901", "CWP_COUNTY": "Flathead", "NPDES_ID": "MT0021938", "REGISTRY_ID": "110000734073", "CWP_FACILITY_TYPE_INDICATOR": "POTW", "CWP_MAJOR_MINOR_STATUS": "Major", "CWP_PERMIT_STATUS_DESC": "Admin Continued", "STATE_WATER_BODY_NAME": "ASHLEY CREEK", "CWP_CSO_FLAG": "N"}}, {"type": "Feature", "geometry": {"type": "Point", "coordinates": [-111.953346540494, 48.9955630241415]}, "properties": {"CWP_NAME": "SWEET GRASS WWTF", "CWP_STREET": "SOUTH OF CANADIAN BORDER RD, EAST OF RR", "CWP_CITY": "SWEET GRASS", "CWP_STATE": "MT", "CWP_ZIP": "59484", "CWP_COUNTY": "Toole", "NPDES_ID": "MT0031437", "REGISTRY_ID": "110022855196", "CWP_FACILITY_TYPE_INDICATOR": "POTW", "CWP_MAJOR_MINOR_STATUS": "Minor", "CWP_PERMIT_STATUS_DESC": "Effective", "STATE_WATER_BODY_NAME": "UNNAMED DRY LAKE", "CWP_CSO_FLAG": "N"}}, {"type": "Feature", "geometry": {"type": "Point", "coordinates": [-107.11390030394, 45.325007189931]}, "properties": {"CWP_NAME": "LODGE GRASS- TOWN OF", "CWP_STREET": "SE1/4 SECTION 12, TOWNSHIP 65N, RANGE 35E", "CWP_CITY": "LODGE GRASS", "CWP_STATE": "MT", "CWP_ZIP": "59050", "CWP_COUNTY": "Big Horn", "NPDES_ID": "MT0021890", "REGISTRY_ID": "110010121233", "CWP_FACILITY_TYPE_INDICATOR": "POTW", "CWP_MAJOR_MINOR_STATUS": "Minor", "CWP_PERMIT_STATUS_DESC": "Admin Continued", "STATE_WATER_BODY_NAME": "LITTLE BIGHORN RIVER", "CWP_CSO_FLAG": "N"}}, {"type": "Feature", "geometry": {"type": "Point", "coordinates": [-109.239331586186, 45.6241970864115]}, "properties": {"CWP_NAME": "TOWN OF COLUMBUS WWTF", "CWP_STREET": "E 3RD AVE S", "CWP_CITY": "COLUMBUS", "CWP_STATE": "MT", "CWP_ZIP": "59019", "CWP_COUNTY": "Stillwater", "NPDES_ID": "MTG580018", "REGISTRY_ID": "110006723233", "CWP_FACILITY_TYPE_INDICATOR": "POTW", "CWP_MAJOR_MINOR_STATUS": "Minor", "CWP_PERMIT_STATUS_DESC": "Terminated", "STATE_WATER_BODY_NAME": "UPPER YELLOWSTONE RIVER", "CWP_CSO_FLAG": "N"}}, {"type": "Feature", "geometry": {"type": "Point", "coordinates": [-107.458067378162, 45.5750070240884]}, "properties": {"CWP_NAME": "CROW AGENCY WTP", "CWP_STREET": "HOTSKA STREET", "CWP_CITY": "CROW AGENCY", "CWP_STATE": "MT", "CWP_ZIP": "59022", "CWP_COUNTY": "Big Horn", "NPDES_ID": "MT0030538", "REGISTRY_ID": "110012371593", "CWP_FACILITY_TYPE_INDICATOR": "POTW", "CWP_MAJOR_MINOR_STATUS": "Minor", "CWP_PERMIT_STATUS_DESC": "Terminated", "STATE_WATER_BODY_NAME": "LITTLE BIG HORN, LITTLE BIGHORN RIVER", "CWP_CSO_FLAG": "N"}}, {"type": "Feature", "geometry": {"type": "Point", "coordinates": [-110.005281295253, 48.3033289052208]}, "properties": {"CWP_NAME": "LOWER DRY FORK LAGOON", "CWP_STREET": "16 BLACK PRAIRIE STREET", "CWP_CITY": "BOX ELDER", "CWP_STATE": "MT", "CWP_ZIP": "59521", "CWP_COUNTY": "Hill", "NPDES_ID": "MTG589702", "REGISTRY_ID": "110067583537", "CWP_FACILITY_TYPE_INDICATOR": "POTW", "CWP_MAJOR_MINOR_STATUS": "Minor", "CWP_PERMIT_STATUS_DESC": "Admin Continued", "STATE_WATER_BODY_NAME": null, "CWP_CSO_FLAG": "N"}}, {"type": "Feature", "geometry": {"type": "Point", "coordinates": [-108.89239194849, 45.6221772404972]}, "properties": {"CWP_NAME": "PARK CITY - COUNTY WWTF", "CWP_STREET": "120 2ND AVE SW", "CWP_CITY": "PARK CITY", "CWP_STATE": "MT", "CWP_ZIP": "59063", "CWP_COUNTY": "Stillwater", "NPDES_ID": "MTG580007", "REGISTRY_ID": "110011049631", "CWP_FACILITY_TYPE_INDICATOR": "POTW", "CWP_MAJOR_MINOR_STATUS": "Minor", "CWP_PERMIT_STATUS_DESC": "Terminated", "STATE_WATER_BODY_NAME": "KEEFER DRAINAGE DITCH, YELLOWSTONE RIVER", "CWP_CSO_FLAG": "N"}}, {"type": "Feature", "geometry": {"type": "Point", "coordinates": [-107.918395296555, 45.1885071046045]}, "properties": {"CWP_NAME": "FORT SMITH WATER & SEWER DISTRICT", "CWP_STREET": "P.O. BOX 7596", "CWP_CITY": "FORT SMITH", "CWP_STATE": "MT", "CWP_ZIP": "59035", "CWP_COUNTY": "Big Horn", "NPDES_ID": "MTG589018", "REGISTRY_ID": "110043266818", "CWP_FACILITY_TYPE_INDICATOR": "POTW", "CWP_MAJOR_MINOR_STATUS": "Minor", "CWP_PERMIT_STATUS_DESC": "Terminated", "STATE_WATER_BODY_NAME": null, "CWP_CSO_FLAG": "N"}}, {"type": "Feature", "geometry": {"type": "Point", "coordinates": [-115.894724125358, 48.4735960526701]}, "properties": {"CWP_NAME": "CITY OF TROY WWTF", "CWP_STREET": "836 MILL ROAD", "CWP_CITY": "TROY", "CWP_STATE": "MT", "CWP_ZIP": "59935", "CWP_COUNTY": "Lincoln", "NPDES_ID": "MT0030333", "REGISTRY_ID": "110011046698", "CWP_FACILITY_TYPE_INDICATOR": "POTW", "CWP_MAJOR_MINOR_STATUS": "Minor", "CWP_PERMIT_STATUS_DESC": "Terminated", "STATE_WATER_BODY_NAME": "KOOTENAI RIVER", "CWP_CSO_FLAG": "N"}}, {"type": "Feature", "geometry": {"type": "Point", "coordinates": [-110.916568648163, 46.541478526197]}, "properties": {"CWP_NAME": "WHITE SULPHUR SPRINGS WWTF", "CWP_STREET": "WWTF LAGOONS", "CWP_CITY": "WHITE SULPHUR SPRINGS", "CWP_STATE": "MT", "CWP_ZIP": "59645", "CWP_COUNTY": "Meagher", "NPDES_ID": "MTG580021", "REGISTRY_ID": "110011049221", "CWP_FACILITY_TYPE_INDICATOR": "POTW", "CWP_MAJOR_MINOR_STATUS": "Minor", "CWP_PERMIT_STATUS_DESC": "Terminated", "STATE_WATER_BODY_NAME": "SOUTH FORK SMITH RIVER", "CWP_CSO_FLAG": "N"}}, {"type": "Feature", "geometry": {"type": "Point", "coordinates": [-108.955844503951, 45.4858399985178]}, "properties": {"CWP_NAME": "JOLIET WWTP", "CWP_STREET": ".176KM S OF FRONT AVE E OFF COLE CREEK RD", "CWP_CITY": "JOLIET", "CWP_STATE": "MT", "CWP_ZIP": "59041", "CWP_COUNTY": "Carbon", "NPDES_ID": "MT0020249", "REGISTRY_ID": "110006723144", "CWP_FACILITY_TYPE_INDICATOR": "POTW", "CWP_MAJOR_MINOR_STATUS": "Minor", "CWP_PERMIT_STATUS_DESC": "Admin Continued", "STATE_WATER_BODY_NAME": "ROCK CREEK", "CWP_CSO_FLAG": "N"}}, {"type": "Feature", "geometry": {"type": "Point", "coordinates": [-112.540569111052, 45.8869508262073]}, "properties": {"CWP_NAME": "BASIN CREEK WATER TREATMENT PLANT", "CWP_STREET": "447 BASIN CREEK ROAD", "CWP_CITY": "BUTTE", "CWP_STATE": "MT", "CWP_ZIP": "59701", "CWP_COUNTY": "Silver Bow", "NPDES_ID": "MT0031810", "REGISTRY_ID": "110057198287", "CWP_FACILITY_TYPE_INDICATOR": "POTW", "CWP_MAJOR_MINOR_STATUS": "Other/Nonclassified", "CWP_PERMIT_STATUS_DESC": "Not Needed", "STATE_WATER_BODY_NAME": "BASIN CREEK", "CWP_CSO_FLAG": "N"}}, {"type": "Feature", "geometry": {"type": "Point", "coordinates": [-104.572233699142, 48.7694516922623]}, "properties": {"CWP_NAME": "CITY OF PLENTYWOOD WWTP", "CWP_STREET": "MANN RD SW OF TOWN", "CWP_CITY": "PLENTYWOOD", "CWP_STATE": "MT", "CWP_ZIP": "59254", "CWP_COUNTY": "Sheridan", "NPDES_ID": "MTG580008", "REGISTRY_ID": "110011049640", "CWP_FACILITY_TYPE_INDICATOR": "POTW", "CWP_MAJOR_MINOR_STATUS": "Minor", "CWP_PERMIT_STATUS_DESC": "Effective", "STATE_WATER_BODY_NAME": "BIG MUDDY CREEK", "CWP_CSO_FLAG": "N"}}, {"type": "Feature", "geometry": {"type": "Point", "coordinates": [-104.904148237221, 48.1500273503977]}, "properties": {"CWP_NAME": "BROCKTON, TOWN OF", "CWP_STREET": "716 B AVE.", "CWP_CITY": "BROCKTON", "CWP_STATE": "MT", "CWP_ZIP": "59213", "CWP_COUNTY": "Roosevelt", "NPDES_ID": "MT0030589", "REGISTRY_ID": "110024586205", "CWP_FACILITY_TYPE_INDICATOR": "POTW", "CWP_MAJOR_MINOR_STATUS": "Minor", "CWP_PERMIT_STATUS_DESC": "Terminated", "STATE_WATER_BODY_NAME": null, "CWP_CSO_FLAG": "N"}}, {"type": "Feature", "geometry": {"type": "Point", "coordinates": [-107.580937279817, 45.568033669229]}, "properties": {"CWP_NAME": "HARDIN, CITY OF", "CWP_STREET": "406 N. CHEYENNE AVENUE", "CWP_CITY": "HARDIN", "CWP_STATE": "MT", "CWP_ZIP": "59034", "CWP_COUNTY": "Big Horn", "NPDES_ID": "MT0030767", "REGISTRY_ID": "110020257586", "CWP_FACILITY_TYPE_INDICATOR": "POTW", "CWP_MAJOR_MINOR_STATUS": "Minor", "CWP_PERMIT_STATUS_DESC": "Terminated", "STATE_WATER_BODY_NAME": "BIG HORN RIVER", "CWP_CSO_FLAG": "N"}}, {"type": "Feature", "geometry": {"type": "Point", "coordinates": [-108.901679207873, 45.3958394410275]}, "properties": {"CWP_NAME": "TOWN OF FROMBERG WWTP", "CWP_STREET": "300 RIVER STREET EAST", "CWP_CITY": "FROMBERG", "CWP_STATE": "MT", "CWP_ZIP": "59029", "CWP_COUNTY": "Carbon", "NPDES_ID": "MTG580033", "REGISTRY_ID": "110011049267", "CWP_FACILITY_TYPE_INDICATOR": "POTW", "CWP_MAJOR_MINOR_STATUS": "Minor", "CWP_PERMIT_STATUS_DESC": "Terminated", "STATE_WATER_BODY_NAME": "CLARKS FORK OF THE YELLOWSTONE R.", "CWP_CSO_FLAG": "N"}}, {"type": "Feature", "geometry": {"type": "Point", "coordinates": [-112.067912550767, 47.0047066516984]}, "properties": {"CWP_NAME": "WOLF CREEK WWTF", "CWP_STREET": "200 MAIN STREET", "CWP_CITY": "WOLF CREEK", "CWP_STATE": "MT", "CWP_ZIP": "59648", "CWP_COUNTY": "Lewis and Clark", "NPDES_ID": "MT0031712", "REGISTRY_ID": "110064649064", "CWP_FACILITY_TYPE_INDICATOR": "POTW", "CWP_MAJOR_MINOR_STATUS": "Minor", "CWP_PERMIT_STATUS_DESC": "Admin Continued", "STATE_WATER_BODY_NAME": "LITTLE PRICKLY PEAR CREEK", "CWP_CSO_FLAG": "N"}}, {"type": "Feature", "geometry": {"type": "Point", "coordinates": [-107.869340595388, 48.3726245843167]}, "properties": {"CWP_NAME": "MALTA SEWAGE TREATMENT LAGOONS", "CWP_STREET": "NEAREST 103 MT HWY 191 N OF TRAFTON PARK", "CWP_CITY": "MALTA", "CWP_STATE": "MT", "CWP_ZIP": "59538", "CWP_COUNTY": "Phillips", "NPDES_ID": "MT0020389", "REGISTRY_ID": "110011047027", "CWP_FACILITY_TYPE_INDICATOR": "POTW", "CWP_MAJOR_MINOR_STATUS": "Minor", "CWP_PERMIT_STATUS_DESC": "Effective", "STATE_WATER_BODY_NAME": "MILK RIVER", "CWP_CSO_FLAG": "N"}}, {"type": "Feature", "geometry": {"type": "Point", "coordinates": [-113.239273794455, 48.4688649992959]}, "properties": {"CWP_NAME": "BLACKFEET COMMUNITY WATER PLANT", "CWP_STREET": "P.O. BOX 850", "CWP_CITY": "BROWNING", "CWP_STATE": "MT", "CWP_ZIP": "59417", "CWP_COUNTY": "Glacier", "NPDES_ID": "MT0030775", "REGISTRY_ID": "110064605388", "CWP_FACILITY_TYPE_INDICATOR": "POTW", "CWP_MAJOR_MINOR_STATUS": "Other/Nonclassified", "CWP_PERMIT_STATUS_DESC": "Not Needed", "STATE_WATER_BODY_NAME": null, "CWP_CSO_FLAG": "N"}}, {"type": "Feature", "geometry": {"type": "Point", "coordinates": [-113.185393204076, 46.6781662756079]}, "properties": {"CWP_NAME": "TOWN OF DRUMMOND WWTP", "CWP_STREET": "I 90 2 MI W OF DRUMMOND", "CWP_CITY": "DRUMMOND", "CWP_STATE": "MT", "CWP_ZIP": "59832", "CWP_COUNTY": "Granite", "NPDES_ID": "MTG580002", "REGISTRY_ID": "110009715059", "CWP_FACILITY_TYPE_INDICATOR": "POTW", "CWP_MAJOR_MINOR_STATUS": "Minor", "CWP_PERMIT_STATUS_DESC": "Effective", "STATE_WATER_BODY_NAME": "CLARK FORK RIVER", "CWP_CSO_FLAG": "N"}}, {"type": "Feature", "geometry": {"type": "Point", "coordinates": [-104.332233091703, 47.4550078697986]}, "properties": {"CWP_NAME": "TOWN OF SAVAGE WWTP", "CWP_STREET": "EAST OF COUNTY ROAD 342", "CWP_CITY": "SAVAGE", "CWP_STATE": "MT", "CWP_ZIP": "59262", "CWP_COUNTY": "Richland", "NPDES_ID": "MT0024783", "REGISTRY_ID": "110010826197", "CWP_FACILITY_TYPE_INDICATOR": "POTW", "CWP_MAJOR_MINOR_STATUS": "Minor", "CWP_PERMIT_STATUS_DESC": "Terminated", "STATE_WATER_BODY_NAME": "YELLOWSTONE RIVER", "CWP_CSO_FLAG": "N"}}, {"type": "Feature", "geometry": {"type": "Point", "coordinates": [-105.571678135079, 47.4177857123716]}, "properties": {"CWP_NAME": "TOWN OF CIRCLE WWTP", "CWP_STREET": ".5 MI S & .5 MI E HWY 200 & HWY 13 INTERSECT", "CWP_CITY": "CIRCLE", "CWP_STATE": "MT", "CWP_ZIP": "59215", "CWP_COUNTY": "McCone", "NPDES_ID": "MT0020796", "REGISTRY_ID": "110011047125", "CWP_FACILITY_TYPE_INDICATOR": "POTW", "CWP_MAJOR_MINOR_STATUS": "Minor", "CWP_PERMIT_STATUS_DESC": "Admin Continued", "STATE_WATER_BODY_NAME": "REDWATER RIVER", "CWP_CSO_FLAG": "N"}}, {"type": "Feature", "geometry": {"type": "Point", "coordinates": [-104.904148237221, 48.1500273503977]}, "properties": {"CWP_NAME": "BROCKTON, TOWN OF", "CWP_STREET": "NE 1/4, SEC. 29, T28N, R53E, BOX 228", "CWP_CITY": "BROCKTON", "CWP_STATE": "MT", "CWP_ZIP": "59213", "CWP_COUNTY": "Roosevelt", "NPDES_ID": "MTG589502", "REGISTRY_ID": "110024586205", "CWP_FACILITY_TYPE_INDICATOR": "POTW", "CWP_MAJOR_MINOR_STATUS": "Minor", "CWP_PERMIT_STATUS_DESC": "Admin Continued", "STATE_WATER_BODY_NAME": null, "CWP_CSO_FLAG": "N"}}, {"type": "Feature", "geometry": {"type": "Point", "coordinates": [-114.111956941016, 47.3183396413302]}, "properties": {"CWP_NAME": "ST. IGNATIUS-SOUTHSIDE", "CWP_STREET": "NE1/4 OF SW1/4 OF S14 T18 R20", "CWP_CITY": "ST. IGNATIUS", "CWP_STATE": "MT", "CWP_ZIP": "59855", "CWP_COUNTY": "Lake", "NPDES_ID": "MT0029017", "REGISTRY_ID": "110009860445", "CWP_FACILITY_TYPE_INDICATOR": "POTW", "CWP_MAJOR_MINOR_STATUS": "Minor", "CWP_PERMIT_STATUS_DESC": "Effective", "STATE_WATER_BODY_NAME": "UNNAMED TRIBUTARY OF SABINE CREEK, UNNAMED TRIBUTARY TO SABINE CREEK", "CWP_CSO_FLAG": "N"}}, {"type": "Feature", "geometry": {"type": "Point", "coordinates": [-114.082969954299, 47.1688902945839]}, "properties": {"CWP_NAME": "JOCKO RIVER TROUT HATCHERY", "CWP_STREET": "71873 HATCHERY LANE", "CWP_CITY": "ARLEE", "CWP_STATE": "MT", "CWP_ZIP": "59821", "CWP_COUNTY": "Lake", "NPDES_ID": "MT0030546", "REGISTRY_ID": "110020152163", "CWP_FACILITY_TYPE_INDICATOR": "POTW", "CWP_MAJOR_MINOR_STATUS": "Minor", "CWP_PERMIT_STATUS_DESC": "Admin Continued", "STATE_WATER_BODY_NAME": "JOCKO RIVER", "CWP_CSO_FLAG": "N"}}, {"type": "Feature", "geometry": {"type": "Point", "coordinates": [-110.000984337489, 48.3208683850754]}, "properties": {"CWP_NAME": "BLUE LAGOON", "CWP_STREET": "16 BLACK PRAIRIE STREET", "CWP_CITY": "BOX ELDER", "CWP_STATE": "MT", "CWP_ZIP": "59521", "CWP_COUNTY": "Hill", "NPDES_ID": "MTG589704", "REGISTRY_ID": "110067587249", "CWP_FACILITY_TYPE_INDICATOR": "POTW", "CWP_MAJOR_MINOR_STATUS": "Minor", "CWP_PERMIT_STATUS_DESC": "Admin Continued", "STATE_WATER_BODY_NAME": null, "CWP_CSO_FLAG": "N"}}, {"type": "Feature", "geometry": {"type": "Point", "coordinates": [-114.64960870663, 47.6129413241354]}, "properties": {"CWP_NAME": "HOT SPRINGS, TOWN OF", "CWP_STREET": "P.O. BOX221", "CWP_CITY": "HOT SPRINGS", "CWP_STATE": "MT", "CWP_ZIP": "59845", "CWP_COUNTY": "Sanders", "NPDES_ID": "MT0020591", "REGISTRY_ID": "110006723019", "CWP_FACILITY_TYPE_INDICATOR": "POTW", "CWP_MAJOR_MINOR_STATUS": "Minor", "CWP_PERMIT_STATUS_DESC": "Effective", "STATE_WATER_BODY_NAME": "HOT SPRINGS CREEK", "CWP_CSO_FLAG": "N"}}, {"type": "Feature", "geometry": {"type": "Point", "coordinates": [-111.724511902241, 47.7132430174306]}, "properties": {"CWP_NAME": "POWER WATER TREATMENT PLANT", "CWP_STREET": "1238 7TH ROAD NE", "CWP_CITY": "POWER", "CWP_STATE": "MT", "CWP_ZIP": "59468", "CWP_COUNTY": "Teton", "NPDES_ID": "MTX380002", "REGISTRY_ID": "110020143085", "CWP_FACILITY_TYPE_INDICATOR": "POTW", "CWP_MAJOR_MINOR_STATUS": "Minor", "CWP_PERMIT_STATUS_DESC": "Admin Continued", "STATE_WATER_BODY_NAME": "GROUND WATER", "CWP_CSO_FLAG": "N"}}, {"type": "Feature", "geometry": {"type": "Point", "coordinates": [-115.357235898967, 47.5947281795648]}, "properties": {"CWP_NAME": "CITY OF THOMPSON FALLS WWTF", "CWP_STREET": "1300 PRESTON AVE WEST", "CWP_CITY": "THOMPSON FALLS", "CWP_STATE": "MT", "CWP_ZIP": "59873", "CWP_COUNTY": "Sanders", "NPDES_ID": "MTG580035", "REGISTRY_ID": "110011049276", "CWP_FACILITY_TYPE_INDICATOR": "POTW", "CWP_MAJOR_MINOR_STATUS": "Minor", "CWP_PERMIT_STATUS_DESC": "Terminated", "STATE_WATER_BODY_NAME": "CLARK FORK RIVER", "CWP_CSO_FLAG": "N"}}, {"type": "Feature", "geometry": {"type": "Point", "coordinates": [-110.961402083256, 48.5027849661695]}, "properties": {"CWP_NAME": "TOWN OF CHESTER WWTF", "CWP_STREET": "507 COFFMAN BLVD", "CWP_CITY": "CHESTER", "CWP_STATE": "MT", "CWP_ZIP": "59522", "CWP_COUNTY": "Liberty", "NPDES_ID": "MT0020338", "REGISTRY_ID": "110006723162", "CWP_FACILITY_TYPE_INDICATOR": "POTW", "CWP_MAJOR_MINOR_STATUS": "Minor", "CWP_PERMIT_STATUS_DESC": "Effective", "STATE_WATER_BODY_NAME": "COTTONWOOD CREEK", "CWP_CSO_FLAG": "N"}}, {"type": "Feature", "geometry": {"type": "Point", "coordinates": [-114.161833435687, 47.6952068649127]}, "properties": {"CWP_NAME": "POLSON WWTP", "CWP_STREET": "106 1ST STREET EAST", "CWP_CITY": "POLSON", "CWP_STATE": "MT", "CWP_ZIP": "59860", "CWP_COUNTY": "Lake", "NPDES_ID": "MT0030228", "REGISTRY_ID": "110039824777", "CWP_FACILITY_TYPE_INDICATOR": "POTW", "CWP_MAJOR_MINOR_STATUS": "Minor", "CWP_PERMIT_STATUS_DESC": "Terminated", "STATE_WATER_BODY_NAME": "FLATHEAD RIVER", "CWP_CSO_FLAG": "N"}}, {"type": "Feature", "geometry": {"type": "Point", "coordinates": [-115.895413905728, 48.4745259516577]}, "properties": {"CWP_NAME": "CITY OF TROY WWTF", "CWP_STREET": "906 MILL ROAD", "CWP_CITY": "TROY", "CWP_STATE": "MT", "CWP_ZIP": "59935", "CWP_COUNTY": "Lincoln", "NPDES_ID": "MTG580038", "REGISTRY_ID": "110057201479", "CWP_FACILITY_TYPE_INDICATOR": "POTW", "CWP_MAJOR_MINOR_STATUS": "Minor", "CWP_PERMIT_STATUS_DESC": "Terminated", "STATE_WATER_BODY_NAME": "KOOTENAI RIVER, UPPER KOOTENAI RIVER", "CWP_CSO_FLAG": "N"}}, {"type": "Feature", "geometry": {"type": "Point", "coordinates": [-112.79031275201, 46.1809464000191]}, "properties": {"CWP_NAME": "MONTANA STATE HOSPITAL SEWAGE TREATMENT LAGOONS", "CWP_STREET": "100 GARNET WAY", "CWP_CITY": "WARM SPRINGS", "CWP_STATE": "MT", "CWP_ZIP": "59756", "CWP_COUNTY": "Deer Lodge", "NPDES_ID": "MTG581004", "REGISTRY_ID": "110070204726", "CWP_FACILITY_TYPE_INDICATOR": "POTW", "CWP_MAJOR_MINOR_STATUS": "Minor", "CWP_PERMIT_STATUS_DESC": "Effective", "STATE_WATER_BODY_NAME": "TRIBUTARY TO THE CLARK FORK RIVER, TRIBUTARY TO THE CLARK FORK RIVERCLARK FORK RIVER", "CWP_CSO_FLAG": "N"}}, {"type": "Feature", "geometry": {"type": "Point", "coordinates": [-105.299201354786, 46.8026871636373]}, "properties": {"CWP_NAME": "TOWN OF TERRY WWTF", "CWP_STREET": "75 BIG SKY BACK COUNTRY BYWAY", "CWP_CITY": "TERRY", "CWP_STATE": "MT", "CWP_ZIP": "59349", "CWP_COUNTY": "Prairie", "NPDES_ID": "MTG580017", "REGISTRY_ID": "110011049203", "CWP_FACILITY_TYPE_INDICATOR": "POTW", "CWP_MAJOR_MINOR_STATUS": "Minor", "CWP_PERMIT_STATUS_DESC": "Effective", "STATE_WATER_BODY_NAME": "BUFFALO RAPIDS DRAIN DITCH, BUFFALO RAPIDS DRAINAGE DITCH TO YELLOWSTONE RIVER", "CWP_CSO_FLAG": "N"}}, {"type": "Feature", "geometry": {"type": "Point", "coordinates": [-106.665981215187, 45.6170459080382]}, "properties": {"CWP_NAME": "MUDDY CLUSTER LAGOONS", "CWP_STREET": "P.O. BOX 747", "CWP_CITY": "LAME DEER", "CWP_STATE": "MT", "CWP_ZIP": "59043", "CWP_COUNTY": "Rosebud", "NPDES_ID": "MTG589012", "REGISTRY_ID": "110043266774", "CWP_FACILITY_TYPE_INDICATOR": "POTW", "CWP_MAJOR_MINOR_STATUS": "Minor", "CWP_PERMIT_STATUS_DESC": "Terminated", "STATE_WATER_BODY_NAME": null, "CWP_CSO_FLAG": "N"}}, {"type": "Feature", "geometry": {"type": "Point", "coordinates": [-108.793068688551, 48.5027851839363]}, "properties": {"CWP_NAME": "CITY OF HARLEM - WWTP", "CWP_STREET": ".5 MI  S OF HARLEM ON HWY 2", "CWP_CITY": "HARLEM", "CWP_STATE": "MT", "CWP_ZIP": "59526", "CWP_COUNTY": "Blaine", "NPDES_ID": "MT0021270", "REGISTRY_ID": "110009860515", "CWP_FACILITY_TYPE_INDICATOR": "POTW", "CWP_MAJOR_MINOR_STATUS": "Minor", "CWP_PERMIT_STATUS_DESC": "Terminated", "STATE_WATER_BODY_NAME": "MILK RIVER", "CWP_CSO_FLAG": "N"}}, {"type": "Feature", "geometry": {"type": "Point", "coordinates": [-110.540290256084, 45.6822284254092]}, "properties": {"CWP_NAME": "WATER RECLAMATION FACILITY", "CWP_STREET": "316 BENNETT STREET", "CWP_CITY": "LIVINGSTON", "CWP_STATE": "MT", "CWP_ZIP": "59047", "CWP_COUNTY": "Park", "NPDES_ID": "MT0020435", "REGISTRY_ID": "110000873733", "CWP_FACILITY_TYPE_INDICATOR": "POTW", "CWP_MAJOR_MINOR_STATUS": "Major", "CWP_PERMIT_STATUS_DESC": "Admin Continued", "STATE_WATER_BODY_NAME": "YELLOWSTONE RIVER", "CWP_CSO_FLAG": "N"}}, {"type": "Feature", "geometry": {"type": "Point", "coordinates": [-109.865568883258, 48.2919506956385]}, "properties": {"CWP_NAME": "CHIPPEWA CREE BUSINESS COMMITTEE", "CWP_STREET": "P.O. BOX 644", "CWP_CITY": "BOX ELDER", "CWP_STATE": "MT", "CWP_ZIP": "59521", "CWP_COUNTY": "Hill", "NPDES_ID": "MTG589008", "REGISTRY_ID": "110037097496", "CWP_FACILITY_TYPE_INDICATOR": "POTW", "CWP_MAJOR_MINOR_STATUS": "Minor", "CWP_PERMIT_STATUS_DESC": "Terminated", "STATE_WATER_BODY_NAME": null, "CWP_CSO_FLAG": "N"}}, {"type": "Feature", "geometry": {"type": "Point", "coordinates": [-113.319456899755, 46.348062882451]}, "properties": {"CWP_NAME": "TOWN OF PHILIPSBURG WWTP", "CWP_STREET": "LAGOONS", "CWP_CITY": "PHILIPSBURG", "CWP_STATE": "MT", "CWP_ZIP": "59858", "CWP_COUNTY": "Granite", "NPDES_ID": "MTG580005", "REGISTRY_ID": "110011049622", "CWP_FACILITY_TYPE_INDICATOR": "POTW", "CWP_MAJOR_MINOR_STATUS": "Minor", "CWP_PERMIT_STATUS_DESC": "Terminated", "STATE_WATER_BODY_NAME": "FLINT CREEK", "CWP_CSO_FLAG": "N"}}, {"type": "Feature", "geometry": {"type": "Point", "coordinates": [-109.785045361218, 48.2632794149492]}, "properties": {"CWP_NAME": "AGENCY LAGOON", "CWP_STREET": "16 BLACK PRAIRIE STREET", "CWP_CITY": "BOX ELDER", "CWP_STATE": "MT", "CWP_ZIP": "59521", "CWP_COUNTY": "Hill", "NPDES_ID": "MTG589701", "REGISTRY_ID": "110067600046", "CWP_FACILITY_TYPE_INDICATOR": "POTW", "CWP_MAJOR_MINOR_STATUS": "Minor", "CWP_PERMIT_STATUS_DESC": "Admin Continued", "STATE_WATER_BODY_NAME": null, "CWP_CSO_FLAG": "N"}}, {"type": "Feature", "geometry": {"type": "Point", "coordinates": [-114.043939407206, 47.3412013158087]}, "properties": {"CWP_NAME": "ST. IGNATIUS, TOWN OF", "CWP_STREET": "P.O. BOX 309", "CWP_CITY": "PABLO", "CWP_STATE": "MT", "CWP_ZIP": "59865", "CWP_COUNTY": "Lake", "NPDES_ID": "MTG589301", "REGISTRY_ID": "110070032573", "CWP_FACILITY_TYPE_INDICATOR": "POTW", "CWP_MAJOR_MINOR_STATUS": "Minor", "CWP_PERMIT_STATUS_DESC": "Admin Continued", "STATE_WATER_BODY_NAME": null, "CWP_CSO_FLAG": "N"}}, {"type": "Feature", "geometry": {"type": "Point", "coordinates": [-106.665981215187, 45.6170459080382]}, "properties": {"CWP_NAME": "ASHLAND LAGOONS", "CWP_STREET": "P.O. BOX 747", "CWP_CITY": "LAME DEER", "CWP_STATE": "MT", "CWP_ZIP": "59043", "CWP_COUNTY": "Rosebud", "NPDES_ID": "MTG589010", "REGISTRY_ID": "110043266756", "CWP_FACILITY_TYPE_INDICATOR": "POTW", "CWP_MAJOR_MINOR_STATUS": "Minor", "CWP_PERMIT_STATUS_DESC": "Terminated", "STATE_WATER_BODY_NAME": null, "CWP_CSO_FLAG": "N"}}, {"type": "Feature", "geometry": {"type": "Point", "coordinates": [-111.535046, 46.3298967481908]}, "properties": {"CWP_NAME": "CITY OF TOWNSEND WWTF", "CWP_STREET": "1 LAGOON ROAD", "CWP_CITY": "TOWNSEND", "CWP_STATE": "MT", "CWP_ZIP": "59644", "CWP_COUNTY": "Broadwater", "NPDES_ID": "MTG580020", "REGISTRY_ID": "110011049212", "CWP_FACILITY_TYPE_INDICATOR": "POTW", "CWP_MAJOR_MINOR_STATUS": "Minor", "CWP_PERMIT_STATUS_DESC": "Terminated", "STATE_WATER_BODY_NAME": "MISSOURI RIVER", "CWP_CSO_FLAG": "N"}}, {"type": "Feature", "geometry": {"type": "Point", "coordinates": [-111.532790499848, 46.3300064657067]}, "properties": {"CWP_NAME": "CITY OF TOWNSEND WASTEWATER TREATMENT PLANT", "CWP_STREET": "1 LAGOON ROAD", "CWP_CITY": "TOWNSEND", "CWP_STATE": "MT", "CWP_ZIP": "59644", "CWP_COUNTY": "Broadwater", "NPDES_ID": "MTG581020", "REGISTRY_ID": "110070203626", "CWP_FACILITY_TYPE_INDICATOR": "POTW", "CWP_MAJOR_MINOR_STATUS": "Minor", "CWP_PERMIT_STATUS_DESC": "Effective", "STATE_WATER_BODY_NAME": "MISSOURI RIVER", "CWP_CSO_FLAG": "N"}}, {"type": "Feature", "geometry": {"type": "Point", "coordinates": [-105.641678817286, 48.07724693931]}, "properties": {"CWP_NAME": "WOLF POINT, CITY OF", "CWP_STREET": "201 FOURTH AVENUE SOUTH", "CWP_CITY": "WOLF POINT", "CWP_STATE": "MT", "CWP_ZIP": "59201", "CWP_COUNTY": "Roosevelt", "NPDES_ID": "MT0030571", "REGISTRY_ID": "110017889445", "CWP_FACILITY_TYPE_INDICATOR": "POTW", "CWP_MAJOR_MINOR_STATUS": "Minor", "CWP_PERMIT_STATUS_DESC": "Effective", "STATE_WATER_BODY_NAME": "MISSOURI RIVER", "CWP_CSO_FLAG": "N"}}, {"type": "Feature", "geometry": {"type": "Point", "coordinates": [-105.189158743746, 48.1058598148907]}, "properties": {"CWP_NAME": "POPLAR, TOWN OF", "CWP_STREET": "406 2ND AVENUE WEST", "CWP_CITY": "POPLAR", "CWP_STATE": "MT", "CWP_ZIP": "59255", "CWP_COUNTY": "Roosevelt", "NPDES_ID": "MT0030597", "REGISTRY_ID": "110024586214", "CWP_FACILITY_TYPE_INDICATOR": "POTW", "CWP_MAJOR_MINOR_STATUS": "Minor", "CWP_PERMIT_STATUS_DESC": "Effective", "STATE_WATER_BODY_NAME": "MISSOURI RIVER", "CWP_CSO_FLAG": "N"}}, {"type": "Feature", "geometry": {"type": "Point", "coordinates": [-112.33523285308, 48.6381867636176]}, "properties": {"CWP_NAME": "CUT BANK CONST. DEWATERING", "CWP_STREET": "221 WEST MAIN", "CWP_CITY": "CUT BANK", "CWP_STATE": "MT", "CWP_ZIP": "59427", "CWP_COUNTY": "Sanders", "NPDES_ID": "MT0029351", "REGISTRY_ID": "110064649224", "CWP_FACILITY_TYPE_INDICATOR": "POTW", "CWP_MAJOR_MINOR_STATUS": "Other/Nonclassified", "CWP_PERMIT_STATUS_DESC": "Not Needed", "STATE_WATER_BODY_NAME": null, "CWP_CSO_FLAG": "N"}}, {"type": "Feature", "geometry": {"type": "Point", "coordinates": [-110.253822333848, 47.6003071901622]}, "properties": {"CWP_NAME": "TOWN OF GERALDINE WWTF", "CWP_STREET": "MT HIGHWAY 80", "CWP_CITY": "GERALDINE", "CWP_STATE": "MT", "CWP_ZIP": "59446", "CWP_COUNTY": "Chouteau", "NPDES_ID": "MTG580016", "REGISTRY_ID": "110017889383", "CWP_FACILITY_TYPE_INDICATOR": "POTW", "CWP_MAJOR_MINOR_STATUS": "Minor", "CWP_PERMIT_STATUS_DESC": "Effective", "STATE_WATER_BODY_NAME": "FLAT CREEK", "CWP_CSO_FLAG": "N"}}, {"type": "Feature", "geometry": {"type": "Point", "coordinates": [-111.715901311956, 45.3546178537045]}, "properties": {"CWP_NAME": "ENNIS WWTP", "CWP_STREET": "N OF HWY 287 ABOVE ENNIS LAKE PARK", "CWP_CITY": "ENNIS", "CWP_STATE": "MT", "CWP_ZIP": "59729", "CWP_COUNTY": "Madison", "NPDES_ID": "MT0030732", "REGISTRY_ID": "110022855187", "CWP_FACILITY_TYPE_INDICATOR": "POTW", "CWP_MAJOR_MINOR_STATUS": "Minor", "CWP_PERMIT_STATUS_DESC": "Admin Continued", "STATE_WATER_BODY_NAME": "MADISON RIVER", "CWP_CSO_FLAG": "N"}}, {"type": "Feature", "geometry": {"type": "Point", "coordinates": [-106.44201176911, 48.0177576036829]}, "properties": {"CWP_NAME": "TOWN OF FORT PECK WWTF", "CWP_STREET": "DEARBORN ROAD", "CWP_CITY": "FORT PECK (HISTORICAL)", "CWP_STATE": "MT", "CWP_ZIP": "59223", "CWP_COUNTY": "Valley", "NPDES_ID": "MTG580019", "REGISTRY_ID": "110009860640", "CWP_FACILITY_TYPE_INDICATOR": "POTW", "CWP_MAJOR_MINOR_STATUS": "Minor", "CWP_PERMIT_STATUS_DESC": "Effective", "STATE_WATER_BODY_NAME": "MISSOURI RIVER", "CWP_CSO_FLAG": "N"}}, {"type": "Feature", "geometry": {"type": "Point", "coordinates": [-106.662512141981, 48.2233399248703]}, "properties": {"CWP_NAME": "CHERRY CK WATER USERS - WWTF", "CWP_STREET": "53921 LEWIS AND CLARK TRAIL", "CWP_CITY": "GLASGOW", "CWP_STATE": "MT", "CWP_ZIP": "59230", "CWP_COUNTY": "Valley", "NPDES_ID": "MTG580027", "REGISTRY_ID": "110011049258", "CWP_FACILITY_TYPE_INDICATOR": "POTW", "CWP_MAJOR_MINOR_STATUS": "Minor", "CWP_PERMIT_STATUS_DESC": "Terminated", "STATE_WATER_BODY_NAME": "MILK RIVER", "CWP_CSO_FLAG": "N"}}, {"type": "Feature", "geometry": {"type": "Point", "coordinates": [-115.547463420454, 48.3958164183448]}, "properties": {"CWP_NAME": "LIBBY WWTP", "CWP_STREET": "755 CITY SERVICE ROAD", "CWP_CITY": "LIBBY", "CWP_STATE": "MT", "CWP_ZIP": "59923", "CWP_COUNTY": "Lincoln", "NPDES_ID": "MT0020494", "REGISTRY_ID": "110039828130", "CWP_FACILITY_TYPE_INDICATOR": "POTW", "CWP_MAJOR_MINOR_STATUS": "Major", "CWP_PERMIT_STATUS_DESC": "Admin Continued", "STATE_WATER_BODY_NAME": "KOOTENAI RIVER", "CWP_CSO_FLAG": "N"}}, {"type": "Feature", "geometry": {"type": "Point", "coordinates": [-106.665981215187, 45.6170459080382]}, "properties": {"CWP_NAME": "BUSBY LAGOONS", "CWP_STREET": "P.O. BOX 747", "CWP_CITY": "LAME DEER", "CWP_STATE": "MT", "CWP_ZIP": "59043", "CWP_COUNTY": "Rosebud", "NPDES_ID": "MTG589011", "REGISTRY_ID": "110043266765", "CWP_FACILITY_TYPE_INDICATOR": "POTW", "CWP_MAJOR_MINOR_STATUS": "Minor", "CWP_PERMIT_STATUS_DESC": "Terminated", "STATE_WATER_BODY_NAME": null, "CWP_CSO_FLAG": "N"}}, {"type": "Feature", "geometry": {"type": "Point", "coordinates": [-104.184454568353, 46.9947294136708]}, "properties": {"CWP_NAME": "WIBAUX WWTP", "CWP_STREET": "94 SEWAGE DISPOSAL ACCESS ROAD", "CWP_CITY": "WIBAUX", "CWP_STATE": "MT", "CWP_ZIP": "59353", "CWP_COUNTY": "Wibaux", "NPDES_ID": "MT0020516", "REGISTRY_ID": "110011047072", "CWP_FACILITY_TYPE_INDICATOR": "POTW", "CWP_MAJOR_MINOR_STATUS": "Minor", "CWP_PERMIT_STATUS_DESC": "Effective", "STATE_WATER_BODY_NAME": "BEAVER CREEK", "CWP_CSO_FLAG": "N"}}, {"type": "Feature", "geometry": {"type": "Point", "coordinates": [-114.11848876421, 47.5256657644693]}, "properties": {"CWP_NAME": "RONAN- CITY OF", "CWP_STREET": "36780 MINK LANE", "CWP_CITY": "RONAN", "CWP_STATE": "MT", "CWP_ZIP": "59864", "CWP_COUNTY": "Lake", "NPDES_ID": "MT0021474", "REGISTRY_ID": "110039894978", "CWP_FACILITY_TYPE_INDICATOR": "POTW", "CWP_MAJOR_MINOR_STATUS": "Minor", "CWP_PERMIT_STATUS_DESC": "Effective", "STATE_WATER_BODY_NAME": "CROW CREEK, UNNAMED TRIB TO CROW CREEK", "CWP_CSO_FLAG": "N"}}, {"type": "Feature", "geometry": {"type": "Point", "coordinates": [-109.924734395059, 48.2933401424158]}, "properties": {"CWP_NAME": "MULTI-COMMUNITY WASTEWATER TREATMENT FACILITY", "CWP_STREET": "RR #1 BOX 664", "CWP_CITY": "BOX ELDER", "CWP_STATE": "MT", "CWP_ZIP": "59521", "CWP_COUNTY": "Hill", "NPDES_ID": "MT0030813", "REGISTRY_ID": "110064603353", "CWP_FACILITY_TYPE_INDICATOR": "POTW", "CWP_MAJOR_MINOR_STATUS": "Minor", "CWP_PERMIT_STATUS_DESC": "Terminated", "STATE_WATER_BODY_NAME": null, "CWP_CSO_FLAG": "N"}}, {"type": "Feature", "geometry": {"type": "Point", "coordinates": [-108.533905876973, 45.4290316556978]}, "properties": {"CWP_NAME": "TOWN OF PRYOR WWTF", "CWP_STREET": "NORTH OF PRYOR ON ROUTE 418", "CWP_CITY": "PRYOR", "CWP_STATE": "MT", "CWP_ZIP": "59066", "CWP_COUNTY": "Big Horn", "NPDES_ID": "MTU000058", "REGISTRY_ID": "110064620183", "CWP_FACILITY_TYPE_INDICATOR": "POTW", "CWP_MAJOR_MINOR_STATUS": "Other/Nonclassified", "CWP_PERMIT_STATUS_DESC": "Not Needed", "STATE_WATER_BODY_NAME": null, "CWP_CSO_FLAG": "N"}}, {"type": "Feature", "geometry": {"type": "Point", "coordinates": [-112.00501297415, 46.6191735577545]}, "properties": {"CWP_NAME": "CITY OF HELENA WWTP", "CWP_STREET": "2108 CUSTER AVENUE EAST", "CWP_CITY": "HELENA", "CWP_STATE": "MT", "CWP_ZIP": "59602", "CWP_COUNTY": "Lewis and Clark", "NPDES_ID": "MT0022641", "REGISTRY_ID": "110013403094", "CWP_FACILITY_TYPE_INDICATOR": "POTW", "CWP_MAJOR_MINOR_STATUS": "Major", "CWP_PERMIT_STATUS_DESC": "Admin Continued", "STATE_WATER_BODY_NAME": "PRICKLY PEAR CREEK", "CWP_CSO_FLAG": "N"}}, {"type": "Feature", "geometry": {"type": "Point", "coordinates": [-114.036429967256, 46.8819238055068]}, "properties": {"CWP_NAME": "CITY OF MISSOULA WWTP", "CWP_STREET": "1100 CLARK FORK LANE", "CWP_CITY": "MISSOULA", "CWP_STATE": "MT", "CWP_ZIP": "59802", "CWP_COUNTY": "Missoula", "NPDES_ID": "MT0022594", "REGISTRY_ID": "110064243661", "CWP_FACILITY_TYPE_INDICATOR": "POTW", "CWP_MAJOR_MINOR_STATUS": "Major", "CWP_PERMIT_STATUS_DESC": "Admin Continued", "STATE_WATER_BODY_NAME": "CLARK FORK RIVER", "CWP_CSO_FLAG": "N"}}, {"type": "Feature", "geometry": {"type": "Point", "coordinates": [-111.699734705483, 47.8502844230513]}, "properties": {"CWP_NAME": "TOWN OF DUTTON WWTF", "CWP_STREET": "E FRONTAGE RD", "CWP_CITY": "DUTTON", "CWP_STATE": "MT", "CWP_ZIP": "59433", "CWP_COUNTY": "Teton", "NPDES_ID": "MTG580023", "REGISTRY_ID": "110009860659", "CWP_FACILITY_TYPE_INDICATOR": "POTW", "CWP_MAJOR_MINOR_STATUS": "Minor", "CWP_PERMIT_STATUS_DESC": "Terminated", "STATE_WATER_BODY_NAME": "HUNT COULEE", "CWP_CSO_FLAG": "N"}}, {"type": "Feature", "geometry": {"type": "Point", "coordinates": [-105.397789310613, 45.4494510417516]}, "properties": {"CWP_NAME": "TOWN OF BROADUS WWTF", "CWP_STREET": "POWDERVILLE RD W", "CWP_CITY": "BROADUS", "CWP_STATE": "MT", "CWP_ZIP": "59317", "CWP_COUNTY": "Powder River", "NPDES_ID": "MTG580015", "REGISTRY_ID": "110009860622", "CWP_FACILITY_TYPE_INDICATOR": "POTW", "CWP_MAJOR_MINOR_STATUS": "Minor", "CWP_PERMIT_STATUS_DESC": "Effective", "STATE_WATER_BODY_NAME": "POWDER RIVER", "CWP_CSO_FLAG": "N"}}, {"type": "Feature", "geometry": {"type": "Point", "coordinates": [-112.738682712763, 46.4292267608368]}, "properties": {"CWP_NAME": "DEER LODGE WWTP", "CWP_STREET": "198 N FRONTAGE RD", "CWP_CITY": "DEER LODGE", "CWP_STATE": "MT", "CWP_ZIP": "59722", "CWP_COUNTY": "Powell", "NPDES_ID": "MT0022616", "REGISTRY_ID": "110039828345", "CWP_FACILITY_TYPE_INDICATOR": "POTW", "CWP_MAJOR_MINOR_STATUS": "Major", "CWP_PERMIT_STATUS_DESC": "Admin Continued", "STATE_WATER_BODY_NAME": "CLARK FORK RIVER, UPPER CLARK FORK RIVER", "CWP_CSO_FLAG": "N"}}, {"type": "Feature", "geometry": {"type": "Point", "coordinates": [-108.79422251927, 48.5039668930988]}, "properties": {"CWP_NAME": "HARLEM WTP", "CWP_STREET": "990 WATER PLANT RD", "CWP_CITY": "HARLEM", "CWP_STATE": "MT", "CWP_ZIP": "59520", "CWP_COUNTY": "Blaine", "NPDES_ID": "MT0000931", "REGISTRY_ID": "110009860551", "CWP_FACILITY_TYPE_INDICATOR": "POTW", "CWP_MAJOR_MINOR_STATUS": "Minor", "CWP_PERMIT_STATUS_DESC": "Expired", "STATE_WATER_BODY_NAME": "MILK RIVER", "CWP_CSO_FLAG": "N"}}, {"type": "Feature", "geometry": {"type": "Point", "coordinates": [-107.26473391067, 46.2930627114352]}, "properties": {"CWP_NAME": "HYSHAM WWTP", "CWP_STREET": "RIVER RD 1.89 KM W OF HYSHAM", "CWP_CITY": "HYSHAM", "CWP_STATE": "MT", "CWP_ZIP": "59038", "CWP_COUNTY": "Treasure", "NPDES_ID": "MT0021709", "REGISTRY_ID": "110006723117", "CWP_FACILITY_TYPE_INDICATOR": "POTW", "CWP_MAJOR_MINOR_STATUS": "Minor", "CWP_PERMIT_STATUS_DESC": "Terminated", "STATE_WATER_BODY_NAME": "YELLOWSTONE RIVER", "CWP_CSO_FLAG": "N"}}, {"type": "Feature", "geometry": {"type": "Point", "coordinates": [-111.226181762612, 45.7755438245315]}, "properties": {"CWP_NAME": "RIVER ROCK SUBDIVISION", "CWP_STREET": "265 NORTH RIVER ROCK ROAD", "CWP_CITY": "BELGRADE", "CWP_STATE": "MT", "CWP_ZIP": "59714", "CWP_COUNTY": "Gallatin", "NPDES_ID": "MTX000147", "REGISTRY_ID": "110064609703", "CWP_FACILITY_TYPE_INDICATOR": "POTW", "CWP_MAJOR_MINOR_STATUS": "Minor", "CWP_PERMIT_STATUS_DESC": "Admin Continued", "STATE_WATER_BODY_NAME": "STATE GROUND WATER, STATE GROUNDWATER", "CWP_CSO_FLAG": "N"}}, {"type": "Feature", "geometry": {"type": "Point", "coordinates": [-105.118621948157, 46.8430631468614]}, "properties": {"CWP_NAME": "FALLON WATER AND SEWER DISTRICT", "CWP_STREET": "CATO AVE AND N 5TH STREET", "CWP_CITY": "FALLON", "CWP_STATE": "MT", "CWP_ZIP": "59326", "CWP_COUNTY": "Prairie", "NPDES_ID": "MTG580025", "REGISTRY_ID": "110009860668", "CWP_FACILITY_TYPE_INDICATOR": "POTW", "CWP_MAJOR_MINOR_STATUS": "Minor", "CWP_PERMIT_STATUS_DESC": "Effective", "STATE_WATER_BODY_NAME": "BUFFALO RAPIDS DRAIN, YELLOWSTONE R VIA IRRIGATION DITCH", "CWP_CSO_FLAG": "N"}}, {"type": "Feature", "geometry": {"type": "Point", "coordinates": [-113.424343583482, 48.7416167872767]}, "properties": {"CWP_NAME": "ST. MARY LAGOONS", "CWP_STREET": "HC 72, BOX 4", "CWP_CITY": "BROWNING", "CWP_STATE": "MT", "CWP_ZIP": "59417", "CWP_COUNTY": "Glacier", "NPDES_ID": "MTG589017", "REGISTRY_ID": "110043266809", "CWP_FACILITY_TYPE_INDICATOR": "POTW", "CWP_MAJOR_MINOR_STATUS": "Minor", "CWP_PERMIT_STATUS_DESC": "Terminated", "STATE_WATER_BODY_NAME": null, "CWP_CSO_FLAG": "N"}}, {"type": "Feature", "geometry": {"type": "Point", "coordinates": [-115.895413905728, 48.4745259516577]}, "properties": {"CWP_NAME": "CITY OF TROY WASTEWATER TREATMENT FACILITY", "CWP_STREET": "906 MILL ROAD", "CWP_CITY": "TROY", "CWP_STATE": "MT", "CWP_ZIP": "59935", "CWP_COUNTY": "Lincoln", "NPDES_ID": "MTG581038", "REGISTRY_ID": "110070203318", "CWP_FACILITY_TYPE_INDICATOR": "POTW", "CWP_MAJOR_MINOR_STATUS": "Minor", "CWP_PERMIT_STATUS_DESC": "Effective", "STATE_WATER_BODY_NAME": "KOOTENAI RIVER, UPPER KOOTENAI RIVER", "CWP_CSO_FLAG": "N"}}, {"type": "Feature", "geometry": {"type": "Point", "coordinates": [-111.291941907828, 45.2686669788281]}, "properties": {"CWP_NAME": "BIG SKY WWTP", "CWP_STREET": "561 LITTLE COYOTE RD", "CWP_CITY": "BIG SKY", "CWP_STATE": "MT", "CWP_ZIP": "59716", "CWP_COUNTY": "Gallatin", "NPDES_ID": "MT0030384", "REGISTRY_ID": "110009860383", "CWP_FACILITY_TYPE_INDICATOR": "POTW", "CWP_MAJOR_MINOR_STATUS": "Minor", "CWP_PERMIT_STATUS_DESC": "Terminated", "STATE_WATER_BODY_NAME": "GALLATIN RIVER", "CWP_CSO_FLAG": "N"}}, {"type": "Feature", "geometry": {"type": "Point", "coordinates": [-111.84279083689, 48.0436179805753]}, "properties": {"CWP_NAME": "BRADY COUNTY WATER SEWER DISTRICT", "CWP_STREET": "N BRADY AT WEST VALLEY RD", "CWP_CITY": "BRADY", "CWP_STATE": "MT", "CWP_ZIP": "59416", "CWP_COUNTY": "Pondera", "NPDES_ID": "MTG580022", "REGISTRY_ID": "110006723242", "CWP_FACILITY_TYPE_INDICATOR": "POTW", "CWP_MAJOR_MINOR_STATUS": "Minor", "CWP_PERMIT_STATUS_DESC": "Effective", "STATE_WATER_BODY_NAME": "BRADY COULEE TO SOUTH PONDERA COULEE", "CWP_CSO_FLAG": "N"}}, {"type": "Feature", "geometry": {"type": "Point", "coordinates": [-109.441401183647, 45.5302844544441]}, "properties": {"CWP_NAME": "ABSAROKEE SEWER DISTRICT WWTP", "CWP_STREET": "508 N MONTANA AVE", "CWP_CITY": "ABSAROKEE", "CWP_STATE": "MT", "CWP_ZIP": "59001", "CWP_COUNTY": "Stillwater", "NPDES_ID": "MT0021750", "REGISTRY_ID": "110009860472", "CWP_FACILITY_TYPE_INDICATOR": "POTW", "CWP_MAJOR_MINOR_STATUS": "Minor", "CWP_PERMIT_STATUS_DESC": "Admin Continued", "STATE_WATER_BODY_NAME": "DITCH, ROSEBUD CREEK", "CWP_CSO_FLAG": "N"}}, {"type": "Feature", "geometry": {"type": "Point", "coordinates": [-112.553632687434, 45.9969568068996]}, "properties": {"CWP_NAME": "BUTTE-SILVER BOW WWTP", "CWP_STREET": "SW OF INTERSECTION OF CENTENNIAL & SANTA CLAUS RD", "CWP_CITY": "BUTTE", "CWP_STATE": "MT", "CWP_ZIP": "59701", "CWP_COUNTY": "Silver Bow", "NPDES_ID": "MT0022012", "REGISTRY_ID": "110012804698", "CWP_FACILITY_TYPE_INDICATOR": "POTW", "CWP_MAJOR_MINOR_STATUS": "Major", "CWP_PERMIT_STATUS_DESC": "Admin Continued", "STATE_WATER_BODY_NAME": "SILVER BOW CREEK", "CWP_CSO_FLAG": "N"}}, {"type": "Feature", "geometry": {"type": "Point", "coordinates": [-104.718622340005, 47.1058406166965]}, "properties": {"CWP_NAME": "GLENDIVE WATER TREATMENT PLANT", "CWP_STREET": "420 WEST BELL", "CWP_CITY": "GLENDIVE", "CWP_STATE": "MT", "CWP_ZIP": "59330", "CWP_COUNTY": "Dawson", "NPDES_ID": "MT0000876", "REGISTRY_ID": "110011047312", "CWP_FACILITY_TYPE_INDICATOR": "POTW", "CWP_MAJOR_MINOR_STATUS": "Minor", "CWP_PERMIT_STATUS_DESC": "Expired", "STATE_WATER_BODY_NAME": "YELLOWSTONE RIVER", "CWP_CSO_FLAG": "N"}}, {"type": "Feature", "geometry": {"type": "Point", "coordinates": [-109.929011964738, 45.8426180881689]}, "properties": {"CWP_NAME": "BIG TIMBER", "CWP_STREET": "1600 E 3RD AVE", "CWP_CITY": "BIG TIMBER", "CWP_STATE": "MT", "CWP_ZIP": "59011-5646", "CWP_COUNTY": "Sweet Grass", "NPDES_ID": "MT0020753", "REGISTRY_ID": "110009715157", "CWP_FACILITY_TYPE_INDICATOR": "POTW", "CWP_MAJOR_MINOR_STATUS": "Minor", "CWP_PERMIT_STATUS_DESC": "Admin Continued", "STATE_WATER_BODY_NAME": "BOULDER RIVER", "CWP_CSO_FLAG": "N"}}, {"type": "Feature", "geometry": {"type": "Point", "coordinates": [-114.161833435687, 47.6952068649127]}, "properties": {"CWP_NAME": "CITY OF POLSON WWTP", "CWP_STREET": "NE 1/4 OF NE 1/4 OF SECTION 8, T20E,", "CWP_CITY": "POLSON", "CWP_STATE": "MT", "CWP_ZIP": "59860", "CWP_COUNTY": "Lake", "NPDES_ID": "MT0020559", "REGISTRY_ID": "110039824777", "CWP_FACILITY_TYPE_INDICATOR": "POTW", "CWP_MAJOR_MINOR_STATUS": "Minor", "CWP_PERMIT_STATUS_DESC": "Effective", "STATE_WATER_BODY_NAME": "FLATHEAD RIVER", "CWP_CSO_FLAG": "N"}}, {"type": "Feature", "geometry": {"type": "Point", "coordinates": [-104.899178582467, 48.1505633468561]}, "properties": {"CWP_NAME": "BROCKTON WWTP", "CWP_STREET": "US 2", "CWP_CITY": "BROCKTON", "CWP_STATE": "MT", "CWP_ZIP": "59213", "CWP_COUNTY": "Roosevelt", "NPDES_ID": "MT0023001", "REGISTRY_ID": "110028116651", "CWP_FACILITY_TYPE_INDICATOR": "POTW", "CWP_MAJOR_MINOR_STATUS": "Minor", "CWP_PERMIT_STATUS_DESC": "Terminated", "STATE_WATER_BODY_NAME": "MISSOURI RIVER", "CWP_CSO_FLAG": "N"}}, {"type": "Feature", "geometry": {"type": "Point", "coordinates": [-111.333082418435, 45.8793264877525]}, "properties": {"CWP_NAME": "MANHATTAN WWTF", "CWP_STREET": "218 LUND LANE", "CWP_CITY": "MANHATTAN", "CWP_STATE": "MT", "CWP_ZIP": "59741", "CWP_COUNTY": "Gallatin", "NPDES_ID": "MT0021857", "REGISTRY_ID": "110064243297", "CWP_FACILITY_TYPE_INDICATOR": "POTW", "CWP_MAJOR_MINOR_STATUS": "Minor", "CWP_PERMIT_STATUS_DESC": "Admin Continued", "STATE_WATER_BODY_NAME": "DITA DITCH, DITA DITCH TO GALLATIN RIVER", "CWP_CSO_FLAG": "N"}}, {"type": "Feature", "geometry": {"type": "Point", "coordinates": [-108.340290191905, 47.0058401570555]}, "properties": {"CWP_NAME": "WINNETT WWTF", "CWP_STREET": "8TH AVE E & MAIN ST INTERSECTION", "CWP_CITY": "WINNETT", "CWP_STATE": "MT", "CWP_ZIP": "59087", "CWP_COUNTY": "Petroleum", "NPDES_ID": "MT0020702", "REGISTRY_ID": "110011047116", "CWP_FACILITY_TYPE_INDICATOR": "POTW", "CWP_MAJOR_MINOR_STATUS": "Minor", "CWP_PERMIT_STATUS_DESC": "Terminated", "STATE_WATER_BODY_NAME": "MCDONALD CREEK", "CWP_CSO_FLAG": "N"}}, {"type": "Feature", "geometry": {"type": "Point", "coordinates": [-109.784623579046, 48.2631175370085]}, "properties": {"CWP_NAME": "SANGREY LAGOONS WASTEWATER TREATMENT FACILITY", "CWP_STREET": "RR1 BOX 664", "CWP_CITY": "BOX ELDER", "CWP_STATE": "MT", "CWP_ZIP": "59521", "CWP_COUNTY": "Hill", "NPDES_ID": "MTG589016", "REGISTRY_ID": "110012351588", "CWP_FACILITY_TYPE_INDICATOR": "POTW", "CWP_MAJOR_MINOR_STATUS": "Minor", "CWP_PERMIT_STATUS_DESC": "Terminated", "STATE_WATER_BODY_NAME": null, "CWP_CSO_FLAG": "N"}}, {"type": "Feature", "geometry": {"type": "Point", "coordinates": [-111.856743027657, 48.5044369293888]}, "properties": {"CWP_NAME": "CITY OF SHELBY WWTP", "CWP_STREET": "112 FIRST ST S", "CWP_CITY": "SHELBY", "CWP_STATE": "MT", "CWP_ZIP": "59474", "CWP_COUNTY": "Toole", "NPDES_ID": "MTG580006", "REGISTRY_ID": "110064243714", "CWP_FACILITY_TYPE_INDICATOR": "POTW", "CWP_MAJOR_MINOR_STATUS": "Minor", "CWP_PERMIT_STATUS_DESC": "Terminated", "STATE_WATER_BODY_NAME": "MARIAS RIVER", "CWP_CSO_FLAG": "N"}}, {"type": "Feature", "geometry": {"type": "Point", "coordinates": [-104.500341783253, 48.3305878912675]}, "properties": {"CWP_NAME": "TOWN OF FROID WWTF", "CWP_STREET": "SR 16", "CWP_CITY": "FROID", "CWP_STATE": "MT", "CWP_ZIP": "59226", "CWP_COUNTY": "Roosevelt", "NPDES_ID": "MTG580028", "REGISTRY_ID": "110009860677", "CWP_FACILITY_TYPE_INDICATOR": "POTW", "CWP_MAJOR_MINOR_STATUS": "Minor", "CWP_PERMIT_STATUS_DESC": "Terminated", "STATE_WATER_BODY_NAME": "SHEEP CREEK", "CWP_CSO_FLAG": "N"}}, {"type": "Feature", "geometry": {"type": "Point", "coordinates": [-107.454816334597, 45.6102595530389]}, "properties": {"CWP_NAME": "CROW AGENCY LAGOONS", "CWP_STREET": "P.O. BOX 69", "CWP_CITY": "CROW AGENCY", "CWP_STATE": "MT", "CWP_ZIP": "59022", "CWP_COUNTY": "Big Horn", "NPDES_ID": "MTG589007", "REGISTRY_ID": "110020845353", "CWP_FACILITY_TYPE_INDICATOR": "POTW", "CWP_MAJOR_MINOR_STATUS": "Minor", "CWP_PERMIT_STATUS_DESC": "Terminated", "STATE_WATER_BODY_NAME": "LITTLE BIGHORN RIVER", "CWP_CSO_FLAG": "N"}}, {"type": "Feature", "geometry": {"type": "Point", "coordinates": [-112.204612818515, 45.4557663667544]}, "properties": {"CWP_NAME": "SHERIDAN WWTF", "CWP_STREET": "N OF 320 WATER ST ON MOOSE LANE", "CWP_CITY": "SHERIDAN", "CWP_STATE": "MT", "CWP_ZIP": "59749", "CWP_COUNTY": "Madison", "NPDES_ID": "MT0022098", "REGISTRY_ID": "110010826268", "CWP_FACILITY_TYPE_INDICATOR": "POTW", "CWP_MAJOR_MINOR_STATUS": "Minor", "CWP_PERMIT_STATUS_DESC": "Expired", "STATE_WATER_BODY_NAME": "LEODARD SLOUGH, RUBY RIVER & LEONARD SLOUGH, S INDIAN CREEK", "CWP_CSO_FLAG": "N"}}, {"type": "Feature", "geometry": {"type": "Point", "coordinates": [-109.438761973452, 47.0735068485887]}, "properties": {"CWP_NAME": "LEWISTOWN WWTP", "CWP_STREET": "620 METIS STREET", "CWP_CITY": "LEWISTOWN", "CWP_STATE": "MT", "CWP_ZIP": "59457", "CWP_COUNTY": "Fergus", "NPDES_ID": "MT0020044", "REGISTRY_ID": "110018927768", "CWP_FACILITY_TYPE_INDICATOR": "POTW", "CWP_MAJOR_MINOR_STATUS": "Major", "CWP_PERMIT_STATUS_DESC": "Admin Continued", "STATE_WATER_BODY_NAME": "BIG SPRING CREEK", "CWP_CSO_FLAG": "N"}}, {"type": "Feature", "geometry": {"type": "Point", "coordinates": [-107.741405130769, 45.4722288671022]}, "properties": {"CWP_NAME": "CROW AGENCY LAGOON", "CWP_STREET": "SECTION 36, TOWNSHIP 2 SOUTH, RANGE 34 EAST", "CWP_CITY": "CROW AGENCY", "CWP_STATE": "MT", "CWP_ZIP": "59022", "CWP_COUNTY": "Big Horn", "NPDES_ID": "MTG589009", "REGISTRY_ID": "110042381384", "CWP_FACILITY_TYPE_INDICATOR": "POTW", "CWP_MAJOR_MINOR_STATUS": "Minor", "CWP_PERMIT_STATUS_DESC": "Effective", "STATE_WATER_BODY_NAME": "LITTLE BIG HORN RIVER", "CWP_CSO_FLAG": "N"}}, {"type": "Feature", "geometry": {"type": "Point", "coordinates": [-108.521955874072, 46.4463961210623]}, "properties": {"CWP_NAME": "CITY OF ROUNDUP WWTP", "CWP_STREET": "US HWY 12 E 0.12 MI FROM ROUNDUP", "CWP_CITY": "ROUNDUP", "CWP_STATE": "MT", "CWP_ZIP": "59072", "CWP_COUNTY": "Musselshell", "NPDES_ID": "MT0030295", "REGISTRY_ID": "110011046689", "CWP_FACILITY_TYPE_INDICATOR": "POTW", "CWP_MAJOR_MINOR_STATUS": "Minor", "CWP_PERMIT_STATUS_DESC": "Admin Continued", "STATE_WATER_BODY_NAME": "MUSSELSHELL RIVER", "CWP_CSO_FLAG": "N"}}, {"type": "Feature", "geometry": {"type": "Point", "coordinates": [-113.010833376564, 48.5559068135153]}, "properties": {"CWP_NAME": "BROWNING LAGOON", "CWP_STREET": "T32N, R11W, S9", "CWP_CITY": "BROWNING", "CWP_STATE": "MT", "CWP_ZIP": "59417", "CWP_COUNTY": "Glacier", "NPDES_ID": "MTG589104", "REGISTRY_ID": "110010648512", "CWP_FACILITY_TYPE_INDICATOR": "POTW", "CWP_MAJOR_MINOR_STATUS": "Minor", "CWP_PERMIT_STATUS_DESC": "Admin Continued", "STATE_WATER_BODY_NAME": "TRIBUTARY OF WILLOW CREEK", "CWP_CSO_FLAG": "N"}}, {"type": "Feature", "geometry": {"type": "Point", "coordinates": [-109.23956181305, 45.6261863869588]}, "properties": {"CWP_NAME": "TOWN OF COLUMBUS - WASTE WATER TREATMENT FACILITY", "CWP_STREET": "208 LAGOON ROAD", "CWP_CITY": "COLUMBUS", "CWP_STATE": "MT", "CWP_ZIP": "59019", "CWP_COUNTY": "Stillwater", "NPDES_ID": "MT0031801", "REGISTRY_ID": "110056410183", "CWP_FACILITY_TYPE_INDICATOR": "POTW", "CWP_MAJOR_MINOR_STATUS": "Minor", "CWP_PERMIT_STATUS_DESC": "Effective", "STATE_WATER_BODY_NAME": "UPPER YELLOWSTONE LAKE BASIN, YELLOWSTONE RIVER", "CWP_CSO_FLAG": "N"}}, {"type": "Feature", "geometry": {"type": "Point", "coordinates": [-111.488624137132, 47.5394508391178]}, "properties": {"CWP_NAME": "SUN PRAIRIE VILLAGE WWTP", "CWP_STREET": "1047 GRANT DRIVE", "CWP_CITY": "GREAT FALLS", "CWP_STATE": "MT", "CWP_ZIP": "59404", "CWP_COUNTY": "Cascade", "NPDES_ID": "MT0028665", "REGISTRY_ID": "110010826222", "CWP_FACILITY_TYPE_INDICATOR": "POTW", "CWP_MAJOR_MINOR_STATUS": "Minor", "CWP_PERMIT_STATUS_DESC": "Admin Continued", "STATE_WATER_BODY_NAME": "SUN RIVER", "CWP_CSO_FLAG": "N"}}, {"type": "Feature", "geometry": {"type": "Point", "coordinates": [-114.214180437182, 48.3561177830889]}, "properties": {"CWP_NAME": "COLUMBIA FALLS WWTP", "CWP_STREET": "600 VETERANS DRIVE", "CWP_CITY": "COLUMBIA FALLS", "CWP_STATE": "MT", "CWP_ZIP": "59912", "CWP_COUNTY": "Flathead", "NPDES_ID": "MT0020036", "REGISTRY_ID": "110000734028", "CWP_FACILITY_TYPE_INDICATOR": "POTW", "CWP_MAJOR_MINOR_STATUS": "Minor", "CWP_PERMIT_STATUS_DESC": "Admin Continued", "STATE_WATER_BODY_NAME": "FLATHEAD RIVER", "CWP_CSO_FLAG": "N"}}, {"type": "Feature", "geometry": {"type": "Point", "coordinates": [-112.619446741176, 45.2383147335386]}, "properties": {"CWP_NAME": "CITY OF DILLON WWTF", "CWP_STREET": "84 LAGOON LANE", "CWP_CITY": "DILLON", "CWP_STATE": "MT", "CWP_ZIP": "59725", "CWP_COUNTY": "Beaverhead", "NPDES_ID": "MT0021458", "REGISTRY_ID": "110002063588", "CWP_FACILITY_TYPE_INDICATOR": "POTW", "CWP_MAJOR_MINOR_STATUS": "Minor", "CWP_PERMIT_STATUS_DESC": "Admin Continued", "STATE_WATER_BODY_NAME": "BEAVERHEAD RIVER", "CWP_CSO_FLAG": "N"}}, {"type": "Feature", "geometry": {"type": "Point", "coordinates": [-108.752192113258, 45.6584864852656]}, "properties": {"CWP_NAME": "CITY OF LAUREL WWTP", "CWP_STREET": "1508 SEWER PLANT ROAD", "CWP_CITY": "LAUREL", "CWP_STATE": "MT", "CWP_ZIP": "59044", "CWP_COUNTY": "Yellowstone", "NPDES_ID": "MT0020311", "REGISTRY_ID": "110000737249", "CWP_FACILITY_TYPE_INDICATOR": "POTW", "CWP_MAJOR_MINOR_STATUS": "Major", "CWP_PERMIT_STATUS_DESC": "Admin Continued", "STATE_WATER_BODY_NAME": "YELLOWSTONE RIVER", "CWP_CSO_FLAG": "N"}}, {"type": "Feature", "geometry": {"type": "Point", "coordinates": [-110.561175210652, 45.6512746549459]}, "properties": {"CWP_NAME": "LIVINGSTON SWIMMING POOL", "CWP_STREET": "214 RIVER DR", "CWP_CITY": "LIVINGSTON", "CWP_STATE": "MT", "CWP_ZIP": "59047", "CWP_COUNTY": "Park", "NPDES_ID": "MT0028118", "REGISTRY_ID": "110011046830", "CWP_FACILITY_TYPE_INDICATOR": "POTW", "CWP_MAJOR_MINOR_STATUS": "Minor", "CWP_PERMIT_STATUS_DESC": "Terminated", "STATE_WATER_BODY_NAME": "FLESHMAN CREEK", "CWP_CSO_FLAG": "N"}}, {"type": "Feature", "geometry": {"type": "Point", "coordinates": [-112.346217175846, 48.6421293906477]}, "properties": {"CWP_NAME": "CUT BANK, CITY OF (WTP)", "CWP_STREET": "221 WEST MAIN STREET", "CWP_CITY": "CUT BANK", "CWP_STATE": "MT", "CWP_ZIP": "59427", "CWP_COUNTY": "Glacier", "NPDES_ID": "MT0030562", "REGISTRY_ID": "110028118579", "CWP_FACILITY_TYPE_INDICATOR": "POTW", "CWP_MAJOR_MINOR_STATUS": "Minor", "CWP_PERMIT_STATUS_DESC": "Terminated", "STATE_WATER_BODY_NAME": null, "CWP_CSO_FLAG": "N"}}, {"type": "Feature", "geometry": {"type": "Point", "coordinates": [-114.030569303273, 47.8758393228931]}, "properties": {"CWP_NAME": "FLATHEAD LAKE BIOLOGICAL STATION WWTF", "CWP_STREET": "32125 BIO STATION LANE", "CWP_CITY": "POLSON", "CWP_STATE": "MT", "CWP_ZIP": "59860", "CWP_COUNTY": "Lake", "NPDES_ID": "MT0023388", "REGISTRY_ID": "110006669195", "CWP_FACILITY_TYPE_INDICATOR": "POTW", "CWP_MAJOR_MINOR_STATUS": "Minor", "CWP_PERMIT_STATUS_DESC": "Effective", "STATE_WATER_BODY_NAME": "FLATHEAD LAKE", "CWP_CSO_FLAG": "N"}}, {"type": "Feature", "geometry": {"type": "Point", "coordinates": [-111.963943195193, 48.7473366283621]}, "properties": {"CWP_NAME": "TOWN OF KEVIN WWTF", "CWP_STREET": "211 FRONT STREET", "CWP_CITY": "KEVIN", "CWP_STATE": "MT", "CWP_ZIP": "59454", "CWP_COUNTY": "Toole", "NPDES_ID": "MT0030244", "REGISTRY_ID": "110009860365", "CWP_FACILITY_TYPE_INDICATOR": "POTW", "CWP_MAJOR_MINOR_STATUS": "Minor", "CWP_PERMIT_STATUS_DESC": "Effective", "STATE_WATER_BODY_NAME": "UNNAMED DRY LAKE BED", "CWP_CSO_FLAG": "N"}}, {"type": "Feature", "geometry": {"type": "Point", "coordinates": [-109.831722499612, 46.4351364852794]}, "properties": {"CWP_NAME": "CITY OF HARLOWTON WWTF", "CWP_STREET": "17 SOUTH CENTRAL", "CWP_CITY": "HARLOWTON", "CWP_STATE": "MT", "CWP_ZIP": "59036", "CWP_COUNTY": "Wheatland", "NPDES_ID": "MT0020354", "REGISTRY_ID": "110009715148", "CWP_FACILITY_TYPE_INDICATOR": "POTW", "CWP_MAJOR_MINOR_STATUS": "Minor", "CWP_PERMIT_STATUS_DESC": "Admin Continued", "STATE_WATER_BODY_NAME": "MUSSELSHELL RIVER", "CWP_CSO_FLAG": "N"}}, {"type": "Feature", "geometry": {"type": "Point", "coordinates": [-108.937961633056, 46.2935472921143]}, "properties": {"CWP_NAME": "TOWN OF LAVINA WWTF", "CWP_STREET": "2ND AVE", "CWP_CITY": "LAVINA", "CWP_STATE": "MT", "CWP_ZIP": "59046", "CWP_COUNTY": "Golden Valley", "NPDES_ID": "MTG580013", "REGISTRY_ID": "110009860613", "CWP_FACILITY_TYPE_INDICATOR": "POTW", "CWP_MAJOR_MINOR_STATUS": "Minor", "CWP_PERMIT_STATUS_DESC": "Effective", "STATE_WATER_BODY_NAME": "MUSSELSHELL RIVER", "CWP_CSO_FLAG": "N"}}, {"type": "Feature", "geometry": {"type": "Point", "coordinates": [-109.924206492929, 48.293478638076]}, "properties": {"CWP_NAME": "MULTI-COMMUNITY LAGOON", "CWP_STREET": "16 BLACK PRAIRIE STREET", "CWP_CITY": "BOX ELDER", "CWP_STATE": "MT", "CWP_ZIP": "59521", "CWP_COUNTY": "Hill", "NPDES_ID": "MTG589705", "REGISTRY_ID": "110067565959", "CWP_FACILITY_TYPE_INDICATOR": "POTW", "CWP_MAJOR_MINOR_STATUS": "Minor", "CWP_PERMIT_STATUS_DESC": "Admin Continued", "STATE_WATER_BODY_NAME": null, "CWP_CSO_FLAG": "N"}}, {"type": "Feature", "geometry": {"type": "Point", "coordinates": [-114.329930411276, 48.3919503612695]}, "properties": {"CWP_NAME": "CITY OF WHITEFISH WWTF", "CWP_STREET": "300 MONEGAN RD", "CWP_CITY": "WHITEFISH", "CWP_STATE": "MT", "CWP_ZIP": "59937", "CWP_COUNTY": "Flathead", "NPDES_ID": "MT0020184", "REGISTRY_ID": "110055637976", "CWP_FACILITY_TYPE_INDICATOR": "POTW", "CWP_MAJOR_MINOR_STATUS": "Major", "CWP_PERMIT_STATUS_DESC": "Admin Continued", "STATE_WATER_BODY_NAME": "WHITEFISH RIVER", "CWP_CSO_FLAG": "N"}}, {"type": "Feature", "geometry": {"type": "Point", "coordinates": [-114.17236354255, 47.4395961356906]}, "properties": {"CWP_NAME": "CONSOLIDATED CHARLO-LAKE COUNTY WATER&SEWER DIST", "CWP_STREET": "PO BOX 62", "CWP_CITY": "CHARLO", "CWP_STATE": "MT", "CWP_ZIP": "59824", "CWP_COUNTY": "Lake", "NPDES_ID": "MT0022551", "REGISTRY_ID": "110006805207", "CWP_FACILITY_TYPE_INDICATOR": "POTW", "CWP_MAJOR_MINOR_STATUS": "Minor", "CWP_PERMIT_STATUS_DESC": "Effective", "STATE_WATER_BODY_NAME": "POST CREEK VIA DUBLIN GULCH", "CWP_CSO_FLAG": "N"}}, {"type": "Feature", "geometry": {"type": "Point", "coordinates": [-104.581651425327, 48.8770474912283]}, "properties": {"CWP_NAME": "OUTLOOK SEWER AND WATER WWTF", "CWP_STREET": "SOO LINE RD", "CWP_CITY": "OUTLOOK", "CWP_STATE": "MT", "CWP_ZIP": "59252", "CWP_COUNTY": "Sheridan", "NPDES_ID": "MTG580026", "REGISTRY_ID": "110011049249", "CWP_FACILITY_TYPE_INDICATOR": "POTW", "CWP_MAJOR_MINOR_STATUS": "Minor", "CWP_PERMIT_STATUS_DESC": "Effective", "STATE_WATER_BODY_NAME": "EPHEMERAL TRIB TO PLENTYWOOD CREEK", "CWP_CSO_FLAG": "N"}}, {"type": "Feature", "geometry": {"type": "Point", "coordinates": [-107.553622270535, 46.13972915955]}, "properties": {"CWP_NAME": "CUSTER AREA-YELLOWSTONE CO. WWTP", "CWP_STREET": "1/2 MILE E OF 8TH ST", "CWP_CITY": "CUSTER", "CWP_STATE": "MT", "CWP_ZIP": "59024", "CWP_COUNTY": "Yellowstone", "NPDES_ID": "MT0031526", "REGISTRY_ID": "110064604986", "CWP_FACILITY_TYPE_INDICATOR": "POTW", "CWP_MAJOR_MINOR_STATUS": "Minor", "CWP_PERMIT_STATUS_DESC": "Terminated", "STATE_WATER_BODY_NAME": "YELLOWSTONE RIVER", "CWP_CSO_FLAG": "N"}}, {"type": "Feature", "geometry": {"type": "Point", "coordinates": [-112.79031275201, 46.1809464000191]}, "properties": {"CWP_NAME": "MT STATE HOSPITAL WWTP", "CWP_STREET": "100 GARNET WAY", "CWP_CITY": "WARM SPRINGS", "CWP_STATE": "MT", "CWP_ZIP": "59756", "CWP_COUNTY": "Deer Lodge", "NPDES_ID": "MTG580004", "REGISTRY_ID": "110011049613", "CWP_FACILITY_TYPE_INDICATOR": "POTW", "CWP_MAJOR_MINOR_STATUS": "Minor", "CWP_PERMIT_STATUS_DESC": "Terminated", "STATE_WATER_BODY_NAME": "CLARK FORK RIVER", "CWP_CSO_FLAG": "N"}}, {"type": "Feature", "geometry": {"type": "Point", "coordinates": [-110.922790337137, 47.3986179495107]}, "properties": {"CWP_NAME": "TOWN OF BELT - WWTP", "CWP_STREET": "ORR COULEE RD", "CWP_CITY": "BELT", "CWP_STATE": "MT", "CWP_ZIP": "59412", "CWP_COUNTY": "Cascade", "NPDES_ID": "MT0021571", "REGISTRY_ID": "110006723091", "CWP_FACILITY_TYPE_INDICATOR": "POTW", "CWP_MAJOR_MINOR_STATUS": "Minor", "CWP_PERMIT_STATUS_DESC": "Admin Continued", "STATE_WATER_BODY_NAME": "B AND M COULEE, BELT CREEK", "CWP_CSO_FLAG": "N"}}, {"type": "Feature", "geometry": {"type": "Point", "coordinates": [-115.358414012203, 47.599686142257]}, "properties": {"CWP_NAME": "CITY OF THOMPSON FALLS WWTF", "CWP_STREET": "1300 WEST PRESTON AVENUE", "CWP_CITY": "THOMPSON FALLS", "CWP_STATE": "MT", "CWP_ZIP": "59873", "CWP_COUNTY": "Sanders", "NPDES_ID": "MTG581035", "REGISTRY_ID": "110070205143", "CWP_FACILITY_TYPE_INDICATOR": "POTW", "CWP_MAJOR_MINOR_STATUS": "Minor", "CWP_PERMIT_STATUS_DESC": "Effective", "STATE_WATER_BODY_NAME": "CLARK FORK RIVER", "CWP_CSO_FLAG": "N"}}, {"type": "Feature", "geometry": {"type": "Point", "coordinates": [-107.342783833312, 48.4561096084309]}, "properties": {"CWP_NAME": "TOWN OF SACO", "CWP_STREET": "1/2 MI SE EDGE OF TOWN OF SACO", "CWP_CITY": "SACO", "CWP_STATE": "MT", "CWP_ZIP": "59261", "CWP_COUNTY": "Phillips", "NPDES_ID": "MTG580012", "REGISTRY_ID": "110011049659", "CWP_FACILITY_TYPE_INDICATOR": "POTW", "CWP_MAJOR_MINOR_STATUS": "Minor", "CWP_PERMIT_STATUS_DESC": "Effective", "STATE_WATER_BODY_NAME": "BEAVER CREEK", "CWP_CSO_FLAG": "N"}}, {"type": "Feature", "geometry": {"type": "Point", "coordinates": [-113.014033165694, 48.5584968608797]}, "properties": {"CWP_NAME": "BLACKFEET UTILITIES COMMISSION", "CWP_STREET": "P.O. BOX 850", "CWP_CITY": "BROWNING", "CWP_STATE": "MT", "CWP_ZIP": "59417", "CWP_COUNTY": "Glacier", "NPDES_ID": "MTG589003", "REGISTRY_ID": "110012375633", "CWP_FACILITY_TYPE_INDICATOR": "POTW", "CWP_MAJOR_MINOR_STATUS": "Minor", "CWP_PERMIT_STATUS_DESC": "Terminated", "STATE_WATER_BODY_NAME": null, "CWP_CSO_FLAG": "N"}}, {"type": "Feature", "geometry": {"type": "Point", "coordinates": [-109.784623579046, 48.2631175370085]}, "properties": {"CWP_NAME": "AZURE LAGOONS", "CWP_STREET": "RR1 BOX 664", "CWP_CITY": "BOX ELDER", "CWP_STATE": "MT", "CWP_ZIP": "59521", "CWP_COUNTY": "Hill", "NPDES_ID": "MTG589014", "REGISTRY_ID": "110043266792", "CWP_FACILITY_TYPE_INDICATOR": "POTW", "CWP_MAJOR_MINOR_STATUS": "Minor", "CWP_PERMIT_STATUS_DESC": "Terminated", "STATE_WATER_BODY_NAME": null, "CWP_CSO_FLAG": "N"}}, {"type": "Feature", "geometry": {"type": "Point", "coordinates": [-109.784623579046, 48.2631175370085]}, "properties": {"CWP_NAME": "BOX ELDER LAGOONS", "CWP_STREET": "RR1 BOX 664", "CWP_CITY": "BOX ELDER", "CWP_STATE": "MT", "CWP_ZIP": "59521", "CWP_COUNTY": "Hill", "NPDES_ID": "MTG589015", "REGISTRY_ID": "110043266792", "CWP_FACILITY_TYPE_INDICATOR": "POTW", "CWP_MAJOR_MINOR_STATUS": "Minor", "CWP_PERMIT_STATUS_DESC": "Terminated", "STATE_WATER_BODY_NAME": null, "CWP_CSO_FLAG": "N"}}, {"type": "Feature", "geometry": {"type": "Point", "coordinates": [-104.113901074732, 47.6977870967441]}, "properties": {"CWP_NAME": "SIDNEY WASTEWATER TREATMENT FACILITY", "CWP_STREET": "COUNTY ROAD 124", "CWP_CITY": "SIDNEY", "CWP_STATE": "MT", "CWP_ZIP": "59270", "CWP_COUNTY": "Richland", "NPDES_ID": "MT0021849", "REGISTRY_ID": "110058929735", "CWP_FACILITY_TYPE_INDICATOR": "POTW", "CWP_MAJOR_MINOR_STATUS": "Minor", "CWP_PERMIT_STATUS_DESC": "Admin Continued", "STATE_WATER_BODY_NAME": "LOWER YELLOWSTONE RIVER", "CWP_CSO_FLAG": "N"}}, {"type": "Feature", "geometry": {"type": "Point", "coordinates": [-109.239733711063, 46.2977848699152]}, "properties": {"CWP_NAME": "RYEGATE WWTP", "CWP_STREET": "926 US 12", "CWP_CITY": "RYEGATE", "CWP_STATE": "MT", "CWP_ZIP": "59074", "CWP_COUNTY": "Golden Valley", "NPDES_ID": "MT0020451", "REGISTRY_ID": "110039827863", "CWP_FACILITY_TYPE_INDICATOR": "POTW", "CWP_MAJOR_MINOR_STATUS": "Minor", "CWP_PERMIT_STATUS_DESC": "Effective", "STATE_WATER_BODY_NAME": "MUSSELSHELL R VIA UNNAMED SLOUGH, MUSSELSHELL R. VIA UNNAMED SLOUGH", "CWP_CSO_FLAG": "N"}}, {"type": "Feature", "geometry": {"type": "Point", "coordinates": [-114.177602694434, 46.0208066726577]}, "properties": {"CWP_NAME": "TOWN OF DARBY WWTF", "CWP_STREET": "101 EAST TANNER AVENUE", "CWP_CITY": "DARBY", "CWP_STATE": "MT", "CWP_ZIP": "59829", "CWP_COUNTY": "Ravalli", "NPDES_ID": "MTG580011", "REGISTRY_ID": "110006723260", "CWP_FACILITY_TYPE_INDICATOR": "POTW", "CWP_MAJOR_MINOR_STATUS": "Minor", "CWP_PERMIT_STATUS_DESC": "Effective", "STATE_WATER_BODY_NAME": "WEST CHANNEL BITTERROOT RIVER", "CWP_CSO_FLAG": "N"}}, {"type": "Feature", "geometry": {"type": "Point", "coordinates": [-111.997790730302, 47.6241741269339]}, "properties": {"CWP_NAME": "TOWN OF FAIRFIELD WWTP", "CWP_STREET": "US 89 NW OF FAIRFIELD", "CWP_CITY": "FAIRFIELD", "CWP_STATE": "MT", "CWP_ZIP": "59436", "CWP_COUNTY": "Teton", "NPDES_ID": "MTG580003", "REGISTRY_ID": "110009860793", "CWP_FACILITY_TYPE_INDICATOR": "POTW", "CWP_MAJOR_MINOR_STATUS": "Minor", "CWP_PERMIT_STATUS_DESC": "Effective", "STATE_WATER_BODY_NAME": "FREEZEOUT LAKE", "CWP_CSO_FLAG": "N"}}, {"type": "Feature", "geometry": {"type": "Point", "coordinates": [-107.655085518023, 45.6656002224448]}, "properties": {"CWP_NAME": "USBOR-FT SMITH GOVT CAMP", "CWP_STREET": "P.0. BOX 518", "CWP_CITY": "HARDIN", "CWP_STATE": "MT", "CWP_ZIP": "59035", "CWP_COUNTY": "Big Horn", "NPDES_ID": "MT0020672", "REGISTRY_ID": "110011047107", "CWP_FACILITY_TYPE_INDICATOR": "NON-POTW", "CWP_MAJOR_MINOR_STATUS": "Minor", "CWP_PERMIT_STATUS_DESC": "Terminated", "STATE_WATER_BODY_NAME": "BIGHORN RIVER", "CWP_CSO_FLAG": "N"}}, {"type": "Feature", "geometry": {"type": "Point", "coordinates": [-107.957511339052, 45.3075072056556]}, "properties": {"CWP_NAME": "USBOR-YELLOWTAIL DAM WASTEWATER TREATMENT FACILITY", "CWP_STREET": "2 AVE B", "CWP_CITY": "YELLOWTAIL", "CWP_STATE": "MT", "CWP_ZIP": "59035", "CWP_COUNTY": "Big Horn", "NPDES_ID": "MT0022993", "REGISTRY_ID": "110006865892", "CWP_FACILITY_TYPE_INDICATOR": "NON-POTW", "CWP_MAJOR_MINOR_STATUS": "Minor", "CWP_PERMIT_STATUS_DESC": "Admin Continued", "STATE_WATER_BODY_NAME": "BIGHORN RIVER", "CWP_CSO_FLAG": "N"}}, {"type": "Feature", "geometry": {"type": "Point", "coordinates": [-107.9558448949, 45.3073956898582]}, "properties": {"CWP_NAME": "USBOR-YELLOWTAIL DAM VISITOR CENTER WASTEWATER FACILITY", "CWP_STREET": "2 AVE B", "CWP_CITY": "YELLOWTAIL", "CWP_STATE": "MT", "CWP_ZIP": "59035", "CWP_COUNTY": "Big Horn", "NPDES_ID": "MT0029106", "REGISTRY_ID": "110012343142", "CWP_FACILITY_TYPE_INDICATOR": "NON-POTW", "CWP_MAJOR_MINOR_STATUS": "Minor", "CWP_PERMIT_STATUS_DESC": "Expired", "STATE_WATER_BODY_NAME": "BIGHORN LAKE", "CWP_CSO_FLAG": "N"}}, {"type": "Feature", "geometry": {"type": "Point", "coordinates": [-110.001855778348, 48.3101952299961]}, "properties": {"CWP_NAME": "CHIPPEWA CREE TRIBE", "CWP_STREET": "RR1, P.O. BOX 644", "CWP_CITY": "BOX ELDER", "CWP_STATE": "MT", "CWP_ZIP": "59521", "CWP_COUNTY": "Hill", "NPDES_ID": "MTG589005", "REGISTRY_ID": "110010825802", "CWP_FACILITY_TYPE_INDICATOR": "POTW", "CWP_MAJOR_MINOR_STATUS": "Minor", "CWP_PERMIT_STATUS_DESC": "Terminated", "STATE_WATER_BODY_NAME": null, "CWP_CSO_FLAG": "N"}}, {"type": "Feature", "geometry": {"type": "Point", "coordinates": [-111.02135211721, 45.7115067119755]}, "properties": {"CWP_NAME": "CITY OF BOZEMAN - LYMAN CREEK RESERVOIR", "CWP_STREET": "1600 STORY MILL ROAD", "CWP_CITY": "BOZEMAN", "CWP_STATE": "MT", "CWP_ZIP": "59771", "CWP_COUNTY": "Gallatin", "NPDES_ID": "MT0031631", "REGISTRY_ID": "110064641623", "CWP_FACILITY_TYPE_INDICATOR": "POTW", "CWP_MAJOR_MINOR_STATUS": "Minor", "CWP_PERMIT_STATUS_DESC": "Admin Continued", "STATE_WATER_BODY_NAME": "LYMAN CREEK BRIDGER CREEK", "CWP_CSO_FLAG": "N"}}, {"type": "Feature", "geometry": {"type": "Point", "coordinates": [-107.729837147075, 45.4635809864154]}, "properties": {"CWP_NAME": "ST. LABRE INDIAN SCHOOL", "CWP_STREET": "P.O. BOX 77", "CWP_CITY": "ASHLAND", "CWP_STATE": "MT", "CWP_ZIP": "59003", "CWP_COUNTY": "Rosebud", "NPDES_ID": "MTG589002", "REGISTRY_ID": "110063925285", "CWP_FACILITY_TYPE_INDICATOR": "POTW", "CWP_MAJOR_MINOR_STATUS": "Minor", "CWP_PERMIT_STATUS_DESC": "Terminated", "STATE_WATER_BODY_NAME": null, "CWP_CSO_FLAG": "N"}}, {"type": "Feature", "geometry": {"type": "Point", "coordinates": [-114.105568843258, 46.3191729815112]}, "properties": {"CWP_NAME": "CORVALLIS WWTF", "CWP_STREET": "CENTENNIAL LN", "CWP_CITY": "CORVALLIS", "CWP_STATE": "MT", "CWP_ZIP": "59828", "CWP_COUNTY": "Ravalli", "NPDES_ID": "MTX000122", "REGISTRY_ID": "110013342409", "CWP_FACILITY_TYPE_INDICATOR": "POTW", "CWP_MAJOR_MINOR_STATUS": "Minor", "CWP_PERMIT_STATUS_DESC": "Admin Continued", "STATE_WATER_BODY_NAME": "CLASS I GROUND WATER", "CWP_CSO_FLAG": "N"}}]}