{"type": "FeatureCollection", "features": [{"type": "Feature", "geometry": {"type": "Point", "coordinates": [-79.1400026921987, 34.2308398113053]}, "properties": {"CWP_NAME": "GSW&SA/TOWN OF NICHOLS", "CWP_STREET": "LUMBER ST", "CWP_CITY": "NICHOLS", "CWP_STATE": "SC", "CWP_ZIP": "29581", "CWP_COUNTY": "Marion", "NPDES_ID": "SC0041327", "REGISTRY_ID": "110009793401", "CWP_FACILITY_TYPE_INDICATOR": "POTW", "CWP_MAJOR_MINOR_STATUS": "Minor", "CWP_PERMIT_STATUS_DESC": "Terminated", "STATE_WATER_BODY_NAME": "LUMBER RIVER", "CWP_CSO_FLAG": "N"}}, {"type": "Feature", "geometry": {"type": "Point", "coordinates": [-82.6252813637878, 34.4919507066216]}, "properties": {"CWP_NAME": "ANDERSON ROCKY RIVER", "CWP_STREET": "309 KIRKWOOD DR", "CWP_CITY": "ANDERSON", "CWP_STATE": "SC", "CWP_ZIP": "29624", "CWP_COUNTY": "Anderson", "NPDES_ID": "SC0023744", "REGISTRY_ID": "110000562043", "CWP_FACILITY_TYPE_INDICATOR": "POTW", "CWP_MAJOR_MINOR_STATUS": "Major", "CWP_PERMIT_STATUS_DESC": "Admin Continued", "STATE_WATER_BODY_NAME": null, "CWP_CSO_FLAG": "N"}}, {"type": "Feature", "geometry": {"type": "Point", "coordinates": [-82.3621450681305, 34.794911693977]}, "properties": {"CWP_NAME": "REWA SLUDGE PERMIT", "CWP_STREET": "561 MAULDIN ROAD", "CWP_CITY": "GREENVILLE", "CWP_STATE": "SC", "CWP_ZIP": "29607", "CWP_COUNTY": "Greenville", "NPDES_ID": "SC0048381", "REGISTRY_ID": "110021034566", "CWP_FACILITY_TYPE_INDICATOR": "POTW", "CWP_MAJOR_MINOR_STATUS": "Minor", "CWP_PERMIT_STATUS_DESC": "Admin Continued", "STATE_WATER_BODY_NAME": "DURBIN CREEK, GEORGES CREEK, GILDERS CREEK, GROVE CREEK, REEDY RIVER", "CWP_CSO_FLAG": "N"}}, {"type": "Feature", "geometry": {"type": "Point", "coordinates": [-80.4594469740509, 33.2097286053022]}, "properties": {"CWP_NAME": "HARLEYVILLE TOWN OF", "CWP_STREET": "RANGE ROAD", "CWP_CITY": "HARLEYVILLE", "CWP_STATE": "SC", "CWP_ZIP": "29448", "CWP_COUNTY": "Dorchester", "NPDES_ID": "SC0038504", "REGISTRY_ID": "110002175841", "CWP_FACILITY_TYPE_INDICATOR": "POTW", "CWP_MAJOR_MINOR_STATUS": "Minor", "CWP_PERMIT_STATUS_DESC": "Admin Continued", "STATE_WATER_BODY_NAME": null, "CWP_CSO_FLAG": "N"}}, {"type": "Feature", "geometry": {"type": "Point", "coordinates": [-80.3933360694118, 34.7716741782133]}, "properties": {"CWP_NAME": "PAGELAND SOUTHEAST WWTF", "CWP_STREET": "MANGUM ST E OF HWY 151", "CWP_CITY": "PAGELAND", "CWP_STATE": "SC", "CWP_ZIP": "29728", "CWP_COUNTY": "Chesterfield", "NPDES_ID": "SC0021539", "REGISTRY_ID": "110002238105", "CWP_FACILITY_TYPE_INDICATOR": "POTW", "CWP_MAJOR_MINOR_STATUS": "Minor", "CWP_PERMIT_STATUS_DESC": "Effective", "STATE_WATER_BODY_NAME": null, "CWP_CSO_FLAG": "N"}}, {"type": "Feature", "geometry": {"type": "Point", "coordinates": [-81.6100031318505, 34.4900064090272]}, "properties": {"CWP_NAME": "WHITMIRE TOWN OF", "CWP_STREET": "60 SUBERTOWN RD", "CWP_CITY": "NEWBERRY", "CWP_STATE": "SC", "CWP_ZIP": "29178", "CWP_COUNTY": "Newberry", "NPDES_ID": "SC0022390", "REGISTRY_ID": "110002237357", "CWP_FACILITY_TYPE_INDICATOR": "POTW", "CWP_MAJOR_MINOR_STATUS": "Minor", "CWP_PERMIT_STATUS_DESC": "Admin Continued", "STATE_WATER_BODY_NAME": null, "CWP_CSO_FLAG": "N"}}, {"type": "Feature", "geometry": {"type": "Point", "coordinates": [-81.1736231915719, 34.9434267115001]}, "properties": {"CWP_NAME": "YORK FISHING CREEK WWTF", "CWP_STREET": "2498 ECOLOGY ROAD", "CWP_CITY": "YORK", "CWP_STATE": "SC", "CWP_ZIP": "29745", "CWP_COUNTY": "York", "NPDES_ID": "SC0038156", "REGISTRY_ID": "110039825589", "CWP_FACILITY_TYPE_INDICATOR": "POTW", "CWP_MAJOR_MINOR_STATUS": "Major", "CWP_PERMIT_STATUS_DESC": "Effective", "STATE_WATER_BODY_NAME": "FISHING CREEK", "CWP_CSO_FLAG": "N"}}, {"type": "Feature", "geometry": {"type": "Point", "coordinates": [-80.5587726447765, 33.5857568166894]}, "properties": {"CWP_NAME": "HICKORY SPRINGS BOTTLING INC", "CWP_STREET": "347 OLD RIVER ROAD", "CWP_CITY": "ELLOREE", "CWP_STATE": "SC", "CWP_ZIP": "29047", "CWP_COUNTY": "Calhoun", "NPDES_ID": "SCG646078", "REGISTRY_ID": "110020014143", "CWP_FACILITY_TYPE_INDICATOR": "POTW", "CWP_MAJOR_MINOR_STATUS": "Minor", "CWP_PERMIT_STATUS_DESC": "Effective", "STATE_WATER_BODY_NAME": "LAKE MARION", "CWP_CSO_FLAG": "N"}}, {"type": "Feature", "geometry": {"type": "Point", "coordinates": [-79.9456029652686, 32.8294061428515]}, "properties": {"CWP_NAME": "NCSD FELIX C DAVIS WWTP", "CWP_STREET": "1000 HERBERT STREET", "CWP_CITY": "CHARLESTON", "CWP_STATE": "SC", "CWP_ZIP": "29405", "CWP_COUNTY": null, "NPDES_ID": "SC0024783", "REGISTRY_ID": "110000575422", "CWP_FACILITY_TYPE_INDICATOR": "POTW", "CWP_MAJOR_MINOR_STATUS": "Major", "CWP_PERMIT_STATUS_DESC": "Effective", "STATE_WATER_BODY_NAME": null, "CWP_CSO_FLAG": "N"}}, {"type": "Feature", "geometry": {"type": "Point", "coordinates": [-79.1863348557517, 33.7547125327835]}, "properties": {"CWP_NAME": "BUCKSPORT WTR SYS PAULEY SWAMP WELL ROS", "CWP_STREET": "4547 PEE DEE HWY", "CWP_CITY": "CONWAY", "CWP_STATE": "SC", "CWP_ZIP": "29527", "CWP_COUNTY": "Horry", "NPDES_ID": "SCG646075", "REGISTRY_ID": "110063023749", "CWP_FACILITY_TYPE_INDICATOR": "POTW", "CWP_MAJOR_MINOR_STATUS": "Minor", "CWP_PERMIT_STATUS_DESC": "Effective", "STATE_WATER_BODY_NAME": "LITTLE PEE DEE RIVER, SARAH BRANCH", "CWP_CSO_FLAG": "N"}}, {"type": "Feature", "geometry": {"type": "Point", "coordinates": [-81.2711141531769, 33.5055624292471]}, "properties": {"CWP_NAME": "SPRINGFIELD WWTP #2", "CWP_STREET": "MAGNOLIA LN", "CWP_CITY": "QUINBY", "CWP_STATE": "SC", "CWP_ZIP": "29506", "CWP_COUNTY": "Orangeburg", "NPDES_ID": "SC0023281", "REGISTRY_ID": "110017314789", "CWP_FACILITY_TYPE_INDICATOR": "POTW", "CWP_MAJOR_MINOR_STATUS": "Minor", "CWP_PERMIT_STATUS_DESC": "Terminated", "STATE_WATER_BODY_NAME": "GOODLAND CRK-S.FORK EDISTO RV", "CWP_CSO_FLAG": "N"}}, {"type": "Feature", "geometry": {"type": "Point", "coordinates": [-79.9237530646476, 33.5701041343069]}, "properties": {"CWP_NAME": "WILLIAMSBURG CO SANTEE RV WWTF", "CWP_STREET": "1 SOUTH WILLIAMSBURG COUNTY HIGHWAY", "CWP_CITY": "GREELEYVILLE", "CWP_STATE": "SC", "CWP_ZIP": "29056", "CWP_COUNTY": "Williamsburg", "NPDES_ID": "SC0048097", "REGISTRY_ID": "110009792974", "CWP_FACILITY_TYPE_INDICATOR": "POTW", "CWP_MAJOR_MINOR_STATUS": "Minor", "CWP_PERMIT_STATUS_DESC": "Admin Continued", "STATE_WATER_BODY_NAME": "SANTEE RIVER", "CWP_CSO_FLAG": "N"}}, {"type": "Feature", "geometry": {"type": "Point", "coordinates": [-82.3652819044322, 34.7963955755523]}, "properties": {"CWP_NAME": "REWA MAULDIN RD WWTP", "CWP_STREET": "660 MAULDIN ROAD", "CWP_CITY": "GREENVILLE", "CWP_STATE": "SC", "CWP_ZIP": "29607", "CWP_COUNTY": "Greenville", "NPDES_ID": "SC0041211", "REGISTRY_ID": "110017781925", "CWP_FACILITY_TYPE_INDICATOR": "POTW", "CWP_MAJOR_MINOR_STATUS": "Major", "CWP_PERMIT_STATUS_DESC": "Expired", "STATE_WATER_BODY_NAME": "REEDY RIVER", "CWP_CSO_FLAG": "N"}}, {"type": "Feature", "geometry": {"type": "Point", "coordinates": [-81.9408035195528, 33.7919066082453]}, "properties": {"CWP_NAME": "ECW&SA BROOKS STREET WWTP", "CWP_STREET": "577 BROOKS ST", "CWP_CITY": "EDGEFIELD", "CWP_STATE": "SC", "CWP_ZIP": "29824", "CWP_COUNTY": "Edgefield", "NPDES_ID": "SC0025330", "REGISTRY_ID": "110009794080", "CWP_FACILITY_TYPE_INDICATOR": "POTW", "CWP_MAJOR_MINOR_STATUS": "Minor", "CWP_PERMIT_STATUS_DESC": "Effective", "STATE_WATER_BODY_NAME": "BEAVERDAM CREEK", "CWP_CSO_FLAG": "N"}}, {"type": "Feature", "geometry": {"type": "Point", "coordinates": [-79.7299032546, 33.8649064694651]}, "properties": {"CWP_NAME": "LAKE CITY LAKE SWAMP WW PLANT", "CWP_STREET": "190 CEMETERY ROAD", "CWP_CITY": "LAKE CITY", "CWP_STATE": "SC", "CWP_ZIP": "29560", "CWP_COUNTY": null, "NPDES_ID": "SC0046311", "REGISTRY_ID": "110006623270", "CWP_FACILITY_TYPE_INDICATOR": "POTW", "CWP_MAJOR_MINOR_STATUS": "Major", "CWP_PERMIT_STATUS_DESC": "Effective", "STATE_WATER_BODY_NAME": "LYNCHES RIVER", "CWP_CSO_FLAG": "N"}}, {"type": "Feature", "geometry": {"type": "Point", "coordinates": [-81.2694477687307, 34.6819505656119]}, "properties": {"CWP_NAME": "CHESTER SANDY RIVER WWTF", "CWP_STREET": "1649 RADCLIFF ROAD", "CWP_CITY": "CHESTER", "CWP_STATE": "SC", "CWP_ZIP": "29706", "CWP_COUNTY": "Chester", "NPDES_ID": "SC0036081", "REGISTRY_ID": "110002040540", "CWP_FACILITY_TYPE_INDICATOR": "POTW", "CWP_MAJOR_MINOR_STATUS": "Major", "CWP_PERMIT_STATUS_DESC": "Admin Continued", "STATE_WATER_BODY_NAME": "SANDY RIVER", "CWP_CSO_FLAG": "N"}}, {"type": "Feature", "geometry": {"type": "Point", "coordinates": [-79.5513913855729, 34.1363956733225]}, "properties": {"CWP_NAME": "FLORENCE MAIN PLANT", "CWP_STREET": "1000 STOCKADE ROAD", "CWP_CITY": "FLORENCE", "CWP_STATE": "SC", "CWP_ZIP": "29501", "CWP_COUNTY": "Florence", "NPDES_ID": "SC0045462", "REGISTRY_ID": "110000544180", "CWP_FACILITY_TYPE_INDICATOR": "POTW", "CWP_MAJOR_MINOR_STATUS": "Major", "CWP_PERMIT_STATUS_DESC": "Effective", "STATE_WATER_BODY_NAME": "PEE DEE RIVER", "CWP_CSO_FLAG": "N"}}, {"type": "Feature", "geometry": {"type": "Point", "coordinates": [-79.133335980768, 33.4916733678638]}, "properties": {"CWP_NAME": "GCW&SD PAWLEYS AREA WWTP", "CWP_STREET": "456 CLEARWATER DR", "CWP_CITY": "PAWLEYS ISLAND", "CWP_STATE": "SC", "CWP_ZIP": "29585", "CWP_COUNTY": null, "NPDES_ID": "SC0039951", "REGISTRY_ID": "110000574030", "CWP_FACILITY_TYPE_INDICATOR": "POTW", "CWP_MAJOR_MINOR_STATUS": "Major", "CWP_PERMIT_STATUS_DESC": "Effective", "STATE_WATER_BODY_NAME": "WACCAMAW RIVER", "CWP_CSO_FLAG": "N"}}, {"type": "Feature", "geometry": {"type": "Point", "coordinates": [-80.9743458364889, 32.4858020580276]}, "properties": {"CWP_NAME": "RIDGELAND JIMMY MIXSON WRF", "CWP_STREET": "366 PREACHER RD", "CWP_CITY": "RIDGELAND", "CWP_STATE": "SC", "CWP_ZIP": "29936", "CWP_COUNTY": "Jasper", "NPDES_ID": "SC0049158", "REGISTRY_ID": "110045404077", "CWP_FACILITY_TYPE_INDICATOR": "POTW", "CWP_MAJOR_MINOR_STATUS": "Minor", "CWP_PERMIT_STATUS_DESC": "Admin Continued", "STATE_WATER_BODY_NAME": "CAPTAIN BILL CREEK", "CWP_CSO_FLAG": "N"}}, {"type": "Feature", "geometry": {"type": "Point", "coordinates": [-79.997202496977, 33.1503068023731]}, "properties": {"CWP_NAME": "BCW&SA CENTRAL BERKELEY WWTP", "CWP_STREET": "158 CENTRAL BERKELEY DRIVE", "CWP_CITY": "MONCKS CORNER", "CWP_STATE": "SC", "CWP_ZIP": "29461", "CWP_COUNTY": "Berkeley", "NPDES_ID": "SC0039764", "REGISTRY_ID": "110039836318", "CWP_FACILITY_TYPE_INDICATOR": "POTW", "CWP_MAJOR_MINOR_STATUS": "Minor", "CWP_PERMIT_STATUS_DESC": "Effective", "STATE_WATER_BODY_NAME": "WEST BRANCH COOPER RIVER", "CWP_CSO_FLAG": "N"}}, {"type": "Feature", "geometry": {"type": "Point", "coordinates": [-81.4645889980831, 34.2757428904432]}, "properties": {"CWP_NAME": "NCW&SA CANNONS CREEK WWTP", "CWP_STREET": "1490 BOINEST RD", "CWP_CITY": "PROSPERITY", "CWP_STATE": "SC", "CWP_ZIP": "29127", "CWP_COUNTY": "Newberry", "NPDES_ID": "SC0048313", "REGISTRY_ID": "110013675406", "CWP_FACILITY_TYPE_INDICATOR": "POTW", "CWP_MAJOR_MINOR_STATUS": "Minor", "CWP_PERMIT_STATUS_DESC": "Effective", "STATE_WATER_BODY_NAME": "CANNONS CREEK", "CWP_CSO_FLAG": "N"}}, {"type": "Feature", "geometry": {"type": "Point", "coordinates": [-80.7750020378044, 32.1438950336311]}, "properties": {"CWP_NAME": "SOUTH ISLAND PSD WWTP", "CWP_STREET": "PO BOX 5148", "CWP_CITY": "HILTON HEAD ISLAND", "CWP_STATE": "SC", "CWP_ZIP": "29938", "CWP_COUNTY": "Beaufort", "NPDES_ID": "SC0042501", "REGISTRY_ID": "110064620076", "CWP_FACILITY_TYPE_INDICATOR": "POTW", "CWP_MAJOR_MINOR_STATUS": "Major", "CWP_PERMIT_STATUS_DESC": "Admin Continued", "STATE_WATER_BODY_NAME": "WHITE IBIS WETLAND", "CWP_CSO_FLAG": "N"}}, {"type": "Feature", "geometry": {"type": "Point", "coordinates": [-80.1292032744688, 34.1303063427439]}, "properties": {"CWP_NAME": "LAMAR WWTF", "CWP_STREET": "316 ZION RD.", "CWP_CITY": "LAMAR", "CWP_STATE": "SC", "CWP_ZIP": "29069", "CWP_COUNTY": "Darlington", "NPDES_ID": "SC0043702", "REGISTRY_ID": "110020998170", "CWP_FACILITY_TYPE_INDICATOR": "POTW", "CWP_MAJOR_MINOR_STATUS": "Minor", "CWP_PERMIT_STATUS_DESC": "Admin Continued", "STATE_WATER_BODY_NAME": "LYNCHES RIVER", "CWP_CSO_FLAG": "N"}}, {"type": "Feature", "geometry": {"type": "Point", "coordinates": [-80.6611137756981, 34.5916739229205]}, "properties": {"CWP_NAME": "HEATH SPRINGS WWTF", "CWP_STREET": "OFF HART STREET", "CWP_CITY": "HEATH SPRINGS", "CWP_STATE": "SC", "CWP_ZIP": "29058", "CWP_COUNTY": "Lancaster", "NPDES_ID": "SC0040118", "REGISTRY_ID": "110009793535", "CWP_FACILITY_TYPE_INDICATOR": "POTW", "CWP_MAJOR_MINOR_STATUS": "Minor", "CWP_PERMIT_STATUS_DESC": "Effective", "STATE_WATER_BODY_NAME": null, "CWP_CSO_FLAG": "N"}}, {"type": "Feature", "geometry": {"type": "Point", "coordinates": [-80.5800029948258, 34.5516738711522]}, "properties": {"CWP_NAME": "KERSHAW HANGING ROCK CREEK", "CWP_STREET": "695 COUNTRY CLUB RD", "CWP_CITY": "KERSHAW", "CWP_STATE": "SC", "CWP_ZIP": "29067", "CWP_COUNTY": "Lancaster", "NPDES_ID": "SC0025798", "REGISTRY_ID": "110009704622", "CWP_FACILITY_TYPE_INDICATOR": "POTW", "CWP_MAJOR_MINOR_STATUS": "Minor", "CWP_PERMIT_STATUS_DESC": "Effective", "STATE_WATER_BODY_NAME": null, "CWP_CSO_FLAG": "N"}}, {"type": "Feature", "geometry": {"type": "Point", "coordinates": [-82.4656939320428, 34.6800367640792]}, "properties": {"CWP_NAME": "REWA PIEDMONT REGIONAL WWTP", "CWP_STREET": "340 OSTEEN HILL ROAD", "CWP_CITY": "PIEDMONT", "CWP_STATE": "SC", "CWP_ZIP": "29673", "CWP_COUNTY": "Greenville", "NPDES_ID": "SC0048470", "REGISTRY_ID": "110043834312", "CWP_FACILITY_TYPE_INDICATOR": "POTW", "CWP_MAJOR_MINOR_STATUS": "Major", "CWP_PERMIT_STATUS_DESC": "Effective", "STATE_WATER_BODY_NAME": "SALUDA RIVER", "CWP_CSO_FLAG": "N"}}, {"type": "Feature", "geometry": {"type": "Point", "coordinates": [-82.1866702191021, 35.1750066467463]}, "properties": {"CWP_NAME": "SSSD PAGE CREEK WWTP", "CWP_STREET": "301 FAIRWINDS DR", "CWP_CITY": "LANDRUM", "CWP_STATE": "SC", "CWP_ZIP": "29356", "CWP_COUNTY": "Spartanburg", "NPDES_ID": "SC0026875", "REGISTRY_ID": "110009793982", "CWP_FACILITY_TYPE_INDICATOR": "POTW", "CWP_MAJOR_MINOR_STATUS": "Major", "CWP_PERMIT_STATUS_DESC": "Effective", "STATE_WATER_BODY_NAME": "NORTH PACOLET RIVER", "CWP_CSO_FLAG": "N"}}, {"type": "Feature", "geometry": {"type": "Point", "coordinates": [-80.6741700534534, 32.8827844918909]}, "properties": {"CWP_NAME": "WALTERBORO CITY OF WWTP", "CWP_STREET": "END OF SR 393 & W OF SC 303", "CWP_CITY": "WALTERBORO", "CWP_STATE": "SC", "CWP_ZIP": "29488", "CWP_COUNTY": "Colleton", "NPDES_ID": "SC0040436", "REGISTRY_ID": "110039825561", "CWP_FACILITY_TYPE_INDICATOR": "POTW", "CWP_MAJOR_MINOR_STATUS": "Major", "CWP_PERMIT_STATUS_DESC": "Effective", "STATE_WATER_BODY_NAME": null, "CWP_CSO_FLAG": "N"}}, {"type": "Feature", "geometry": {"type": "Point", "coordinates": [-82.184973184343, 34.9305870506224]}, "properties": {"CWP_NAME": "GREER MAPLE CREEK PLANT", "CWP_STREET": "650 GILLIAM RD", "CWP_CITY": "GREER", "CWP_STATE": "SC", "CWP_ZIP": "29651", "CWP_COUNTY": "Spartanburg", "NPDES_ID": "SC0046345", "REGISTRY_ID": "110000562016", "CWP_FACILITY_TYPE_INDICATOR": "POTW", "CWP_MAJOR_MINOR_STATUS": "Major", "CWP_PERMIT_STATUS_DESC": "Effective", "STATE_WATER_BODY_NAME": "SOUTH TYGER RIVER", "CWP_CSO_FLAG": "N"}}, {"type": "Feature", "geometry": {"type": "Point", "coordinates": [-79.7883357727581, 32.7933397284277]}, "properties": {"CWP_NAME": "ISLE OF PALMS W&S R O", "CWP_STREET": "1300 PALM BLVD", "CWP_CITY": "ISLE OF PALMS", "CWP_STATE": "SC", "CWP_ZIP": "29451", "CWP_COUNTY": null, "NPDES_ID": "SC0043583", "REGISTRY_ID": "110002178875", "CWP_FACILITY_TYPE_INDICATOR": "POTW", "CWP_MAJOR_MINOR_STATUS": "Minor", "CWP_PERMIT_STATUS_DESC": "Admin Continued", "STATE_WATER_BODY_NAME": null, "CWP_CSO_FLAG": "N"}}, {"type": "Feature", "geometry": {"type": "Point", "coordinates": [-80.3300785770155, 33.5681804704368]}, "properties": {"CWP_NAME": "SUMMERTON, TOWN OF", "CWP_STREET": "TOWN OF SUMMERTON-P.O.BOX 217", "CWP_CITY": "UNKNOWN", "CWP_STATE": "SC", "CWP_ZIP": "00000", "CWP_COUNTY": "Clarendon", "NPDES_ID": "SCU063401", "REGISTRY_ID": "110009794455", "CWP_FACILITY_TYPE_INDICATOR": "POTW", "CWP_MAJOR_MINOR_STATUS": "Minor", "CWP_PERMIT_STATUS_DESC": "Terminated", "STATE_WATER_BODY_NAME": null, "CWP_CSO_FLAG": "N"}}, {"type": "Feature", "geometry": {"type": "Point", "coordinates": [-81.2711141531769, 33.5055624292471]}, "properties": {"CWP_NAME": "SPRINGFIELD WWTP #2", "CWP_STREET": "SC BUSINESS 3", "CWP_CITY": "SPRINGFIELD", "CWP_STATE": "SC", "CWP_ZIP": "29146", "CWP_COUNTY": "Orangeburg", "NPDES_ID": "SCG570040", "REGISTRY_ID": "110017314789", "CWP_FACILITY_TYPE_INDICATOR": "POTW", "CWP_MAJOR_MINOR_STATUS": "Minor", "CWP_PERMIT_STATUS_DESC": "Admin Continued", "STATE_WATER_BODY_NAME": null, "CWP_CSO_FLAG": "N"}}, {"type": "Feature", "geometry": {"type": "Point", "coordinates": [-81.0172255932974, 33.9375069116356]}, "properties": {"CWP_NAME": "COLUMBIA METRO PLANT", "CWP_STREET": "1035 GARDEN VALLEY LANE", "CWP_CITY": "COLUMBIA", "CWP_STATE": "SC", "CWP_ZIP": "29210", "CWP_COUNTY": null, "NPDES_ID": "SC0020940", "REGISTRY_ID": "110000535109", "CWP_FACILITY_TYPE_INDICATOR": "POTW", "CWP_MAJOR_MINOR_STATUS": "Major", "CWP_PERMIT_STATUS_DESC": "Effective", "STATE_WATER_BODY_NAME": "CONGAREE RIVER", "CWP_CSO_FLAG": "N"}}, {"type": "Feature", "geometry": {"type": "Point", "coordinates": [-80.7086977200636, 32.5557666396143]}, "properties": {"CWP_NAME": "BCSD JAMES J DAVIS ELEM SCHOOL", "CWP_STREET": "15 STUART POINT RD", "CWP_CITY": "SHELDON", "CWP_STATE": "SC", "CWP_ZIP": "29941", "CWP_COUNTY": "Beaufort", "NPDES_ID": "SCG570043", "REGISTRY_ID": "110006188945", "CWP_FACILITY_TYPE_INDICATOR": "POTW", "CWP_MAJOR_MINOR_STATUS": "Minor", "CWP_PERMIT_STATUS_DESC": "Admin Continued", "STATE_WATER_BODY_NAME": null, "CWP_CSO_FLAG": "N"}}, {"type": "Feature", "geometry": {"type": "Point", "coordinates": [-81.009170406546, 34.7775071602527]}, "properties": {"CWP_NAME": "CHESTER LANDO-MANETTA PLANT", "CWP_STREET": "3892 EDGELAND ROAD", "CWP_CITY": "LANDO", "CWP_STATE": "SC", "CWP_ZIP": "29712", "CWP_COUNTY": "Chester", "NPDES_ID": "SC0001741", "REGISTRY_ID": "110006662931", "CWP_FACILITY_TYPE_INDICATOR": "POTW", "CWP_MAJOR_MINOR_STATUS": "Major", "CWP_PERMIT_STATUS_DESC": "Effective", "STATE_WATER_BODY_NAME": null, "CWP_CSO_FLAG": "N"}}, {"type": "Feature", "geometry": {"type": "Point", "coordinates": [-81.1160988092366, 32.2955738140538]}, "properties": {"CWP_NAME": "BJW&SA HARDEEVILLE CHURCH ROAD", "CWP_STREET": "2529 CHURCH RD", "CWP_CITY": "HARDEEVILLE", "CWP_STATE": "SC", "CWP_ZIP": "29927", "CWP_COUNTY": "Jasper", "NPDES_ID": "SC0034584", "REGISTRY_ID": "110039822207", "CWP_FACILITY_TYPE_INDICATOR": "POTW", "CWP_MAJOR_MINOR_STATUS": "Major", "CWP_PERMIT_STATUS_DESC": "Admin Continued", "STATE_WATER_BODY_NAME": null, "CWP_CSO_FLAG": "N"}}, {"type": "Feature", "geometry": {"type": "Point", "coordinates": [-81.130003284667, 33.4389064679418]}, "properties": {"CWP_NAME": "NORWAY TOWN OF", "CWP_STREET": "710 WINCHESTER AVE", "CWP_CITY": "NORWAY", "CWP_STATE": "SC", "CWP_ZIP": "29113", "CWP_COUNTY": "Orangeburg", "NPDES_ID": "SC0045993", "REGISTRY_ID": "110039836149", "CWP_FACILITY_TYPE_INDICATOR": "POTW", "CWP_MAJOR_MINOR_STATUS": "Minor", "CWP_PERMIT_STATUS_DESC": "Admin Continued", "STATE_WATER_BODY_NAME": null, "CWP_CSO_FLAG": "N"}}, {"type": "Feature", "geometry": {"type": "Point", "coordinates": [-81.6166707375275, 35.0500071723377]}, "properties": {"CWP_NAME": "GAFFNEY CLARY WWTF", "CWP_STREET": "379 MORGAN DR", "CWP_CITY": "GAFFNEY", "CWP_STATE": "SC", "CWP_ZIP": "29340", "CWP_COUNTY": "Cherokee", "NPDES_ID": "SC0031551", "REGISTRY_ID": "110039825712", "CWP_FACILITY_TYPE_INDICATOR": "POTW", "CWP_MAJOR_MINOR_STATUS": "Major", "CWP_PERMIT_STATUS_DESC": "Admin Continued", "STATE_WATER_BODY_NAME": null, "CWP_CSO_FLAG": "N"}}, {"type": "Feature", "geometry": {"type": "Point", "coordinates": [-82.8333368927381, 34.6850064050504]}, "properties": {"CWP_NAME": "CLEMSON COCHRAN ROAD WWTP", "CWP_STREET": "300 COCHRAN RD", "CWP_CITY": "CLEMSON", "CWP_STATE": "SC", "CWP_ZIP": "29631", "CWP_COUNTY": "Pickens", "NPDES_ID": "SC0020010", "REGISTRY_ID": "110017087105", "CWP_FACILITY_TYPE_INDICATOR": "POTW", "CWP_MAJOR_MINOR_STATUS": "Major", "CWP_PERMIT_STATUS_DESC": "Admin Continued", "STATE_WATER_BODY_NAME": null, "CWP_CSO_FLAG": "N"}}, {"type": "Feature", "geometry": {"type": "Point", "coordinates": [-79.1772822597888, 33.3785269365161]}, "properties": {"CWP_NAME": "GCW&SD DEBORDIEU COLONY WWTP ALTERNATIVE DISCHARGE", "CWP_STREET": "FIREHOUSE LN", "CWP_CITY": "GEORGETOWN", "CWP_STATE": "SC", "CWP_ZIP": "29440", "CWP_COUNTY": "Georgetown", "NPDES_ID": "SC0048984", "REGISTRY_ID": "110039409182", "CWP_FACILITY_TYPE_INDICATOR": "POTW", "CWP_MAJOR_MINOR_STATUS": "Minor", "CWP_PERMIT_STATUS_DESC": "Effective", "STATE_WATER_BODY_NAME": "WACCAMAW RIVER", "CWP_CSO_FLAG": "N"}}, {"type": "Feature", "geometry": {"type": "Point", "coordinates": [-82.509389322957, 35.00335569726]}, "properties": {"CWP_NAME": "REWA MARIETTA WWTP", "CWP_STREET": "319 DACUSVILLE ROAD", "CWP_CITY": "MARIETTA", "CWP_STATE": "SC", "CWP_ZIP": "29661", "CWP_COUNTY": "Greenville", "NPDES_ID": "SC0026883", "REGISTRY_ID": "110014043301", "CWP_FACILITY_TYPE_INDICATOR": "POTW", "CWP_MAJOR_MINOR_STATUS": "Minor", "CWP_PERMIT_STATUS_DESC": "Effective", "STATE_WATER_BODY_NAME": "NORTH SALUDA RIVER", "CWP_CSO_FLAG": "N"}}, {"type": "Feature", "geometry": {"type": "Point", "coordinates": [-80.8427812869588, 32.6919501040219]}, "properties": {"CWP_NAME": "LRWS YEMASSEE WWTP", "CWP_STREET": "119 RAILROAD AVE N", "CWP_CITY": "YEMASSEE", "CWP_STATE": "SC", "CWP_ZIP": "29945", "CWP_COUNTY": "Hampton", "NPDES_ID": "SC0025950", "REGISTRY_ID": "110009794133", "CWP_FACILITY_TYPE_INDICATOR": "POTW", "CWP_MAJOR_MINOR_STATUS": "Minor", "CWP_PERMIT_STATUS_DESC": "Admin Continued", "STATE_WATER_BODY_NAME": null, "CWP_CSO_FLAG": "N"}}, {"type": "Feature", "geometry": {"type": "Point", "coordinates": [-82.7789674679774, 34.772430421096]}, "properties": {"CWP_NAME": "PICKENS CO PSC CATEECHEE WWTF", "CWP_STREET": "165 SCOUT HUT RD", "CWP_CITY": "NORRIS", "CWP_STATE": "SC", "CWP_ZIP": "29667", "CWP_COUNTY": "Pickens", "NPDES_ID": "SC0022012", "REGISTRY_ID": "110002188560", "CWP_FACILITY_TYPE_INDICATOR": "POTW", "CWP_MAJOR_MINOR_STATUS": "Minor", "CWP_PERMIT_STATUS_DESC": "Admin Continued", "STATE_WATER_BODY_NAME": null, "CWP_CSO_FLAG": "N"}}, {"type": "Feature", "geometry": {"type": "Point", "coordinates": [-81.1041702232186, 32.8472279740305]}, "properties": {"CWP_NAME": "LRWS TOWN OF HAMPTON", "CWP_STREET": "501 SALUDA ST.", "CWP_CITY": "HAMPTON", "CWP_STATE": "SC", "CWP_ZIP": "29924", "CWP_COUNTY": "Hampton", "NPDES_ID": "SC0021318", "REGISTRY_ID": "110000545161", "CWP_FACILITY_TYPE_INDICATOR": "POTW", "CWP_MAJOR_MINOR_STATUS": "Major", "CWP_PERMIT_STATUS_DESC": "Effective", "STATE_WATER_BODY_NAME": null, "CWP_CSO_FLAG": "N"}}, {"type": "Feature", "geometry": {"type": "Point", "coordinates": [-80.1286141602047, 32.9077847688632]}, "properties": {"CWP_NAME": "DORCHESTER CO LOWER DORCHESTER WWTP", "CWP_STREET": "2900 LANDING PARKWAY", "CWP_CITY": "NORTH CHARLESTON", "CWP_STATE": "SC", "CWP_ZIP": "29420", "CWP_COUNTY": "Dorchester", "NPDES_ID": "SC0038822", "REGISTRY_ID": "110009793633", "CWP_FACILITY_TYPE_INDICATOR": "POTW", "CWP_MAJOR_MINOR_STATUS": "Major", "CWP_PERMIT_STATUS_DESC": "Admin Continued", "STATE_WATER_BODY_NAME": null, "CWP_CSO_FLAG": "N"}}, {"type": "Feature", "geometry": {"type": "Point", "coordinates": [-80.8961030973664, 34.5614063252407]}, "properties": {"CWP_NAME": "GREAT FALLS W C CHILDERS WWTP", "CWP_STREET": "5803 BROOKLYN ROAD", "CWP_CITY": "GREAT FALLS", "CWP_STATE": "SC", "CWP_ZIP": "29055", "CWP_COUNTY": "Chester", "NPDES_ID": "SC0021211", "REGISTRY_ID": "110006623163", "CWP_FACILITY_TYPE_INDICATOR": "POTW", "CWP_MAJOR_MINOR_STATUS": "Major", "CWP_PERMIT_STATUS_DESC": "Admin Continued", "STATE_WATER_BODY_NAME": null, "CWP_CSO_FLAG": "N"}}, {"type": "Feature", "geometry": {"type": "Point", "coordinates": [-82.0686143722181, 35.0241741242667]}, "properties": {"CWP_NAME": "INMAN CITY OF", "CWP_STREET": "1350 COMPTON RD", "CWP_CITY": "INMAN", "CWP_STATE": "SC", "CWP_ZIP": "29349", "CWP_COUNTY": "Spartanburg", "NPDES_ID": "SC0021601", "REGISTRY_ID": "110002044467", "CWP_FACILITY_TYPE_INDICATOR": "POTW", "CWP_MAJOR_MINOR_STATUS": "Major", "CWP_PERMIT_STATUS_DESC": "Admin Continued", "STATE_WATER_BODY_NAME": null, "CWP_CSO_FLAG": "N"}}, {"type": "Feature", "geometry": {"type": "Point", "coordinates": [-81.6557147969642, 34.7032590927353]}, "properties": {"CWP_NAME": "UNION TOSCH'S CREEK WWTP", "CWP_STREET": "1700 CROSS KEYS HWY", "CWP_CITY": "UNION", "CWP_STATE": "SC", "CWP_ZIP": "29379", "CWP_COUNTY": null, "NPDES_ID": "SC0047244", "REGISTRY_ID": "110064630378", "CWP_FACILITY_TYPE_INDICATOR": "POTW", "CWP_MAJOR_MINOR_STATUS": "Major", "CWP_PERMIT_STATUS_DESC": "Effective", "STATE_WATER_BODY_NAME": "FAIRFOREST CREEK", "CWP_CSO_FLAG": "N"}}, {"type": "Feature", "geometry": {"type": "Point", "coordinates": [-80.0133363412715, 33.1933393713825]}, "properties": {"CWP_NAME": "MONCKS CORNER WWTF", "CWP_STREET": "418 WHITWORTH ST", "CWP_CITY": "MONCKS CORNER", "CWP_STATE": "SC", "CWP_ZIP": "29461", "CWP_COUNTY": "Berkeley", "NPDES_ID": "SC0021598", "REGISTRY_ID": "110002151938", "CWP_FACILITY_TYPE_INDICATOR": "POTW", "CWP_MAJOR_MINOR_STATUS": "Major", "CWP_PERMIT_STATUS_DESC": "Effective", "STATE_WATER_BODY_NAME": null, "CWP_CSO_FLAG": "N"}}, {"type": "Feature", "geometry": {"type": "Point", "coordinates": [-82.4780533263358, 34.8222268039722]}, "properties": {"CWP_NAME": "REWA GEORGES CREEK WWTP", "CWP_STREET": "3635 OLD EASLEY BRIDGE ROAD", "CWP_CITY": "GREENVILLE", "CWP_STATE": "SC", "CWP_ZIP": "29611", "CWP_COUNTY": "Greenville", "NPDES_ID": "SC0047309", "REGISTRY_ID": "110038991810", "CWP_FACILITY_TYPE_INDICATOR": "POTW", "CWP_MAJOR_MINOR_STATUS": "Major", "CWP_PERMIT_STATUS_DESC": "Effective", "STATE_WATER_BODY_NAME": "SALUDA RIVER", "CWP_CSO_FLAG": "N"}}, {"type": "Feature", "geometry": {"type": "Point", "coordinates": [-80.7021362491189, 32.2107803296624]}, "properties": {"CWP_NAME": "HILTON HEAD NO 1 PSD WWTP", "CWP_STREET": "21 OAK PARK DRIVE", "CWP_CITY": "HILTON HEAD, SC 29925", "CWP_STATE": "SC", "CWP_ZIP": "29925", "CWP_COUNTY": null, "NPDES_ID": "SC0046191", "REGISTRY_ID": "110000559654", "CWP_FACILITY_TYPE_INDICATOR": "POTW", "CWP_MAJOR_MINOR_STATUS": "Major", "CWP_PERMIT_STATUS_DESC": "Effective", "STATE_WATER_BODY_NAME": null, "CWP_CSO_FLAG": "N"}}, {"type": "Feature", "geometry": {"type": "Point", "coordinates": [-79.8319466498722, 33.661117347286]}, "properties": {"CWP_NAME": "KINGSTREE TOWN OF", "CWP_STREET": "100 NELSON BOULEVARD", "CWP_CITY": "KINGSTREE", "CWP_STATE": "SC", "CWP_ZIP": "29556", "CWP_COUNTY": "Williamsburg", "NPDES_ID": "SC0035971", "REGISTRY_ID": "110000710605", "CWP_FACILITY_TYPE_INDICATOR": "POTW", "CWP_MAJOR_MINOR_STATUS": "Major", "CWP_PERMIT_STATUS_DESC": "Admin Continued", "STATE_WATER_BODY_NAME": "BLACK RIVER", "CWP_CSO_FLAG": "N"}}, {"type": "Feature", "geometry": {"type": "Point", "coordinates": [-79.0438057533525, 33.6429573591783]}, "properties": {"CWP_NAME": "GSW&SA SCHWARTZ MYRTLE BEACH & BUCKSPORT REG WWTPS", "CWP_STREET": "6298 SCHWARTZ PLANT ROAD", "CWP_CITY": "MYRTLE BEACH", "CWP_STATE": "SC", "CWP_ZIP": "29588", "CWP_COUNTY": "Horry", "NPDES_ID": "SC0037753", "REGISTRY_ID": "110039825543", "CWP_FACILITY_TYPE_INDICATOR": "POTW", "CWP_MAJOR_MINOR_STATUS": "Major", "CWP_PERMIT_STATUS_DESC": "Admin Continued", "STATE_WATER_BODY_NAME": "WACCAMAW RIVER", "CWP_CSO_FLAG": "N"}}, {"type": "Feature", "geometry": {"type": "Point", "coordinates": [-81.6450038437499, 34.2381062482225]}, "properties": {"CWP_NAME": "NEWBERRY BUSH RIVER WWTF", "CWP_STREET": "5982 SC HWY 34 & 121", "CWP_CITY": "NEWBERRY", "CWP_STATE": "SC", "CWP_ZIP": "29108", "CWP_COUNTY": "Newberry", "NPDES_ID": "SC0024490", "REGISTRY_ID": "110009794204", "CWP_FACILITY_TYPE_INDICATOR": "POTW", "CWP_MAJOR_MINOR_STATUS": "Major", "CWP_PERMIT_STATUS_DESC": "Effective", "STATE_WATER_BODY_NAME": null, "CWP_CSO_FLAG": "N"}}, {"type": "Feature", "geometry": {"type": "Point", "coordinates": [-79.4416695522791, 33.8416733882122]}, "properties": {"CWP_NAME": "JOHNSONVILLE WWTP EAST", "CWP_STREET": "PO BOX 428", "CWP_CITY": "JOHNSONVILLE", "CWP_STATE": "SC", "CWP_ZIP": "29555", "CWP_COUNTY": "Florence", "NPDES_ID": "SC0025933", "REGISTRY_ID": "110009704631", "CWP_FACILITY_TYPE_INDICATOR": "POTW", "CWP_MAJOR_MINOR_STATUS": "Major", "CWP_PERMIT_STATUS_DESC": "Effective", "STATE_WATER_BODY_NAME": null, "CWP_CSO_FLAG": "N"}}, {"type": "Feature", "geometry": {"type": "Point", "coordinates": [-81.9044475747848, 34.9144505221397]}, "properties": {"CWP_NAME": "SSSD A MANNING LYNCH & LAWSON FORK WWTF", "CWP_STREET": "1450 SOUTHPORT RD", "CWP_CITY": "SPARTANBURG", "CWP_STATE": "SC", "CWP_ZIP": "29306", "CWP_COUNTY": "Spartanburg", "NPDES_ID": "SC0020435", "REGISTRY_ID": "110009794348", "CWP_FACILITY_TYPE_INDICATOR": "POTW", "CWP_MAJOR_MINOR_STATUS": "Major", "CWP_PERMIT_STATUS_DESC": "Effective", "STATE_WATER_BODY_NAME": "FAIRFOREST CREEK, PACOLET RIVER", "CWP_CSO_FLAG": "N"}}, {"type": "Feature", "geometry": {"type": "Point", "coordinates": [-82.4597035466583, 34.6897062770041]}, "properties": {"CWP_NAME": "REWA/PIEDMONT WWTP", "CWP_STREET": "100 INGRAM LN", "CWP_CITY": "PIEDMONT", "CWP_STATE": "SC", "CWP_ZIP": "29673", "CWP_COUNTY": "Anderson", "NPDES_ID": "SC0023906", "REGISTRY_ID": "110039693917", "CWP_FACILITY_TYPE_INDICATOR": "POTW", "CWP_MAJOR_MINOR_STATUS": "Major", "CWP_PERMIT_STATUS_DESC": "Terminated", "STATE_WATER_BODY_NAME": "SALUDA RV", "CWP_CSO_FLAG": "N"}}, {"type": "Feature", "geometry": {"type": "Point", "coordinates": [-81.1034831776121, 33.6154668078151]}, "properties": {"CWP_NAME": "NORTH WASTEWATER TREATMENT PLANT", "CWP_STREET": "187 ARABIA RD", "CWP_CITY": "NORTH", "CWP_STATE": "SC", "CWP_ZIP": "29112", "CWP_COUNTY": "Orangeburg", "NPDES_ID": "SC0047821", "REGISTRY_ID": "110020014642", "CWP_FACILITY_TYPE_INDICATOR": "POTW", "CWP_MAJOR_MINOR_STATUS": "Minor", "CWP_PERMIT_STATUS_DESC": "Admin Continued", "STATE_WATER_BODY_NAME": "NORTH FORK EDISTO RIVER", "CWP_CSO_FLAG": "N"}}, {"type": "Feature", "geometry": {"type": "Point", "coordinates": [-82.8014037534518, 34.6356066357386]}, "properties": {"CWP_NAME": "PENDLETON-CLEMSON REG WWTF", "CWP_STREET": "865 WOODBURN ROAD", "CWP_CITY": "PENDLETON", "CWP_STATE": "SC", "CWP_ZIP": "29670", "CWP_COUNTY": "Anderson", "NPDES_ID": "SC0035700", "REGISTRY_ID": "110002234779", "CWP_FACILITY_TYPE_INDICATOR": "POTW", "CWP_MAJOR_MINOR_STATUS": "Major", "CWP_PERMIT_STATUS_DESC": "Effective", "STATE_WATER_BODY_NAME": null, "CWP_CSO_FLAG": "N"}}, {"type": "Feature", "geometry": {"type": "Point", "coordinates": [-80.8572254086339, 34.8450066957419]}, "properties": {"CWP_NAME": "LANCASTER CATAWBA RIVER", "CWP_STREET": "1150 LOCKWOOD LANE", "CWP_CITY": "LANCASTER", "CWP_STATE": "SC", "CWP_ZIP": "29720", "CWP_COUNTY": "Lancaster", "NPDES_ID": "SC0046892", "REGISTRY_ID": "110006623305", "CWP_FACILITY_TYPE_INDICATOR": "POTW", "CWP_MAJOR_MINOR_STATUS": "Major", "CWP_PERMIT_STATUS_DESC": "Effective", "STATE_WATER_BODY_NAME": "CATAWBA RIVER", "CWP_CSO_FLAG": "N"}}, {"type": "Feature", "geometry": {"type": "Point", "coordinates": [-80.3933360694118, 34.7716741782133]}, "properties": {"CWP_NAME": "PAGELAND NORTHWEST WWTF", "CWP_STREET": "PAGELAND NW PLANT", "CWP_CITY": "PAGELAND", "CWP_STATE": "SC", "CWP_ZIP": "29728", "CWP_COUNTY": "Chesterfield", "NPDES_ID": "SC0021504", "REGISTRY_ID": "110002238105", "CWP_FACILITY_TYPE_INDICATOR": "POTW", "CWP_MAJOR_MINOR_STATUS": "Minor", "CWP_PERMIT_STATUS_DESC": "Admin Continued", "STATE_WATER_BODY_NAME": null, "CWP_CSO_FLAG": "N"}}, {"type": "Feature", "geometry": {"type": "Point", "coordinates": [-80.7021362491189, 32.2107803296624]}, "properties": {"CWP_NAME": "HILTON HEAD PSD REVERSE OSMOSIS WTP", "CWP_STREET": "10 JENKINS RD", "CWP_CITY": "BEAUFORT", "CWP_STATE": "SC", "CWP_ZIP": "29926", "CWP_COUNTY": null, "NPDES_ID": "SC0048526", "REGISTRY_ID": "110000559654", "CWP_FACILITY_TYPE_INDICATOR": "POTW", "CWP_MAJOR_MINOR_STATUS": "Minor", "CWP_PERMIT_STATUS_DESC": "Admin Continued", "STATE_WATER_BODY_NAME": "SKULL CREEK", "CWP_CSO_FLAG": "N"}}, {"type": "Feature", "geometry": {"type": "Point", "coordinates": [-82.1672259457225, 34.7083393452888]}, "properties": {"CWP_NAME": "REWA DURBIN CREEK WWTP", "CWP_STREET": "945 INVERARY DRIVE", "CWP_CITY": "FOUNTAIN INN", "CWP_STATE": "SC", "CWP_ZIP": "29644", "CWP_COUNTY": "Greenville", "NPDES_ID": "SC0040002", "REGISTRY_ID": "110000559137", "CWP_FACILITY_TYPE_INDICATOR": "POTW", "CWP_MAJOR_MINOR_STATUS": "Major", "CWP_PERMIT_STATUS_DESC": "Effective", "STATE_WATER_BODY_NAME": null, "CWP_CSO_FLAG": "N"}}, {"type": "Feature", "geometry": {"type": "Point", "coordinates": [-80.6283361571002, 34.2352851102275]}, "properties": {"CWP_NAME": "CAMDEN WWTF", "CWP_STREET": "175 BRAMBLEWOOD PLANTATION ROAD", "CWP_CITY": "CAMDEN", "CWP_STATE": "SC", "CWP_ZIP": "29020", "CWP_COUNTY": "Kershaw", "NPDES_ID": "SC0021032", "REGISTRY_ID": "110000755843", "CWP_FACILITY_TYPE_INDICATOR": "POTW", "CWP_MAJOR_MINOR_STATUS": "Major", "CWP_PERMIT_STATUS_DESC": "Effective", "STATE_WATER_BODY_NAME": null, "CWP_CSO_FLAG": "N"}}, {"type": "Feature", "geometry": {"type": "Point", "coordinates": [-80.3155590318928, 33.8497285881575]}, "properties": {"CWP_NAME": "SUMTER POCOTALIGO RIVER PLANT", "CWP_STREET": "600 JUSTIN LANE", "CWP_CITY": "SUTMER", "CWP_STATE": "SC", "CWP_ZIP": "29153", "CWP_COUNTY": "Sumter", "NPDES_ID": "SC0027707", "REGISTRY_ID": "110017123496", "CWP_FACILITY_TYPE_INDICATOR": "POTW", "CWP_MAJOR_MINOR_STATUS": "Major", "CWP_PERMIT_STATUS_DESC": "Effective", "STATE_WATER_BODY_NAME": "POCOTALIGO RIVER, WATEREE RIVER", "CWP_CSO_FLAG": "N"}}, {"type": "Feature", "geometry": {"type": "Point", "coordinates": [-81.533103013105, 35.101907061766]}, "properties": {"CWP_NAME": "BLACKSBURG CANOE CREEK (NEW)", "CWP_STREET": "167 RAILROAD AVENUE", "CWP_CITY": "BLACKSBURG", "CWP_STATE": "SC", "CWP_ZIP": "29702", "CWP_COUNTY": "Cherokee", "NPDES_ID": "SC0047457", "REGISTRY_ID": "110016954296", "CWP_FACILITY_TYPE_INDICATOR": "POTW", "CWP_MAJOR_MINOR_STATUS": "Minor", "CWP_PERMIT_STATUS_DESC": "Effective", "STATE_WATER_BODY_NAME": "BROAD RIVER, CANOE CREEK", "CWP_CSO_FLAG": "N"}}, {"type": "Feature", "geometry": {"type": "Point", "coordinates": [-81.126947380507, 33.2947280250366]}, "properties": {"CWP_NAME": "DENMARK CITY OF", "CWP_STREET": "NO # GRAPEVINE RD", "CWP_CITY": "DENMARK", "CWP_STATE": "SC", "CWP_ZIP": "29042", "CWP_COUNTY": "Bamberg", "NPDES_ID": "SC0040215", "REGISTRY_ID": "110002235420", "CWP_FACILITY_TYPE_INDICATOR": "POTW", "CWP_MAJOR_MINOR_STATUS": "Minor", "CWP_PERMIT_STATUS_DESC": "Admin Continued", "STATE_WATER_BODY_NAME": null, "CWP_CSO_FLAG": "N"}}, {"type": "Feature", "geometry": {"type": "Point", "coordinates": [-81.7355593413878, 34.9180631058116]}, "properties": {"CWP_NAME": "SSSD PACOLET MILLS WWTP", "CWP_STREET": "GRACELAND DR", "CWP_CITY": "PACOLET", "CWP_STATE": "SC", "CWP_ZIP": "29372", "CWP_COUNTY": "Spartanburg", "NPDES_ID": "SC0044717", "REGISTRY_ID": "110009793330", "CWP_FACILITY_TYPE_INDICATOR": "POTW", "CWP_MAJOR_MINOR_STATUS": "Minor", "CWP_PERMIT_STATUS_DESC": "Expired", "STATE_WATER_BODY_NAME": "PACOLET RIVER", "CWP_CSO_FLAG": "N"}}, {"type": "Feature", "geometry": {"type": "Point", "coordinates": [-81.1461030167662, 34.7050064943202]}, "properties": {"CWP_NAME": "CHESTER ROCKY CREEK WWTP", "CWP_STREET": "663 ECOLOGY LANE", "CWP_CITY": "CHESTER", "CWP_STATE": "SC", "CWP_ZIP": "29706", "CWP_COUNTY": "Chester", "NPDES_ID": "SC0036056", "REGISTRY_ID": "110039825302", "CWP_FACILITY_TYPE_INDICATOR": "POTW", "CWP_MAJOR_MINOR_STATUS": "Major", "CWP_PERMIT_STATUS_DESC": "Effective", "STATE_WATER_BODY_NAME": null, "CWP_CSO_FLAG": "N"}}, {"type": "Feature", "geometry": {"type": "Point", "coordinates": [-78.8319470192278, 34.0611179288755]}, "properties": {"CWP_NAME": "GSW&SA LORIS WWTF", "CWP_STREET": "2400 LAGOON RD", "CWP_CITY": "LORIS", "CWP_STATE": "SC", "CWP_ZIP": "29569", "CWP_COUNTY": "Horry", "NPDES_ID": "SC0025348", "REGISTRY_ID": "110013762650", "CWP_FACILITY_TYPE_INDICATOR": "POTW", "CWP_MAJOR_MINOR_STATUS": "Minor", "CWP_PERMIT_STATUS_DESC": "Effective", "STATE_WATER_BODY_NAME": "PLEASANT MEADOW SWAMP", "CWP_CSO_FLAG": "N"}}, {"type": "Feature", "geometry": {"type": "Point", "coordinates": [-79.8414029824657, 32.7631063113554]}, "properties": {"CWP_NAME": "SULLIVANS ISLAND WWTF", "CWP_STREET": "2051 GULL DR", "CWP_CITY": "SULLIVANS ISLAND", "CWP_STATE": "SC", "CWP_ZIP": "29482", "CWP_COUNTY": "Charleston", "NPDES_ID": "SC0020052", "REGISTRY_ID": "110039693301", "CWP_FACILITY_TYPE_INDICATOR": "POTW", "CWP_MAJOR_MINOR_STATUS": "Minor", "CWP_PERMIT_STATUS_DESC": "Effective", "STATE_WATER_BODY_NAME": null, "CWP_CSO_FLAG": "N"}}, {"type": "Feature", "geometry": {"type": "Point", "coordinates": [-79.8227196021734, 33.6452577997899]}, "properties": {"CWP_NAME": "KINGSTREE SOUTH KINGSTREE IND WWF", "CWP_STREET": "119 MILLIKEN DR", "CWP_CITY": "KINGSTREE", "CWP_STATE": "SC", "CWP_ZIP": "295566209", "CWP_COUNTY": "Williamsburg", "NPDES_ID": "SC0049255", "REGISTRY_ID": "110064633197", "CWP_FACILITY_TYPE_INDICATOR": "POTW", "CWP_MAJOR_MINOR_STATUS": "Minor", "CWP_PERMIT_STATUS_DESC": "Effective", "STATE_WATER_BODY_NAME": "BLACK RIVER", "CWP_CSO_FLAG": "N"}}, {"type": "Feature", "geometry": {"type": "Point", "coordinates": [-79.1094463901852, 33.6505629252724]}, "properties": {"CWP_NAME": "GSW&SA/BUCKSPORT WWTF", "CWP_STREET": "8052 TREATMENT RD", "CWP_CITY": "CONWAY", "CWP_STATE": "SC", "CWP_ZIP": "29526", "CWP_COUNTY": "Jasper", "NPDES_ID": "SC0040886", "REGISTRY_ID": "110009793385", "CWP_FACILITY_TYPE_INDICATOR": "POTW", "CWP_MAJOR_MINOR_STATUS": "Minor", "CWP_PERMIT_STATUS_DESC": "Terminated", "STATE_WATER_BODY_NAME": "WACCAMAW RV", "CWP_CSO_FLAG": "N"}}, {"type": "Feature", "geometry": {"type": "Point", "coordinates": [-79.9492029585001, 32.9619059875808]}, "properties": {"CWP_NAME": "BCW&SA LOWER BERKELEY WWTF", "CWP_STREET": "2111 RED BANK RD", "CWP_CITY": "GOOSE CREEK", "CWP_STATE": "SC", "CWP_ZIP": "29445", "CWP_COUNTY": "Berkeley", "NPDES_ID": "SC0046060", "REGISTRY_ID": "110000572899", "CWP_FACILITY_TYPE_INDICATOR": "POTW", "CWP_MAJOR_MINOR_STATUS": "Major", "CWP_PERMIT_STATUS_DESC": "Effective", "STATE_WATER_BODY_NAME": "COOPER RIVER", "CWP_CSO_FLAG": "N"}}, {"type": "Feature", "geometry": {"type": "Point", "coordinates": [-80.627781255593, 33.8413954575864]}, "properties": {"CWP_NAME": "RICHLAND CO EASTOVER REG WWTP", "CWP_STREET": "199 WATEREE STATION ROAD", "CWP_CITY": "EASTOVER", "CWP_STATE": "SC", "CWP_ZIP": "29044", "CWP_COUNTY": null, "NPDES_ID": "SC0047911", "REGISTRY_ID": "110009704873", "CWP_FACILITY_TYPE_INDICATOR": "POTW", "CWP_MAJOR_MINOR_STATUS": "Minor", "CWP_PERMIT_STATUS_DESC": "Effective", "STATE_WATER_BODY_NAME": "WATEREE RIVER", "CWP_CSO_FLAG": "N"}}, {"type": "Feature", "geometry": {"type": "Point", "coordinates": [-78.7450481947384, 33.9127558415348]}, "properties": {"CWP_NAME": "GSW&SA LONGS WWTP", "CWP_STREET": "350 NANCY LN", "CWP_CITY": "LONGS", "CWP_STATE": "SC", "CWP_ZIP": "29568", "CWP_COUNTY": "Horry", "NPDES_ID": "SC0040878", "REGISTRY_ID": "110009793376", "CWP_FACILITY_TYPE_INDICATOR": "POTW", "CWP_MAJOR_MINOR_STATUS": "Major", "CWP_PERMIT_STATUS_DESC": "Effective", "STATE_WATER_BODY_NAME": null, "CWP_CSO_FLAG": "N"}}, {"type": "Feature", "geometry": {"type": "Point", "coordinates": [-81.6868196645172, 34.8287541140861]}, "properties": {"CWP_NAME": "JONESVILLE TOWN OF", "CWP_STREET": "SPEARS LANE", "CWP_CITY": "JONESVILLE", "CWP_STATE": "SC", "CWP_ZIP": "29353", "CWP_COUNTY": "Union", "NPDES_ID": "SC0024988", "REGISTRY_ID": "110006621815", "CWP_FACILITY_TYPE_INDICATOR": "POTW", "CWP_MAJOR_MINOR_STATUS": "Minor", "CWP_PERMIT_STATUS_DESC": "Admin Continued", "STATE_WATER_BODY_NAME": "BISHOP BRANCH", "CWP_CSO_FLAG": "N"}}, {"type": "Feature", "geometry": {"type": "Point", "coordinates": [-81.3702815320302, 33.6458396087755]}, "properties": {"CWP_NAME": "WAGENER TOWN OF WWTF", "CWP_STREET": "151 WOODSHORE DRIVE", "CWP_CITY": "WAGENER", "CWP_STATE": "SC", "CWP_ZIP": "29164", "CWP_COUNTY": "Aiken", "NPDES_ID": "SC0026204", "REGISTRY_ID": "110009794142", "CWP_FACILITY_TYPE_INDICATOR": "POTW", "CWP_MAJOR_MINOR_STATUS": "Minor", "CWP_PERMIT_STATUS_DESC": "Admin Continued", "STATE_WATER_BODY_NAME": null, "CWP_CSO_FLAG": "N"}}, {"type": "Feature", "geometry": {"type": "Point", "coordinates": [-80.9477789494756, 32.3381774123859]}, "properties": {"CWP_NAME": "BJW&SA CHERRY POINT WWTP", "CWP_STREET": "JASPER STATION RRD.", "CWP_CITY": "RIDGELAND", "CWP_STATE": "SC", "CWP_ZIP": "29936", "CWP_COUNTY": "Jasper", "NPDES_ID": "SC0047279", "REGISTRY_ID": "110064618089", "CWP_FACILITY_TYPE_INDICATOR": "POTW", "CWP_MAJOR_MINOR_STATUS": "Major", "CWP_PERMIT_STATUS_DESC": "Effective", "STATE_WATER_BODY_NAME": "GREAT SWAMP TRIB TO NEW RIVER", "CWP_CSO_FLAG": "N"}}, {"type": "Feature", "geometry": {"type": "Point", "coordinates": [-80.6783357366373, 33.3572282382436]}, "properties": {"CWP_NAME": "BOWMAN TOWN OF", "CWP_STREET": "OFF KIZER RD", "CWP_CITY": "BOWMAN", "CWP_STATE": "SC", "CWP_ZIP": "29018", "CWP_COUNTY": "Orangeburg", "NPDES_ID": "SC0040037", "REGISTRY_ID": "110009793526", "CWP_FACILITY_TYPE_INDICATOR": "POTW", "CWP_MAJOR_MINOR_STATUS": "Minor", "CWP_PERMIT_STATUS_DESC": "Effective", "STATE_WATER_BODY_NAME": null, "CWP_CSO_FLAG": "N"}}, {"type": "Feature", "geometry": {"type": "Point", "coordinates": [-80.3324149662777, 32.4835411825505]}, "properties": {"CWP_NAME": "TOWN OF EDISTO BEACH RO WTP", "CWP_STREET": "2502 LEE ST", "CWP_CITY": "EDISTO BEACH", "CWP_STATE": "SC", "CWP_ZIP": "29438", "CWP_COUNTY": "Charleston", "NPDES_ID": "SC0049336", "REGISTRY_ID": "110070100067", "CWP_FACILITY_TYPE_INDICATOR": "POTW", "CWP_MAJOR_MINOR_STATUS": "Minor", "CWP_PERMIT_STATUS_DESC": "Effective", "STATE_WATER_BODY_NAME": "ATLANTIC OCEAN", "CWP_CSO_FLAG": "N"}}, {"type": "Feature", "geometry": {"type": "Point", "coordinates": [-81.5458364529684, 33.8697285730474]}, "properties": {"CWP_NAME": "BATESBURG-LEESVILLE WWTF", "CWP_STREET": "100 COMMISSIONER STREET", "CWP_CITY": "BATESBURG-LEESVILLE", "CWP_STATE": "SC", "CWP_ZIP": "29006", "CWP_COUNTY": "Lexington", "NPDES_ID": "SC0024465", "REGISTRY_ID": "110001209095", "CWP_FACILITY_TYPE_INDICATOR": "POTW", "CWP_MAJOR_MINOR_STATUS": "Major", "CWP_PERMIT_STATUS_DESC": "Effective", "STATE_WATER_BODY_NAME": null, "CWP_CSO_FLAG": "N"}}, {"type": "Feature", "geometry": {"type": "Point", "coordinates": [-80.4661136748745, 33.7230626421992]}, "properties": {"CWP_NAME": "PINEWOOD TOWN OF WWTP", "CWP_STREET": "GRAVEL ROAD OFF HAMPTON STREET", "CWP_CITY": "PINEWOOD", "CWP_STATE": "SC", "CWP_ZIP": "29125", "CWP_COUNTY": "Sumter", "NPDES_ID": "SC0046868", "REGISTRY_ID": "110006672724", "CWP_FACILITY_TYPE_INDICATOR": "POTW", "CWP_MAJOR_MINOR_STATUS": "Minor", "CWP_PERMIT_STATUS_DESC": "Admin Continued", "STATE_WATER_BODY_NAME": "BALLARD CREEK", "CWP_CSO_FLAG": "N"}}, {"type": "Feature", "geometry": {"type": "Point", "coordinates": [-79.5352809522807, 34.6725068440218]}, "properties": {"CWP_NAME": "MCCOLL WWTF", "CWP_STREET": "300 S MAIN ST", "CWP_CITY": "MC COLL", "CWP_STATE": "SC", "CWP_ZIP": "29570", "CWP_COUNTY": "Marlboro", "NPDES_ID": "SC0041963", "REGISTRY_ID": "110017395086", "CWP_FACILITY_TYPE_INDICATOR": "POTW", "CWP_MAJOR_MINOR_STATUS": "Minor", "CWP_PERMIT_STATUS_DESC": "Admin Continued", "STATE_WATER_BODY_NAME": "GUM SWAMP", "CWP_CSO_FLAG": "N"}}, {"type": "Feature", "geometry": {"type": "Point", "coordinates": [-82.7236150627549, 34.4725064568672]}, "properties": {"CWP_NAME": "GENEROSTEE CREEK WWTP", "CWP_STREET": "800 HILLHOUSE RD", "CWP_CITY": "ANDERSON", "CWP_STATE": "SC", "CWP_ZIP": "29626", "CWP_COUNTY": "Anderson", "NPDES_ID": "SC0023752", "REGISTRY_ID": "110000577082", "CWP_FACILITY_TYPE_INDICATOR": "POTW", "CWP_MAJOR_MINOR_STATUS": "Major", "CWP_PERMIT_STATUS_DESC": "Effective", "STATE_WATER_BODY_NAME": null, "CWP_CSO_FLAG": "N"}}, {"type": "Feature", "geometry": {"type": "Point", "coordinates": [-82.0357135491924, 34.7391069625587]}, "properties": {"CWP_NAME": "WOODRUFF ENOREE RIVER", "CWP_STREET": "598 NEW BETHEL RD", "CWP_CITY": "WOODRUFF", "CWP_STATE": "SC", "CWP_ZIP": "29388", "CWP_COUNTY": null, "NPDES_ID": "SC0045802", "REGISTRY_ID": "110002237286", "CWP_FACILITY_TYPE_INDICATOR": "POTW", "CWP_MAJOR_MINOR_STATUS": "Minor", "CWP_PERMIT_STATUS_DESC": "Effective", "STATE_WATER_BODY_NAME": "ENOREE RIVER", "CWP_CSO_FLAG": "N"}}, {"type": "Feature", "geometry": {"type": "Point", "coordinates": [-80.9653032741715, 34.9922068566322]}, "properties": {"CWP_NAME": "FORT MILL WWTF", "CWP_STREET": "1435 SPRATT STREET", "CWP_CITY": "FORT MILL", "CWP_STATE": "SC", "CWP_ZIP": "29715", "CWP_COUNTY": null, "NPDES_ID": "SC0020371", "REGISTRY_ID": "110002040648", "CWP_FACILITY_TYPE_INDICATOR": "POTW", "CWP_MAJOR_MINOR_STATUS": "Major", "CWP_PERMIT_STATUS_DESC": "Effective", "STATE_WATER_BODY_NAME": null, "CWP_CSO_FLAG": "N"}}, {"type": "Feature", "geometry": {"type": "Point", "coordinates": [-81.9781038662251, 34.8311067303331]}, "properties": {"CWP_NAME": "SSSD LOWER N TYGER RIVER WWTP", "CWP_STREET": "6351 HWY 221", "CWP_CITY": "ROEBUCK", "CWP_STATE": "SC", "CWP_ZIP": "29376", "CWP_COUNTY": "Spartanburg", "NPDES_ID": "SC0048143", "REGISTRY_ID": "110009792992", "CWP_FACILITY_TYPE_INDICATOR": "POTW", "CWP_MAJOR_MINOR_STATUS": "Major", "CWP_PERMIT_STATUS_DESC": "Effective", "STATE_WATER_BODY_NAME": null, "CWP_CSO_FLAG": "N"}}, {"type": "Feature", "geometry": {"type": "Point", "coordinates": [-79.4186136500987, 34.336118061062]}, "properties": {"CWP_NAME": "LATTA TOWN OF", "CWP_STREET": "581 E. ACADEMY STREET", "CWP_CITY": "LATTA", "CWP_STATE": "SC", "CWP_ZIP": "29565", "CWP_COUNTY": "Dillon", "NPDES_ID": "SC0025402", "REGISTRY_ID": "110002182094", "CWP_FACILITY_TYPE_INDICATOR": "POTW", "CWP_MAJOR_MINOR_STATUS": "Major", "CWP_PERMIT_STATUS_DESC": "Admin Continued", "STATE_WATER_BODY_NAME": null, "CWP_CSO_FLAG": "N"}}, {"type": "Feature", "geometry": {"type": "Point", "coordinates": [-79.8350159974844, 32.8095850840392]}, "properties": {"CWP_NAME": "MT PLEASANT CENTER ST & RR RD,", "CWP_STREET": "955 WATERWORKS BOULEVARD", "CWP_CITY": "MT PLEASANT", "CWP_STATE": "SC", "CWP_ZIP": "29464", "CWP_COUNTY": null, "NPDES_ID": "SC0040771", "REGISTRY_ID": "110000541478", "CWP_FACILITY_TYPE_INDICATOR": "POTW", "CWP_MAJOR_MINOR_STATUS": "Major", "CWP_PERMIT_STATUS_DESC": "Effective", "STATE_WATER_BODY_NAME": null, "CWP_CSO_FLAG": "N"}}, {"type": "Feature", "geometry": {"type": "Point", "coordinates": [-82.7850037174132, 34.7377849310039]}, "properties": {"CWP_NAME": "PICKENS CO PSC CENTRAL-NORTH", "CWP_STREET": "214 POPLAR MT RD", "CWP_CITY": "LIBERTY", "CWP_STATE": "SC", "CWP_ZIP": "29657", "CWP_COUNTY": "Pickens", "NPDES_ID": "SC0024996", "REGISTRY_ID": "110006693024", "CWP_FACILITY_TYPE_INDICATOR": "POTW", "CWP_MAJOR_MINOR_STATUS": "Minor", "CWP_PERMIT_STATUS_DESC": "Effective", "STATE_WATER_BODY_NAME": null, "CWP_CSO_FLAG": "N"}}, {"type": "Feature", "geometry": {"type": "Point", "coordinates": [-82.1230332603999, 34.9476265113642]}, "properties": {"CWP_NAME": "LYMAN TOWN OF", "CWP_STREET": "160 GROCE RD", "CWP_CITY": "LYMAN", "CWP_STATE": "SC", "CWP_ZIP": "29365", "CWP_COUNTY": null, "NPDES_ID": "SC0021300", "REGISTRY_ID": "110002181987", "CWP_FACILITY_TYPE_INDICATOR": "POTW", "CWP_MAJOR_MINOR_STATUS": "Major", "CWP_PERMIT_STATUS_DESC": "Expired", "STATE_WATER_BODY_NAME": null, "CWP_CSO_FLAG": "N"}}, {"type": "Feature", "geometry": {"type": "Point", "coordinates": [-82.7544438541225, 34.8847863463667]}, "properties": {"CWP_NAME": "PICKENS CO PSC PICKENS CO STOCKADE WWTP", "CWP_STREET": "186 PRISON CAMP RD", "CWP_CITY": "PICKENS", "CWP_STATE": "SC", "CWP_ZIP": "29671", "CWP_COUNTY": "Pickens", "NPDES_ID": "SC0047899", "REGISTRY_ID": "110002238007", "CWP_FACILITY_TYPE_INDICATOR": "POTW", "CWP_MAJOR_MINOR_STATUS": "Minor", "CWP_PERMIT_STATUS_DESC": "Effective", "STATE_WATER_BODY_NAME": null, "CWP_CSO_FLAG": "N"}}, {"type": "Feature", "geometry": {"type": "Point", "coordinates": [-81.312781530042, 32.9955621784608]}, "properties": {"CWP_NAME": "ALLENDALE WWTF", "CWP_STREET": "SC ROAD S-3-129", "CWP_CITY": "ALLENDALE", "CWP_STATE": "SC", "CWP_ZIP": "29810", "CWP_COUNTY": null, "NPDES_ID": "SC0039918", "REGISTRY_ID": "110000916894", "CWP_FACILITY_TYPE_INDICATOR": "POTW", "CWP_MAJOR_MINOR_STATUS": "Major", "CWP_PERMIT_STATUS_DESC": "Admin Continued", "STATE_WATER_BODY_NAME": "SAVANNAH RIVER", "CWP_CSO_FLAG": "N"}}, {"type": "Feature", "geometry": {"type": "Point", "coordinates": [-81.5539034369179, 35.0661068413586]}, "properties": {"CWP_NAME": "GAFFNEY BROAD RVR", "CWP_STREET": "100 MARIETTA ST", "CWP_CITY": "GAFFNEY", "CWP_STATE": "SC", "CWP_ZIP": "29342", "CWP_COUNTY": "Cherokee", "NPDES_ID": "SC0047091", "REGISTRY_ID": "110039836568", "CWP_FACILITY_TYPE_INDICATOR": "POTW", "CWP_MAJOR_MINOR_STATUS": "Major", "CWP_PERMIT_STATUS_DESC": "Admin Continued", "STATE_WATER_BODY_NAME": "BROAD RIVER", "CWP_CSO_FLAG": "N"}}, {"type": "Feature", "geometry": {"type": "Point", "coordinates": [-80.8524581010947, 34.8458709445857]}, "properties": {"CWP_NAME": "CATAWBA RIVER WATER TREATMENT PLANT", "CWP_STREET": "5107 RIVERSIDE RD", "CWP_CITY": "LANCASTER", "CWP_STATE": "SC", "CWP_ZIP": "29720", "CWP_COUNTY": null, "NPDES_ID": "SCG646071", "REGISTRY_ID": "110063023721", "CWP_FACILITY_TYPE_INDICATOR": "POTW", "CWP_MAJOR_MINOR_STATUS": "Minor", "CWP_PERMIT_STATUS_DESC": "Effective", "STATE_WATER_BODY_NAME": "CATAWBA RIVER", "CWP_CSO_FLAG": "N"}}, {"type": "Feature", "geometry": {"type": "Point", "coordinates": [-80.6016280316148, 33.1799394504877]}, "properties": {"CWP_NAME": "DORCHESTER CO UPPER DORCHESTER CO WWTP", "CWP_STREET": "125 HEATHERWOOD DR", "CWP_CITY": "SAINT GEORGE", "CWP_STATE": "SC", "CWP_ZIP": "29477", "CWP_COUNTY": "Dorchester", "NPDES_ID": "SC0025844", "REGISTRY_ID": "110064620664", "CWP_FACILITY_TYPE_INDICATOR": "POTW", "CWP_MAJOR_MINOR_STATUS": "Major", "CWP_PERMIT_STATUS_DESC": "Effective", "STATE_WATER_BODY_NAME": "POLK SWAMP", "CWP_CSO_FLAG": "N"}}, {"type": "Feature", "geometry": {"type": "Point", "coordinates": [-82.7036150519271, 34.8027843480735]}, "properties": {"CWP_NAME": "PICKENS CO-LIBERTY ROPER WWTF", "CWP_STREET": "120 CAMPGROUND ROAD", "CWP_CITY": "LIBERTY", "CWP_STATE": "SC", "CWP_ZIP": "29657", "CWP_COUNTY": "Pickens", "NPDES_ID": "SC0026191", "REGISTRY_ID": "110002186866", "CWP_FACILITY_TYPE_INDICATOR": "POTW", "CWP_MAJOR_MINOR_STATUS": "Minor", "CWP_PERMIT_STATUS_DESC": "Effective", "STATE_WATER_BODY_NAME": null, "CWP_CSO_FLAG": "N"}}, {"type": "Feature", "geometry": {"type": "Point", "coordinates": [-79.6733359130826, 34.5166740797607]}, "properties": {"CWP_NAME": "BENNETTSVILLE WWTF", "CWP_STREET": "270 HUCKABEE STREET", "CWP_CITY": "BENNETTSVILLE", "CWP_STATE": "SC", "CWP_ZIP": "29512", "CWP_COUNTY": "Marlboro", "NPDES_ID": "SC0025178", "REGISTRY_ID": "110000535421", "CWP_FACILITY_TYPE_INDICATOR": "POTW", "CWP_MAJOR_MINOR_STATUS": "Major", "CWP_PERMIT_STATUS_DESC": "Admin Continued", "STATE_WATER_BODY_NAME": null, "CWP_CSO_FLAG": "N"}}, {"type": "Feature", "geometry": {"type": "Point", "coordinates": [-79.8747031814725, 34.6897063701146]}, "properties": {"CWP_NAME": "CHERAW WWTF", "CWP_STREET": "RODDY ST", "CWP_CITY": "CHERAW", "CWP_STATE": "SC", "CWP_ZIP": "29520", "CWP_COUNTY": "Chesterfield", "NPDES_ID": "SC0020249", "REGISTRY_ID": "110000756502", "CWP_FACILITY_TYPE_INDICATOR": "POTW", "CWP_MAJOR_MINOR_STATUS": "Major", "CWP_PERMIT_STATUS_DESC": "Admin Continued", "STATE_WATER_BODY_NAME": null, "CWP_CSO_FLAG": "N"}}, {"type": "Feature", "geometry": {"type": "Point", "coordinates": [-80.8441698657053, 33.2313950640417]}, "properties": {"CWP_NAME": "BRANCHVILLE TOWN OF", "CWP_STREET": "HUNTER STREET", "CWP_CITY": "BRANCHVILLE", "CWP_STATE": "SC", "CWP_ZIP": "29432", "CWP_COUNTY": "Orangeburg", "NPDES_ID": "SC0047333", "REGISTRY_ID": "110006359065", "CWP_FACILITY_TYPE_INDICATOR": "POTW", "CWP_MAJOR_MINOR_STATUS": "Minor", "CWP_PERMIT_STATUS_DESC": "Admin Continued", "STATE_WATER_BODY_NAME": "EDISTO RIVER", "CWP_CSO_FLAG": "N"}}, {"type": "Feature", "geometry": {"type": "Point", "coordinates": [-82.3000900241759, 34.687399521382]}, "properties": {"CWP_NAME": "REWA LOWER REEDY RIVER WWTP", "CWP_STREET": "497 NORTH HARRISION BRIDGE ROAD", "CWP_CITY": "SIMPSONVILLE", "CWP_STATE": "SC", "CWP_ZIP": "29680", "CWP_COUNTY": "Greenville", "NPDES_ID": "SC0024261", "REGISTRY_ID": "110001675633", "CWP_FACILITY_TYPE_INDICATOR": "POTW", "CWP_MAJOR_MINOR_STATUS": "Major", "CWP_PERMIT_STATUS_DESC": "Admin Continued", "STATE_WATER_BODY_NAME": null, "CWP_CSO_FLAG": "N"}}, {"type": "Feature", "geometry": {"type": "Point", "coordinates": [-81.9836148774463, 34.1552849529773]}, "properties": {"CWP_NAME": "NINETY SIX WWTF", "CWP_STREET": "PO BOX 8", "CWP_CITY": "NINETY-SIX", "CWP_STATE": "SC", "CWP_ZIP": "29666", "CWP_COUNTY": "Greenwood", "NPDES_ID": "SC0036048", "REGISTRY_ID": "110008973539", "CWP_FACILITY_TYPE_INDICATOR": "POTW", "CWP_MAJOR_MINOR_STATUS": "Minor", "CWP_PERMIT_STATUS_DESC": "Admin Continued", "STATE_WATER_BODY_NAME": "NINETY SIX CREEK", "CWP_CSO_FLAG": "N"}}, {"type": "Feature", "geometry": {"type": "Point", "coordinates": [-79.9502813010343, 34.12306230819]}, "properties": {"CWP_NAME": "FLORENCE CITY OF TIMMONSVILLE WWTP", "CWP_STREET": "706 S. HILL STREET", "CWP_CITY": "TIMMONSVILLE", "CWP_STATE": "SC", "CWP_ZIP": "29161", "CWP_COUNTY": "Florence", "NPDES_ID": "SC0025356", "REGISTRY_ID": "110064634506", "CWP_FACILITY_TYPE_INDICATOR": "POTW", "CWP_MAJOR_MINOR_STATUS": "Major", "CWP_PERMIT_STATUS_DESC": "Effective", "STATE_WATER_BODY_NAME": null, "CWP_CSO_FLAG": "N"}}, {"type": "Feature", "geometry": {"type": "Point", "coordinates": [-82.5886151131219, 34.8447287415295]}, "properties": {"CWP_NAME": "EASLEY GEORGES CREEK LAGOON", "CWP_STREET": "408 JORDAN ROAD", "CWP_CITY": "EASLEY", "CWP_STATE": "SC", "CWP_ZIP": "29640", "CWP_COUNTY": "Pickens", "NPDES_ID": "SC0023043", "REGISTRY_ID": "110002310311", "CWP_FACILITY_TYPE_INDICATOR": "POTW", "CWP_MAJOR_MINOR_STATUS": "Minor", "CWP_PERMIT_STATUS_DESC": "Admin Continued", "STATE_WATER_BODY_NAME": null, "CWP_CSO_FLAG": "N"}}, {"type": "Feature", "geometry": {"type": "Point", "coordinates": [-79.3875519482261, 34.1645444650955]}, "properties": {"CWP_NAME": "GSW&SA CITY OF MARION WWTP", "CWP_STREET": "100 COLLINS STREET", "CWP_CITY": "MARION", "CWP_STATE": "SC", "CWP_ZIP": "29528", "CWP_COUNTY": "Marion", "NPDES_ID": "SC0046230", "REGISTRY_ID": "110017123851", "CWP_FACILITY_TYPE_INDICATOR": "POTW", "CWP_MAJOR_MINOR_STATUS": "Major", "CWP_PERMIT_STATUS_DESC": "Effective", "STATE_WATER_BODY_NAME": "PEE DEE RIVER", "CWP_CSO_FLAG": "N"}}, {"type": "Feature", "geometry": {"type": "Point", "coordinates": [-80.6680340432988, 34.247957458559]}, "properties": {"CWP_NAME": "KERSHAW CO LUGOFF WWTF", "CWP_STREET": "40 RENEW ROAD", "CWP_CITY": "LUGOFF", "CWP_STATE": "SC", "CWP_ZIP": "29078", "CWP_COUNTY": null, "NPDES_ID": "SC0039870", "REGISTRY_ID": "110064616973", "CWP_FACILITY_TYPE_INDICATOR": "POTW", "CWP_MAJOR_MINOR_STATUS": "Major", "CWP_PERMIT_STATUS_DESC": "Effective", "STATE_WATER_BODY_NAME": "WATEREE RIVER", "CWP_CSO_FLAG": "N"}}, {"type": "Feature", "geometry": {"type": "Point", "coordinates": [-79.9149072968821, 32.8472675830231]}, "properties": {"CWP_NAME": "CHARLESTON CPW DANIEL ISLAND", "CWP_STREET": "196 REPUBLIC DR", "CWP_CITY": "CHARLESTON", "CWP_STATE": "SC", "CWP_ZIP": "29492", "CWP_COUNTY": "Charleston", "NPDES_ID": "SC0047074", "REGISTRY_ID": "110064618604", "CWP_FACILITY_TYPE_INDICATOR": "POTW", "CWP_MAJOR_MINOR_STATUS": "Minor", "CWP_PERMIT_STATUS_DESC": "Effective", "STATE_WATER_BODY_NAME": null, "CWP_CSO_FLAG": "N"}}, {"type": "Feature", "geometry": {"type": "Point", "coordinates": [-79.9494466656455, 32.7586177905467]}, "properties": {"CWP_NAME": "CHARLESTON CPW PLUM ISLAND", "CWP_STREET": "539 HARBOR VIEW CIR", "CWP_CITY": "CHARLESTON", "CWP_STATE": "SC", "CWP_ZIP": "29412", "CWP_COUNTY": "Charleston", "NPDES_ID": "SC0021229", "REGISTRY_ID": "110000534583", "CWP_FACILITY_TYPE_INDICATOR": "POTW", "CWP_MAJOR_MINOR_STATUS": "Major", "CWP_PERMIT_STATUS_DESC": "Effective", "STATE_WATER_BODY_NAME": null, "CWP_CSO_FLAG": "N"}}, {"type": "Feature", "geometry": {"type": "Point", "coordinates": [-81.2141699875585, 33.9863958605346]}, "properties": {"CWP_NAME": "LEXINGTON/COVENTRY WOODS WWTP", "CWP_STREET": "1000 MALLARD LAKES DR", "CWP_CITY": "LEXINGTON", "CWP_STATE": "SC", "CWP_ZIP": "29072", "CWP_COUNTY": "Lexington", "NPDES_ID": "SC0026735", "REGISTRY_ID": "110009793946", "CWP_FACILITY_TYPE_INDICATOR": "POTW", "CWP_MAJOR_MINOR_STATUS": "Major", "CWP_PERMIT_STATUS_DESC": "Terminated", "STATE_WATER_BODY_NAME": "12 MI CK", "CWP_CSO_FLAG": "N"}}, {"type": "Feature", "geometry": {"type": "Point", "coordinates": [-82.2311038934971, 34.397806971155]}, "properties": {"CWP_NAME": "WARE SHOALS DAIRY STREET", "CWP_STREET": "100 DAIRY ST", "CWP_CITY": "WARE SHOALS", "CWP_STATE": "SC", "CWP_ZIP": "29692", "CWP_COUNTY": null, "NPDES_ID": "SC0020214", "REGISTRY_ID": "110002349085", "CWP_FACILITY_TYPE_INDICATOR": "POTW", "CWP_MAJOR_MINOR_STATUS": "Major", "CWP_PERMIT_STATUS_DESC": "Effective", "STATE_WATER_BODY_NAME": "SALUDA RIVER", "CWP_CSO_FLAG": "N"}}, {"type": "Feature", "geometry": {"type": "Point", "coordinates": [-80.8491943892888, 33.4371635909558]}, "properties": {"CWP_NAME": "ORANGEBURG WWTF", "CWP_STREET": "120 SPRINKLE AVE", "CWP_CITY": "ORANGEBURG", "CWP_STATE": "SC", "CWP_ZIP": "29115", "CWP_COUNTY": "Orangeburg", "NPDES_ID": "SC0024481", "REGISTRY_ID": "110039836121", "CWP_FACILITY_TYPE_INDICATOR": "POTW", "CWP_MAJOR_MINOR_STATUS": "Major", "CWP_PERMIT_STATUS_DESC": "Admin Continued", "STATE_WATER_BODY_NAME": null, "CWP_CSO_FLAG": "N"}}, {"type": "Feature", "geometry": {"type": "Point", "coordinates": [-81.0261135912946, 33.8488957913863]}, "properties": {"CWP_NAME": "CALHOUN COUNTY I-26 REST STOP WWTP", "CWP_STREET": "ZEUS LN", "CWP_CITY": "ST MATTHEWS", "CWP_STATE": "SC", "CWP_ZIP": "00000", "CWP_COUNTY": "Calhoun", "NPDES_ID": "SCG570038", "REGISTRY_ID": "110009793553", "CWP_FACILITY_TYPE_INDICATOR": "POTW", "CWP_MAJOR_MINOR_STATUS": "Minor", "CWP_PERMIT_STATUS_DESC": "Admin Continued", "STATE_WATER_BODY_NAME": null, "CWP_CSO_FLAG": "N"}}, {"type": "Feature", "geometry": {"type": "Point", "coordinates": [-80.0483362091882, 34.0738954584566]}, "properties": {"CWP_NAME": "LYNCHBURG WWTF", "CWP_STREET": "HIGHWAY 76", "CWP_CITY": "LYNCHBU", "CWP_STATE": "SC", "CWP_ZIP": "29080", "CWP_COUNTY": "Lee", "NPDES_ID": "SC0042676", "REGISTRY_ID": "110006667632", "CWP_FACILITY_TYPE_INDICATOR": "POTW", "CWP_MAJOR_MINOR_STATUS": "Minor", "CWP_PERMIT_STATUS_DESC": "Admin Continued", "STATE_WATER_BODY_NAME": "LYNCHES RIVER", "CWP_CSO_FLAG": "N"}}, {"type": "Feature", "geometry": {"type": "Point", "coordinates": [-82.7571939802294, 34.8574469502653]}, "properties": {"CWP_NAME": "PICKENS 12 MILE CREEK WWTP", "CWP_STREET": "901 ALLGOOD BRIDGE RD", "CWP_CITY": "PICKENS", "CWP_STATE": "SC", "CWP_ZIP": "29671", "CWP_COUNTY": "Pickens", "NPDES_ID": "SC0047716", "REGISTRY_ID": "110009793116", "CWP_FACILITY_TYPE_INDICATOR": "POTW", "CWP_MAJOR_MINOR_STATUS": "Major", "CWP_PERMIT_STATUS_DESC": "Effective", "STATE_WATER_BODY_NAME": null, "CWP_CSO_FLAG": "N"}}, {"type": "Feature", "geometry": {"type": "Point", "coordinates": [-82.6857940787156, 34.7608363623093]}, "properties": {"CWP_NAME": "PICKENS CO 18 MILE CREEK UPPER WWTP", "CWP_STREET": "151 CLEARWATER DR", "CWP_CITY": "LIBERTY", "CWP_STATE": "SC", "CWP_ZIP": "29657", "CWP_COUNTY": "Pickens", "NPDES_ID": "SC0042994", "REGISTRY_ID": "110000762149", "CWP_FACILITY_TYPE_INDICATOR": "POTW", "CWP_MAJOR_MINOR_STATUS": "Major", "CWP_PERMIT_STATUS_DESC": "Effective", "STATE_WATER_BODY_NAME": null, "CWP_CSO_FLAG": "N"}}, {"type": "Feature", "geometry": {"type": "Point", "coordinates": [-81.4046626118693, 33.3983515219507]}, "properties": {"CWP_NAME": "WILLISTON, TOWN OF", "CWP_STREET": "TOWN OF WILLISTON-P.O.BOX 414", "CWP_CITY": "UNKNOWN", "CWP_STATE": "SC", "CWP_ZIP": "00000", "CWP_COUNTY": "Barnwell", "NPDES_ID": "SCU063061", "REGISTRY_ID": "110009704490", "CWP_FACILITY_TYPE_INDICATOR": "POTW", "CWP_MAJOR_MINOR_STATUS": "Minor", "CWP_PERMIT_STATUS_DESC": "Terminated", "STATE_WATER_BODY_NAME": null, "CWP_CSO_FLAG": "N"}}, {"type": "Feature", "geometry": {"type": "Point", "coordinates": [-80.0833360495952, 34.3666734108087]}, "properties": {"CWP_NAME": "HARTSVILLE WWTF", "CWP_STREET": "953 N ROLLING RD", "CWP_CITY": "HARTSVILLE", "CWP_STATE": "SC", "CWP_ZIP": "29550", "CWP_COUNTY": null, "NPDES_ID": "SC0021580", "REGISTRY_ID": "110002040425", "CWP_FACILITY_TYPE_INDICATOR": "POTW", "CWP_MAJOR_MINOR_STATUS": "Major", "CWP_PERMIT_STATUS_DESC": "Effective", "STATE_WATER_BODY_NAME": "BLACK CREEK", "CWP_CSO_FLAG": "N"}}, {"type": "Feature", "geometry": {"type": "Point", "coordinates": [-81.784725297078, 35.0075069958054]}, "properties": {"CWP_NAME": "SSSD COWPENS-PACOLET RIVER", "CWP_STREET": "213 WASHINGTON RD", "CWP_CITY": "COWPENS", "CWP_STATE": "SC", "CWP_ZIP": "29330", "CWP_COUNTY": "Spartanburg", "NPDES_ID": "SC0045624", "REGISTRY_ID": "110009793152", "CWP_FACILITY_TYPE_INDICATOR": "POTW", "CWP_MAJOR_MINOR_STATUS": "Major", "CWP_PERMIT_STATUS_DESC": "Effective", "STATE_WATER_BODY_NAME": "PACOLET RIVER", "CWP_CSO_FLAG": "N"}}, {"type": "Feature", "geometry": {"type": "Point", "coordinates": [-80.9894032592072, 33.9433066417466]}, "properties": {"CWP_NAME": "EAST RICH CO PSD GILLS CREEK", "CWP_STREET": "1050 WHITEHOUSE RD", "CWP_CITY": "COLUMBIA", "CWP_STATE": "SC", "CWP_ZIP": "29209", "CWP_COUNTY": "Richland", "NPDES_ID": "SC0038865", "REGISTRY_ID": "110016994369", "CWP_FACILITY_TYPE_INDICATOR": "POTW", "CWP_MAJOR_MINOR_STATUS": "Major", "CWP_PERMIT_STATUS_DESC": "Effective", "STATE_WATER_BODY_NAME": null, "CWP_CSO_FLAG": "N"}}, {"type": "Feature", "geometry": {"type": "Point", "coordinates": [-81.0505526476824, 33.2859794208123]}, "properties": {"CWP_NAME": "BAMBURG, TOWN OF", "CWP_STREET": "BAMBERG BRD OF PW-PO BOX 300", "CWP_CITY": "UNKNOWN", "CWP_STATE": "SC", "CWP_ZIP": "00000", "CWP_COUNTY": "Bamberg", "NPDES_ID": "SCU063398", "REGISTRY_ID": "110016954152", "CWP_FACILITY_TYPE_INDICATOR": "POTW", "CWP_MAJOR_MINOR_STATUS": "Minor", "CWP_PERMIT_STATUS_DESC": "Terminated", "STATE_WATER_BODY_NAME": null, "CWP_CSO_FLAG": "N"}}, {"type": "Feature", "geometry": {"type": "Point", "coordinates": [-82.6422255020974, 34.6150067664921]}, "properties": {"CWP_NAME": "ANDERSON CO WW MGMNT  6 & 20", "CWP_STREET": "1500 DALRYMPLE RD", "CWP_CITY": "ANDERSON", "CWP_STATE": "SC", "CWP_ZIP": "29621", "CWP_COUNTY": "Anderson", "NPDES_ID": "SC0040193", "REGISTRY_ID": "110017205077", "CWP_FACILITY_TYPE_INDICATOR": "POTW", "CWP_MAJOR_MINOR_STATUS": "Minor", "CWP_PERMIT_STATUS_DESC": "Expired", "STATE_WATER_BODY_NAME": null, "CWP_CSO_FLAG": "N"}}, {"type": "Feature", "geometry": {"type": "Point", "coordinates": [-81.0866703851689, 34.37500649556]}, "properties": {"CWP_NAME": "WINNSBORO JACKSON CREEK PLANT", "CWP_STREET": "849 US 321 BYPASS", "CWP_CITY": "WINNSBORO", "CWP_STATE": "SC", "CWP_ZIP": "29180", "CWP_COUNTY": "Fairfield", "NPDES_ID": "SC0020125", "REGISTRY_ID": "110007220845", "CWP_FACILITY_TYPE_INDICATOR": "POTW", "CWP_MAJOR_MINOR_STATUS": "Major", "CWP_PERMIT_STATUS_DESC": "Effective", "STATE_WATER_BODY_NAME": null, "CWP_CSO_FLAG": "N"}}, {"type": "Feature", "geometry": {"type": "Point", "coordinates": [-82.2666702671029, 33.9166731685738]}, "properties": {"CWP_NAME": "MCCORMICK ROCKY CREEK WWTF", "CWP_STREET": "212 AIRPORT ROAD", "CWP_CITY": "MCCORMICK", "CWP_STATE": "SC", "CWP_ZIP": "29835", "CWP_COUNTY": "McCormick", "NPDES_ID": "SC0030783", "REGISTRY_ID": "110017301551", "CWP_FACILITY_TYPE_INDICATOR": "POTW", "CWP_MAJOR_MINOR_STATUS": "Major", "CWP_PERMIT_STATUS_DESC": "Effective", "STATE_WATER_BODY_NAME": null, "CWP_CSO_FLAG": "N"}}, {"type": "Feature", "geometry": {"type": "Point", "coordinates": [-82.3450039506869, 34.1558398217834]}, "properties": {"CWP_NAME": "ABBEVILLE LONG CANE CREEK WWTF", "CWP_STREET": "542 BROOKSIDE DRIVE", "CWP_CITY": "ABBEVILLE", "CWP_STATE": "SC", "CWP_ZIP": "29620", "CWP_COUNTY": "Abbeville", "NPDES_ID": "SC0040614", "REGISTRY_ID": "110000541682", "CWP_FACILITY_TYPE_INDICATOR": "POTW", "CWP_MAJOR_MINOR_STATUS": "Major", "CWP_PERMIT_STATUS_DESC": "Effective", "STATE_WATER_BODY_NAME": null, "CWP_CSO_FLAG": "N"}}, {"type": "Feature", "geometry": {"type": "Point", "coordinates": [-81.7541707685941, 34.0069507506924]}, "properties": {"CWP_NAME": "SALUDA TOWN OF", "CWP_STREET": "428 BOUKNIGHT FERRY RD", "CWP_CITY": "SALUDA", "CWP_STATE": "SC", "CWP_ZIP": "29138", "CWP_COUNTY": "Saluda", "NPDES_ID": "SC0022381", "REGISTRY_ID": "110006693033", "CWP_FACILITY_TYPE_INDICATOR": "POTW", "CWP_MAJOR_MINOR_STATUS": "Minor", "CWP_PERMIT_STATUS_DESC": "Effective", "STATE_WATER_BODY_NAME": null, "CWP_CSO_FLAG": "N"}}, {"type": "Feature", "geometry": {"type": "Point", "coordinates": [-81.2758364878087, 33.3650064561544]}, "properties": {"CWP_NAME": "BLACKVILLE WWTF", "CWP_STREET": "316 DAVIS ST.", "CWP_CITY": "BLACKVILLE", "CWP_STATE": "SC", "CWP_ZIP": "29817", "CWP_COUNTY": "Barnwell", "NPDES_ID": "SC0026417", "REGISTRY_ID": "110002235037", "CWP_FACILITY_TYPE_INDICATOR": "POTW", "CWP_MAJOR_MINOR_STATUS": "Minor", "CWP_PERMIT_STATUS_DESC": "Admin Continued", "STATE_WATER_BODY_NAME": null, "CWP_CSO_FLAG": "N"}}, {"type": "Feature", "geometry": {"type": "Point", "coordinates": [-82.1583370166069, 34.193339767301]}, "properties": {"CWP_NAME": "GREENWOOD WEST ALEXANDER WWTF", "CWP_STREET": "225 JOE BERNAT DR", "CWP_CITY": "GREENWOOD", "CWP_STATE": "SC", "CWP_ZIP": "29646", "CWP_COUNTY": "Greenwood", "NPDES_ID": "SC0022870", "REGISTRY_ID": "110000710133", "CWP_FACILITY_TYPE_INDICATOR": "POTW", "CWP_MAJOR_MINOR_STATUS": "Major", "CWP_PERMIT_STATUS_DESC": "Effective", "STATE_WATER_BODY_NAME": null, "CWP_CSO_FLAG": "N"}}, {"type": "Feature", "geometry": {"type": "Point", "coordinates": [-82.5861149560874, 34.081950598479]}, "properties": {"CWP_NAME": "CALHOUN FALLS SAWNEY CREEK WWTP", "CWP_STREET": "125 WALNUT ST", "CWP_CITY": "CALHOUN FALLS", "CWP_STATE": "SC", "CWP_ZIP": "29628", "CWP_COUNTY": "Abbeville", "NPDES_ID": "SC0025721", "REGISTRY_ID": "110002178429", "CWP_FACILITY_TYPE_INDICATOR": "POTW", "CWP_MAJOR_MINOR_STATUS": "Minor", "CWP_PERMIT_STATUS_DESC": "Admin Continued", "STATE_WATER_BODY_NAME": null, "CWP_CSO_FLAG": "N"}}, {"type": "Feature", "geometry": {"type": "Point", "coordinates": [-78.7166691754337, 33.8213954941071]}, "properties": {"CWP_NAME": "N MYRTLE BEACH CRESCENT BEACH", "CWP_STREET": "1600 24 AVENUE SOUTH", "CWP_CITY": "NORTH MYRTLE BEACH", "CWP_STATE": "SC", "CWP_ZIP": "29582", "CWP_COUNTY": "Horry", "NPDES_ID": "SC0022161", "REGISTRY_ID": "110039693347", "CWP_FACILITY_TYPE_INDICATOR": "POTW", "CWP_MAJOR_MINOR_STATUS": "Major", "CWP_PERMIT_STATUS_DESC": "Effective", "STATE_WATER_BODY_NAME": "ATLANTIC INTRACOASTAL WATERWAY", "CWP_CSO_FLAG": "N"}}, {"type": "Feature", "geometry": {"type": "Point", "coordinates": [-80.7086977200636, 32.5557666396143]}, "properties": {"CWP_NAME": "BCSD/JAMES J DAVIS ELEM SCHOOL", "CWP_STREET": "2MI E OF HWY 21 SR 38", "CWP_CITY": "BEAUFORT", "CWP_STATE": "SC", "CWP_ZIP": "29902", "CWP_COUNTY": "Beaufort", "NPDES_ID": "SC0027481", "REGISTRY_ID": "110006188945", "CWP_FACILITY_TYPE_INDICATOR": "POTW", "CWP_MAJOR_MINOR_STATUS": "Minor", "CWP_PERMIT_STATUS_DESC": "Terminated", "STATE_WATER_BODY_NAME": "DITCH-HALFMOON-WHALE BR-COOSAW", "CWP_CSO_FLAG": "N"}}, {"type": "Feature", "geometry": {"type": "Point", "coordinates": [-79.3825031333253, 33.7608396087666]}, "properties": {"CWP_NAME": "HEMINGWAY TOWN OF WWTP", "CWP_STREET": "ROAD S-45-444", "CWP_CITY": "HEMINGWAY", "CWP_STATE": "SC", "CWP_ZIP": "29554", "CWP_COUNTY": "Williamsburg", "NPDES_ID": "SC0039934", "REGISTRY_ID": "110006189908", "CWP_FACILITY_TYPE_INDICATOR": "POTW", "CWP_MAJOR_MINOR_STATUS": "Minor", "CWP_PERMIT_STATUS_DESC": "Admin Continued", "STATE_WATER_BODY_NAME": null, "CWP_CSO_FLAG": "N"}}, {"type": "Feature", "geometry": {"type": "Point", "coordinates": [-79.8663916262059, 34.3247290288809]}, "properties": {"CWP_NAME": "DARLINGTON BLACK CREEK WWTF", "CWP_STREET": "E OF MONT CLARE RD S-16-133", "CWP_CITY": "DARLINGTON", "CWP_STATE": "SC", "CWP_ZIP": "29540", "CWP_COUNTY": "Darlington", "NPDES_ID": "SC0039624", "REGISTRY_ID": "110002041120", "CWP_FACILITY_TYPE_INDICATOR": "POTW", "CWP_MAJOR_MINOR_STATUS": "Major", "CWP_PERMIT_STATUS_DESC": "Admin Continued", "STATE_WATER_BODY_NAME": null, "CWP_CSO_FLAG": "N"}}, {"type": "Feature", "geometry": {"type": "Point", "coordinates": [-82.4708362532121, 34.6100065412079]}, "properties": {"CWP_NAME": "WILLIAMSTON BIG CREEK WWTP", "CWP_STREET": "59 GATE COURT", "CWP_CITY": "WILLIAMSTON", "CWP_STATE": "SC", "CWP_ZIP": "29697", "CWP_COUNTY": null, "NPDES_ID": "SC0046841", "REGISTRY_ID": "110006623403", "CWP_FACILITY_TYPE_INDICATOR": "POTW", "CWP_MAJOR_MINOR_STATUS": "Major", "CWP_PERMIT_STATUS_DESC": "Effective", "STATE_WATER_BODY_NAME": null, "CWP_CSO_FLAG": "N"}}, {"type": "Feature", "geometry": {"type": "Point", "coordinates": [-80.2136136715183, 34.2236173178302]}, "properties": {"CWP_NAME": "BISHOPVILLE WWTF", "CWP_STREET": "1022 LAGOON LANE", "CWP_CITY": "BISHOPVILLE", "CWP_STATE": "SC", "CWP_ZIP": "29010", "CWP_COUNTY": null, "NPDES_ID": "SC0035378", "REGISTRY_ID": "110000570481", "CWP_FACILITY_TYPE_INDICATOR": "POTW", "CWP_MAJOR_MINOR_STATUS": "Major", "CWP_PERMIT_STATUS_DESC": "Effective", "STATE_WATER_BODY_NAME": null, "CWP_CSO_FLAG": "N"}}, {"type": "Feature", "geometry": {"type": "Point", "coordinates": [-82.0003368938176, 34.4851455581696]}, "properties": {"CWP_NAME": "LAURENS COMM OF PW LAURENS LITTLE RV WPCP", "CWP_STREET": "COMMISSION DRIVE (SECONDARY ROAD #467)", "CWP_CITY": "LAURENS", "CWP_STATE": "SC", "CWP_ZIP": "29360", "CWP_COUNTY": "Laurens", "NPDES_ID": "SC0020702", "REGISTRY_ID": "110006623314", "CWP_FACILITY_TYPE_INDICATOR": "POTW", "CWP_MAJOR_MINOR_STATUS": "Major", "CWP_PERMIT_STATUS_DESC": "Admin Continued", "STATE_WATER_BODY_NAME": null, "CWP_CSO_FLAG": "N"}}, {"type": "Feature", "geometry": {"type": "Point", "coordinates": [-80.9583011486976, 34.955984855068]}, "properties": {"CWP_NAME": "ROCK HILL MANCHESTER CREEK", "CWP_STREET": "310 RED RIVER RD", "CWP_CITY": "ROCK HILL", "CWP_STATE": "SC", "CWP_ZIP": "29730", "CWP_COUNTY": null, "NPDES_ID": "SC0020443", "REGISTRY_ID": "110064637932", "CWP_FACILITY_TYPE_INDICATOR": "POTW", "CWP_MAJOR_MINOR_STATUS": "Major", "CWP_PERMIT_STATUS_DESC": "Admin Continued", "STATE_WATER_BODY_NAME": null, "CWP_CSO_FLAG": "N"}}, {"type": "Feature", "geometry": {"type": "Point", "coordinates": [-79.3497246645946, 34.4008395872989]}, "properties": {"CWP_NAME": "DILLON LITTLE PEE DEE", "CWP_STREET": "2108 SUGAR HILL ROAD", "CWP_CITY": "DILLON", "CWP_STATE": "SC", "CWP_ZIP": "29536", "CWP_COUNTY": null, "NPDES_ID": "SC0021776", "REGISTRY_ID": "110009794366", "CWP_FACILITY_TYPE_INDICATOR": "POTW", "CWP_MAJOR_MINOR_STATUS": "Major", "CWP_PERMIT_STATUS_DESC": "Admin Continued", "STATE_WATER_BODY_NAME": "LITTLE PEE DEE RIVER", "CWP_CSO_FLAG": "N"}}, {"type": "Feature", "geometry": {"type": "Point", "coordinates": [-80.4000027385563, 34.6333395315741]}, "properties": {"CWP_NAME": "JEFFERSON WWTF", "CWP_STREET": "PO BOX 306", "CWP_CITY": "JEFFERSON", "CWP_STATE": "SC", "CWP_ZIP": "29718", "CWP_COUNTY": "Chesterfield", "NPDES_ID": "SC0024767", "REGISTRY_ID": "110009794231", "CWP_FACILITY_TYPE_INDICATOR": "POTW", "CWP_MAJOR_MINOR_STATUS": "Minor", "CWP_PERMIT_STATUS_DESC": "Admin Continued", "STATE_WATER_BODY_NAME": null, "CWP_CSO_FLAG": "N"}}, {"type": "Feature", "geometry": {"type": "Point", "coordinates": [-80.8713924298701, 34.785006613365]}, "properties": {"CWP_NAME": "LANCASTER CO P&D FOSTER PLANT", "CWP_STREET": "2213 INDUSTRIAL PARK RD", "CWP_CITY": "LANCASTER", "CWP_STATE": "SC", "CWP_ZIP": "29720", "CWP_COUNTY": "Lancaster", "NPDES_ID": "SCG570031", "REGISTRY_ID": "110009794035", "CWP_FACILITY_TYPE_INDICATOR": "POTW", "CWP_MAJOR_MINOR_STATUS": "Minor", "CWP_PERMIT_STATUS_DESC": "Admin Continued", "STATE_WATER_BODY_NAME": null, "CWP_CSO_FLAG": "N"}}, {"type": "Feature", "geometry": {"type": "Point", "coordinates": [-82.2300040471489, 34.8583399969952]}, "properties": {"CWP_NAME": "REWA PELHAM WWTP", "CWP_STREET": "2750 EAST PHILLIPS ROAD", "CWP_CITY": "GREER", "CWP_STATE": "SC", "CWP_ZIP": "29650", "CWP_COUNTY": null, "NPDES_ID": "SC0033804", "REGISTRY_ID": "110000565040", "CWP_FACILITY_TYPE_INDICATOR": "POTW", "CWP_MAJOR_MINOR_STATUS": "Major", "CWP_PERMIT_STATUS_DESC": "Effective", "STATE_WATER_BODY_NAME": null, "CWP_CSO_FLAG": "N"}}, {"type": "Feature", "geometry": {"type": "Point", "coordinates": [-79.421113713777, 33.2361174520348]}, "properties": {"CWP_NAME": "GCW&SD NORTH SANTEE WWTP", "CWP_STREET": "566 EARL RD", "CWP_CITY": "GEORGETOWN", "CWP_STATE": "SC", "CWP_ZIP": "294405526", "CWP_COUNTY": "Georgetown", "NPDES_ID": "SC0042439", "REGISTRY_ID": "110009793223", "CWP_FACILITY_TYPE_INDICATOR": "POTW", "CWP_MAJOR_MINOR_STATUS": "Minor", "CWP_PERMIT_STATUS_DESC": "Effective", "STATE_WATER_BODY_NAME": null, "CWP_CSO_FLAG": "N"}}, {"type": "Feature", "geometry": {"type": "Point", "coordinates": [-78.6872244639878, 33.8322287308494]}, "properties": {"CWP_NAME": "N MYRTLE BEACH OCEAN DRIVE", "CWP_STREET": "1189 6TH AVENUE SOUTH", "CWP_CITY": "NORTH MYRTLE BEACH", "CWP_STATE": "SC", "CWP_ZIP": "29582", "CWP_COUNTY": "Horry", "NPDES_ID": "SC0022152", "REGISTRY_ID": "110002044387", "CWP_FACILITY_TYPE_INDICATOR": "POTW", "CWP_MAJOR_MINOR_STATUS": "Major", "CWP_PERMIT_STATUS_DESC": "Effective", "STATE_WATER_BODY_NAME": "ATLANTIC INTRACOASTAL WATERWAY, WACCAMAW RIVER", "CWP_CSO_FLAG": "N"}}, {"type": "Feature", "geometry": {"type": "Point", "coordinates": [-79.5650026220127, 33.9966733716767]}, "properties": {"CWP_NAME": "PAMPLICO TOWN OF", "CWP_STREET": "EVANS RD", "CWP_CITY": "PAMPLICO", "CWP_STATE": "SC", "CWP_ZIP": "29583", "CWP_COUNTY": "Florence", "NPDES_ID": "SC0021351", "REGISTRY_ID": "110006184020", "CWP_FACILITY_TYPE_INDICATOR": "POTW", "CWP_MAJOR_MINOR_STATUS": "Minor", "CWP_PERMIT_STATUS_DESC": "Effective", "STATE_WATER_BODY_NAME": "GREAT PEE DEE RIVER", "CWP_CSO_FLAG": "N"}}, {"type": "Feature", "geometry": {"type": "Point", "coordinates": [-79.9219391246906, 33.4251405828537]}, "properties": {"CWP_NAME": "BCWS UPPER BERKELEY ST STEPHEN WWTP", "CWP_STREET": "1401 HICKORY ST", "CWP_CITY": "ST. STEPHEN", "CWP_STATE": "SC", "CWP_ZIP": "29479", "CWP_COUNTY": "Berkeley", "NPDES_ID": "SC0025259", "REGISTRY_ID": "110002177000", "CWP_FACILITY_TYPE_INDICATOR": "POTW", "CWP_MAJOR_MINOR_STATUS": "Minor", "CWP_PERMIT_STATUS_DESC": "Effective", "STATE_WATER_BODY_NAME": "SANTEE RIVER", "CWP_CSO_FLAG": "N"}}, {"type": "Feature", "geometry": {"type": "Point", "coordinates": [-81.2027809167914, 32.8936177102276]}, "properties": {"CWP_NAME": "LRWS TOWN OF BRUNSON WWTP", "CWP_STREET": "SR 69 @ COOSAWHATCHIE RIVER", "CWP_CITY": "BRUNSON", "CWP_STATE": "SC", "CWP_ZIP": "29911", "CWP_COUNTY": "Hampton", "NPDES_ID": "SC0042382", "REGISTRY_ID": "110006170810", "CWP_FACILITY_TYPE_INDICATOR": "POTW", "CWP_MAJOR_MINOR_STATUS": "Minor", "CWP_PERMIT_STATUS_DESC": "Admin Continued", "STATE_WATER_BODY_NAME": null, "CWP_CSO_FLAG": "N"}}, {"type": "Feature", "geometry": {"type": "Point", "coordinates": [-79.2533352890974, 34.2033394325879]}, "properties": {"CWP_NAME": "GSW&SA MULLINS WWTP", "CWP_STREET": "1615 OLD STAGE ROAD", "CWP_CITY": "MULLINS", "CWP_STATE": "SC", "CWP_ZIP": "29574", "CWP_COUNTY": "Marion", "NPDES_ID": "SC0029408", "REGISTRY_ID": "110000564390", "CWP_FACILITY_TYPE_INDICATOR": "POTW", "CWP_MAJOR_MINOR_STATUS": "Major", "CWP_PERMIT_STATUS_DESC": "Effective", "STATE_WATER_BODY_NAME": null, "CWP_CSO_FLAG": "N"}}, {"type": "Feature", "geometry": {"type": "Point", "coordinates": [-83.0241415996676, 34.4858308039825]}, "properties": {"CWP_NAME": "SCDPRT I-85 INFO & RA", "CWP_STREET": "100 WELCOME CENTER PL", "CWP_CITY": "FAIRPLAY", "CWP_STATE": "SC", "CWP_ZIP": "29646", "CWP_COUNTY": "Oconee", "NPDES_ID": "SCG570035", "REGISTRY_ID": "110010686221", "CWP_FACILITY_TYPE_INDICATOR": "POTW", "CWP_MAJOR_MINOR_STATUS": "Minor", "CWP_PERMIT_STATUS_DESC": "Admin Continued", "STATE_WATER_BODY_NAME": null, "CWP_CSO_FLAG": "N"}}, {"type": "Feature", "geometry": {"type": "Point", "coordinates": [-79.0852806961171, 33.5619509064333]}, "properties": {"CWP_NAME": "GCW&SD MURRELLS INLET WWTF", "CWP_STREET": "1441 POND ROAD", "CWP_CITY": "MURRELLS INLET", "CWP_STATE": "SC", "CWP_ZIP": "29585", "CWP_COUNTY": "Georgetown", "NPDES_ID": "SC0040959", "REGISTRY_ID": "110000545615", "CWP_FACILITY_TYPE_INDICATOR": "POTW", "CWP_MAJOR_MINOR_STATUS": "Major", "CWP_PERMIT_STATUS_DESC": "Effective", "STATE_WATER_BODY_NAME": "WACCAMAW RIVER", "CWP_CSO_FLAG": "N"}}, {"type": "Feature", "geometry": {"type": "Point", "coordinates": [-80.7613917633319, 33.6447289666917]}, "properties": {"CWP_NAME": "ST MATTHEWS SOUTH PLANT", "CWP_STREET": "END OF SR S-9-37 SW OF ST MATTHEWS", "CWP_CITY": "ST MATTHEWS", "CWP_STATE": "SC", "CWP_ZIP": "29135", "CWP_COUNTY": "Calhoun", "NPDES_ID": "SC0028801", "REGISTRY_ID": "110006692999", "CWP_FACILITY_TYPE_INDICATOR": "POTW", "CWP_MAJOR_MINOR_STATUS": "Minor", "CWP_PERMIT_STATUS_DESC": "Terminated", "STATE_WATER_BODY_NAME": null, "CWP_CSO_FLAG": "N"}}, {"type": "Feature", "geometry": {"type": "Point", "coordinates": [-82.5344480276706, 34.7836179988898]}, "properties": {"CWP_NAME": "EASLEY MIDDLE BRANCH WWTP", "CWP_STREET": "2321 OLD PENDLETON RD", "CWP_CITY": "EASLEY", "CWP_STATE": "SC", "CWP_ZIP": "29642", "CWP_COUNTY": "Pickens", "NPDES_ID": "SC0039853", "REGISTRY_ID": "110000559645", "CWP_FACILITY_TYPE_INDICATOR": "POTW", "CWP_MAJOR_MINOR_STATUS": "Major", "CWP_PERMIT_STATUS_DESC": "Admin Continued", "STATE_WATER_BODY_NAME": "MIDDLE BRANCH BRUSHY CREEK", "CWP_CSO_FLAG": "N"}}, {"type": "Feature", "geometry": {"type": "Point", "coordinates": [-82.1250027578199, 34.6083401098537]}, "properties": {"CWP_NAME": "S&S WASHERETTE", "CWP_STREET": "9405 HWY 101 S", "CWP_CITY": "GRAY COURT", "CWP_STATE": "SC", "CWP_ZIP": "29645", "CWP_COUNTY": "Laurens", "NPDES_ID": "SCG570032", "REGISTRY_ID": "110002186526", "CWP_FACILITY_TYPE_INDICATOR": "POTW", "CWP_MAJOR_MINOR_STATUS": "Minor", "CWP_PERMIT_STATUS_DESC": "Admin Continued", "STATE_WATER_BODY_NAME": null, "CWP_CSO_FLAG": "N"}}, {"type": "Feature", "geometry": {"type": "Point", "coordinates": [-79.3147023067229, 33.3772067269966]}, "properties": {"CWP_NAME": "CITY OF GEORGETOWN WWTP", "CWP_STREET": "126 RIDGE RD", "CWP_CITY": "GEORGETOWN", "CWP_STATE": "SC", "CWP_ZIP": "29440", "CWP_COUNTY": "Georgetown", "NPDES_ID": "SC0040029", "REGISTRY_ID": "110006623154", "CWP_FACILITY_TYPE_INDICATOR": "POTW", "CWP_MAJOR_MINOR_STATUS": "Major", "CWP_PERMIT_STATUS_DESC": "Effective", "STATE_WATER_BODY_NAME": "SAMPIT RIVER", "CWP_CSO_FLAG": "N"}}, {"type": "Feature", "geometry": {"type": "Point", "coordinates": [-82.1586032478203, 34.7897064244254]}, "properties": {"CWP_NAME": "REWA GILDER CK WWTP", "CWP_STREET": "2824 EAST GEORGIA ROAD", "CWP_CITY": "SIMPSONVILLE", "CWP_STATE": "SC", "CWP_ZIP": "29681", "CWP_COUNTY": "Greenville", "NPDES_ID": "SC0040525", "REGISTRY_ID": "110000762559", "CWP_FACILITY_TYPE_INDICATOR": "POTW", "CWP_MAJOR_MINOR_STATUS": "Major", "CWP_PERMIT_STATUS_DESC": "Effective", "STATE_WATER_BODY_NAME": "ENOREE RIVER", "CWP_CSO_FLAG": "N"}}, {"type": "Feature", "geometry": {"type": "Point", "coordinates": [-81.1472181468526, 34.1341185343983]}, "properties": {"CWP_NAME": "RICHLAND CO BROAD RIVER WWTF", "CWP_STREET": "1183 SHADYWOOD LANE", "CWP_CITY": "IRMO", "CWP_STATE": "SC", "CWP_ZIP": "29063", "CWP_COUNTY": "Richland", "NPDES_ID": "SC0046621", "REGISTRY_ID": "110019951952", "CWP_FACILITY_TYPE_INDICATOR": "POTW", "CWP_MAJOR_MINOR_STATUS": "Major", "CWP_PERMIT_STATUS_DESC": "Effective", "STATE_WATER_BODY_NAME": "BROAD RIVER", "CWP_CSO_FLAG": "N"}}, {"type": "Feature", "geometry": {"type": "Point", "coordinates": [-81.3597252661278, 33.2222282550311]}, "properties": {"CWP_NAME": "BARNWELL CITY OF WWTF (NEW)", "CWP_STREET": "356 SEAY STREET", "CWP_CITY": "BARNWELL", "CWP_STATE": "SC", "CWP_ZIP": "29812", "CWP_COUNTY": "Edgefield", "NPDES_ID": "SC0047872", "REGISTRY_ID": "110039814252", "CWP_FACILITY_TYPE_INDICATOR": "POTW", "CWP_MAJOR_MINOR_STATUS": "Major", "CWP_PERMIT_STATUS_DESC": "Admin Continued", "STATE_WATER_BODY_NAME": "SALKEHATCHIE RIVER", "CWP_CSO_FLAG": "N"}}, {"type": "Feature", "geometry": {"type": "Point", "coordinates": [-80.9638922013426, 34.3027846286609]}, "properties": {"CWP_NAME": "RIDGEWAY TOWN OF", "CWP_STREET": "6348 PEACH ST", "CWP_CITY": "RIDGEWAY", "CWP_STATE": "SC", "CWP_ZIP": "29130", "CWP_COUNTY": "Fairfield", "NPDES_ID": "SC0022900", "REGISTRY_ID": "110002175654", "CWP_FACILITY_TYPE_INDICATOR": "POTW", "CWP_MAJOR_MINOR_STATUS": "Minor", "CWP_PERMIT_STATUS_DESC": "Effective", "STATE_WATER_BODY_NAME": null, "CWP_CSO_FLAG": "N"}}, {"type": "Feature", "geometry": {"type": "Point", "coordinates": [-81.7747256697451, 33.8180625021854]}, "properties": {"CWP_NAME": "ECW&SA JOHNSTON #1 WWTP", "CWP_STREET": "1 SERTOMA DRIVE", "CWP_CITY": "JOHNSTON", "CWP_STATE": "SC", "CWP_ZIP": "29832", "CWP_COUNTY": "Edgefield", "NPDES_ID": "SC0025691", "REGISTRY_ID": "110017197451", "CWP_FACILITY_TYPE_INDICATOR": "POTW", "CWP_MAJOR_MINOR_STATUS": "Minor", "CWP_PERMIT_STATUS_DESC": "Expired", "STATE_WATER_BODY_NAME": null, "CWP_CSO_FLAG": "N"}}, {"type": "Feature", "geometry": {"type": "Point", "coordinates": [-81.2947033763753, 33.4844067719632]}, "properties": {"CWP_NAME": "SPRINGFIELD WWTP #1", "CWP_STREET": "SC HWY 39 SW SPRINIGFIELD", "CWP_CITY": "SPRINGFIELD", "CWP_STATE": "SC", "CWP_ZIP": "29146", "CWP_COUNTY": "Orangeburg", "NPDES_ID": "SCG570039", "REGISTRY_ID": "110017314985", "CWP_FACILITY_TYPE_INDICATOR": "POTW", "CWP_MAJOR_MINOR_STATUS": "Minor", "CWP_PERMIT_STATUS_DESC": "Admin Continued", "STATE_WATER_BODY_NAME": null, "CWP_CSO_FLAG": "N"}}, {"type": "Feature", "geometry": {"type": "Point", "coordinates": [-81.2947033763753, 33.4844067719632]}, "properties": {"CWP_NAME": "SPRINGFIELD WWTP #1", "CWP_STREET": "SEC HWY 39 SW SPRINIGFIELD", "CWP_CITY": "SPRINGFIELD", "CWP_STATE": "SC", "CWP_ZIP": "29146", "CWP_COUNTY": "Orangeburg", "NPDES_ID": "SC0023272", "REGISTRY_ID": "110017314985", "CWP_FACILITY_TYPE_INDICATOR": "POTW", "CWP_MAJOR_MINOR_STATUS": "Minor", "CWP_PERMIT_STATUS_DESC": "Terminated", "STATE_WATER_BODY_NAME": "S FORK EDISTO RV", "CWP_CSO_FLAG": "N"}}, {"type": "Feature", "geometry": {"type": "Point", "coordinates": [-81.3091699093771, 34.1711175450439]}, "properties": {"CWP_NAME": "CHAPIN TOWN OF WWTP", "CWP_STREET": "525 HOLLYOAK LN", "CWP_CITY": "CHAPIN", "CWP_STATE": "SC", "CWP_ZIP": "29036", "CWP_COUNTY": "Lexington", "NPDES_ID": "SC0040631", "REGISTRY_ID": "110006623083", "CWP_FACILITY_TYPE_INDICATOR": "POTW", "CWP_MAJOR_MINOR_STATUS": "Major", "CWP_PERMIT_STATUS_DESC": "Effective", "STATE_WATER_BODY_NAME": "BROAD RIVER", "CWP_CSO_FLAG": "N"}}, {"type": "Feature", "geometry": {"type": "Point", "coordinates": [-78.7261138593228, 33.8411176306631]}, "properties": {"CWP_NAME": "GSW&SA VEREEN WWTP", "CWP_STREET": "649 WATER LILLY RD", "CWP_CITY": "LONGS", "CWP_STATE": "SC", "CWP_ZIP": "29568", "CWP_COUNTY": null, "NPDES_ID": "SC0041696", "REGISTRY_ID": "110009793438", "CWP_FACILITY_TYPE_INDICATOR": "POTW", "CWP_MAJOR_MINOR_STATUS": "Major", "CWP_PERMIT_STATUS_DESC": "Admin Continued", "STATE_WATER_BODY_NAME": "ATLANTIC INTRACOASTAL WATERWAY", "CWP_CSO_FLAG": "N"}}, {"type": "Feature", "geometry": {"type": "Point", "coordinates": [-81.8108361880131, 34.3911178275869]}, "properties": {"CWP_NAME": "LAURENS CO W&S CLINTON-JOANNA", "CWP_STREET": "1076 TREATMENT PLANT RD", "CWP_CITY": "KINARDS", "CWP_STATE": "SC", "CWP_ZIP": "29355", "CWP_COUNTY": "Laurens", "NPDES_ID": "SC0037974", "REGISTRY_ID": "110000708413", "CWP_FACILITY_TYPE_INDICATOR": "POTW", "CWP_MAJOR_MINOR_STATUS": "Major", "CWP_PERMIT_STATUS_DESC": "Admin Continued", "STATE_WATER_BODY_NAME": "BUSH RIVER", "CWP_CSO_FLAG": "N"}}, {"type": "Feature", "geometry": {"type": "Point", "coordinates": [-80.7538231200601, 34.7008426464125]}, "properties": {"CWP_NAME": "LANCASTER CO INDIANLAND WWTP", "CWP_STREET": "7864 RIVER RD", "CWP_CITY": "INDIAN LAND", "CWP_STATE": "SC", "CWP_ZIP": "29707", "CWP_COUNTY": "Lancaster", "NPDES_ID": "SC0047864", "REGISTRY_ID": "110006623289", "CWP_FACILITY_TYPE_INDICATOR": "POTW", "CWP_MAJOR_MINOR_STATUS": "Major", "CWP_PERMIT_STATUS_DESC": "Effective", "STATE_WATER_BODY_NAME": "CATAWBA RIVER", "CWP_CSO_FLAG": "N"}}, {"type": "Feature", "geometry": {"type": "Point", "coordinates": [-79.1523638519582, 33.6983547066918]}, "properties": {"CWP_NAME": "GSW&SA YAUHANNAH TREE FARM", "CWP_STREET": "LUCAS BAY RD", "CWP_CITY": "CONWAY", "CWP_STATE": "SC", "CWP_ZIP": "29527", "CWP_COUNTY": "Horry", "NPDES_ID": "SC0048461", "REGISTRY_ID": "110028273384", "CWP_FACILITY_TYPE_INDICATOR": "POTW", "CWP_MAJOR_MINOR_STATUS": "Minor", "CWP_PERMIT_STATUS_DESC": "Admin Continued", "STATE_WATER_BODY_NAME": null, "CWP_CSO_FLAG": "N"}}, {"type": "Feature", "geometry": {"type": "Point", "coordinates": [-82.7670640334666, 34.6921767037308]}, "properties": {"CWP_NAME": "PICKENS CO 18-MILE CREEK MIDDLE  WWTF", "CWP_STREET": "467 WILLIE WONKA DR", "CWP_CITY": "CENTRAL", "CWP_STATE": "SC", "CWP_ZIP": "29630", "CWP_COUNTY": "Pickens", "NPDES_ID": "SC0047856", "REGISTRY_ID": "110002186777", "CWP_FACILITY_TYPE_INDICATOR": "POTW", "CWP_MAJOR_MINOR_STATUS": "Major", "CWP_PERMIT_STATUS_DESC": "Effective", "STATE_WATER_BODY_NAME": null, "CWP_CSO_FLAG": "N"}}, {"type": "Feature", "geometry": {"type": "Point", "coordinates": [-82.4258368666928, 34.6825063044244]}, "properties": {"CWP_NAME": "REWA/GROVE CREEK WWTP", "CWP_STREET": "250 OWENS RD", "CWP_CITY": "PIEDMONT", "CWP_STATE": "SC", "CWP_ZIP": "29673", "CWP_COUNTY": "Greenville", "NPDES_ID": "SC0024317", "REGISTRY_ID": "110002309001", "CWP_FACILITY_TYPE_INDICATOR": "POTW", "CWP_MAJOR_MINOR_STATUS": "Major", "CWP_PERMIT_STATUS_DESC": "Terminated", "STATE_WATER_BODY_NAME": "GROVE CK", "CWP_CSO_FLAG": "N"}}, {"type": "Feature", "geometry": {"type": "Point", "coordinates": [-81.9136142920427, 33.4697280129693]}, "properties": {"CWP_NAME": "AIKEN PSA HORSE CREEK WWTF", "CWP_STREET": "70 PSA RD", "CWP_CITY": "BEECH ISLAND", "CWP_STATE": "SC", "CWP_ZIP": "29842", "CWP_COUNTY": null, "NPDES_ID": "SC0024457", "REGISTRY_ID": "110000706941", "CWP_FACILITY_TYPE_INDICATOR": "POTW", "CWP_MAJOR_MINOR_STATUS": "Major", "CWP_PERMIT_STATUS_DESC": "Admin Continued", "STATE_WATER_BODY_NAME": null, "CWP_CSO_FLAG": "N"}}, {"type": "Feature", "geometry": {"type": "Point", "coordinates": [-80.7465924574128, 32.4021282240023]}, "properties": {"CWP_NAME": "BJW&SA PORT ROYAL WTR RECL FAC", "CWP_STREET": "285 CASTLE ROCK RD", "CWP_CITY": "PORT ROYAL", "CWP_STATE": "SC", "CWP_ZIP": "29935", "CWP_COUNTY": null, "NPDES_ID": "SC0048348", "REGISTRY_ID": "110064628817", "CWP_FACILITY_TYPE_INDICATOR": "POTW", "CWP_MAJOR_MINOR_STATUS": "Major", "CWP_PERMIT_STATUS_DESC": "Admin Continued", "STATE_WATER_BODY_NAME": "BEAUFORT RIVER", "CWP_CSO_FLAG": "N"}}, {"type": "Feature", "geometry": {"type": "Point", "coordinates": [-79.1594469455434, 34.344451189747]}, "properties": {"CWP_NAME": "GSW&SA TOWN OF LAKE VIEW WWTP", "CWP_STREET": "OFF HWY 9", "CWP_CITY": "LAKE VIEW", "CWP_STATE": "SC", "CWP_ZIP": "29563", "CWP_COUNTY": "Dillon", "NPDES_ID": "SC0022284", "REGISTRY_ID": "110009794268", "CWP_FACILITY_TYPE_INDICATOR": "POTW", "CWP_MAJOR_MINOR_STATUS": "Minor", "CWP_PERMIT_STATUS_DESC": "Effective", "STATE_WATER_BODY_NAME": null, "CWP_CSO_FLAG": "N"}}, {"type": "Feature", "geometry": {"type": "Point", "coordinates": [-82.3866704619958, 34.3333399500673]}, "properties": {"CWP_NAME": "DUE WEST WWTF", "CWP_STREET": "SR#44 @ PARK CREEK", "CWP_CITY": "DUE WEST", "CWP_STATE": "SC", "CWP_ZIP": "29639", "CWP_COUNTY": "Abbeville", "NPDES_ID": "SC0022403", "REGISTRY_ID": "110009794277", "CWP_FACILITY_TYPE_INDICATOR": "POTW", "CWP_MAJOR_MINOR_STATUS": "Minor", "CWP_PERMIT_STATUS_DESC": "Admin Continued", "STATE_WATER_BODY_NAME": null, "CWP_CSO_FLAG": "N"}}, {"type": "Feature", "geometry": {"type": "Point", "coordinates": [-80.2294471128501, 33.6666733468014]}, "properties": {"CWP_NAME": "MANNING WWTF", "CWP_STREET": "1 WASTEWATER LN", "CWP_CITY": "MANNING", "CWP_STATE": "SC", "CWP_ZIP": "29102", "CWP_COUNTY": "Clarendon", "NPDES_ID": "SC0020419", "REGISTRY_ID": "110002041326", "CWP_FACILITY_TYPE_INDICATOR": "POTW", "CWP_MAJOR_MINOR_STATUS": "Major", "CWP_PERMIT_STATUS_DESC": "Effective", "STATE_WATER_BODY_NAME": null, "CWP_CSO_FLAG": "N"}}, {"type": "Feature", "geometry": {"type": "Point", "coordinates": [-79.7950024487679, 32.7866730523811]}, "properties": {"CWP_NAME": "ISLE OF PALMS FOREST TRAIL SD", "CWP_STREET": "41ST AVENUE AND WATERWAY BLVD", "CWP_CITY": "ISLE OF PALMS/FTWWTP", "CWP_STATE": "SC", "CWP_ZIP": "29451", "CWP_COUNTY": "Charleston", "NPDES_ID": "SC0025283", "REGISTRY_ID": "110009794071", "CWP_FACILITY_TYPE_INDICATOR": "POTW", "CWP_MAJOR_MINOR_STATUS": "Minor", "CWP_PERMIT_STATUS_DESC": "Effective", "STATE_WATER_BODY_NAME": "INTRACOASTAL WATERWAY", "CWP_CSO_FLAG": "N"}}, {"type": "Feature", "geometry": {"type": "Point", "coordinates": [-81.0266702765557, 33.9441735870947]}, "properties": {"CWP_NAME": "CAYCE WWTP", "CWP_STREET": "12TH STREET EXTENSION", "CWP_CITY": "WEST COLUMBIA", "CWP_STATE": "SC", "CWP_ZIP": "29172", "CWP_COUNTY": null, "NPDES_ID": "SC0024147", "REGISTRY_ID": "110000557905", "CWP_FACILITY_TYPE_INDICATOR": "POTW", "CWP_MAJOR_MINOR_STATUS": "Major", "CWP_PERMIT_STATUS_DESC": "Effective", "STATE_WATER_BODY_NAME": null, "CWP_CSO_FLAG": "N"}}, {"type": "Feature", "geometry": {"type": "Point", "coordinates": [-81.8733364313215, 35.1436176144813]}, "properties": {"CWP_NAME": "SPARTANBURG SANITARY SEWER DISTRICT/CHESNEE WWTP", "CWP_STREET": "295 JERRY COPELAND DRIVE", "CWP_CITY": "CHESNEE", "CWP_STATE": "SC", "CWP_ZIP": "29323", "CWP_COUNTY": null, "NPDES_ID": "SC0025763", "REGISTRY_ID": "110002239257", "CWP_FACILITY_TYPE_INDICATOR": "POTW", "CWP_MAJOR_MINOR_STATUS": "Minor", "CWP_PERMIT_STATUS_DESC": "Admin Continued", "STATE_WATER_BODY_NAME": "LITTLE BUCK CREEK", "CWP_CSO_FLAG": "N"}}, {"type": "Feature", "geometry": {"type": "Point", "coordinates": [-82.0550040185099, 34.8447287614262]}, "properties": {"CWP_NAME": "SSSD S TYGER RV REGIONAL WWTP", "CWP_STREET": "130 RIVER FARM RD", "CWP_CITY": "MOORE", "CWP_STATE": "SC", "CWP_ZIP": "29369", "CWP_COUNTY": "Spartanburg", "NPDES_ID": "SC0047732", "REGISTRY_ID": "110009705060", "CWP_FACILITY_TYPE_INDICATOR": "POTW", "CWP_MAJOR_MINOR_STATUS": "Major", "CWP_PERMIT_STATUS_DESC": "Effective", "STATE_WATER_BODY_NAME": "SOUTH TYGER RIVER", "CWP_CSO_FLAG": "N"}}, {"type": "Feature", "geometry": {"type": "Point", "coordinates": [-82.0594475360891, 34.208062575263]}, "properties": {"CWP_NAME": "GREENWOOD WILSON CREEK WWTF", "CWP_STREET": "482 WILSON CREEK RD", "CWP_CITY": "GREENWOOD", "CWP_STATE": "SC", "CWP_ZIP": "29646", "CWP_COUNTY": "Greenwood", "NPDES_ID": "SC0021709", "REGISTRY_ID": "110000710115", "CWP_FACILITY_TYPE_INDICATOR": "POTW", "CWP_MAJOR_MINOR_STATUS": "Major", "CWP_PERMIT_STATUS_DESC": "Effective", "STATE_WATER_BODY_NAME": null, "CWP_CSO_FLAG": "N"}}, {"type": "Feature", "geometry": {"type": "Point", "coordinates": [-80.7278048096563, 34.3808979682362]}, "properties": {"CWP_NAME": "USAF WATEREE RECREATION FAC", "CWP_STREET": "2030 BARON DEKALB RD", "CWP_CITY": "CAMDEN", "CWP_STATE": "SC", "CWP_ZIP": "29202", "CWP_COUNTY": "Kershaw", "NPDES_ID": "SCG570034", "REGISTRY_ID": "110006796253", "CWP_FACILITY_TYPE_INDICATOR": "NON-POTW", "CWP_MAJOR_MINOR_STATUS": "Minor", "CWP_PERMIT_STATUS_DESC": "Admin Continued", "STATE_WATER_BODY_NAME": null, "CWP_CSO_FLAG": "N"}}, {"type": "Feature", "geometry": {"type": "Point", "coordinates": [-79.0659335872158, 33.8193998865901]}, "properties": {"CWP_NAME": "GSW&SA CONWAY WWTP", "CWP_STREET": "NEW ROAD", "CWP_CITY": "CONWAY", "CWP_STATE": "SC", "CWP_ZIP": "29527", "CWP_COUNTY": "Horry", "NPDES_ID": "SC0021733", "REGISTRY_ID": "110006623243", "CWP_FACILITY_TYPE_INDICATOR": "POTW", "CWP_MAJOR_MINOR_STATUS": "Major", "CWP_PERMIT_STATUS_DESC": "Admin Continued", "STATE_WATER_BODY_NAME": null, "CWP_CSO_FLAG": "N"}}, {"type": "Feature", "geometry": {"type": "Point", "coordinates": [-82.6050439323469, 34.8312568938008]}, "properties": {"CWP_NAME": "EASLEY GOLDEN CREEK LAGOON", "CWP_STREET": "1267 HIGHLAND ROAD", "CWP_CITY": "EASLEY", "CWP_STATE": "SC", "CWP_ZIP": "29640", "CWP_COUNTY": "Pickens", "NPDES_ID": "SC0023035", "REGISTRY_ID": "110002239015", "CWP_FACILITY_TYPE_INDICATOR": "POTW", "CWP_MAJOR_MINOR_STATUS": "Minor", "CWP_PERMIT_STATUS_DESC": "Admin Continued", "STATE_WATER_BODY_NAME": null, "CWP_CSO_FLAG": "N"}}, {"type": "Feature", "geometry": {"type": "Point", "coordinates": [-82.4541709064388, 34.5166739805972]}, "properties": {"CWP_NAME": "BELTON DUCWORTH WWTP", "CWP_STREET": "1408 HIGHWAY 247", "CWP_CITY": "BELTON", "CWP_STATE": "SC", "CWP_ZIP": "29627", "CWP_COUNTY": null, "NPDES_ID": "SC0045896", "REGISTRY_ID": "110000563300", "CWP_FACILITY_TYPE_INDICATOR": "POTW", "CWP_MAJOR_MINOR_STATUS": "Major", "CWP_PERMIT_STATUS_DESC": "Effective", "STATE_WATER_BODY_NAME": null, "CWP_CSO_FLAG": "N"}}, {"type": "Feature", "geometry": {"type": "Point", "coordinates": [-81.8367851998989, 33.727667124801]}, "properties": {"CWP_NAME": "ECW&SA TRENTON WWTF", "CWP_STREET": "SAMUEL E DIGGS RD", "CWP_CITY": "TRENTON", "CWP_STATE": "SC", "CWP_ZIP": "29847", "CWP_COUNTY": "Edgefield", "NPDES_ID": "SCG570030", "REGISTRY_ID": "110016972481", "CWP_FACILITY_TYPE_INDICATOR": "POTW", "CWP_MAJOR_MINOR_STATUS": "Minor", "CWP_PERMIT_STATUS_DESC": "Admin Continued", "STATE_WATER_BODY_NAME": null, "CWP_CSO_FLAG": "N"}}, {"type": "Feature", "geometry": {"type": "Point", "coordinates": [-79.5572244121686, 34.5810745495419]}, "properties": {"CWP_NAME": "CLIO WWTF", "CWP_STREET": "BRANCH RD", "CWP_CITY": "CLIO", "CWP_STATE": "SC", "CWP_ZIP": "29525", "CWP_COUNTY": "Marlboro", "NPDES_ID": "SC0040606", "REGISTRY_ID": "110009793367", "CWP_FACILITY_TYPE_INDICATOR": "POTW", "CWP_MAJOR_MINOR_STATUS": "Minor", "CWP_PERMIT_STATUS_DESC": "Admin Continued", "STATE_WATER_BODY_NAME": null, "CWP_CSO_FLAG": "N"}}, {"type": "Feature", "geometry": {"type": "Point", "coordinates": [-82.9900042329639, 34.6475064605224]}, "properties": {"CWP_NAME": "OJRSA CONEROSS CREEK WWTP", "CWP_STREET": "623 RETURN CHURCH RD", "CWP_CITY": "SENECA", "CWP_STATE": "SC", "CWP_ZIP": "29678", "CWP_COUNTY": "Oconee", "NPDES_ID": "SC0033553", "REGISTRY_ID": "110000354875", "CWP_FACILITY_TYPE_INDICATOR": "POTW", "CWP_MAJOR_MINOR_STATUS": "Major", "CWP_PERMIT_STATUS_DESC": "Effective", "STATE_WATER_BODY_NAME": "CONEROSS CREEK", "CWP_CSO_FLAG": "N"}}]}