{"type": "FeatureCollection", "features": [{"type": "Feature", "geometry": {"type": "Point", "coordinates": [-170.722489836243, -14.3400484365649]}, "properties": {"CWP_NAME": "TAFUNA SEWAGE TREATMENT PLANT", "CWP_STREET": "FOGAGOGO, TUTUILA ISLAND", "CWP_CITY": "PAGO PAGO", "CWP_STATE": "AS", "CWP_ZIP": "96799", "CWP_COUNTY": null, "NPDES_ID": "AS0020010", "REGISTRY_ID": "110039976808", "CWP_FACILITY_TYPE_INDICATOR": "POTW", "CWP_MAJOR_MINOR_STATUS": "Major", "CWP_PERMIT_STATUS_DESC": "Admin Continued", "STATE_WATER_BODY_NAME": "VAI COVE SOUTH PACIFIC OCEAN", "CWP_CSO_FLAG": "N"}}, {"type": "Feature", "geometry": {"type": "Point", "coordinates": [-170.677817804912, -14.2838920841119]}, "properties": {"CWP_NAME": "UTULEI SEWAGE TREATMENT PLANT", "CWP_STREET": "TULUTULU POINT, UTULEI,  TUTUILA ISLAND", "CWP_CITY": "PAGO PAGO", "CWP_STATE": "AS", "CWP_ZIP": "96799", "CWP_COUNTY": null, "NPDES_ID": "AS0020001", "REGISTRY_ID": "110039976755", "CWP_FACILITY_TYPE_INDICATOR": "POTW", "CWP_MAJOR_MINOR_STATUS": "Major", "CWP_PERMIT_STATUS_DESC": "Effective", "STATE_WATER_BODY_NAME": "PAGO PAGO HARBOR SO PACIFIC OCEAN", "CWP_CSO_FLAG": "N"}}]}