{"type": "FeatureCollection", "features": [{"type": "Feature", "geometry": {"type": "Point", "coordinates": [-105.635566245525, 36.3872279900799]}, "properties": {"CWP_NAME": "TOWN OF TAOS WWTP", "CWP_STREET": "182 LOS CORDOVAS 1.9 MILES", "CWP_CITY": "RANCHO DE TAOS", "CWP_STATE": "NM", "CWP_ZIP": "87557", "CWP_COUNTY": "Taos", "NPDES_ID": "NM0024066", "REGISTRY_ID": "110022681267", "CWP_FACILITY_TYPE_INDICATOR": "POTW", "CWP_MAJOR_MINOR_STATUS": "Major", "CWP_PERMIT_STATUS_DESC": "Effective", "STATE_WATER_BODY_NAME": "ARROYO DE LA GUERA RIO PUEBLO DE TA", "CWP_CSO_FLAG": "N"}}, {"type": "Feature", "geometry": {"type": "Point", "coordinates": [-104.232793346555, 34.4443755871927]}, "properties": {"CWP_NAME": "FORT SUMNER WWTP", "CWP_STREET": "1.5 MI S.OF SUMNER AVE.ON 17TH", "CWP_CITY": "FORT SUMNER", "CWP_STATE": "NM", "CWP_ZIP": "88119", "CWP_COUNTY": "DeBaca", "NPDES_ID": "NM0023477", "REGISTRY_ID": "110011027272", "CWP_FACILITY_TYPE_INDICATOR": "POTW", "CWP_MAJOR_MINOR_STATUS": "Minor", "CWP_PERMIT_STATUS_DESC": "Effective", "STATE_WATER_BODY_NAME": "PECOS RIVER", "CWP_CSO_FLAG": "N"}}, {"type": "Feature", "geometry": {"type": "Point", "coordinates": [-108.119815948445, 32.7487591659011]}, "properties": {"CWP_NAME": "CITY OF BAYARD", "CWP_STREET": "1 CENTRAL AVENUE", "CWP_CITY": "BAYARD", "CWP_STATE": "NM", "CWP_ZIP": "88023", "CWP_COUNTY": "Grant", "NPDES_ID": "NM0020231", "REGISTRY_ID": "110006702906", "CWP_FACILITY_TYPE_INDICATOR": "POTW", "CWP_MAJOR_MINOR_STATUS": "Minor", "CWP_PERMIT_STATUS_DESC": "Terminated", "STATE_WATER_BODY_NAME": "WHITEWATER CREEK", "CWP_CSO_FLAG": "N"}}, {"type": "Feature", "geometry": {"type": "Point", "coordinates": [-106.669499615466, 32.0911550652611]}, "properties": {"CWP_NAME": "DONA ANA COUNTY UTILITIES DEPT", "CWP_STREET": "13000 MONTES ROAD,", "CWP_CITY": "LA MESA", "CWP_STATE": "NM", "CWP_ZIP": "88044", "CWP_COUNTY": "Dona Ana", "NPDES_ID": "NM0030490", "REGISTRY_ID": "110017841549", "CWP_FACILITY_TYPE_INDICATOR": "POTW", "CWP_MAJOR_MINOR_STATUS": "Major", "CWP_PERMIT_STATUS_DESC": "Effective", "STATE_WATER_BODY_NAME": "RIO GRANDE RIVER", "CWP_CSO_FLAG": "N"}}, {"type": "Feature", "geometry": {"type": "Point", "coordinates": [-109.044177361176, 35.9013950624]}, "properties": {"CWP_NAME": "NAVAJO TOWNSITE WWTF", "CWP_STREET": ".75 MILES SE OF RED LAKE", "CWP_CITY": "NAVAJO", "CWP_STATE": "NM", "CWP_ZIP": "87328", "CWP_COUNTY": "McKinley", "NPDES_ID": "NN0030335", "REGISTRY_ID": "110022284240", "CWP_FACILITY_TYPE_INDICATOR": "POTW", "CWP_MAJOR_MINOR_STATUS": "Minor", "CWP_PERMIT_STATUS_DESC": "Terminated", "STATE_WATER_BODY_NAME": "BLACK CREEK", "CWP_CSO_FLAG": "N"}}, {"type": "Feature", "geometry": {"type": "Point", "coordinates": [-105.449093361206, 33.7409463924744]}, "properties": {"CWP_NAME": "UNKNOWN", "CWP_STREET": "UNKNOWN", "CWP_CITY": "UNKNOWN", "CWP_STATE": "NM", "CWP_ZIP": "00000", "CWP_COUNTY": "Lincoln", "NPDES_ID": "NM0020249", "REGISTRY_ID": "110028129317", "CWP_FACILITY_TYPE_INDICATOR": "POTW", "CWP_MAJOR_MINOR_STATUS": "Minor", "CWP_PERMIT_STATUS_DESC": "Terminated", "STATE_WATER_BODY_NAME": " 3-8", "CWP_CSO_FLAG": "N"}}, {"type": "Feature", "geometry": {"type": "Point", "coordinates": [-105.999781816529, 35.8642253563391]}, "properties": {"CWP_NAME": "TOWA RESORT WWTP", "CWP_STREET": "17746 US", "CWP_CITY": "SANTA FE", "CWP_STATE": "NM", "CWP_ZIP": "87506", "CWP_COUNTY": "Santa Fe", "NPDES_ID": "NM0030601", "REGISTRY_ID": "110017358955", "CWP_FACILITY_TYPE_INDICATOR": "POTW", "CWP_MAJOR_MINOR_STATUS": "Minor", "CWP_PERMIT_STATUS_DESC": "Terminated", "STATE_WATER_BODY_NAME": "ARROYO CUYAMUNGER", "CWP_CSO_FLAG": "N"}}, {"type": "Feature", "geometry": {"type": "Point", "coordinates": [-107.950675340176, 36.711724874699]}, "properties": {"CWP_NAME": "BLOOMFIELD, CITY OF", "CWP_STREET": "1176 SOUTH CHURCH STREET", "CWP_CITY": "BLOOMFIELD", "CWP_STATE": "NM", "CWP_ZIP": "87413", "CWP_COUNTY": "San Juan", "NPDES_ID": "NM0020770", "REGISTRY_ID": "110039938930", "CWP_FACILITY_TYPE_INDICATOR": "POTW", "CWP_MAJOR_MINOR_STATUS": "Major", "CWP_PERMIT_STATUS_DESC": "Effective", "STATE_WATER_BODY_NAME": "SAN JUAN RIVER", "CWP_CSO_FLAG": "N"}}, {"type": "Feature", "geometry": {"type": "Point", "coordinates": [-107.974660264948, 36.7184455078054]}, "properties": {"CWP_NAME": "UNKNOWN", "CWP_STREET": "UNKNOWN", "CWP_CITY": "BLOOMFIELD", "CWP_STATE": "NM", "CWP_ZIP": "00000", "CWP_COUNTY": "San Juan", "NPDES_ID": "NM0000060", "REGISTRY_ID": "110028118953", "CWP_FACILITY_TYPE_INDICATOR": "POTW", "CWP_MAJOR_MINOR_STATUS": "Minor", "CWP_PERMIT_STATUS_DESC": "Terminated", "STATE_WATER_BODY_NAME": null, "CWP_CSO_FLAG": "N"}}, {"type": "Feature", "geometry": {"type": "Point", "coordinates": [-107.208929322011, 32.6934589890149]}, "properties": {"CWP_NAME": "SALEM WASTEWATER TREAT. PLT.", "CWP_STREET": "INTERSECTION OF NM 187 AND", "CWP_CITY": "SALEM", "CWP_STATE": "NM", "CWP_ZIP": "880118237", "CWP_COUNTY": "Dona Ana", "NPDES_ID": "NM0030457", "REGISTRY_ID": "110009830889", "CWP_FACILITY_TYPE_INDICATOR": "POTW", "CWP_MAJOR_MINOR_STATUS": "Minor", "CWP_PERMIT_STATUS_DESC": "Effective", "STATE_WATER_BODY_NAME": "RIO GRANDE", "CWP_CSO_FLAG": "N"}}, {"type": "Feature", "geometry": {"type": "Point", "coordinates": [-108.217260532747, 36.7172754746444]}, "properties": {"CWP_NAME": "CITY OF FARMINGTON", "CWP_STREET": "1395 SOUTH LAKE STREET", "CWP_CITY": "FARMINGTON", "CWP_STATE": "NM", "CWP_ZIP": "874012663", "CWP_COUNTY": "San Juan", "NPDES_ID": "NM0020583", "REGISTRY_ID": "110017838722", "CWP_FACILITY_TYPE_INDICATOR": "POTW", "CWP_MAJOR_MINOR_STATUS": "Major", "CWP_PERMIT_STATUS_DESC": "Effective", "STATE_WATER_BODY_NAME": "SAN JUAN RIVER", "CWP_CSO_FLAG": "N"}}, {"type": "Feature", "geometry": {"type": "Point", "coordinates": [-108.255747927176, 36.7162745266829]}, "properties": {"CWP_NAME": "NORTHERN EDGE NAVAJO CASINO WWTP", "CWP_STREET": "2752 INDIAN SERVICE ROAD 36", "CWP_CITY": "FARMINGTON", "CWP_STATE": "NM", "CWP_ZIP": "87401", "CWP_COUNTY": "San Juan", "NPDES_ID": "NN0030343", "REGISTRY_ID": "110064631457", "CWP_FACILITY_TYPE_INDICATOR": "POTW", "CWP_MAJOR_MINOR_STATUS": "Minor", "CWP_PERMIT_STATUS_DESC": "Admin Continued", "STATE_WATER_BODY_NAME": "DRAINAGE WASH TRIBUTORY TO SAN JUAN RIVER", "CWP_CSO_FLAG": "N"}}, {"type": "Feature", "geometry": {"type": "Point", "coordinates": [-106.307977751958, 35.8700529462296]}, "properties": {"CWP_NAME": "UNKNOWN", "CWP_STREET": "UNKNOWN", "CWP_CITY": "UNKNOWN", "CWP_STATE": "NM", "CWP_ZIP": "00000", "CWP_COUNTY": "Los Alamos", "NPDES_ID": "NM0020125", "REGISTRY_ID": "110028119104", "CWP_FACILITY_TYPE_INDICATOR": "POTW", "CWP_MAJOR_MINOR_STATUS": "Minor", "CWP_PERMIT_STATUS_DESC": "Terminated", "STATE_WATER_BODY_NAME": "PUEBLO CANYON", "CWP_CSO_FLAG": "N"}}, {"type": "Feature", "geometry": {"type": "Point", "coordinates": [-105.461156204378, 36.5961846095627]}, "properties": {"CWP_NAME": "HATCH, VILLAGE OF, WWTP", "CWP_STREET": "FRANKLIN AVENUE", "CWP_CITY": "DONA ANA COUNTY", "CWP_STATE": "NM", "CWP_ZIP": "87937", "CWP_COUNTY": "Dona Ana", "NPDES_ID": "NM0020010", "REGISTRY_ID": "110009831192", "CWP_FACILITY_TYPE_INDICATOR": "POTW", "CWP_MAJOR_MINOR_STATUS": "Minor", "CWP_PERMIT_STATUS_DESC": "Effective", "STATE_WATER_BODY_NAME": "HATCH DRAIN/RIO GRANDE RIVER", "CWP_CSO_FLAG": "N"}}, {"type": "Feature", "geometry": {"type": "Point", "coordinates": [-104.784977241352, 34.869788228164]}, "properties": {"CWP_NAME": "UNKNOWN", "CWP_STREET": "UNKNOWN", "CWP_CITY": "UNKNOWN", "CWP_STATE": "NM", "CWP_ZIP": "00000", "CWP_COUNTY": "Guadalupe", "NPDES_ID": "NM0027383", "REGISTRY_ID": "110028121280", "CWP_FACILITY_TYPE_INDICATOR": "POTW", "CWP_MAJOR_MINOR_STATUS": "Minor", "CWP_PERMIT_STATUS_DESC": "Terminated", "STATE_WATER_BODY_NAME": "3-10", "CWP_CSO_FLAG": "N"}}, {"type": "Feature", "geometry": {"type": "Point", "coordinates": [-106.077839401989, 35.9986677224674]}, "properties": {"CWP_NAME": "ESPANOLA, CITY OF", "CWP_STREET": "405 N. PASEO DE ONATE", "CWP_CITY": "ESPANOLA", "CWP_STATE": "NM", "CWP_ZIP": "87532", "CWP_COUNTY": "Rio Arriba", "NPDES_ID": "NM0029351", "REGISTRY_ID": "110039938583", "CWP_FACILITY_TYPE_INDICATOR": "POTW", "CWP_MAJOR_MINOR_STATUS": "Major", "CWP_PERMIT_STATUS_DESC": "Admin Continued", "STATE_WATER_BODY_NAME": "RIO GRANDE", "CWP_CSO_FLAG": "N"}}, {"type": "Feature", "geometry": {"type": "Point", "coordinates": [-106.693992997267, 36.5096742386107]}, "properties": {"CWP_NAME": "UNKNOWN", "CWP_STREET": "UNKNOWN", "CWP_CITY": "UNKNOWN", "CWP_STATE": "NM", "CWP_ZIP": "00000", "CWP_COUNTY": "Rio Arriba", "NPDES_ID": "NM0023451", "REGISTRY_ID": "110028148001", "CWP_FACILITY_TYPE_INDICATOR": "POTW", "CWP_MAJOR_MINOR_STATUS": "Minor", "CWP_PERMIT_STATUS_DESC": "Terminated", "STATE_WATER_BODY_NAME": " 5A9", "CWP_CSO_FLAG": "N"}}, {"type": "Feature", "geometry": {"type": "Point", "coordinates": [-106.987556911641, 35.993107160199]}, "properties": {"CWP_NAME": "CUBA, VILLAGE OF", "CWP_STREET": "1.3 MILES S. OF STATE HWY. 197", "CWP_CITY": "CUBA", "CWP_STATE": "NM", "CWP_ZIP": "87013", "CWP_COUNTY": "Sandoval", "NPDES_ID": "NM0024848", "REGISTRY_ID": "110009831156", "CWP_FACILITY_TYPE_INDICATOR": "POTW", "CWP_MAJOR_MINOR_STATUS": "Minor", "CWP_PERMIT_STATUS_DESC": "Effective", "STATE_WATER_BODY_NAME": "RIO PUERCO/MIDDLE RIO GRANDE_20.6.4", "CWP_CSO_FLAG": "N"}}, {"type": "Feature", "geometry": {"type": "Point", "coordinates": [-106.882627562589, 35.6850794279231]}, "properties": {"CWP_NAME": "UNKNOWN", "CWP_STREET": "UNKNOWN", "CWP_CITY": "UNKNOWN", "CWP_STATE": "NM", "CWP_ZIP": "00000", "CWP_COUNTY": "Sandoval", "NPDES_ID": "NM0029831", "REGISTRY_ID": "110028119809", "CWP_FACILITY_TYPE_INDICATOR": "POTW", "CWP_MAJOR_MINOR_STATUS": "Minor", "CWP_PERMIT_STATUS_DESC": "Terminated", "STATE_WATER_BODY_NAME": "RIO GRANDE RIVER", "CWP_CSO_FLAG": "N"}}, {"type": "Feature", "geometry": {"type": "Point", "coordinates": [-104.803524013452, 35.4768819642035]}, "properties": {"CWP_NAME": "UNKNOWN", "CWP_STREET": "UNKNOWN", "CWP_CITY": "UNKNOWN", "CWP_STATE": "NM", "CWP_ZIP": "00000", "CWP_COUNTY": "San Miguel", "NPDES_ID": "NM0023345", "REGISTRY_ID": "110028147976", "CWP_FACILITY_TYPE_INDICATOR": "POTW", "CWP_MAJOR_MINOR_STATUS": "Minor", "CWP_PERMIT_STATUS_DESC": "Terminated", "STATE_WATER_BODY_NAME": "3-12", "CWP_CSO_FLAG": "N"}}, {"type": "Feature", "geometry": {"type": "Point", "coordinates": [-107.776704155073, 36.7564229960387]}, "properties": {"CWP_NAME": "BLANCO WATER USERS ASSOCIATION", "CWP_STREET": "COUNTY ROAD 4410 NEAR THE TOWN", "CWP_CITY": "BLANCO", "CWP_STATE": "NM", "CWP_ZIP": "87412", "CWP_COUNTY": "San Juan", "NPDES_ID": "NM0030317", "REGISTRY_ID": "110009831085", "CWP_FACILITY_TYPE_INDICATOR": "POTW", "CWP_MAJOR_MINOR_STATUS": "Minor", "CWP_PERMIT_STATUS_DESC": "Terminated", "STATE_WATER_BODY_NAME": "SAN JUAN RIVER", "CWP_CSO_FLAG": "N"}}, {"type": "Feature", "geometry": {"type": "Point", "coordinates": [-104.431961053194, 36.8597957873904]}, "properties": {"CWP_NAME": "CITY OF RATON", "CWP_STREET": "1750 EAST HEREFORD AVE.", "CWP_CITY": "RATON", "CWP_STATE": "NM", "CWP_ZIP": "87740", "CWP_COUNTY": "Colfax", "NPDES_ID": "NM0020273", "REGISTRY_ID": "110000734572", "CWP_FACILITY_TYPE_INDICATOR": "POTW", "CWP_MAJOR_MINOR_STATUS": "Minor", "CWP_PERMIT_STATUS_DESC": "Effective", "STATE_WATER_BODY_NAME": "DOGGETT CRK, RATON CRK, CHICO RICA", "CWP_CSO_FLAG": "N"}}, {"type": "Feature", "geometry": {"type": "Point", "coordinates": [-106.706020389644, 34.853585935367]}, "properties": {"CWP_NAME": "BOSQUE FARMS, VILLAGE OF", "CWP_STREET": "1455 WEST BOSQUE LOOP", "CWP_CITY": "BOSQUE FARMS", "CWP_STATE": "NM", "CWP_ZIP": "87068", "CWP_COUNTY": "Valencia", "NPDES_ID": "NM0030279", "REGISTRY_ID": "110009831058", "CWP_FACILITY_TYPE_INDICATOR": "POTW", "CWP_MAJOR_MINOR_STATUS": "Minor", "CWP_PERMIT_STATUS_DESC": "Effective", "STATE_WATER_BODY_NAME": "RIO GRANDE", "CWP_CSO_FLAG": "N"}}, {"type": "Feature", "geometry": {"type": "Point", "coordinates": [-106.939012232482, 33.9916197851204]}, "properties": {"CWP_NAME": "UNKNOWN", "CWP_STREET": "UNKNOWN", "CWP_CITY": "UNKNOWN", "CWP_STATE": "NM", "CWP_ZIP": "00000", "CWP_COUNTY": "Socorro", "NPDES_ID": "NM0020664", "REGISTRY_ID": "110028129371", "CWP_FACILITY_TYPE_INDICATOR": "POTW", "CWP_MAJOR_MINOR_STATUS": "Minor", "CWP_PERMIT_STATUS_DESC": "Terminated", "STATE_WATER_BODY_NAME": " 5B5", "CWP_CSO_FLAG": "N"}}, {"type": "Feature", "geometry": {"type": "Point", "coordinates": [-106.882627562589, 35.6850794279231]}, "properties": {"CWP_NAME": "UNKNOWN", "CWP_STREET": "UNKNOWN", "CWP_CITY": "UNKNOWN", "CWP_STATE": "NM", "CWP_ZIP": "00000", "CWP_COUNTY": "Sandoval", "NPDES_ID": "NM0024911", "REGISTRY_ID": "110028120129", "CWP_FACILITY_TYPE_INDICATOR": "POTW", "CWP_MAJOR_MINOR_STATUS": "Minor", "CWP_PERMIT_STATUS_DESC": "Terminated", "STATE_WATER_BODY_NAME": "UNNAMED ARROYO", "CWP_CSO_FLAG": "N"}}, {"type": "Feature", "geometry": {"type": "Point", "coordinates": [-106.693992997267, 36.5096742386107]}, "properties": {"CWP_NAME": "UNKNOWN", "CWP_STREET": "UNKNOWN", "CWP_CITY": "UNKNOWN", "CWP_STATE": "NM", "CWP_ZIP": "00000", "CWP_COUNTY": "Rio Arriba", "NPDES_ID": "NM0023442", "REGISTRY_ID": "110028147994", "CWP_FACILITY_TYPE_INDICATOR": "POTW", "CWP_MAJOR_MINOR_STATUS": "Minor", "CWP_PERMIT_STATUS_DESC": "Terminated", "STATE_WATER_BODY_NAME": " 5A9", "CWP_CSO_FLAG": "N"}}, {"type": "Feature", "geometry": {"type": "Point", "coordinates": [-106.731175326187, 34.7800897280175]}, "properties": {"CWP_NAME": "LOS LUNAS WWTP", "CWP_STREET": "1781 HEATON LOOP S.E.VALENCIA", "CWP_CITY": "LOS LUNAS", "CWP_STATE": "NM", "CWP_ZIP": "87031", "CWP_COUNTY": "Valencia", "NPDES_ID": "NM0020303", "REGISTRY_ID": "110011027511", "CWP_FACILITY_TYPE_INDICATOR": "POTW", "CWP_MAJOR_MINOR_STATUS": "Major", "CWP_PERMIT_STATUS_DESC": "Effective", "STATE_WATER_BODY_NAME": "SEGMENT 2-105 OF THE RIO GRANDE", "CWP_CSO_FLAG": "N"}}, {"type": "Feature", "geometry": {"type": "Point", "coordinates": [-106.307977751958, 35.8700529462296]}, "properties": {"CWP_NAME": "UNKNOWN", "CWP_STREET": "UNKNOWN", "CWP_CITY": "UNKNOWN", "CWP_STATE": "NM", "CWP_ZIP": "00000", "CWP_COUNTY": "Los Alamos", "NPDES_ID": "NM0020117", "REGISTRY_ID": "110028119104", "CWP_FACILITY_TYPE_INDICATOR": "POTW", "CWP_MAJOR_MINOR_STATUS": "Minor", "CWP_PERMIT_STATUS_DESC": "Terminated", "STATE_WATER_BODY_NAME": " 5A9", "CWP_CSO_FLAG": "N"}}, {"type": "Feature", "geometry": {"type": "Point", "coordinates": [-104.803524013452, 35.4768819642035]}, "properties": {"CWP_NAME": "UNKNOWN", "CWP_STREET": "UNKNOWN", "CWP_CITY": "UNKNOWN", "CWP_STATE": "NM", "CWP_ZIP": "00000", "CWP_COUNTY": "San Miguel", "NPDES_ID": "NM0023337", "REGISTRY_ID": "110028147967", "CWP_FACILITY_TYPE_INDICATOR": "POTW", "CWP_MAJOR_MINOR_STATUS": "Minor", "CWP_PERMIT_STATUS_DESC": "Terminated", "STATE_WATER_BODY_NAME": "3-12", "CWP_CSO_FLAG": "N"}}, {"type": "Feature", "geometry": {"type": "Point", "coordinates": [-106.59170052728, 36.928367173527]}, "properties": {"CWP_NAME": "VILLAGE OF CHAMA", "CWP_STREET": "WASTE WATER PLANT", "CWP_CITY": "CHAMA", "CWP_STATE": "NM", "CWP_ZIP": "87520", "CWP_COUNTY": "Rio Arriba", "NPDES_ID": "NM0027731", "REGISTRY_ID": "110009831174", "CWP_FACILITY_TYPE_INDICATOR": "POTW", "CWP_MAJOR_MINOR_STATUS": "Minor", "CWP_PERMIT_STATUS_DESC": "Admin Continued", "STATE_WATER_BODY_NAME": "RIO CHAMITA/RIO CHAMA", "CWP_CSO_FLAG": "N"}}, {"type": "Feature", "geometry": {"type": "Point", "coordinates": [-108.140288348245, 35.6983389610493]}, "properties": {"CWP_NAME": "CROWN POINT SEWAGE LAGOONS", "CWP_STREET": "UNKNOWN", "CWP_CITY": "UNKNOWN", "CWP_STATE": "NM", "CWP_ZIP": "00000", "CWP_COUNTY": null, "NPDES_ID": "NN0020630", "REGISTRY_ID": "110028142855", "CWP_FACILITY_TYPE_INDICATOR": "POTW", "CWP_MAJOR_MINOR_STATUS": "Minor", "CWP_PERMIT_STATUS_DESC": "Terminated", "STATE_WATER_BODY_NAME": "CHACO WASH TRIB TO SAN JUAN RIVER", "CWP_CSO_FLAG": "N"}}, {"type": "Feature", "geometry": {"type": "Point", "coordinates": [-106.602680205555, 35.2865259343029]}, "properties": {"CWP_NAME": "WASTEWATER TREATMENT PLANT #3", "CWP_STREET": "1650 RIVERSIDE DR.", "CWP_CITY": "RIO RANCHO", "CWP_STATE": "NM", "CWP_ZIP": "871240550", "CWP_COUNTY": "Sandoval", "NPDES_ID": "NM0029602", "REGISTRY_ID": "110006659749", "CWP_FACILITY_TYPE_INDICATOR": "POTW", "CWP_MAJOR_MINOR_STATUS": "Minor", "CWP_PERMIT_STATUS_DESC": "Terminated", "STATE_WATER_BODY_NAME": "RIO GRANDE", "CWP_CSO_FLAG": "N"}}, {"type": "Feature", "geometry": {"type": "Point", "coordinates": [-104.17553605654, 32.4251742331661]}, "properties": {"CWP_NAME": "CITY OF CARLSBAD", "CWP_STREET": "45 BLACKFOOT RD., EDDY COUNTY", "CWP_CITY": "CARLSBAD", "CWP_STATE": "NM", "CWP_ZIP": "88220", "CWP_COUNTY": "Eddy", "NPDES_ID": "NM0026395", "REGISTRY_ID": "110014410262", "CWP_FACILITY_TYPE_INDICATOR": "POTW", "CWP_MAJOR_MINOR_STATUS": "Major", "CWP_PERMIT_STATUS_DESC": "Effective", "STATE_WATER_BODY_NAME": "SEG 2-202 PECOS RIVER", "CWP_CSO_FLAG": "N"}}, {"type": "Feature", "geometry": {"type": "Point", "coordinates": [-106.321178034799, 36.2184098880329]}, "properties": {"CWP_NAME": "ABIQUIU MDWCA & MSWA", "CWP_STREET": "P.O. BOX 133", "CWP_CITY": "ABIQUIU", "CWP_STATE": "NM", "CWP_ZIP": "87510", "CWP_COUNTY": "Santa Fe", "NPDES_ID": "NM0024830", "REGISTRY_ID": "110012664740", "CWP_FACILITY_TYPE_INDICATOR": "POTW", "CWP_MAJOR_MINOR_STATUS": "Minor", "CWP_PERMIT_STATUS_DESC": "Admin Continued", "STATE_WATER_BODY_NAME": "CHAMA RIVER", "CWP_CSO_FLAG": "N"}}, {"type": "Feature", "geometry": {"type": "Point", "coordinates": [-108.102623924754, 36.6942249551729]}, "properties": {"CWP_NAME": "MCGEE PARK WASTEWATER FACILITY", "CWP_STREET": "APPROX. 3 MI.E. OF FARMINGTON,", "CWP_CITY": "FARMINGTON", "CWP_STATE": "NM", "CWP_ZIP": "87401", "CWP_COUNTY": "San Juan", "NPDES_ID": "NM0030473", "REGISTRY_ID": "110011026825", "CWP_FACILITY_TYPE_INDICATOR": "POTW", "CWP_MAJOR_MINOR_STATUS": "Minor", "CWP_PERMIT_STATUS_DESC": "Terminated", "STATE_WATER_BODY_NAME": "SAN JUAN RIVER", "CWP_CSO_FLAG": "N"}}, {"type": "Feature", "geometry": {"type": "Point", "coordinates": [-105.545853479704, 36.6533778977982]}, "properties": {"CWP_NAME": "TAOS SKI VALLEY, VILLAGE OF", "CWP_STREET": "7 FIREHOUSE RD.", "CWP_CITY": "TAOS SKI VALLEY", "CWP_STATE": "NM", "CWP_ZIP": "87525", "CWP_COUNTY": "Taos", "NPDES_ID": "NM0022101", "REGISTRY_ID": "110002047197", "CWP_FACILITY_TYPE_INDICATOR": "POTW", "CWP_MAJOR_MINOR_STATUS": "Major", "CWP_PERMIT_STATUS_DESC": "Admin Continued", "STATE_WATER_BODY_NAME": "RIO HONDO/RIO GRANDE", "CWP_CSO_FLAG": "N"}}, {"type": "Feature", "geometry": {"type": "Point", "coordinates": [-106.77729076125, 34.643441317261]}, "properties": {"CWP_NAME": "CITY OF BELEN WWTP", "CWP_STREET": "1300 CONSERVANCY ROAD", "CWP_CITY": "BELEN", "CWP_STATE": "NM", "CWP_ZIP": "87002", "CWP_COUNTY": "Valencia", "NPDES_ID": "NM0020150", "REGISTRY_ID": "110001934462", "CWP_FACILITY_TYPE_INDICATOR": "POTW", "CWP_MAJOR_MINOR_STATUS": "Major", "CWP_PERMIT_STATUS_DESC": "Effective", "STATE_WATER_BODY_NAME": "BOSQUE DRAIN", "CWP_CSO_FLAG": "N"}}, {"type": "Feature", "geometry": {"type": "Point", "coordinates": [-106.602689861125, 32.021384753395]}, "properties": {"CWP_NAME": "ANTHONY WATER & SANITATION DIS", "CWP_STREET": "1470 N. 4TH STREET", "CWP_CITY": "ANTHONY", "CWP_STATE": "NM", "CWP_ZIP": "88021", "CWP_COUNTY": "Dona Ana", "NPDES_ID": "NM0029629", "REGISTRY_ID": "110011027209", "CWP_FACILITY_TYPE_INDICATOR": "POTW", "CWP_MAJOR_MINOR_STATUS": "Minor", "CWP_PERMIT_STATUS_DESC": "Effective", "STATE_WATER_BODY_NAME": "RIO GRANDE", "CWP_CSO_FLAG": "N"}}, {"type": "Feature", "geometry": {"type": "Point", "coordinates": [-104.683898819221, 34.9053897010352]}, "properties": {"CWP_NAME": "CITY OF SANTA ROSA WASTEWATER", "CWP_STREET": "S.SIDE OF EL RITO CREEK & S.OF", "CWP_CITY": "SANTA ROSA", "CWP_STATE": "NM", "CWP_ZIP": "88435", "CWP_COUNTY": "Guadalupe", "NPDES_ID": "NM0024988", "REGISTRY_ID": "110006702899", "CWP_FACILITY_TYPE_INDICATOR": "POTW", "CWP_MAJOR_MINOR_STATUS": "Minor", "CWP_PERMIT_STATUS_DESC": "Effective", "STATE_WATER_BODY_NAME": "EL RITO CREEK TO PECOS RIVER", "CWP_CSO_FLAG": "N"}}, {"type": "Feature", "geometry": {"type": "Point", "coordinates": [-108.807342471279, 33.7334521687952]}, "properties": {"CWP_NAME": "RESERVE, VILLAGE OF", "CWP_STREET": "OFF STATE HWY 12,W. OF VILLAGE", "CWP_CITY": "RESERVE", "CWP_STATE": "NM", "CWP_ZIP": "87830", "CWP_COUNTY": "Catron", "NPDES_ID": "NM0024163", "REGISTRY_ID": "110010656879", "CWP_FACILITY_TYPE_INDICATOR": "POTW", "CWP_MAJOR_MINOR_STATUS": "Minor", "CWP_PERMIT_STATUS_DESC": "Effective", "STATE_WATER_BODY_NAME": "SAN FRANSICO RIVER", "CWP_CSO_FLAG": "N"}}, {"type": "Feature", "geometry": {"type": "Point", "coordinates": [-105.966451105332, 35.5137280280382]}, "properties": {"CWP_NAME": "UNKNOWN", "CWP_STREET": "UNKNOWN", "CWP_CITY": "UNKNOWN", "CWP_STATE": "NM", "CWP_ZIP": "00000", "CWP_COUNTY": "Santa Fe", "NPDES_ID": "NM0022284", "REGISTRY_ID": "110028138414", "CWP_FACILITY_TYPE_INDICATOR": "POTW", "CWP_MAJOR_MINOR_STATUS": "Minor", "CWP_PERMIT_STATUS_DESC": "Terminated", "STATE_WATER_BODY_NAME": "5A13", "CWP_CSO_FLAG": "N"}}, {"type": "Feature", "geometry": {"type": "Point", "coordinates": [-104.306480076181, 32.4578627904146]}, "properties": {"CWP_NAME": "UNKNOWN", "CWP_STREET": "UNKNOWN", "CWP_CITY": "UNKNOWN", "CWP_STATE": "NM", "CWP_ZIP": "00000", "CWP_COUNTY": "Eddy", "NPDES_ID": "NM0020656", "REGISTRY_ID": "110028129362", "CWP_FACILITY_TYPE_INDICATOR": "POTW", "CWP_MAJOR_MINOR_STATUS": "Minor", "CWP_PERMIT_STATUS_DESC": "Terminated", "STATE_WATER_BODY_NAME": " 3-2", "CWP_CSO_FLAG": "N"}}, {"type": "Feature", "geometry": {"type": "Point", "coordinates": [-103.719629335429, 35.1864261383518]}, "properties": {"CWP_NAME": "TUCUMCARI, CITY OF", "CWP_STREET": "1700 N. ROCK ISLAND STREET", "CWP_CITY": "TUCUMCARI", "CWP_STATE": "NM", "CWP_ZIP": "88401", "CWP_COUNTY": "Quay", "NPDES_ID": "NM0020711", "REGISTRY_ID": "110000762354", "CWP_FACILITY_TYPE_INDICATOR": "POTW", "CWP_MAJOR_MINOR_STATUS": "Major", "CWP_PERMIT_STATUS_DESC": "Effective", "STATE_WATER_BODY_NAME": "CANADIAN RIVER", "CWP_CSO_FLAG": "N"}}, {"type": "Feature", "geometry": {"type": "Point", "coordinates": [-106.632269703674, 35.2585660060503]}, "properties": {"CWP_NAME": "RIO RANCHO, CITY OF WWTP #2", "CWP_STREET": "100 INDUSTRIAL PARK LOOP", "CWP_CITY": "RIO RANCHO", "CWP_STATE": "NM", "CWP_ZIP": "87124", "CWP_COUNTY": "Sandoval", "NPDES_ID": "NM0027987", "REGISTRY_ID": "110022872346", "CWP_FACILITY_TYPE_INDICATOR": "POTW", "CWP_MAJOR_MINOR_STATUS": "Major", "CWP_PERMIT_STATUS_DESC": "Effective", "STATE_WATER_BODY_NAME": "RIO GRANDE", "CWP_CSO_FLAG": "N"}}, {"type": "Feature", "geometry": {"type": "Point", "coordinates": [-105.446684321348, 36.7108769666006]}, "properties": {"CWP_NAME": "TOWN OF RED RIVER", "CWP_STREET": "HWY 38,MILE MARKER 10 IN TAOS", "CWP_CITY": "TAOS", "CWP_STATE": "NM", "CWP_ZIP": "87558", "CWP_COUNTY": "Taos", "NPDES_ID": "NM0024899", "REGISTRY_ID": "110002042110", "CWP_FACILITY_TYPE_INDICATOR": "POTW", "CWP_MAJOR_MINOR_STATUS": "Minor", "CWP_PERMIT_STATUS_DESC": "Effective", "STATE_WATER_BODY_NAME": "RED RIVER", "CWP_CSO_FLAG": "N"}}, {"type": "Feature", "geometry": {"type": "Point", "coordinates": [-104.53835084558, 36.5320234227036]}, "properties": {"CWP_NAME": "VILLAGE OF MAXWELL", "CWP_STREET": "316 MAXWELL AVE (PO BOX 356) ", "CWP_CITY": "MAXWELL", "CWP_STATE": "NM", "CWP_ZIP": "87728", "CWP_COUNTY": "Colfax", "NPDES_ID": "NM0029149", "REGISTRY_ID": "110006702880", "CWP_FACILITY_TYPE_INDICATOR": "POTW", "CWP_MAJOR_MINOR_STATUS": "Minor", "CWP_PERMIT_STATUS_DESC": "Effective", "STATE_WATER_BODY_NAME": "CANADIAN RIVER", "CWP_CSO_FLAG": "N"}}, {"type": "Feature", "geometry": {"type": "Point", "coordinates": [-104.360994318902, 32.8581663857637]}, "properties": {"CWP_NAME": "CITY OF ARTESIA", "CWP_STREET": "1702 NORTH HALDEMAN", "CWP_CITY": "ARTESIA", "CWP_STATE": "NM", "CWP_ZIP": "88210", "CWP_COUNTY": "Eddy", "NPDES_ID": "NM0022268", "REGISTRY_ID": "110011031766", "CWP_FACILITY_TYPE_INDICATOR": "POTW", "CWP_MAJOR_MINOR_STATUS": "Major", "CWP_PERMIT_STATUS_DESC": "Effective", "STATE_WATER_BODY_NAME": "SEG 2-206 PECOS RIVER", "CWP_CSO_FLAG": "N"}}, {"type": "Feature", "geometry": {"type": "Point", "coordinates": [-108.502594651815, 35.1295041747972]}, "properties": {"CWP_NAME": "RAMAH WATER AND SANITATION", "CWP_STREET": "OFF HIGHWAY 53", "CWP_CITY": "RAMAH", "CWP_STATE": "NM", "CWP_ZIP": "87321", "CWP_COUNTY": "McKinley", "NPDES_ID": "NM0023396", "REGISTRY_ID": "110011027263", "CWP_FACILITY_TYPE_INDICATOR": "POTW", "CWP_MAJOR_MINOR_STATUS": "Minor", "CWP_PERMIT_STATUS_DESC": "Expired", "STATE_WATER_BODY_NAME": "CEBOLIA CREEK", "CWP_CSO_FLAG": "N"}}, {"type": "Feature", "geometry": {"type": "Point", "coordinates": [-105.283934845222, 36.4047881757729]}, "properties": {"CWP_NAME": "THE VILLAGE OF ANGELFIRE, WWTP", "CWP_STREET": "#67 SERVICE ROAD", "CWP_CITY": "ANGEL FIRE", "CWP_STATE": "NM", "CWP_ZIP": "87710", "CWP_COUNTY": "Colfax", "NPDES_ID": "NM0030503", "REGISTRY_ID": "110012304443", "CWP_FACILITY_TYPE_INDICATOR": "POTW", "CWP_MAJOR_MINOR_STATUS": "Minor", "CWP_PERMIT_STATUS_DESC": "Admin Continued", "STATE_WATER_BODY_NAME": null, "CWP_CSO_FLAG": "N"}}, {"type": "Feature", "geometry": {"type": "Point", "coordinates": [-106.824776606351, 32.2926661812844]}, "properties": {"CWP_NAME": "CITY OF LAS CRUCES - UTILITIES", "CWP_STREET": "JACOB HANDS MEMORIAL WWTF", "CWP_CITY": "LAS CRUCES", "CWP_STATE": "NM", "CWP_ZIP": "88005", "CWP_COUNTY": "Dona Ana", "NPDES_ID": "NM0023311", "REGISTRY_ID": "110039926774", "CWP_FACILITY_TYPE_INDICATOR": "POTW", "CWP_MAJOR_MINOR_STATUS": "Major", "CWP_PERMIT_STATUS_DESC": "Effective", "STATE_WATER_BODY_NAME": "RIO GRANDE RIVER SEGMENT", "CWP_CSO_FLAG": "N"}}, {"type": "Feature", "geometry": {"type": "Point", "coordinates": [-106.55660947494, 31.795644992857]}, "properties": {"CWP_NAME": "SUNLAND PARK WASTEWATER PLANT", "CWP_STREET": "1000 MCNUTT ROAD", "CWP_CITY": "SUNLAND PARK", "CWP_STATE": "NM", "CWP_ZIP": "88063", "CWP_COUNTY": "San Juan", "NPDES_ID": "NM0029483", "REGISTRY_ID": "110011027174", "CWP_FACILITY_TYPE_INDICATOR": "POTW", "CWP_MAJOR_MINOR_STATUS": "Major", "CWP_PERMIT_STATUS_DESC": "Effective", "STATE_WATER_BODY_NAME": "RIO GRANDE RIVER  2064", "CWP_CSO_FLAG": "N"}}, {"type": "Feature", "geometry": {"type": "Point", "coordinates": [-104.524397610833, 33.3967614467243]}, "properties": {"CWP_NAME": "ROSWELL, CITY OF", "CWP_STREET": "425 N. RICHARDSON", "CWP_CITY": "ROSWELL", "CWP_STATE": "NM", "CWP_ZIP": "88201", "CWP_COUNTY": "Chaves", "NPDES_ID": "NM0020311", "REGISTRY_ID": "110039926925", "CWP_FACILITY_TYPE_INDICATOR": "POTW", "CWP_MAJOR_MINOR_STATUS": "Major", "CWP_PERMIT_STATUS_DESC": "Effective", "STATE_WATER_BODY_NAME": "RIO HONDO", "CWP_CSO_FLAG": "N"}}, {"type": "Feature", "geometry": {"type": "Point", "coordinates": [-106.883651759145, 34.0609260520866]}, "properties": {"CWP_NAME": "SOCORRO, CITY OF", "CWP_STREET": "302 MAIN STREET", "CWP_CITY": "SOCORRO", "CWP_STATE": "NM", "CWP_ZIP": "87801", "CWP_COUNTY": "Socorro", "NPDES_ID": "NM0028835", "REGISTRY_ID": "110000734590", "CWP_FACILITY_TYPE_INDICATOR": "POTW", "CWP_MAJOR_MINOR_STATUS": "Major", "CWP_PERMIT_STATUS_DESC": "Effective", "STATE_WATER_BODY_NAME": "LUIS LOPEZ DRAIN", "CWP_CSO_FLAG": "N"}}, {"type": "Feature", "geometry": {"type": "Point", "coordinates": [-108.711503759636, 36.7869702140917]}, "properties": {"CWP_NAME": "SHIPROCK WWTF", "CWP_STREET": "1 MILE NW OF JUNCTION US HWY 65 AND 491", "CWP_CITY": "SHIPROCK", "CWP_STATE": "NM", "CWP_ZIP": "87420", "CWP_COUNTY": "San Juan", "NPDES_ID": "NN0020621", "REGISTRY_ID": "110024409362", "CWP_FACILITY_TYPE_INDICATOR": "POTW", "CWP_MAJOR_MINOR_STATUS": "Major", "CWP_PERMIT_STATUS_DESC": "Effective", "STATE_WATER_BODY_NAME": "SAN JUAN RIVER", "CWP_CSO_FLAG": "N"}}, {"type": "Feature", "geometry": {"type": "Point", "coordinates": [-105.402019481588, 36.7080162254352]}, "properties": {"CWP_NAME": "MULTI FLO", "CWP_STREET": "BITTER CREEK RD", "CWP_CITY": "RED RIVER", "CWP_STATE": "NM", "CWP_ZIP": "87558", "CWP_COUNTY": "Taos", "NPDES_ID": "NM0030619", "REGISTRY_ID": "110064595415", "CWP_FACILITY_TYPE_INDICATOR": "POTW", "CWP_MAJOR_MINOR_STATUS": "Minor", "CWP_PERMIT_STATUS_DESC": "Terminated", "STATE_WATER_BODY_NAME": "BITTER CREEK WETLAND", "CWP_CSO_FLAG": "N"}}, {"type": "Feature", "geometry": {"type": "Point", "coordinates": [-107.888420617704, 36.2872619002052]}, "properties": {"CWP_NAME": "UNKNOWN", "CWP_STREET": "UNKNOWN", "CWP_CITY": "UNKNOWN", "CWP_STATE": "NM", "CWP_ZIP": "00000", "CWP_COUNTY": "Valencia", "NPDES_ID": "NM0020737", "REGISTRY_ID": "110063978398", "CWP_FACILITY_TYPE_INDICATOR": "POTW", "CWP_MAJOR_MINOR_STATUS": "Minor", "CWP_PERMIT_STATUS_DESC": "Terminated", "STATE_WATER_BODY_NAME": "RIO SAN JOSE", "CWP_CSO_FLAG": "N"}}, {"type": "Feature", "geometry": {"type": "Point", "coordinates": [-107.250628225439, 33.1220867328238]}, "properties": {"CWP_NAME": "CITY OF TRUTH OR CONSEQUENCES", "CWP_STREET": "505 SIMS STREET", "CWP_CITY": "TRUTH OR CONSEQUENCES", "CWP_STATE": "NM", "CWP_ZIP": "87901", "CWP_COUNTY": "Sierra", "NPDES_ID": "NM0020681", "REGISTRY_ID": "110013987034", "CWP_FACILITY_TYPE_INDICATOR": "POTW", "CWP_MAJOR_MINOR_STATUS": "Major", "CWP_PERMIT_STATUS_DESC": "Effective", "STATE_WATER_BODY_NAME": "RIO GRANDE", "CWP_CSO_FLAG": "N"}}, {"type": "Feature", "geometry": {"type": "Point", "coordinates": [-106.185561104926, 35.8278081932455]}, "properties": {"CWP_NAME": "LOS ALAMOS COUNTY-WHITE ROCK P", "CWP_STREET": "600 OVERLOOK ROAD", "CWP_CITY": "WHITE ROCK", "CWP_STATE": "NM", "CWP_ZIP": "87547", "CWP_COUNTY": "Los Alamos", "NPDES_ID": "NM0020133", "REGISTRY_ID": "110009831209", "CWP_FACILITY_TYPE_INDICATOR": "POTW", "CWP_MAJOR_MINOR_STATUS": "Minor", "CWP_PERMIT_STATUS_DESC": "Effective", "STATE_WATER_BODY_NAME": "CANADA DEL BUEY", "CWP_CSO_FLAG": "N"}}, {"type": "Feature", "geometry": {"type": "Point", "coordinates": [-106.806592484387, 34.7168457908008]}, "properties": {"CWP_NAME": "UNKNOWN", "CWP_STREET": "UNKNOWN", "CWP_CITY": "UNKNOWN", "CWP_STATE": "NM", "CWP_ZIP": "00000", "CWP_COUNTY": "Valencia", "NPDES_ID": "NM0027391", "REGISTRY_ID": "110063978361", "CWP_FACILITY_TYPE_INDICATOR": "POTW", "CWP_MAJOR_MINOR_STATUS": "Minor", "CWP_PERMIT_STATUS_DESC": "Terminated", "STATE_WATER_BODY_NAME": "5B05", "CWP_CSO_FLAG": "N"}}, {"type": "Feature", "geometry": {"type": "Point", "coordinates": [-106.025615723873, 35.5917325327296]}, "properties": {"CWP_NAME": "RANCHLAND UTILITY COMPANY", "CWP_STREET": "P. O. BOX 4458", "CWP_CITY": "SANTA FE", "CWP_STATE": "NM", "CWP_ZIP": "87502", "CWP_COUNTY": "Santa Fe", "NPDES_ID": "NM0030368", "REGISTRY_ID": "110009148779", "CWP_FACILITY_TYPE_INDICATOR": "POTW", "CWP_MAJOR_MINOR_STATUS": "Minor", "CWP_PERMIT_STATUS_DESC": "Effective", "STATE_WATER_BODY_NAME": "CANADA DE RANCHO", "CWP_CSO_FLAG": "N"}}, {"type": "Feature", "geometry": {"type": "Point", "coordinates": [-105.302842157287, 35.9669198957615]}, "properties": {"CWP_NAME": "MORA MUTUAL WATER & SEWER WORKS ASSOCIATION", "CWP_STREET": "P. O. BOX 304", "CWP_CITY": "MORA", "CWP_STATE": "NM", "CWP_ZIP": "87732", "CWP_COUNTY": "Mora", "NPDES_ID": "NM0024996", "REGISTRY_ID": "110071302344", "CWP_FACILITY_TYPE_INDICATOR": "POTW", "CWP_MAJOR_MINOR_STATUS": "Minor", "CWP_PERMIT_STATUS_DESC": "Admin Continued", "STATE_WATER_BODY_NAME": "MORA RIVER", "CWP_CSO_FLAG": "N"}}, {"type": "Feature", "geometry": {"type": "Point", "coordinates": [-106.666110280473, 35.0177059404094]}, "properties": {"CWP_NAME": "ALBUQUERQUE BERNALILLO COUNTY WATER UTILITY AUTHORITY", "CWP_STREET": "SOUTHSIDE WATER RECLAM. PT.", "CWP_CITY": "ALBUQUERQUE", "CWP_STATE": "NM", "CWP_ZIP": "87105", "CWP_COUNTY": "Bernalillo", "NPDES_ID": "NM0022250", "REGISTRY_ID": "110000567075", "CWP_FACILITY_TYPE_INDICATOR": "POTW", "CWP_MAJOR_MINOR_STATUS": "Major", "CWP_PERMIT_STATUS_DESC": "Effective", "STATE_WATER_BODY_NAME": "RIO GRANDE", "CWP_CSO_FLAG": "N"}}, {"type": "Feature", "geometry": {"type": "Point", "coordinates": [-106.000049792771, 35.6117055805065]}, "properties": {"CWP_NAME": "OSHARA VILLAGE WTR RECLAMATION", "CWP_STREET": "NO. 2 WILLOW BACK ROAD", "CWP_CITY": "SANTA FE", "CWP_STATE": "NM", "CWP_ZIP": "87508", "CWP_COUNTY": "Santa Fe", "NPDES_ID": "NM0030813", "REGISTRY_ID": "110064637601", "CWP_FACILITY_TYPE_INDICATOR": "POTW", "CWP_MAJOR_MINOR_STATUS": "Minor", "CWP_PERMIT_STATUS_DESC": "Admin Continued", "STATE_WATER_BODY_NAME": "ARROYO HONDO", "CWP_CSO_FLAG": "N"}}, {"type": "Feature", "geometry": {"type": "Point", "coordinates": [-109.024454326318, 35.9133389613299]}, "properties": {"CWP_NAME": "NAVAJO WWTF", "CWP_STREET": "UNKNOWN", "CWP_CITY": "UNKNOWN", "CWP_STATE": "NM", "CWP_ZIP": "00000", "CWP_COUNTY": "San Juan", "NPDES_ID": "NN0020613", "REGISTRY_ID": "110028142846", "CWP_FACILITY_TYPE_INDICATOR": "POTW", "CWP_MAJOR_MINOR_STATUS": "Minor", "CWP_PERMIT_STATUS_DESC": "Terminated", "STATE_WATER_BODY_NAME": "BLACK CREEK WASH", "CWP_CSO_FLAG": "N"}}, {"type": "Feature", "geometry": {"type": "Point", "coordinates": [-107.234233583378, 33.1562160105683]}, "properties": {"CWP_NAME": "SIERRA COUNTY REGIONAL WWTP", "CWP_STREET": "SECTION 27 TI35 R04W", "CWP_CITY": "TRUTH OR CONSEQUENCES", "CWP_STATE": "NM", "CWP_ZIP": "87935", "CWP_COUNTY": "Sierra", "NPDES_ID": "NM0030864", "REGISTRY_ID": "110064634560", "CWP_FACILITY_TYPE_INDICATOR": "POTW", "CWP_MAJOR_MINOR_STATUS": "Minor", "CWP_PERMIT_STATUS_DESC": "Effective", "STATE_WATER_BODY_NAME": "CUCHILLO NEGRO CREEK/RIO GRANDE", "CWP_CSO_FLAG": "N"}}, {"type": "Feature", "geometry": {"type": "Point", "coordinates": [-106.089222990518, 35.6250910867678]}, "properties": {"CWP_NAME": "SANTA FE WWTP", "CWP_STREET": "AIRPORT ROAD", "CWP_CITY": "SANTA FE", "CWP_STATE": "NM", "CWP_ZIP": "87504", "CWP_COUNTY": "Santa Fe", "NPDES_ID": "NM0022292", "REGISTRY_ID": "110064609044", "CWP_FACILITY_TYPE_INDICATOR": "POTW", "CWP_MAJOR_MINOR_STATUS": "Major", "CWP_PERMIT_STATUS_DESC": "Effective", "STATE_WATER_BODY_NAME": "SANTA FE RIVER", "CWP_CSO_FLAG": "N"}}, {"type": "Feature", "geometry": {"type": "Point", "coordinates": [-105.732711663707, 32.9552760304031]}, "properties": {"CWP_NAME": "CLOUDCROFT, VILLAGE OF", "CWP_STREET": "1560 JAMES CANYON", "CWP_CITY": "CLOUDCROFT", "CWP_STATE": "NM", "CWP_ZIP": "88317", "CWP_COUNTY": "Otero", "NPDES_ID": "NM0023370", "REGISTRY_ID": "110011027254", "CWP_FACILITY_TYPE_INDICATOR": "POTW", "CWP_MAJOR_MINOR_STATUS": "Minor", "CWP_PERMIT_STATUS_DESC": "Admin Continued", "STATE_WATER_BODY_NAME": "DRY CREEK BED", "CWP_CSO_FLAG": "N"}}, {"type": "Feature", "geometry": {"type": "Point", "coordinates": [-106.713962377471, 35.7267261484217]}, "properties": {"CWP_NAME": "JEMEZ SPRINGS, VILLAGE OF", "CWP_STREET": "HIGHWAY 4, APPROX. 2 MI. SO. OF", "CWP_CITY": "JEMEZ SPRINGS", "CWP_STATE": "NM", "CWP_ZIP": "87025", "CWP_COUNTY": "Sandoval", "NPDES_ID": "NM0028011", "REGISTRY_ID": "110010655399", "CWP_FACILITY_TYPE_INDICATOR": "POTW", "CWP_MAJOR_MINOR_STATUS": "Minor", "CWP_PERMIT_STATUS_DESC": "Effective", "STATE_WATER_BODY_NAME": " 5B6", "CWP_CSO_FLAG": "N"}}, {"type": "Feature", "geometry": {"type": "Point", "coordinates": [-108.248986498341, 32.7159815640528]}, "properties": {"CWP_NAME": "SILVER CITY, TOWN OF WWTP", "CWP_STREET": "1660 FILAREE RD.7MI S.OF CITY", "CWP_CITY": "GRANT COUNTY", "CWP_STATE": "NM", "CWP_ZIP": "88061", "CWP_COUNTY": "Grant", "NPDES_ID": "NM0020109", "REGISTRY_ID": "110022692175", "CWP_FACILITY_TYPE_INDICATOR": "POTW", "CWP_MAJOR_MINOR_STATUS": "Major", "CWP_PERMIT_STATUS_DESC": "Admin Continued", "STATE_WATER_BODY_NAME": "SAN VINCENTE ARROYO", "CWP_CSO_FLAG": "N"}}, {"type": "Feature", "geometry": {"type": "Point", "coordinates": [-104.597209673139, 36.3634059059519]}, "properties": {"CWP_NAME": "SPRINGER WWTP", "CWP_STREET": "606 COLBERT AVE", "CWP_CITY": "SPRINGER", "CWP_STATE": "NM", "CWP_ZIP": "87747", "CWP_COUNTY": "Colfax", "NPDES_ID": "NM0030295", "REGISTRY_ID": "110039692687", "CWP_FACILITY_TYPE_INDICATOR": "POTW", "CWP_MAJOR_MINOR_STATUS": "Minor", "CWP_PERMIT_STATUS_DESC": "Terminated", "STATE_WATER_BODY_NAME": "CIMARRON RIVER", "CWP_CSO_FLAG": "N"}}, {"type": "Feature", "geometry": {"type": "Point", "coordinates": [-105.661970103616, 33.3494453525076]}, "properties": {"CWP_NAME": "RUIDOSO-RUIDOSO DOWNS WWTP", "CWP_STREET": "313 CREE MEADOWS DRIVE,", "CWP_CITY": "RUIDOSO", "CWP_STATE": "NM", "CWP_ZIP": "88345", "CWP_COUNTY": "Lincoln", "NPDES_ID": "NM0029165", "REGISTRY_ID": "110010721950", "CWP_FACILITY_TYPE_INDICATOR": "POTW", "CWP_MAJOR_MINOR_STATUS": "Major", "CWP_PERMIT_STATUS_DESC": "Admin Continued", "STATE_WATER_BODY_NAME": "SEG 2-208 PECOS RIVER BASIN", "CWP_CSO_FLAG": "N"}}, {"type": "Feature", "geometry": {"type": "Point", "coordinates": [-105.275881348469, 35.652020436412]}, "properties": {"CWP_NAME": "CITY OF LAS VEGAS", "CWP_STREET": "EAST  FRONTAGE ROAD OF I-25", "CWP_CITY": "LAS VEGAS", "CWP_STATE": "NM", "CWP_ZIP": "87701", "CWP_COUNTY": "San Miguel", "NPDES_ID": "NM0028827", "REGISTRY_ID": "110011026941", "CWP_FACILITY_TYPE_INDICATOR": "POTW", "CWP_MAJOR_MINOR_STATUS": "Major", "CWP_PERMIT_STATUS_DESC": "Expired", "STATE_WATER_BODY_NAME": "GALLINAS RIVER, PECOS RIVER BASIN", "CWP_CSO_FLAG": "N"}}, {"type": "Feature", "geometry": {"type": "Point", "coordinates": [-106.706735340479, 34.7245502893628]}, "properties": {"CWP_NAME": "RIO DEL ORO WW TREATMENT FAC.", "CWP_STREET": "1PNM ACCESS ROAD,LOS LUNAS IN", "CWP_CITY": "VALENCIA COUNTY", "CWP_STATE": "NM", "CWP_ZIP": "87301", "CWP_COUNTY": "Valencia", "NPDES_ID": "NM0030414", "REGISTRY_ID": "110009831110", "CWP_FACILITY_TYPE_INDICATOR": "POTW", "CWP_MAJOR_MINOR_STATUS": "Minor", "CWP_PERMIT_STATUS_DESC": "Effective", "STATE_WATER_BODY_NAME": "LA CANADA DE LA LOMA DE ARENA", "CWP_CSO_FLAG": "N"}}, {"type": "Feature", "geometry": {"type": "Point", "coordinates": [-105.673100286953, 35.5673159554966]}, "properties": {"CWP_NAME": "VILLAGE OF PECOS", "CWP_STREET": "S.ON HWY 63 FOR 1/2 MI.FROM", "CWP_CITY": "SAN MIGUEL COUNTY", "CWP_STATE": "NM", "CWP_ZIP": "00000", "CWP_COUNTY": "San Miguel", "NPDES_ID": "NM0029041", "REGISTRY_ID": "110011027021", "CWP_FACILITY_TYPE_INDICATOR": "POTW", "CWP_MAJOR_MINOR_STATUS": "Minor", "CWP_PERMIT_STATUS_DESC": "Admin Continued", "STATE_WATER_BODY_NAME": "PECOS RIVER", "CWP_CSO_FLAG": "N"}}]}