{"type": "FeatureCollection", "features": [{"type": "Feature", "geometry": {"type": "Point", "coordinates": [-110.191011810433, 42.2650066707223]}, "properties": {"CWP_NAME": "LABARGE WASTEWATER LAGOON", "CWP_STREET": "UNKNOWN", "CWP_CITY": "UNKNOWN", "CWP_STATE": "WY", "CWP_ZIP": "00000", "CWP_COUNTY": null, "NPDES_ID": "WY0022080", "REGISTRY_ID": "110055197692", "CWP_FACILITY_TYPE_INDICATOR": "POTW", "CWP_MAJOR_MINOR_STATUS": "Minor", "CWP_PERMIT_STATUS_DESC": "Effective", "STATE_WATER_BODY_NAME": null, "CWP_CSO_FLAG": "N"}}, {"type": "Feature", "geometry": {"type": "Point", "coordinates": [-108.411782903676, 42.9830229216808]}, "properties": {"CWP_NAME": "WASTEWATER TREATMENT LAGOON", "CWP_STREET": "SWSW S9 T01S R04E", "CWP_CITY": "SAINT STEPHENS", "CWP_STATE": "WY", "CWP_ZIP": "82524", "CWP_COUNTY": "Fremont", "NPDES_ID": "WYG589103", "REGISTRY_ID": "110022836626", "CWP_FACILITY_TYPE_INDICATOR": "POTW", "CWP_MAJOR_MINOR_STATUS": "Minor", "CWP_PERMIT_STATUS_DESC": "Admin Continued", "STATE_WATER_BODY_NAME": null, "CWP_CSO_FLAG": "N"}}, {"type": "Feature", "geometry": {"type": "Point", "coordinates": [-109.024871816586, 44.5475259419451]}, "properties": {"CWP_NAME": "CODY WASTEWATER LAGOON", "CWP_STREET": "101 COOPER LANE W.", "CWP_CITY": "CODY", "CWP_STATE": "WY", "CWP_ZIP": "82414", "CWP_COUNTY": null, "NPDES_ID": "WY0020451", "REGISTRY_ID": "110055177954", "CWP_FACILITY_TYPE_INDICATOR": "POTW", "CWP_MAJOR_MINOR_STATUS": "Minor", "CWP_PERMIT_STATUS_DESC": "Admin Continued", "STATE_WATER_BODY_NAME": null, "CWP_CSO_FLAG": "N"}}, {"type": "Feature", "geometry": {"type": "Point", "coordinates": [-108.612371660732, 44.9676263304223]}, "properties": {"CWP_NAME": "FRANNIE WASTEWATER LAGOONS", "CWP_STREET": "UNKNOWN", "CWP_CITY": "UNKNOWN", "CWP_STATE": "WY", "CWP_ZIP": "00000", "CWP_COUNTY": null, "NPDES_ID": "WY0020052", "REGISTRY_ID": "110055171433", "CWP_FACILITY_TYPE_INDICATOR": "POTW", "CWP_MAJOR_MINOR_STATUS": "Minor", "CWP_PERMIT_STATUS_DESC": "Effective", "STATE_WATER_BODY_NAME": null, "CWP_CSO_FLAG": "N"}}, {"type": "Feature", "geometry": {"type": "Point", "coordinates": [-107.140671256061, 44.9082568089918]}, "properties": {"CWP_NAME": "RANCHESTER WASTEWATER LAGOONS", "CWP_STREET": "UNKNOWN", "CWP_CITY": "UNKNOWN", "CWP_STATE": "WY", "CWP_ZIP": "00000", "CWP_COUNTY": null, "NPDES_ID": "WY0022161", "REGISTRY_ID": "110055197727", "CWP_FACILITY_TYPE_INDICATOR": "POTW", "CWP_MAJOR_MINOR_STATUS": "Minor", "CWP_PERMIT_STATUS_DESC": "Effective", "STATE_WATER_BODY_NAME": null, "CWP_CSO_FLAG": "N"}}, {"type": "Feature", "geometry": {"type": "Point", "coordinates": [-106.633200597406, 43.7060969632396]}, "properties": {"CWP_NAME": "KAYCEE WWTF", "CWP_STREET": "UNKNOWN", "CWP_CITY": "UNKNOWN", "CWP_STATE": "WY", "CWP_ZIP": "00000", "CWP_COUNTY": null, "NPDES_ID": "WY0021733", "REGISTRY_ID": "110055197585", "CWP_FACILITY_TYPE_INDICATOR": "POTW", "CWP_MAJOR_MINOR_STATUS": "Minor", "CWP_PERMIT_STATUS_DESC": "Admin Continued", "STATE_WATER_BODY_NAME": null, "CWP_CSO_FLAG": "N"}}, {"type": "Feature", "geometry": {"type": "Point", "coordinates": [-104.722205349845, 42.3284524841005]}, "properties": {"CWP_NAME": "HARTVILLE WASTEWATER TREATMENT", "CWP_STREET": "UNKNOWN", "CWP_CITY": "UNKNOWN", "CWP_STATE": "WY", "CWP_ZIP": "00000", "CWP_COUNTY": "Platte", "NPDES_ID": "WY0021440", "REGISTRY_ID": "110055197530", "CWP_FACILITY_TYPE_INDICATOR": "POTW", "CWP_MAJOR_MINOR_STATUS": "Minor", "CWP_PERMIT_STATUS_DESC": "Effective", "STATE_WATER_BODY_NAME": null, "CWP_CSO_FLAG": "N"}}, {"type": "Feature", "geometry": {"type": "Point", "coordinates": [-107.237428433652, 44.8828797282758]}, "properties": {"CWP_NAME": "TOWN OF DAYTON WASTEWATER TREATMENT PLANT", "CWP_STREET": "UNKNOWN", "CWP_CITY": "UNKNOWN", "CWP_STATE": "WY", "CWP_ZIP": "00000", "CWP_COUNTY": null, "NPDES_ID": "WY0020435", "REGISTRY_ID": "110055177927", "CWP_FACILITY_TYPE_INDICATOR": "POTW", "CWP_MAJOR_MINOR_STATUS": "Minor", "CWP_PERMIT_STATUS_DESC": "Effective", "STATE_WATER_BODY_NAME": null, "CWP_CSO_FLAG": "N"}}, {"type": "Feature", "geometry": {"type": "Point", "coordinates": [-111.013451988778, 42.9270560885597]}, "properties": {"CWP_NAME": "THAYNE WASTEWATER LAGOON", "CWP_STREET": "UNKNOWN", "CWP_CITY": "UNKNOWN", "CWP_STATE": "WY", "CWP_ZIP": "00000", "CWP_COUNTY": null, "NPDES_ID": "WY0025895", "REGISTRY_ID": "110055194891", "CWP_FACILITY_TYPE_INDICATOR": "POTW", "CWP_MAJOR_MINOR_STATUS": "Minor", "CWP_PERMIT_STATUS_DESC": "Effective", "STATE_WATER_BODY_NAME": null, "CWP_CSO_FLAG": "N"}}, {"type": "Feature", "geometry": {"type": "Point", "coordinates": [-106.761308255099, 44.339047975606]}, "properties": {"CWP_NAME": "BUFFALO WWTP", "CWP_STREET": "UNKNOWN", "CWP_CITY": "UNKNOWN", "CWP_STATE": "WY", "CWP_ZIP": "00000", "CWP_COUNTY": null, "NPDES_ID": "WY0021024", "REGISTRY_ID": "110055197503", "CWP_FACILITY_TYPE_INDICATOR": "POTW", "CWP_MAJOR_MINOR_STATUS": "Minor", "CWP_PERMIT_STATUS_DESC": "Effective", "STATE_WATER_BODY_NAME": null, "CWP_CSO_FLAG": "N"}}, {"type": "Feature", "geometry": {"type": "Point", "coordinates": [-108.75607162756, 44.7550769254466]}, "properties": {"CWP_NAME": "POWELL WASTEWATER LAGOON", "CWP_STREET": "270 NORTH CLARK STREET", "CWP_CITY": "POWELL", "CWP_STATE": "WY", "CWP_ZIP": "82435", "CWP_COUNTY": "Park", "NPDES_ID": "WY0020648", "REGISTRY_ID": "110055197424", "CWP_FACILITY_TYPE_INDICATOR": "POTW", "CWP_MAJOR_MINOR_STATUS": "Major", "CWP_PERMIT_STATUS_DESC": "Admin Continued", "STATE_WATER_BODY_NAME": null, "CWP_CSO_FLAG": "N"}}, {"type": "Feature", "geometry": {"type": "Point", "coordinates": [-104.361524810656, 41.1854985770723]}, "properties": {"CWP_NAME": "BURNS WASTEWATER LAGOONS", "CWP_STREET": "UNKNOWN", "CWP_CITY": "UNKNOWN", "CWP_STATE": "WY", "CWP_ZIP": "00000", "CWP_COUNTY": null, "NPDES_ID": "WY0021652", "REGISTRY_ID": "110055197576", "CWP_FACILITY_TYPE_INDICATOR": "POTW", "CWP_MAJOR_MINOR_STATUS": "Minor", "CWP_PERMIT_STATUS_DESC": "Effective", "STATE_WATER_BODY_NAME": null, "CWP_CSO_FLAG": "N"}}, {"type": "Feature", "geometry": {"type": "Point", "coordinates": [-104.79808057153, 44.3431373579039]}, "properties": {"CWP_NAME": "PINEHAVEN WWTP", "CWP_STREET": "UNKNOWN", "CWP_CITY": "UNKNOWN", "CWP_STATE": "WY", "CWP_ZIP": "00000", "CWP_COUNTY": null, "NPDES_ID": "WY0095907", "REGISTRY_ID": "110055200367", "CWP_FACILITY_TYPE_INDICATOR": "POTW", "CWP_MAJOR_MINOR_STATUS": "Minor", "CWP_PERMIT_STATUS_DESC": "Effective", "STATE_WATER_BODY_NAME": null, "CWP_CSO_FLAG": "N"}}, {"type": "Feature", "geometry": {"type": "Point", "coordinates": [-106.778814899756, 41.2212734331235]}, "properties": {"CWP_NAME": "RIVERSIDE WASTE WATER TREATMENT FACILITY", "CWP_STREET": "UNKNOWN", "CWP_CITY": "UNKNOWN", "CWP_STATE": "WY", "CWP_ZIP": "00000", "CWP_COUNTY": "Natrona", "NPDES_ID": "WY0032662", "REGISTRY_ID": "110055197834", "CWP_FACILITY_TYPE_INDICATOR": "POTW", "CWP_MAJOR_MINOR_STATUS": "Minor", "CWP_PERMIT_STATUS_DESC": "Effective", "STATE_WATER_BODY_NAME": null, "CWP_CSO_FLAG": "N"}}, {"type": "Feature", "geometry": {"type": "Point", "coordinates": [-110.373903242404, 41.3319014717484]}, "properties": {"CWP_NAME": "FORT BRIDGER SEWER DISTRICT", "CWP_STREET": "UNKNOWN", "CWP_CITY": "UNKNOWN", "CWP_STATE": "WY", "CWP_ZIP": "00000", "CWP_COUNTY": null, "NPDES_ID": "WY0022071", "REGISTRY_ID": "110055197683", "CWP_FACILITY_TYPE_INDICATOR": "POTW", "CWP_MAJOR_MINOR_STATUS": "Minor", "CWP_PERMIT_STATUS_DESC": "Effective", "STATE_WATER_BODY_NAME": null, "CWP_CSO_FLAG": "N"}}, {"type": "Feature", "geometry": {"type": "Point", "coordinates": [-108.477011644091, 42.974106137196]}, "properties": {"CWP_NAME": "GREAT PLAINS LAGOON", "CWP_STREET": "98 GAS HILLS ROAD", "CWP_CITY": "FORT WASHAKIE", "CWP_STATE": "WY", "CWP_ZIP": "82501", "CWP_COUNTY": "Fremont", "NPDES_ID": "WYG589102", "REGISTRY_ID": "110022833040", "CWP_FACILITY_TYPE_INDICATOR": "POTW", "CWP_MAJOR_MINOR_STATUS": "Minor", "CWP_PERMIT_STATUS_DESC": "Admin Continued", "STATE_WATER_BODY_NAME": null, "CWP_CSO_FLAG": "N"}}, {"type": "Feature", "geometry": {"type": "Point", "coordinates": [-108.11816142286, 43.2299165534977]}, "properties": {"CWP_NAME": "SHOSHONI WASTEWATER LAGOONS", "CWP_STREET": "UNKNOWN", "CWP_CITY": "UNKNOWN", "CWP_STATE": "WY", "CWP_ZIP": "00000", "CWP_COUNTY": null, "NPDES_ID": "WY0021890", "REGISTRY_ID": "110055197638", "CWP_FACILITY_TYPE_INDICATOR": "POTW", "CWP_MAJOR_MINOR_STATUS": "Minor", "CWP_PERMIT_STATUS_DESC": "Admin Continued", "STATE_WATER_BODY_NAME": null, "CWP_CSO_FLAG": "N"}}, {"type": "Feature", "geometry": {"type": "Point", "coordinates": [-108.211481458427, 43.6362662651356]}, "properties": {"CWP_NAME": "THERMOPOLIS WWTF", "CWP_STREET": "UNKNOWN", "CWP_CITY": "UNKNOWN", "CWP_STATE": "WY", "CWP_ZIP": "00000", "CWP_COUNTY": null, "NPDES_ID": "WY0020192", "REGISTRY_ID": "110055171521", "CWP_FACILITY_TYPE_INDICATOR": "POTW", "CWP_MAJOR_MINOR_STATUS": "Major", "CWP_PERMIT_STATUS_DESC": "Effective", "STATE_WATER_BODY_NAME": null, "CWP_CSO_FLAG": "N"}}, {"type": "Feature", "geometry": {"type": "Point", "coordinates": [-107.657910465844, 41.0348663662184]}, "properties": {"CWP_NAME": "BAGGS WASTEWATER LAGOONS", "CWP_STREET": "UNKNOWN", "CWP_CITY": "UNKNOWN", "CWP_STATE": "WY", "CWP_ZIP": "00000", "CWP_COUNTY": null, "NPDES_ID": "WY0022888", "REGISTRY_ID": "110055169428", "CWP_FACILITY_TYPE_INDICATOR": "POTW", "CWP_MAJOR_MINOR_STATUS": "Minor", "CWP_PERMIT_STATUS_DESC": "Effective", "STATE_WATER_BODY_NAME": null, "CWP_CSO_FLAG": "N"}}, {"type": "Feature", "geometry": {"type": "Point", "coordinates": [-104.736050405885, 42.2556667432195]}, "properties": {"CWP_NAME": "GUERNSEY WASTEWATER LAGOON", "CWP_STREET": "UNKNOWN", "CWP_CITY": "UNKNOWN", "CWP_STATE": "WY", "CWP_ZIP": "00000", "CWP_COUNTY": null, "NPDES_ID": "WY0021831", "REGISTRY_ID": "110055197629", "CWP_FACILITY_TYPE_INDICATOR": "POTW", "CWP_MAJOR_MINOR_STATUS": "Minor", "CWP_PERMIT_STATUS_DESC": "Effective", "STATE_WATER_BODY_NAME": null, "CWP_CSO_FLAG": "N"}}, {"type": "Feature", "geometry": {"type": "Point", "coordinates": [-108.585118586229, 44.8929861923595]}, "properties": {"CWP_NAME": "DEAVER WASTEWATER LAGOON", "CWP_STREET": "UNKNOWN", "CWP_CITY": "UNKNOWN", "CWP_STATE": "WY", "CWP_ZIP": "00000", "CWP_COUNTY": null, "NPDES_ID": "WY0021580", "REGISTRY_ID": "110055197567", "CWP_FACILITY_TYPE_INDICATOR": "POTW", "CWP_MAJOR_MINOR_STATUS": "Minor", "CWP_PERMIT_STATUS_DESC": "Effective", "STATE_WATER_BODY_NAME": null, "CWP_CSO_FLAG": "N"}}, {"type": "Feature", "geometry": {"type": "Point", "coordinates": [-110.133511886016, 42.5422065391876]}, "properties": {"CWP_NAME": "BIG PINEY WASTEWATER LAGOON", "CWP_STREET": "300 LAGOON ROAD", "CWP_CITY": "BIG PINEY", "CWP_STATE": "WY", "CWP_ZIP": "83113", "CWP_COUNTY": null, "NPDES_ID": "WY0020133", "REGISTRY_ID": "110055171497", "CWP_FACILITY_TYPE_INDICATOR": "POTW", "CWP_MAJOR_MINOR_STATUS": "Minor", "CWP_PERMIT_STATUS_DESC": "Admin Continued", "STATE_WATER_BODY_NAME": null, "CWP_CSO_FLAG": "N"}}, {"type": "Feature", "geometry": {"type": "Point", "coordinates": [-108.371061594195, 42.9947824614589]}, "properties": {"CWP_NAME": "ARAPAHOE INDUSTRIAL PARK LAGOON", "CWP_STREET": "98 GAS HILLS ROAD", "CWP_CITY": "FREMONT COUNTY", "CWP_STATE": "WY", "CWP_ZIP": "82510", "CWP_COUNTY": "Fremont", "NPDES_ID": "WYG589104", "REGISTRY_ID": "110010853781", "CWP_FACILITY_TYPE_INDICATOR": "POTW", "CWP_MAJOR_MINOR_STATUS": "Minor", "CWP_PERMIT_STATUS_DESC": "Admin Continued", "STATE_WATER_BODY_NAME": null, "CWP_CSO_FLAG": "N"}}, {"type": "Feature", "geometry": {"type": "Point", "coordinates": [-106.586051558189, 41.8677143095616]}, "properties": {"CWP_NAME": "HANNA WASTEWATER LAGOON SYSTEM", "CWP_STREET": "UNKNOWN", "CWP_CITY": "UNKNOWN", "CWP_STATE": "WY", "CWP_ZIP": "00000", "CWP_COUNTY": null, "NPDES_ID": "WY0020745", "REGISTRY_ID": "110055197488", "CWP_FACILITY_TYPE_INDICATOR": "POTW", "CWP_MAJOR_MINOR_STATUS": "Minor", "CWP_PERMIT_STATUS_DESC": "Effective", "STATE_WATER_BODY_NAME": null, "CWP_CSO_FLAG": "N"}}, {"type": "Feature", "geometry": {"type": "Point", "coordinates": [-104.180810613465, 42.0507670225376]}, "properties": {"CWP_NAME": "TORRINGTON WASTEWATER LAGOONS", "CWP_STREET": "UNKNOWN", "CWP_CITY": "UNKNOWN", "CWP_STATE": "WY", "CWP_ZIP": "00000", "CWP_COUNTY": "Goshen", "NPDES_ID": "WY0020231", "REGISTRY_ID": "110055171567", "CWP_FACILITY_TYPE_INDICATOR": "POTW", "CWP_MAJOR_MINOR_STATUS": "Major", "CWP_PERMIT_STATUS_DESC": "Effective", "STATE_WATER_BODY_NAME": null, "CWP_CSO_FLAG": "N"}}, {"type": "Feature", "geometry": {"type": "Point", "coordinates": [-108.699251239524, 42.8537561309666]}, "properties": {"CWP_NAME": "LANDER WASTEWATER LAGOON", "CWP_STREET": "UNKNOWN", "CWP_CITY": "UNKNOWN", "CWP_STATE": "WY", "CWP_ZIP": "00000", "CWP_COUNTY": null, "NPDES_ID": "WY0020389", "REGISTRY_ID": "110064598412", "CWP_FACILITY_TYPE_INDICATOR": "POTW", "CWP_MAJOR_MINOR_STATUS": "Major", "CWP_PERMIT_STATUS_DESC": "Effective", "STATE_WATER_BODY_NAME": null, "CWP_CSO_FLAG": "N"}}, {"type": "Feature", "geometry": {"type": "Point", "coordinates": [-108.683541039023, 43.2417362974574]}, "properties": {"CWP_NAME": "PAVILLION WASTEWATER LAGOON", "CWP_STREET": "UNKNOWN", "CWP_CITY": "UNKNOWN", "CWP_STATE": "WY", "CWP_ZIP": "00000", "CWP_COUNTY": null, "NPDES_ID": "WY0020222", "REGISTRY_ID": "110055171549", "CWP_FACILITY_TYPE_INDICATOR": "POTW", "CWP_MAJOR_MINOR_STATUS": "Minor", "CWP_PERMIT_STATUS_DESC": "Effective", "STATE_WATER_BODY_NAME": null, "CWP_CSO_FLAG": "N"}}, {"type": "Feature", "geometry": {"type": "Point", "coordinates": [-107.456321528508, 44.0298168953072]}, "properties": {"CWP_NAME": "TEN SLEEP WASTEWATER LAGOONS", "CWP_STREET": "UNKNOWN", "CWP_CITY": "UNKNOWN", "CWP_STATE": "WY", "CWP_ZIP": "00000", "CWP_COUNTY": "Washakie", "NPDES_ID": "WY0020168", "REGISTRY_ID": "110055171503", "CWP_FACILITY_TYPE_INDICATOR": "POTW", "CWP_MAJOR_MINOR_STATUS": "Minor", "CWP_PERMIT_STATUS_DESC": "Effective", "STATE_WATER_BODY_NAME": null, "CWP_CSO_FLAG": "N"}}, {"type": "Feature", "geometry": {"type": "Point", "coordinates": [-109.2783111541, 41.5693864576736]}, "properties": {"CWP_NAME": "ROCK SPRINGS WATER RECLAMATION FACILITY", "CWP_STREET": "UNKNOWN", "CWP_CITY": "UNKNOWN", "CWP_STATE": "WY", "CWP_ZIP": "00000", "CWP_COUNTY": null, "NPDES_ID": "WY0022357", "REGISTRY_ID": "110064597235", "CWP_FACILITY_TYPE_INDICATOR": "POTW", "CWP_MAJOR_MINOR_STATUS": "Major", "CWP_PERMIT_STATUS_DESC": "Effective", "STATE_WATER_BODY_NAME": null, "CWP_CSO_FLAG": "N"}}, {"type": "Feature", "geometry": {"type": "Point", "coordinates": [-107.561850424927, 42.2367205029419]}, "properties": {"CWP_NAME": "BAIROIL WASTEWATER LAGOON", "CWP_STREET": "UNKNOWN", "CWP_CITY": "UNKNOWN", "CWP_STATE": "WY", "CWP_ZIP": "00000", "CWP_COUNTY": null, "NPDES_ID": "WY0021075", "REGISTRY_ID": "110055197521", "CWP_FACILITY_TYPE_INDICATOR": "POTW", "CWP_MAJOR_MINOR_STATUS": "Minor", "CWP_PERMIT_STATUS_DESC": "Admin Continued", "STATE_WATER_BODY_NAME": null, "CWP_CSO_FLAG": "N"}}, {"type": "Feature", "geometry": {"type": "Point", "coordinates": [-108.380651073007, 43.0320368806931]}, "properties": {"CWP_NAME": "RIVERTON WWTF", "CWP_STREET": "UNKNOWN", "CWP_CITY": "UNKNOWN", "CWP_STATE": "WY", "CWP_ZIP": "00000", "CWP_COUNTY": null, "NPDES_ID": "WY0020672", "REGISTRY_ID": "110055197451", "CWP_FACILITY_TYPE_INDICATOR": "POTW", "CWP_MAJOR_MINOR_STATUS": "Major", "CWP_PERMIT_STATUS_DESC": "Effective", "STATE_WATER_BODY_NAME": null, "CWP_CSO_FLAG": "N"}}, {"type": "Feature", "geometry": {"type": "Point", "coordinates": [-108.504671496195, 44.7956390741757]}, "properties": {"CWP_NAME": "BYRON WASTEWATER LAGOON", "CWP_STREET": "UNKNOWN", "CWP_CITY": "UNKNOWN", "CWP_STATE": "WY", "CWP_ZIP": "00000", "CWP_COUNTY": null, "NPDES_ID": "WY0020281", "REGISTRY_ID": "110055177801", "CWP_FACILITY_TYPE_INDICATOR": "POTW", "CWP_MAJOR_MINOR_STATUS": "Minor", "CWP_PERMIT_STATUS_DESC": "Effective", "STATE_WATER_BODY_NAME": null, "CWP_CSO_FLAG": "N"}}, {"type": "Feature", "geometry": {"type": "Point", "coordinates": [-111.000702054851, 41.2865962703134]}, "properties": {"CWP_NAME": "EVANSTON WWTF", "CWP_STREET": "UNKNOWN", "CWP_CITY": "UNKNOWN", "CWP_STATE": "WY", "CWP_ZIP": "00000", "CWP_COUNTY": null, "NPDES_ID": "WY0020095", "REGISTRY_ID": "110058916776", "CWP_FACILITY_TYPE_INDICATOR": "POTW", "CWP_MAJOR_MINOR_STATUS": "Major", "CWP_PERMIT_STATUS_DESC": "Effective", "STATE_WATER_BODY_NAME": null, "CWP_CSO_FLAG": "N"}}, {"type": "Feature", "geometry": {"type": "Point", "coordinates": [-105.870838698491, 42.8612216330905]}, "properties": {"CWP_NAME": "GLENROCK WASTEWATER LAGOON", "CWP_STREET": "UNKNOWN", "CWP_CITY": "UNKNOWN", "CWP_STATE": "WY", "CWP_ZIP": "00000", "CWP_COUNTY": null, "NPDES_ID": "WY0020630", "REGISTRY_ID": "110055197415", "CWP_FACILITY_TYPE_INDICATOR": "POTW", "CWP_MAJOR_MINOR_STATUS": "Minor", "CWP_PERMIT_STATUS_DESC": "Effective", "STATE_WATER_BODY_NAME": null, "CWP_CSO_FLAG": "N"}}, {"type": "Feature", "geometry": {"type": "Point", "coordinates": [-107.182270720924, 41.7771965889486]}, "properties": {"CWP_NAME": "CITY OF RAWLINS WASTEWATER TREATMENT FACILITY", "CWP_STREET": "UNKNOWN", "CWP_CITY": "UNKNOWN", "CWP_STATE": "WY", "CWP_ZIP": "00000", "CWP_COUNTY": null, "NPDES_ID": "WY0020427", "REGISTRY_ID": "110055177918", "CWP_FACILITY_TYPE_INDICATOR": "POTW", "CWP_MAJOR_MINOR_STATUS": "Major", "CWP_PERMIT_STATUS_DESC": "Effective", "STATE_WATER_BODY_NAME": null, "CWP_CSO_FLAG": "N"}}, {"type": "Feature", "geometry": {"type": "Point", "coordinates": [-110.782195847986, 43.4013334246477]}, "properties": {"CWP_NAME": "JACKSON WASTEWATER LAGOON", "CWP_STREET": "UNKNOWN", "CWP_CITY": "UNKNOWN", "CWP_STATE": "WY", "CWP_ZIP": "00000", "CWP_COUNTY": "Teton", "NPDES_ID": "WY0021458", "REGISTRY_ID": "110055197549", "CWP_FACILITY_TYPE_INDICATOR": "POTW", "CWP_MAJOR_MINOR_STATUS": "Major", "CWP_PERMIT_STATUS_DESC": "Admin Continued", "STATE_WATER_BODY_NAME": null, "CWP_CSO_FLAG": "N"}}, {"type": "Feature", "geometry": {"type": "Point", "coordinates": [-108.062541247721, 44.5125666762567]}, "properties": {"CWP_NAME": "GREYBULL WASTEWATER LAGOON", "CWP_STREET": "UNKNOWN", "CWP_CITY": "UNKNOWN", "CWP_STATE": "WY", "CWP_ZIP": "00000", "CWP_COUNTY": null, "NPDES_ID": "WY0020583", "REGISTRY_ID": "110055178052", "CWP_FACILITY_TYPE_INDICATOR": "POTW", "CWP_MAJOR_MINOR_STATUS": "Minor", "CWP_PERMIT_STATUS_DESC": "Effective", "STATE_WATER_BODY_NAME": null, "CWP_CSO_FLAG": "N"}}, {"type": "Feature", "geometry": {"type": "Point", "coordinates": [-105.961571164207, 41.7553422551021]}, "properties": {"CWP_NAME": "ROCK RIVER WASTEWATER LAGOON", "CWP_STREET": "UNKNOWN", "CWP_CITY": "UNKNOWN", "CWP_STATE": "WY", "CWP_ZIP": "00000", "CWP_COUNTY": null, "NPDES_ID": "WY0020184", "REGISTRY_ID": "110055171512", "CWP_FACILITY_TYPE_INDICATOR": "POTW", "CWP_MAJOR_MINOR_STATUS": "Minor", "CWP_PERMIT_STATUS_DESC": "Effective", "STATE_WATER_BODY_NAME": null, "CWP_CSO_FLAG": "N"}}, {"type": "Feature", "geometry": {"type": "Point", "coordinates": [-104.972290973142, 44.2705170795834]}, "properties": {"CWP_NAME": "MOORCROFT WASTEWATER LAGOON", "CWP_STREET": "UNKNOWN", "CWP_CITY": "UNKNOWN", "CWP_STATE": "WY", "CWP_ZIP": "00000", "CWP_COUNTY": null, "NPDES_ID": "WY0021741", "REGISTRY_ID": "110055197601", "CWP_FACILITY_TYPE_INDICATOR": "POTW", "CWP_MAJOR_MINOR_STATUS": "Minor", "CWP_PERMIT_STATUS_DESC": "Effective", "STATE_WATER_BODY_NAME": null, "CWP_CSO_FLAG": "N"}}, {"type": "Feature", "geometry": {"type": "Point", "coordinates": [-108.418361680386, 44.4397368401588]}, "properties": {"CWP_NAME": "BURLINGTON WASTEWATER LAGOON", "CWP_STREET": "UNKNOWN", "CWP_CITY": "UNKNOWN", "CWP_STATE": "WY", "CWP_ZIP": "00000", "CWP_COUNTY": null, "NPDES_ID": "WY0034606", "REGISTRY_ID": "110055198600", "CWP_FACILITY_TYPE_INDICATOR": "POTW", "CWP_MAJOR_MINOR_STATUS": "Minor", "CWP_PERMIT_STATUS_DESC": "Terminated", "STATE_WATER_BODY_NAME": null, "CWP_CSO_FLAG": "N"}}, {"type": "Feature", "geometry": {"type": "Point", "coordinates": [-104.263529634061, 43.8351301010512]}, "properties": {"CWP_NAME": "CITY OF NEWCASTLE WASTEWATER TREATMENT FACILITY", "CWP_STREET": "10 WEST WARWICK", "CWP_CITY": "NEWCASTLE", "CWP_STATE": "WY", "CWP_ZIP": "82701", "CWP_COUNTY": null, "NPDES_ID": "WY0096610", "REGISTRY_ID": "110070987318", "CWP_FACILITY_TYPE_INDICATOR": "POTW", "CWP_MAJOR_MINOR_STATUS": "Minor", "CWP_PERMIT_STATUS_DESC": "Effective", "STATE_WATER_BODY_NAME": null, "CWP_CSO_FLAG": "N"}}, {"type": "Feature", "geometry": {"type": "Point", "coordinates": [-107.962971450481, 41.6787792081317]}, "properties": {"CWP_NAME": "WAMSUTTER WASTEWATER TREATMENT PLANT LAGOON", "CWP_STREET": "UNKNOWN", "CWP_CITY": "UNKNOWN", "CWP_STATE": "WY", "CWP_ZIP": "00000", "CWP_COUNTY": null, "NPDES_ID": "WY0053414", "REGISTRY_ID": "110055177428", "CWP_FACILITY_TYPE_INDICATOR": "POTW", "CWP_MAJOR_MINOR_STATUS": "Minor", "CWP_PERMIT_STATUS_DESC": "Terminated", "STATE_WATER_BODY_NAME": null, "CWP_CSO_FLAG": "N"}}, {"type": "Feature", "geometry": {"type": "Point", "coordinates": [-108.035971650447, 44.3896068582925]}, "properties": {"CWP_NAME": "BASIN WASTEWATER LAGOON", "CWP_STREET": "UNKNOWN", "CWP_CITY": "UNKNOWN", "CWP_STATE": "WY", "CWP_ZIP": "00000", "CWP_COUNTY": null, "NPDES_ID": "WY0020028", "REGISTRY_ID": "110055171362", "CWP_FACILITY_TYPE_INDICATOR": "POTW", "CWP_MAJOR_MINOR_STATUS": "Minor", "CWP_PERMIT_STATUS_DESC": "Admin Continued", "STATE_WATER_BODY_NAME": null, "CWP_CSO_FLAG": "N"}}, {"type": "Feature", "geometry": {"type": "Point", "coordinates": [-106.996361471902, 44.6816222446755]}, "properties": {"CWP_NAME": "SHERIDAN COUNTY SCHOOL DISTRICT #1, BIGHORN SCHOOL WASTEWATER SYSTEM DRAINAGE", "CWP_STREET": "UNKNOWN", "CWP_CITY": "UNKNOWN", "CWP_STATE": "WY", "CWP_ZIP": "00000", "CWP_COUNTY": null, "NPDES_ID": "WY0056308", "REGISTRY_ID": "110055239184", "CWP_FACILITY_TYPE_INDICATOR": "POTW", "CWP_MAJOR_MINOR_STATUS": "Minor", "CWP_PERMIT_STATUS_DESC": "Effective", "STATE_WATER_BODY_NAME": null, "CWP_CSO_FLAG": "N"}}, {"type": "Feature", "geometry": {"type": "Point", "coordinates": [-111.018598584135, 41.4070173030403]}, "properties": {"CWP_NAME": "TOWN OF BEAR RIVER WASTEWATER LAGOONS", "CWP_STREET": "UNKNOWN", "CWP_CITY": "UNKNOWN", "CWP_STATE": "WY", "CWP_ZIP": "00000", "CWP_COUNTY": null, "NPDES_ID": "WY0031712", "REGISTRY_ID": "110055172520", "CWP_FACILITY_TYPE_INDICATOR": "POTW", "CWP_MAJOR_MINOR_STATUS": "Minor", "CWP_PERMIT_STATUS_DESC": "Admin Continued", "STATE_WATER_BODY_NAME": null, "CWP_CSO_FLAG": "N"}}, {"type": "Feature", "geometry": {"type": "Point", "coordinates": [-110.089228361167, 42.5519453023628]}, "properties": {"CWP_NAME": "MARBLETON WASTEWATER LAGOON", "CWP_STREET": "UNKNOWN", "CWP_CITY": "UNKNOWN", "CWP_STATE": "WY", "CWP_ZIP": "00000", "CWP_COUNTY": null, "NPDES_ID": "WY0021997", "REGISTRY_ID": "110055197674", "CWP_FACILITY_TYPE_INDICATOR": "POTW", "CWP_MAJOR_MINOR_STATUS": "Minor", "CWP_PERMIT_STATUS_DESC": "Effective", "STATE_WATER_BODY_NAME": null, "CWP_CSO_FLAG": "N"}}, {"type": "Feature", "geometry": {"type": "Point", "coordinates": [-109.468971059518, 41.5217160733832]}, "properties": {"CWP_NAME": "GREEN RIVER WASTEWATER TREATMENT PLANT", "CWP_STREET": "UNKNOWN", "CWP_CITY": "UNKNOWN", "CWP_STATE": "WY", "CWP_ZIP": "00000", "CWP_COUNTY": "Sweetwater", "NPDES_ID": "WY0020443", "REGISTRY_ID": "110064615144", "CWP_FACILITY_TYPE_INDICATOR": "POTW", "CWP_MAJOR_MINOR_STATUS": "Major", "CWP_PERMIT_STATUS_DESC": "Effective", "STATE_WATER_BODY_NAME": null, "CWP_CSO_FLAG": "N"}}, {"type": "Feature", "geometry": {"type": "Point", "coordinates": [-108.745685972005, 43.0305214926787]}, "properties": {"CWP_NAME": "BEAVER CREEK LAGOONS", "CWP_STREET": "E1/2 S15, T1S, R4E", "CWP_CITY": "ETHETE", "CWP_STATE": "WY", "CWP_ZIP": "82520", "CWP_COUNTY": "Fremont", "NPDES_ID": "WYG589107", "REGISTRY_ID": "110010138742", "CWP_FACILITY_TYPE_INDICATOR": "POTW", "CWP_MAJOR_MINOR_STATUS": "Minor", "CWP_PERMIT_STATUS_DESC": "Admin Continued", "STATE_WATER_BODY_NAME": null, "CWP_CSO_FLAG": "N"}}, {"type": "Feature", "geometry": {"type": "Point", "coordinates": [-106.811660879963, 41.4734865315578]}, "properties": {"CWP_NAME": "SARATOGA WASTEWATER LAGOONS", "CWP_STREET": "UNKNOWN", "CWP_CITY": "UNKNOWN", "CWP_STATE": "WY", "CWP_ZIP": "00000", "CWP_COUNTY": null, "NPDES_ID": "WY0021491", "REGISTRY_ID": "110055197558", "CWP_FACILITY_TYPE_INDICATOR": "POTW", "CWP_MAJOR_MINOR_STATUS": "Minor", "CWP_PERMIT_STATUS_DESC": "Admin Continued", "STATE_WATER_BODY_NAME": null, "CWP_CSO_FLAG": "N"}}, {"type": "Feature", "geometry": {"type": "Point", "coordinates": [-109.621671780168, 43.5268564120282]}, "properties": {"CWP_NAME": "DUBOIS WASTEWATER LAGOON", "CWP_STREET": "UNKNOWN", "CWP_CITY": "UNKNOWN", "CWP_STATE": "WY", "CWP_ZIP": "00000", "CWP_COUNTY": null, "NPDES_ID": "WY0020834", "REGISTRY_ID": "110055197497", "CWP_FACILITY_TYPE_INDICATOR": "POTW", "CWP_MAJOR_MINOR_STATUS": "Minor", "CWP_PERMIT_STATUS_DESC": "Effective", "STATE_WATER_BODY_NAME": null, "CWP_CSO_FLAG": "N"}}, {"type": "Feature", "geometry": {"type": "Point", "coordinates": [-104.514118349194, 42.2006129553918]}, "properties": {"CWP_NAME": "FORT LARAMIE WASTEWATER LAGOON", "CWP_STREET": "UNKNOWN", "CWP_CITY": "UNKNOWN", "CWP_STATE": "WY", "CWP_ZIP": "00000", "CWP_COUNTY": "Goshen", "NPDES_ID": "WY0020567", "REGISTRY_ID": "110055178016", "CWP_FACILITY_TYPE_INDICATOR": "POTW", "CWP_MAJOR_MINOR_STATUS": "Minor", "CWP_PERMIT_STATUS_DESC": "Effective", "STATE_WATER_BODY_NAME": null, "CWP_CSO_FLAG": "N"}}, {"type": "Feature", "geometry": {"type": "Point", "coordinates": [-104.627707527499, 44.0994192694094]}, "properties": {"CWP_NAME": "UPTON WASTEWATER LAGOON", "CWP_STREET": "UNKNOWN", "CWP_CITY": "UNKNOWN", "CWP_STATE": "WY", "CWP_ZIP": "00000", "CWP_COUNTY": null, "NPDES_ID": "WY0020605", "REGISTRY_ID": "110055197406", "CWP_FACILITY_TYPE_INDICATOR": "POTW", "CWP_MAJOR_MINOR_STATUS": "Minor", "CWP_PERMIT_STATUS_DESC": "Effective", "STATE_WATER_BODY_NAME": null, "CWP_CSO_FLAG": "N"}}, {"type": "Feature", "geometry": {"type": "Point", "coordinates": [-108.583681144089, 42.9033663474963]}, "properties": {"CWP_NAME": "HUDSON WASTEWATER LAGOON", "CWP_STREET": "UNKNOWN", "CWP_CITY": "UNKNOWN", "CWP_STATE": "WY", "CWP_ZIP": "00000", "CWP_COUNTY": null, "NPDES_ID": "WY0020664", "REGISTRY_ID": "110055197442", "CWP_FACILITY_TYPE_INDICATOR": "POTW", "CWP_MAJOR_MINOR_STATUS": "Minor", "CWP_PERMIT_STATUS_DESC": "Effective", "STATE_WATER_BODY_NAME": null, "CWP_CSO_FLAG": "N"}}, {"type": "Feature", "geometry": {"type": "Point", "coordinates": [-108.829311443273, 44.2352066673103]}, "properties": {"CWP_NAME": "MEETEETSE WASTEWATER LAGOONS", "CWP_STREET": "UNKNOWN", "CWP_CITY": "UNKNOWN", "CWP_STATE": "WY", "CWP_ZIP": "00000", "CWP_COUNTY": "Park", "NPDES_ID": "WY0020044", "REGISTRY_ID": "110055171406", "CWP_FACILITY_TYPE_INDICATOR": "POTW", "CWP_MAJOR_MINOR_STATUS": "Minor", "CWP_PERMIT_STATUS_DESC": "Effective", "STATE_WATER_BODY_NAME": null, "CWP_CSO_FLAG": "N"}}, {"type": "Feature", "geometry": {"type": "Point", "coordinates": [-110.284571758272, 41.2752666664324]}, "properties": {"CWP_NAME": "MOUNTAIN VIEW WASTEWATER LAGOON", "CWP_STREET": "UNKNOWN", "CWP_CITY": "UNKNOWN", "CWP_STATE": "WY", "CWP_ZIP": "00000", "CWP_COUNTY": null, "NPDES_ID": "WY0022896", "REGISTRY_ID": "110055169473", "CWP_FACILITY_TYPE_INDICATOR": "POTW", "CWP_MAJOR_MINOR_STATUS": "Minor", "CWP_PERMIT_STATUS_DESC": "Effective", "STATE_WATER_BODY_NAME": null, "CWP_CSO_FLAG": "N"}}, {"type": "Feature", "geometry": {"type": "Point", "coordinates": [-105.499473601502, 43.7623028924773]}, "properties": {"CWP_NAME": "WRIGHT WASTEWATER TREATMENT", "CWP_STREET": "UNKNOWN", "CWP_CITY": "UNKNOWN", "CWP_STATE": "WY", "CWP_ZIP": "00000", "CWP_COUNTY": null, "NPDES_ID": "WY0025992", "REGISTRY_ID": "110055194926", "CWP_FACILITY_TYPE_INDICATOR": "POTW", "CWP_MAJOR_MINOR_STATUS": "Minor", "CWP_PERMIT_STATUS_DESC": "Effective", "STATE_WATER_BODY_NAME": null, "CWP_CSO_FLAG": "N"}}, {"type": "Feature", "geometry": {"type": "Point", "coordinates": [-106.375311098899, 44.6385672500707]}, "properties": {"CWP_NAME": "CLEARMONT WASTEWATER LAGOONS", "CWP_STREET": "UNKNOWN", "CWP_CITY": "UNKNOWN", "CWP_STATE": "WY", "CWP_ZIP": "00000", "CWP_COUNTY": "Sheridan", "NPDES_ID": "WY0022063", "REGISTRY_ID": "110064608358", "CWP_FACILITY_TYPE_INDICATOR": "POTW", "CWP_MAJOR_MINOR_STATUS": "Minor", "CWP_PERMIT_STATUS_DESC": "Effective", "STATE_WATER_BODY_NAME": null, "CWP_CSO_FLAG": "N"}}, {"type": "Feature", "geometry": {"type": "Point", "coordinates": [-110.239301686952, 41.3573864734332]}, "properties": {"CWP_NAME": "LYMAN WASTEWATER LAGOON", "CWP_STREET": "UNKNOWN", "CWP_CITY": "UNKNOWN", "CWP_STATE": "WY", "CWP_ZIP": "00000", "CWP_COUNTY": null, "NPDES_ID": "WY0020117", "REGISTRY_ID": "110055171488", "CWP_FACILITY_TYPE_INDICATOR": "POTW", "CWP_MAJOR_MINOR_STATUS": "Minor", "CWP_PERMIT_STATUS_DESC": "Admin Continued", "STATE_WATER_BODY_NAME": null, "CWP_CSO_FLAG": "N"}}, {"type": "Feature", "geometry": {"type": "Point", "coordinates": [-111.032705615771, 43.1628097890163]}, "properties": {"CWP_NAME": "TOWN OF ALPINE WASTEWATER FACILITY", "CWP_STREET": "UNKNOWN", "CWP_CITY": "UNKNOWN", "CWP_STATE": "WY", "CWP_ZIP": "00000", "CWP_COUNTY": null, "NPDES_ID": "WY0035611", "REGISTRY_ID": "110055163969", "CWP_FACILITY_TYPE_INDICATOR": "POTW", "CWP_MAJOR_MINOR_STATUS": "Minor", "CWP_PERMIT_STATUS_DESC": "Effective", "STATE_WATER_BODY_NAME": null, "CWP_CSO_FLAG": "N"}}, {"type": "Feature", "geometry": {"type": "Point", "coordinates": [-108.947500888116, 41.7428765186943]}, "properties": {"CWP_NAME": "SUPERIOR WASTEWATER LAGOON", "CWP_STREET": "UNKNOWN", "CWP_CITY": "UNKNOWN", "CWP_STATE": "WY", "CWP_ZIP": "00000", "CWP_COUNTY": null, "NPDES_ID": "WY0021806", "REGISTRY_ID": "110055197610", "CWP_FACILITY_TYPE_INDICATOR": "POTW", "CWP_MAJOR_MINOR_STATUS": "Minor", "CWP_PERMIT_STATUS_DESC": "Terminated", "STATE_WATER_BODY_NAME": null, "CWP_CSO_FLAG": "N"}}, {"type": "Feature", "geometry": {"type": "Point", "coordinates": [-107.968551197799, 44.013727079285]}, "properties": {"CWP_NAME": "WORLAND WASTEWATER LAGOON", "CWP_STREET": "UNKNOWN", "CWP_CITY": "UNKNOWN", "CWP_STATE": "WY", "CWP_ZIP": "00000", "CWP_COUNTY": "Washakie", "NPDES_ID": "WY0020176", "REGISTRY_ID": "110059806642", "CWP_FACILITY_TYPE_INDICATOR": "POTW", "CWP_MAJOR_MINOR_STATUS": "Major", "CWP_PERMIT_STATUS_DESC": "Effective", "STATE_WATER_BODY_NAME": null, "CWP_CSO_FLAG": "N"}}, {"type": "Feature", "geometry": {"type": "Point", "coordinates": [-109.856411865706, 42.8516066551879]}, "properties": {"CWP_NAME": "PINEDALE WASTEWATER LAGOONS", "CWP_STREET": "UNKNOWN", "CWP_CITY": "UNKNOWN", "CWP_STATE": "WY", "CWP_ZIP": "00000", "CWP_COUNTY": null, "NPDES_ID": "WY0020656", "REGISTRY_ID": "110055197433", "CWP_FACILITY_TYPE_INDICATOR": "POTW", "CWP_MAJOR_MINOR_STATUS": "Minor", "CWP_PERMIT_STATUS_DESC": "Effective", "STATE_WATER_BODY_NAME": null, "CWP_CSO_FLAG": "N"}}, {"type": "Feature", "geometry": {"type": "Point", "coordinates": [-110.534581614196, 41.7939659840461]}, "properties": {"CWP_NAME": "KEMMERER WASTEWATER TREATMENT", "CWP_STREET": "UNKNOWN", "CWP_CITY": "UNKNOWN", "CWP_STATE": "WY", "CWP_ZIP": "00000", "CWP_COUNTY": null, "NPDES_ID": "WY0020320", "REGISTRY_ID": "110055177847", "CWP_FACILITY_TYPE_INDICATOR": "POTW", "CWP_MAJOR_MINOR_STATUS": "Major", "CWP_PERMIT_STATUS_DESC": "Effective", "STATE_WATER_BODY_NAME": null, "CWP_CSO_FLAG": "N"}}, {"type": "Feature", "geometry": {"type": "Point", "coordinates": [-110.978651687137, 42.0824361168038]}, "properties": {"CWP_NAME": "COKEVILLE WASTEWATER TREATMENT PLANT", "CWP_STREET": "UNKNOWN", "CWP_CITY": "UNKNOWN", "CWP_STATE": "WY", "CWP_ZIP": "00000", "CWP_COUNTY": null, "NPDES_ID": "WY0021032", "REGISTRY_ID": "110055197512", "CWP_FACILITY_TYPE_INDICATOR": "POTW", "CWP_MAJOR_MINOR_STATUS": "Minor", "CWP_PERMIT_STATUS_DESC": "Effective", "STATE_WATER_BODY_NAME": null, "CWP_CSO_FLAG": "N"}}, {"type": "Feature", "geometry": {"type": "Point", "coordinates": [-109.940191642417, 41.6055760279768]}, "properties": {"CWP_NAME": "GRANGER WASTEWATER LAGOON", "CWP_STREET": "UNKNOWN", "CWP_CITY": "UNKNOWN", "CWP_STATE": "WY", "CWP_ZIP": "00000", "CWP_COUNTY": null, "NPDES_ID": "WY0022373", "REGISTRY_ID": "110055202025", "CWP_FACILITY_TYPE_INDICATOR": "POTW", "CWP_MAJOR_MINOR_STATUS": "Minor", "CWP_PERMIT_STATUS_DESC": "Terminated", "STATE_WATER_BODY_NAME": null, "CWP_CSO_FLAG": "N"}}, {"type": "Feature", "geometry": {"type": "Point", "coordinates": [-106.928515725696, 44.822805935021]}, "properties": {"CWP_NAME": "SHERIDAN WASTEWATER TREATMENT", "CWP_STREET": "UNKNOWN", "CWP_CITY": "UNKNOWN", "CWP_STATE": "WY", "CWP_ZIP": "00000", "CWP_COUNTY": "Sheridan", "NPDES_ID": "WY0020010", "REGISTRY_ID": "110064617678", "CWP_FACILITY_TYPE_INDICATOR": "POTW", "CWP_MAJOR_MINOR_STATUS": "Major", "CWP_PERMIT_STATUS_DESC": "Effective", "STATE_WATER_BODY_NAME": null, "CWP_CSO_FLAG": "N"}}, {"type": "Feature", "geometry": {"type": "Point", "coordinates": [-108.801014973485, 43.0243872117208]}, "properties": {"CWP_NAME": "ETHETE WATER TREATMENT PLANT", "CWP_STREET": "392 ETHETE ROAD", "CWP_CITY": "ETHETE", "CWP_STATE": "WY", "CWP_ZIP": "82520", "CWP_COUNTY": "Fremont", "NPDES_ID": "WY0044539", "REGISTRY_ID": "110010138751", "CWP_FACILITY_TYPE_INDICATOR": "POTW", "CWP_MAJOR_MINOR_STATUS": "Minor", "CWP_PERMIT_STATUS_DESC": "Expired", "STATE_WATER_BODY_NAME": "LITTLE WIND RIVER", "CWP_CSO_FLAG": "N"}}, {"type": "Feature", "geometry": {"type": "Point", "coordinates": [-104.75947040445, 41.1191762361608]}, "properties": {"CWP_NAME": "CROW CREEK WATER RECLAMATION FACILITY", "CWP_STREET": "UNKNOWN", "CWP_CITY": "UNKNOWN", "CWP_STATE": "WY", "CWP_ZIP": "00000", "CWP_COUNTY": null, "NPDES_ID": "WY0022381", "REGISTRY_ID": "110055202098", "CWP_FACILITY_TYPE_INDICATOR": "POTW", "CWP_MAJOR_MINOR_STATUS": "Major", "CWP_PERMIT_STATUS_DESC": "Effective", "STATE_WATER_BODY_NAME": null, "CWP_CSO_FLAG": "N"}}, {"type": "Feature", "geometry": {"type": "Point", "coordinates": [-108.383501322596, 44.8506164460626]}, "properties": {"CWP_NAME": "LOVELL WASTEWATER LAGOONS", "CWP_STREET": "UNKNOWN", "CWP_CITY": "UNKNOWN", "CWP_STATE": "WY", "CWP_ZIP": "00000", "CWP_COUNTY": "Big Horn", "NPDES_ID": "WY0020061", "REGISTRY_ID": "110064597770", "CWP_FACILITY_TYPE_INDICATOR": "POTW", "CWP_MAJOR_MINOR_STATUS": "Minor", "CWP_PERMIT_STATUS_DESC": "Effective", "STATE_WATER_BODY_NAME": null, "CWP_CSO_FLAG": "N"}}, {"type": "Feature", "geometry": {"type": "Point", "coordinates": [-105.443961216549, 44.2679773546991]}, "properties": {"CWP_NAME": "GILLETTE WWTF", "CWP_STREET": "UNKNOWN", "CWP_CITY": "UNKNOWN", "CWP_STATE": "WY", "CWP_ZIP": "00000", "CWP_COUNTY": null, "NPDES_ID": "WY0020125", "REGISTRY_ID": "110064614751", "CWP_FACILITY_TYPE_INDICATOR": "POTW", "CWP_MAJOR_MINOR_STATUS": "Major", "CWP_PERMIT_STATUS_DESC": "Effective", "STATE_WATER_BODY_NAME": null, "CWP_CSO_FLAG": "N"}}, {"type": "Feature", "geometry": {"type": "Point", "coordinates": [-106.136240168277, 41.2947265182818]}, "properties": {"CWP_NAME": "CENTENNIAL WATER/SEWER DISTRICT", "CWP_STREET": "UNKNOWN", "CWP_CITY": "UNKNOWN", "CWP_STATE": "WY", "CWP_ZIP": "00000", "CWP_COUNTY": null, "NPDES_ID": "WY0033715", "REGISTRY_ID": "110055198272", "CWP_FACILITY_TYPE_INDICATOR": "POTW", "CWP_MAJOR_MINOR_STATUS": "Minor", "CWP_PERMIT_STATUS_DESC": "Expired", "STATE_WATER_BODY_NAME": null, "CWP_CSO_FLAG": "N"}}, {"type": "Feature", "geometry": {"type": "Point", "coordinates": [-106.789023105993, 41.2166437218748]}, "properties": {"CWP_NAME": "ENCAMPMENT WASTEWATER LAGOON", "CWP_STREET": "UNKNOWN", "CWP_CITY": "UNKNOWN", "CWP_STATE": "WY", "CWP_ZIP": "00000", "CWP_COUNTY": null, "NPDES_ID": "WY0020591", "REGISTRY_ID": "110055197399", "CWP_FACILITY_TYPE_INDICATOR": "POTW", "CWP_MAJOR_MINOR_STATUS": "Minor", "CWP_PERMIT_STATUS_DESC": "Effective", "STATE_WATER_BODY_NAME": null, "CWP_CSO_FLAG": "N"}}, {"type": "Feature", "geometry": {"type": "Point", "coordinates": [-107.12433008979, 41.8015826130444]}, "properties": {"CWP_NAME": "SINCLAIR WASTEWATER LAGOON", "CWP_STREET": "UNKNOWN", "CWP_CITY": "UNKNOWN", "CWP_STATE": "WY", "CWP_ZIP": "00000", "CWP_COUNTY": null, "NPDES_ID": "WY0020397", "REGISTRY_ID": "110055177892", "CWP_FACILITY_TYPE_INDICATOR": "POTW", "CWP_MAJOR_MINOR_STATUS": "Minor", "CWP_PERMIT_STATUS_DESC": "Effective", "STATE_WATER_BODY_NAME": null, "CWP_CSO_FLAG": "N"}}, {"type": "Feature", "geometry": {"type": "Point", "coordinates": [-106.291411247634, 42.8629770763898]}, "properties": {"CWP_NAME": "SAM H. HOBBS REGIONAL WW FACILITY (PREV. CASPER WWTF)", "CWP_STREET": "UNKNOWN", "CWP_CITY": "UNKNOWN", "CWP_STATE": "WY", "CWP_ZIP": "00000", "CWP_COUNTY": null, "NPDES_ID": "WY0021920", "REGISTRY_ID": "110055197647", "CWP_FACILITY_TYPE_INDICATOR": "POTW", "CWP_MAJOR_MINOR_STATUS": "Major", "CWP_PERMIT_STATUS_DESC": "Effective", "STATE_WATER_BODY_NAME": null, "CWP_CSO_FLAG": "N"}}, {"type": "Feature", "geometry": {"type": "Point", "coordinates": [-104.706580364345, 41.1280345633688]}, "properties": {"CWP_NAME": "DRY CREEK WATER RECLAMATION FACILITY", "CWP_STREET": "UNKNOWN", "CWP_CITY": "UNKNOWN", "CWP_STATE": "WY", "CWP_ZIP": "00000", "CWP_COUNTY": null, "NPDES_ID": "WY0022934", "REGISTRY_ID": "110055169605", "CWP_FACILITY_TYPE_INDICATOR": "POTW", "CWP_MAJOR_MINOR_STATUS": "Major", "CWP_PERMIT_STATUS_DESC": "Effective", "STATE_WATER_BODY_NAME": null, "CWP_CSO_FLAG": "N"}}, {"type": "Feature", "geometry": {"type": "Point", "coordinates": [-108.895141640172, 43.0461570951373]}, "properties": {"CWP_NAME": "FORT WASHAKIE HOTSPRINGS LAGOON", "CWP_STREET": "N S12 T01S R02W", "CWP_CITY": "FORT WASHAKIE", "CWP_STATE": "WY", "CWP_ZIP": "82514", "CWP_COUNTY": "Fremont", "NPDES_ID": "WYG589101", "REGISTRY_ID": "110010854860", "CWP_FACILITY_TYPE_INDICATOR": "POTW", "CWP_MAJOR_MINOR_STATUS": "Minor", "CWP_PERMIT_STATUS_DESC": "Effective", "STATE_WATER_BODY_NAME": "TROUT CREEK, TROUT CREEK & LITTLE WIND RIVER (2)", "CWP_CSO_FLAG": "N"}}, {"type": "Feature", "geometry": {"type": "Point", "coordinates": [-104.065490408071, 41.2006269961717]}, "properties": {"CWP_NAME": "PINE BLUFFS WASTEWATER LAGOON", "CWP_STREET": "UNKNOWN", "CWP_CITY": "UNKNOWN", "CWP_STATE": "WY", "CWP_ZIP": "00000", "CWP_COUNTY": null, "NPDES_ID": "WY0032212", "REGISTRY_ID": "110055179195", "CWP_FACILITY_TYPE_INDICATOR": "POTW", "CWP_MAJOR_MINOR_STATUS": "Minor", "CWP_PERMIT_STATUS_DESC": "Effective", "STATE_WATER_BODY_NAME": null, "CWP_CSO_FLAG": "N"}}, {"type": "Feature", "geometry": {"type": "Point", "coordinates": [-105.393980249747, 42.7442765154652]}, "properties": {"CWP_NAME": "DOUGLAS WASTEWATER LAGOON", "CWP_STREET": "UNKNOWN", "CWP_CITY": "UNKNOWN", "CWP_STATE": "WY", "CWP_ZIP": "00000", "CWP_COUNTY": "Converse", "NPDES_ID": "WY0020109", "REGISTRY_ID": "110055171479", "CWP_FACILITY_TYPE_INDICATOR": "POTW", "CWP_MAJOR_MINOR_STATUS": "Minor", "CWP_PERMIT_STATUS_DESC": "Effective", "STATE_WATER_BODY_NAME": null, "CWP_CSO_FLAG": "N"}}, {"type": "Feature", "geometry": {"type": "Point", "coordinates": [-107.964691349691, 44.2743470403018]}, "properties": {"CWP_NAME": "MANDERSON SEWER PROJECT", "CWP_STREET": "UNKNOWN", "CWP_CITY": "UNKNOWN", "CWP_STATE": "WY", "CWP_ZIP": "00000", "CWP_COUNTY": null, "NPDES_ID": "WY0052442", "REGISTRY_ID": "110055204719", "CWP_FACILITY_TYPE_INDICATOR": "POTW", "CWP_MAJOR_MINOR_STATUS": "Minor", "CWP_PERMIT_STATUS_DESC": "Admin Continued", "STATE_WATER_BODY_NAME": null, "CWP_CSO_FLAG": "N"}}, {"type": "Feature", "geometry": {"type": "Point", "coordinates": [-107.553580991044, 41.0319067048841]}, "properties": {"CWP_NAME": "TOWN OF DIXON WASTEWATER TREATMENT LAGOON", "CWP_STREET": "UNKNOWN", "CWP_CITY": "UNKNOWN", "CWP_STATE": "WY", "CWP_ZIP": "00000", "CWP_COUNTY": null, "NPDES_ID": "WY0021938", "REGISTRY_ID": "110055197656", "CWP_FACILITY_TYPE_INDICATOR": "POTW", "CWP_MAJOR_MINOR_STATUS": "Minor", "CWP_PERMIT_STATUS_DESC": "Effective", "STATE_WATER_BODY_NAME": null, "CWP_CSO_FLAG": "N"}}]}