{"type": "FeatureCollection", "features": [{"type": "Feature", "geometry": {"type": "Point", "coordinates": [-116.312148365409, 45.431978903538]}, "properties": {"CWP_NAME": "RIGGINS,L CITY OF - RIGGINS WWTP", "CWP_STREET": "1210 NORTH STREET", "CWP_CITY": "RIGGINS", "CWP_STATE": "ID", "CWP_ZIP": "83549", "CWP_COUNTY": "Idaho", "NPDES_ID": "ID0020931", "REGISTRY_ID": "110010027130", "CWP_FACILITY_TYPE_INDICATOR": "POTW", "CWP_MAJOR_MINOR_STATUS": "Minor", "CWP_PERMIT_STATUS_DESC": "Admin Continued", "STATE_WATER_BODY_NAME": "SALMON RIVER", "CWP_CSO_FLAG": "N"}}, {"type": "Feature", "geometry": {"type": "Point", "coordinates": [-116.624373867428, 48.2514058571337]}, "properties": {"CWP_NAME": "DOVER, CITY OF - DOVER WWTP", "CWP_STREET": "855 RAILROAD AVENUE", "CWP_CITY": "DOVER", "CWP_STATE": "ID", "CWP_ZIP": "83825", "CWP_COUNTY": "Bonner", "NPDES_ID": "ID0027693", "REGISTRY_ID": "110010026514", "CWP_FACILITY_TYPE_INDICATOR": "POTW", "CWP_MAJOR_MINOR_STATUS": "Minor", "CWP_PERMIT_STATUS_DESC": "Effective", "STATE_WATER_BODY_NAME": "PEND OREILLE RIVER, PEND ORIELLE RIVER", "CWP_CSO_FLAG": "N"}}, {"type": "Feature", "geometry": {"type": "Point", "coordinates": [-114.423690872685, 42.947402958164]}, "properties": {"CWP_NAME": "SHOSHONE, CITY OF - SHOSHONE WWTP", "CWP_STREET": "LAGOON DRIVE", "CWP_CITY": "SHOSHONE", "CWP_STATE": "ID", "CWP_ZIP": "83352", "CWP_COUNTY": "Lincoln", "NPDES_ID": "ID0023728", "REGISTRY_ID": "110010026998", "CWP_FACILITY_TYPE_INDICATOR": "POTW", "CWP_MAJOR_MINOR_STATUS": "Minor", "CWP_PERMIT_STATUS_DESC": "Effective", "STATE_WATER_BODY_NAME": "LITTLE WOOD RIVER (RM 21)", "CWP_CSO_FLAG": "N"}}, {"type": "Feature", "geometry": {"type": "Point", "coordinates": [-111.808876283855, 42.0129948893155]}, "properties": {"CWP_NAME": "FRANKLIN, CITY OF - FRANKLIN WWTP", "CWP_STREET": "128 WEST 2ND SOUTH", "CWP_CITY": "FRANKLIN", "CWP_STATE": "ID", "CWP_ZIP": "83237", "CWP_COUNTY": "Franklin", "NPDES_ID": "ID0025569", "REGISTRY_ID": "110039983934", "CWP_FACILITY_TYPE_INDICATOR": "POTW", "CWP_MAJOR_MINOR_STATUS": "Minor", "CWP_PERMIT_STATUS_DESC": "Effective", "STATE_WATER_BODY_NAME": "CUB RIVER", "CWP_CSO_FLAG": "N"}}, {"type": "Feature", "geometry": {"type": "Point", "coordinates": [-116.681651277306, 46.3743119624664]}, "properties": {"CWP_NAME": "CULDESAC, CITY OF - CULDESAC WWTP", "CWP_STREET": "7 NORTH MAIN", "CWP_CITY": "CULDESAC", "CWP_STATE": "ID", "CWP_ZIP": "83524", "CWP_COUNTY": "Nez Perce", "NPDES_ID": "ID0024490", "REGISTRY_ID": "110039886371", "CWP_FACILITY_TYPE_INDICATOR": "POTW", "CWP_MAJOR_MINOR_STATUS": "Minor", "CWP_PERMIT_STATUS_DESC": "Admin Continued", "STATE_WATER_BODY_NAME": "LAPWAI CREEK", "CWP_CSO_FLAG": "N"}}, {"type": "Feature", "geometry": {"type": "Point", "coordinates": [-116.120834548007, 44.897180836009]}, "properties": {"CWP_NAME": "PAYETTE LAKES RECREATIONAL WATER AND SEWER DISTRICT (PLRWSD) - MCCALL WWTP", "CWP_STREET": "325 DIENHARD LANE", "CWP_CITY": "MCCALL", "CWP_STATE": "ID", "CWP_ZIP": "83638", "CWP_COUNTY": "Valley", "NPDES_ID": "ID0020231", "REGISTRY_ID": "110009725814", "CWP_FACILITY_TYPE_INDICATOR": "POTW", "CWP_MAJOR_MINOR_STATUS": "Minor", "CWP_PERMIT_STATUS_DESC": "Admin Continued", "STATE_WATER_BODY_NAME": "PAYETTE RIVER (NORTH FORK)", "CWP_CSO_FLAG": "N"}}, {"type": "Feature", "geometry": {"type": "Point", "coordinates": [-116.957972923983, 43.7872661741241]}, "properties": {"CWP_NAME": "PARMA, CITY OF - PARMA WWTP", "CWP_STREET": "SINCLAIR STREET", "CWP_CITY": "PARMA", "CWP_STATE": "ID", "CWP_ZIP": "83660", "CWP_COUNTY": "Canyon", "NPDES_ID": "ID0021776", "REGISTRY_ID": "110010027210", "CWP_FACILITY_TYPE_INDICATOR": "POTW", "CWP_MAJOR_MINOR_STATUS": "Minor", "CWP_PERMIT_STATUS_DESC": "Admin Continued", "STATE_WATER_BODY_NAME": "SAND HOLLOW CREEK TO BOISE RIVER", "CWP_CSO_FLAG": "N"}}, {"type": "Feature", "geometry": {"type": "Point", "coordinates": [-116.432179653811, 43.5423637213381]}, "properties": {"CWP_NAME": "KUNA, CITY OF - KUNA WWTP", "CWP_STREET": "6950 SOUTH TEN MILE ROAD", "CWP_CITY": "KUNA", "CWP_STATE": "ID", "CWP_ZIP": "83642", "CWP_COUNTY": "Ada", "NPDES_ID": "ID0028355", "REGISTRY_ID": "110064606528", "CWP_FACILITY_TYPE_INDICATOR": "POTW", "CWP_MAJOR_MINOR_STATUS": "Minor", "CWP_PERMIT_STATUS_DESC": "Admin Continued", "STATE_WATER_BODY_NAME": "INDIAN CREEK", "CWP_CSO_FLAG": "N"}}, {"type": "Feature", "geometry": {"type": "Point", "coordinates": [-112.516567473759, 42.9149789633642]}, "properties": {"CWP_NAME": "POCATELLO, CITY OF - POCATELLO WATER POLLUTION CONTROL FACILITY (WPCF)", "CWP_STREET": "10733 NORTH RIO VISTA ROAD", "CWP_CITY": "POCATELLO", "CWP_STATE": "ID", "CWP_ZIP": "83202", "CWP_COUNTY": "Bannock", "NPDES_ID": "ID0021784", "REGISTRY_ID": "110000509398", "CWP_FACILITY_TYPE_INDICATOR": "POTW", "CWP_MAJOR_MINOR_STATUS": "Major", "CWP_PERMIT_STATUS_DESC": "Admin Continued", "STATE_WATER_BODY_NAME": "PORTNEUF RIVER", "CWP_CSO_FLAG": "N"}}, {"type": "Feature", "geometry": {"type": "Point", "coordinates": [-116.769368705603, 47.4585859532826]}, "properties": {"CWP_NAME": "HARRISON, CITY OF - HARRISON WWTP", "CWP_STREET": "2144 EAST PARK AVENUE", "CWP_CITY": "HARRISON", "CWP_STATE": "ID", "CWP_ZIP": "83833", "CWP_COUNTY": "Kootenai", "NPDES_ID": "ID0021997", "REGISTRY_ID": "110006776097", "CWP_FACILITY_TYPE_INDICATOR": "POTW", "CWP_MAJOR_MINOR_STATUS": "Minor", "CWP_PERMIT_STATUS_DESC": "Effective", "STATE_WATER_BODY_NAME": "ANDERSON SLOUGH", "CWP_CSO_FLAG": "N"}}, {"type": "Feature", "geometry": {"type": "Point", "coordinates": [-116.909566012354, 48.1777423527707]}, "properties": {"CWP_NAME": "PRIEST RIVER, CITY OF - PRIEST RIVER WWTP", "CWP_STREET": "401 RAILROAD AVENUE", "CWP_CITY": "PRIEST RIVER", "CWP_STATE": "ID", "CWP_ZIP": "83856", "CWP_COUNTY": "Bonner", "NPDES_ID": "ID0020800", "REGISTRY_ID": "110010027096", "CWP_FACILITY_TYPE_INDICATOR": "POTW", "CWP_MAJOR_MINOR_STATUS": "Minor", "CWP_PERMIT_STATUS_DESC": "Admin Continued", "STATE_WATER_BODY_NAME": "PEND ORIELLE RIVER", "CWP_CSO_FLAG": "N"}}, {"type": "Feature", "geometry": {"type": "Point", "coordinates": [-116.449346128255, 44.7220531102564]}, "properties": {"CWP_NAME": "COUNCIL, CITY OF - COUNCIL WWTP", "CWP_STREET": "BOX 606, 501 N GALENA", "CWP_CITY": "COUNCIL", "CWP_STATE": "ID", "CWP_ZIP": "83612", "CWP_COUNTY": "Adams", "NPDES_ID": "ID0020087", "REGISTRY_ID": "110010027265", "CWP_FACILITY_TYPE_INDICATOR": "POTW", "CWP_MAJOR_MINOR_STATUS": "Minor", "CWP_PERMIT_STATUS_DESC": "Effective", "STATE_WATER_BODY_NAME": "WEISER RIVER", "CWP_CSO_FLAG": "N"}}, {"type": "Feature", "geometry": {"type": "Point", "coordinates": [-114.900793877856, 42.8071869049672]}, "properties": {"CWP_NAME": "HAGERMAN, CITY OF - HAGERMAN WWTP", "CWP_STREET": "LAGOON ROAD, SOUTH #3", "CWP_CITY": "HAGERMAN", "CWP_STATE": "ID", "CWP_ZIP": "83332", "CWP_COUNTY": "Gooding", "NPDES_ID": "ID0025941", "REGISTRY_ID": "110006776042", "CWP_FACILITY_TYPE_INDICATOR": "POTW", "CWP_MAJOR_MINOR_STATUS": "Minor", "CWP_PERMIT_STATUS_DESC": "Admin Continued", "STATE_WATER_BODY_NAME": "SNAKE RIVER (RIVER MILE 576)", "CWP_CSO_FLAG": "N"}}, {"type": "Feature", "geometry": {"type": "Point", "coordinates": [-116.570389921547, 46.799462905649]}, "properties": {"CWP_NAME": "DEARY, CITY OF - DEARY WWTP", "CWP_STREET": "INTERSECTION OF HWY 8 AND HWY 9", "CWP_CITY": "DEARY", "CWP_STATE": "ID", "CWP_ZIP": "83823", "CWP_COUNTY": "Latah", "NPDES_ID": "ID0020788", "REGISTRY_ID": "110039886246", "CWP_FACILITY_TYPE_INDICATOR": "POTW", "CWP_MAJOR_MINOR_STATUS": "Minor", "CWP_PERMIT_STATUS_DESC": "Effective", "STATE_WATER_BODY_NAME": "MOUNT DEARY CREEK/BIG BEAR CREEK", "CWP_CSO_FLAG": "N"}}, {"type": "Feature", "geometry": {"type": "Point", "coordinates": [-116.243045913998, 43.6396838822259]}, "properties": {"CWP_NAME": "BOISE, CITY OF - LANDER STREET WWTP", "CWP_STREET": "790 LANDER ST", "CWP_CITY": "BOISE", "CWP_STATE": "ID", "CWP_ZIP": "83703", "CWP_COUNTY": "Ada", "NPDES_ID": "ID0020443", "REGISTRY_ID": "110000916135", "CWP_FACILITY_TYPE_INDICATOR": "POTW", "CWP_MAJOR_MINOR_STATUS": "Major", "CWP_PERMIT_STATUS_DESC": "Effective", "STATE_WATER_BODY_NAME": "BOISE RIVER, BOISE RIVER (RIVER MILE 49.7)", "CWP_CSO_FLAG": "N"}}, {"type": "Feature", "geometry": {"type": "Point", "coordinates": [-115.448879153364, 45.8221363993194]}, "properties": {"CWP_NAME": "ELK CITY WATER AND SEWER ASSOCIATION - ELK CITY WWTP", "CWP_STREET": "0.7 MILES SW OF MAIN STREET ON STATE HWY 14", "CWP_CITY": "ELK CITY", "CWP_STATE": "ID", "CWP_ZIP": "83525", "CWP_COUNTY": "Idaho", "NPDES_ID": "ID0022012", "REGISTRY_ID": "110011271596", "CWP_FACILITY_TYPE_INDICATOR": "POTW", "CWP_MAJOR_MINOR_STATUS": "Minor", "CWP_PERMIT_STATUS_DESC": "Admin Continued", "STATE_WATER_BODY_NAME": "BIG ELK CREEK", "CWP_CSO_FLAG": "N"}}, {"type": "Feature", "geometry": {"type": "Point", "coordinates": [-112.888533389319, 42.5782502402247]}, "properties": {"CWP_NAME": "ROCKLAND, CITY OF - ROCKLAND WWTP", "CWP_STREET": "CREAMERY ROAD", "CWP_CITY": "ROCKLAND", "CWP_STATE": "ID", "CWP_ZIP": "83271", "CWP_COUNTY": "Power", "NPDES_ID": "ID0022047", "REGISTRY_ID": "110009689998", "CWP_FACILITY_TYPE_INDICATOR": "POTW", "CWP_MAJOR_MINOR_STATUS": "Minor", "CWP_PERMIT_STATUS_DESC": "Admin Continued", "STATE_WATER_BODY_NAME": "ROCK CREEK", "CWP_CSO_FLAG": "N"}}, {"type": "Feature", "geometry": {"type": "Point", "coordinates": [-111.736483627843, 42.5797782860263]}, "properties": {"CWP_NAME": "GRACE, CITY OF - GRACE WWTP", "CWP_STREET": "301 N 400 W", "CWP_CITY": "GRACE", "CWP_STATE": "ID", "CWP_ZIP": "83241", "CWP_COUNTY": "Caribou", "NPDES_ID": "ID0023825", "REGISTRY_ID": "110039983890", "CWP_FACILITY_TYPE_INDICATOR": "POTW", "CWP_MAJOR_MINOR_STATUS": "Minor", "CWP_PERMIT_STATUS_DESC": "Effective", "STATE_WATER_BODY_NAME": "BEAR RIVER, BEAR RIVER RESERVOIR", "CWP_CSO_FLAG": "N"}}, {"type": "Feature", "geometry": {"type": "Point", "coordinates": [-111.709994313707, 43.9533885337746]}, "properties": {"CWP_NAME": "ST ANTHONY, CITY OF - ST ANTHONY WWTP", "CWP_STREET": "N 1/2 SECTION 11, TOWNSHIP 7N, RANGE 40E", "CWP_CITY": "SAINT ANTHONY", "CWP_STATE": "ID", "CWP_ZIP": "83445", "CWP_COUNTY": "Fremont", "NPDES_ID": "ID0020401", "REGISTRY_ID": "110039983729", "CWP_FACILITY_TYPE_INDICATOR": "POTW", "CWP_MAJOR_MINOR_STATUS": "Minor", "CWP_PERMIT_STATUS_DESC": "Admin Continued", "STATE_WATER_BODY_NAME": "SNAKE RIVER (HENRY'S FORK)", "CWP_CSO_FLAG": "N"}}, {"type": "Feature", "geometry": {"type": "Point", "coordinates": [-116.200356765973, 47.5456035208308]}, "properties": {"CWP_NAME": "SMELTERVILLE, CITY OF - SMELTERVILLE WWTP", "CWP_STREET": "1/4 MILE WEST OF SMELTERVILLE CITY LIMIT", "CWP_CITY": "SMELTERVILLE", "CWP_STATE": "ID", "CWP_ZIP": "83868", "CWP_COUNTY": "Shoshone", "NPDES_ID": "ID0020117", "REGISTRY_ID": "110070149691", "CWP_FACILITY_TYPE_INDICATOR": "POTW", "CWP_MAJOR_MINOR_STATUS": "Minor", "CWP_PERMIT_STATUS_DESC": "Admin Continued", "STATE_WATER_BODY_NAME": "SOUTH FORK COEUR D'ALENE RIVER", "CWP_CSO_FLAG": "N"}}, {"type": "Feature", "geometry": {"type": "Point", "coordinates": [-112.06989309642, 43.4619161489831]}, "properties": {"CWP_NAME": "IDAHO FALLS, CITY OF - IDAHO FALLS WWTP", "CWP_STREET": "4055 GLEN KOESTER LANE", "CWP_CITY": "IDAHO FALLS", "CWP_STATE": "ID", "CWP_ZIP": "83402", "CWP_COUNTY": "Bonneville", "NPDES_ID": "ID0021261", "REGISTRY_ID": "110000520188", "CWP_FACILITY_TYPE_INDICATOR": "POTW", "CWP_MAJOR_MINOR_STATUS": "Major", "CWP_PERMIT_STATUS_DESC": "Admin Continued", "STATE_WATER_BODY_NAME": "SNAKE RIVER", "CWP_CSO_FLAG": "N"}}, {"type": "Feature", "geometry": {"type": "Point", "coordinates": [-116.80499105654, 43.9858580963939]}, "properties": {"CWP_NAME": "NEW PLYMOUTH, CITY OF - NEW PLYMOUTH WWTP", "CWP_STREET": "4615 NW 1ST AVE", "CWP_CITY": "NEW PLYMOUTH", "CWP_STATE": "ID", "CWP_ZIP": "83655", "CWP_COUNTY": "Payette", "NPDES_ID": "ID0020389", "REGISTRY_ID": "110039696558", "CWP_FACILITY_TYPE_INDICATOR": "POTW", "CWP_MAJOR_MINOR_STATUS": "Minor", "CWP_PERMIT_STATUS_DESC": "Admin Continued", "STATE_WATER_BODY_NAME": "UNNAMED DRAINAGE DITCH", "CWP_CSO_FLAG": "N"}}, {"type": "Feature", "geometry": {"type": "Point", "coordinates": [-112.029975645952, 42.6234115728833]}, "properties": {"CWP_NAME": "LAVA HOT SPRINGS, CITY OF - LAVA HOT SPRINGS WWTP", "CWP_STREET": "9936 E MAUGHAN ROAD", "CWP_CITY": "LAVA HOT SPRINGS", "CWP_STATE": "ID", "CWP_ZIP": "83246", "CWP_COUNTY": "Bannock", "NPDES_ID": "ID0021822", "REGISTRY_ID": "110039983872", "CWP_FACILITY_TYPE_INDICATOR": "POTW", "CWP_MAJOR_MINOR_STATUS": "Minor", "CWP_PERMIT_STATUS_DESC": "Admin Continued", "STATE_WATER_BODY_NAME": "PORTNEUF RIVER", "CWP_CSO_FLAG": "N"}}, {"type": "Feature", "geometry": {"type": "Point", "coordinates": [-113.781625104914, 42.54860131176]}, "properties": {"CWP_NAME": "BURLEY, CITY OF - BURLEY WWTP", "CWP_STREET": "401 HILAND AVENUE", "CWP_CITY": "BURLEY", "CWP_STATE": "ID", "CWP_ZIP": "83318", "CWP_COUNTY": "Cassia", "NPDES_ID": "ID0020095", "REGISTRY_ID": "110007513002", "CWP_FACILITY_TYPE_INDICATOR": "POTW", "CWP_MAJOR_MINOR_STATUS": "Major", "CWP_PERMIT_STATUS_DESC": "Effective", "STATE_WATER_BODY_NAME": "SNAKE RIVER", "CWP_CSO_FLAG": "N"}}, {"type": "Feature", "geometry": {"type": "Point", "coordinates": [-116.581799000338, 43.5968869100422]}, "properties": {"CWP_NAME": "NAMPA, CITY OF - NAMPA WWTP", "CWP_STREET": "340 WEST RAILROAD STREET", "CWP_CITY": "NAMPA", "CWP_STATE": "ID", "CWP_ZIP": "83687-8208", "CWP_COUNTY": "Canyon", "NPDES_ID": "ID0022063", "REGISTRY_ID": "110010026890", "CWP_FACILITY_TYPE_INDICATOR": "POTW", "CWP_MAJOR_MINOR_STATUS": "Major", "CWP_PERMIT_STATUS_DESC": "Admin Continued", "STATE_WATER_BODY_NAME": "INDIAN CREEK", "CWP_CSO_FLAG": "N"}}, {"type": "Feature", "geometry": {"type": "Point", "coordinates": [-116.934337877195, 44.0138647738398]}, "properties": {"CWP_NAME": "FRUITLAND, CITY OF - SNAKE RIVER WWTP", "CWP_STREET": "7652 NORTH NEVADA AVENUE", "CWP_CITY": "FRUITLAND", "CWP_STATE": "ID", "CWP_ZIP": "83619", "CWP_COUNTY": "Payette", "NPDES_ID": "ID0020338", "REGISTRY_ID": "110009725832", "CWP_FACILITY_TYPE_INDICATOR": "POTW", "CWP_MAJOR_MINOR_STATUS": "Minor", "CWP_PERMIT_STATUS_DESC": "Admin Continued", "STATE_WATER_BODY_NAME": "SNAKE RIVER AT RIVER MILE 373", "CWP_CSO_FLAG": "N"}}, {"type": "Feature", "geometry": {"type": "Point", "coordinates": [-116.638892488517, 43.6979077588562]}, "properties": {"CWP_NAME": "MIDDLETON, CITY OF - MIDDLETON WWTP", "CWP_STREET": "824 WHIFFIN LN", "CWP_CITY": "MIDDLETON", "CWP_STATE": "ID", "CWP_ZIP": "83644", "CWP_COUNTY": "Canyon", "NPDES_ID": "ID0021831", "REGISTRY_ID": "110010027247", "CWP_FACILITY_TYPE_INDICATOR": "POTW", "CWP_MAJOR_MINOR_STATUS": "Minor", "CWP_PERMIT_STATUS_DESC": "Admin Continued", "STATE_WATER_BODY_NAME": "BOISE RIVER", "CWP_CSO_FLAG": "N"}}, {"type": "Feature", "geometry": {"type": "Point", "coordinates": [-112.190654060424, 43.3083029242262]}, "properties": {"CWP_NAME": "FIRTH, CITY OF - FIRTH WWTP", "CWP_STREET": "490 ROOSEVELT", "CWP_CITY": "FIRTH", "CWP_STATE": "ID", "CWP_ZIP": "83236", "CWP_COUNTY": "Bingham", "NPDES_ID": "ID0024988", "REGISTRY_ID": "110039977497", "CWP_FACILITY_TYPE_INDICATOR": "POTW", "CWP_MAJOR_MINOR_STATUS": "Minor", "CWP_PERMIT_STATUS_DESC": "Admin Continued", "STATE_WATER_BODY_NAME": "SNAKE RIVER", "CWP_CSO_FLAG": "N"}}, {"type": "Feature", "geometry": {"type": "Point", "coordinates": [-114.739930336117, 42.9439027686955]}, "properties": {"CWP_NAME": "GOODING, CITY OF - GOODING WWTP", "CWP_STREET": "1775 S 1800 E RD SOUTH", "CWP_CITY": "GOODING", "CWP_STATE": "ID", "CWP_ZIP": "83330", "CWP_COUNTY": "Gooding", "NPDES_ID": "ID0020028", "REGISTRY_ID": "110010027540", "CWP_FACILITY_TYPE_INDICATOR": "POTW", "CWP_MAJOR_MINOR_STATUS": "Major", "CWP_PERMIT_STATUS_DESC": "Admin Continued", "STATE_WATER_BODY_NAME": "LITTLE WOOD RIVER/BIG WOOD RIVER", "CWP_CSO_FLAG": "N"}}, {"type": "Feature", "geometry": {"type": "Point", "coordinates": [-116.941445715555, 46.5413061600597]}, "properties": {"CWP_NAME": "GENESEE, CITY OF - GENESEE WWTP", "CWP_STREET": "ONE MILE SW OF CITY CENTER ON MORSCHECK", "CWP_CITY": "GENESEE", "CWP_STATE": "ID", "CWP_ZIP": "83832", "CWP_COUNTY": "Latah", "NPDES_ID": "ID0020125", "REGISTRY_ID": "110039696255", "CWP_FACILITY_TYPE_INDICATOR": "POTW", "CWP_MAJOR_MINOR_STATUS": "Minor", "CWP_PERMIT_STATUS_DESC": "Admin Continued", "STATE_WATER_BODY_NAME": "COW CREEK", "CWP_CSO_FLAG": "N"}}, {"type": "Feature", "geometry": {"type": "Point", "coordinates": [-115.800892893832, 46.4925090574479]}, "properties": {"CWP_NAME": "PIERCE, CITY OF - PIERCE WWTP", "CWP_STREET": "15 FROMELT ROAD", "CWP_CITY": "PIERCE", "CWP_STATE": "ID", "CWP_ZIP": "83546", "CWP_COUNTY": "Clearwater", "NPDES_ID": "ID0020206", "REGISTRY_ID": "110006676338", "CWP_FACILITY_TYPE_INDICATOR": "POTW", "CWP_MAJOR_MINOR_STATUS": "Minor", "CWP_PERMIT_STATUS_DESC": "Effective", "STATE_WATER_BODY_NAME": "OROFINO CREEK", "CWP_CSO_FLAG": "N"}}, {"type": "Feature", "geometry": {"type": "Point", "coordinates": [-114.355012451493, 43.661622117354]}, "properties": {"CWP_NAME": "KETCHUM, CITY OF - KETCHUM/SUN VALLEY WWTP", "CWP_STREET": "110 RIVER RANCH RD", "CWP_CITY": "KETCHUM", "CWP_STATE": "ID", "CWP_ZIP": "83340", "CWP_COUNTY": "Blaine", "NPDES_ID": "ID0020281", "REGISTRY_ID": "110010027372", "CWP_FACILITY_TYPE_INDICATOR": "POTW", "CWP_MAJOR_MINOR_STATUS": "Major", "CWP_PERMIT_STATUS_DESC": "Admin Continued", "STATE_WATER_BODY_NAME": "BIG WOOD RIVER", "CWP_CSO_FLAG": "N"}}, {"type": "Feature", "geometry": {"type": "Point", "coordinates": [-116.804701398512, 43.5516608794181]}, "properties": {"CWP_NAME": "MARSING, CITY OF - MARSING WWTP", "CWP_STREET": "END OF FIRST STREET NORTH", "CWP_CITY": "MARSING", "CWP_STATE": "ID", "CWP_ZIP": "83639", "CWP_COUNTY": "Owyhee", "NPDES_ID": "ID0021202", "REGISTRY_ID": "110009725752", "CWP_FACILITY_TYPE_INDICATOR": "POTW", "CWP_MAJOR_MINOR_STATUS": "Minor", "CWP_PERMIT_STATUS_DESC": "Admin Continued", "STATE_WATER_BODY_NAME": "SNAKE RIVER", "CWP_CSO_FLAG": "N"}}, {"type": "Feature", "geometry": {"type": "Point", "coordinates": [-116.497148514355, 43.688253548882]}, "properties": {"CWP_NAME": "STAR SEWER AND WATER DISTRICT - STAR WWTP", "CWP_STREET": "11551 WEST TEMPE LANE", "CWP_CITY": "STAR", "CWP_STATE": "ID", "CWP_ZIP": "83669", "CWP_COUNTY": "Ada", "NPDES_ID": "ID0023591", "REGISTRY_ID": "110009726010", "CWP_FACILITY_TYPE_INDICATOR": "POTW", "CWP_MAJOR_MINOR_STATUS": "Major", "CWP_PERMIT_STATUS_DESC": "Admin Continued", "STATE_WATER_BODY_NAME": "LAWRENCE-KENNEDY CANAL", "CWP_CSO_FLAG": "N"}}, {"type": "Feature", "geometry": {"type": "Point", "coordinates": [-116.241362877344, 46.2409209533491]}, "properties": {"CWP_NAME": "NEZPERCE, CITY OF - NEZPERCE WWTP", "CWP_STREET": "2480 HIGHWAY 62", "CWP_CITY": "NEZPERCE", "CWP_STATE": "ID", "CWP_ZIP": "83543", "CWP_COUNTY": "Lewis", "NPDES_ID": "ID0020397", "REGISTRY_ID": "110011271612", "CWP_FACILITY_TYPE_INDICATOR": "POTW", "CWP_MAJOR_MINOR_STATUS": "Minor", "CWP_PERMIT_STATUS_DESC": "Effective", "STATE_WATER_BODY_NAME": "LONG HOLLOW CREEK", "CWP_CSO_FLAG": "N"}}, {"type": "Feature", "geometry": {"type": "Point", "coordinates": [-115.980195186409, 46.1332244580195]}, "properties": {"CWP_NAME": "KOOSKIA, CITY OF - KOOSKIA WWTP", "CWP_STREET": "AIRPORT ROAD", "CWP_CITY": "KOOSKIA", "CWP_STATE": "ID", "CWP_ZIP": "83539", "CWP_COUNTY": "Idaho", "NPDES_ID": "ID0021814", "REGISTRY_ID": "110039886166", "CWP_FACILITY_TYPE_INDICATOR": "POTW", "CWP_MAJOR_MINOR_STATUS": "Minor", "CWP_PERMIT_STATUS_DESC": "Effective", "STATE_WATER_BODY_NAME": "S.F. CLEARWATER RIVER", "CWP_CSO_FLAG": "N"}}, {"type": "Feature", "geometry": {"type": "Point", "coordinates": [-114.269911358517, 43.4859782177347]}, "properties": {"CWP_NAME": "HAILEY, CITY OF - WOODSIDE WWTF", "CWP_STREET": "4297 GLENBROOK DRIVE", "CWP_CITY": "HAILEY", "CWP_STATE": "ID", "CWP_ZIP": "83333", "CWP_COUNTY": "Blaine", "NPDES_ID": "ID0020303", "REGISTRY_ID": "110010027381", "CWP_FACILITY_TYPE_INDICATOR": "POTW", "CWP_MAJOR_MINOR_STATUS": "Major", "CWP_PERMIT_STATUS_DESC": "Admin Continued", "STATE_WATER_BODY_NAME": "BIG WOOD RIVER", "CWP_CSO_FLAG": "N"}}, {"type": "Feature", "geometry": {"type": "Point", "coordinates": [-115.811488021156, 47.4661466539827]}, "properties": {"CWP_NAME": "SOUTH FORK COEUR D'ALENE RIVER SEWER DISTRICT - MULLAN WWTP", "CWP_STREET": "191 MILL ROAD", "CWP_CITY": "OSBURN", "CWP_STATE": "ID", "CWP_ZIP": "83846", "CWP_COUNTY": "Shoshone", "NPDES_ID": "ID0021296", "REGISTRY_ID": "110010027201", "CWP_FACILITY_TYPE_INDICATOR": "POTW", "CWP_MAJOR_MINOR_STATUS": "Minor", "CWP_PERMIT_STATUS_DESC": "Effective", "STATE_WATER_BODY_NAME": "SOUTH FORK COEUR D'ALENE RIVER", "CWP_CSO_FLAG": "N"}}, {"type": "Feature", "geometry": {"type": "Point", "coordinates": [-116.932899866886, 44.0468339229139]}, "properties": {"CWP_NAME": "FRUITLAND, CITY OF - PAYETTE RIVER WWTP", "CWP_STREET": "8701 NORTHWEST 6TH AVE", "CWP_CITY": "FRUITLAND", "CWP_STATE": "ID", "CWP_ZIP": "83619", "CWP_COUNTY": "Payette", "NPDES_ID": "ID0021199", "REGISTRY_ID": "110010027167", "CWP_FACILITY_TYPE_INDICATOR": "POTW", "CWP_MAJOR_MINOR_STATUS": "Minor", "CWP_PERMIT_STATUS_DESC": "Admin Continued", "STATE_WATER_BODY_NAME": "PAYETTE RIVER (TRIB OF SNAKE RIVER)", "CWP_CSO_FLAG": "N"}}, {"type": "Feature", "geometry": {"type": "Point", "coordinates": [-116.175487640008, 46.7844496625672]}, "properties": {"CWP_NAME": "ELK RIVER, CITY OF - ELK RIVER WWTP", "CWP_STREET": "LANDING ROAD", "CWP_CITY": "ELK RIVER", "CWP_STATE": "ID", "CWP_ZIP": "83827", "CWP_COUNTY": "Clearwater", "NPDES_ID": "ID0020362", "REGISTRY_ID": "110039882641", "CWP_FACILITY_TYPE_INDICATOR": "POTW", "CWP_MAJOR_MINOR_STATUS": "Minor", "CWP_PERMIT_STATUS_DESC": "Effective", "STATE_WATER_BODY_NAME": "ELK CREEK", "CWP_CSO_FLAG": "N"}}, {"type": "Feature", "geometry": {"type": "Point", "coordinates": [-116.596347175376, 47.327941448279]}, "properties": {"CWP_NAME": "ST MARIES, CITY OF - ST MARIES WWTP", "CWP_STREET": "AT END OF SHEPARDS RD & E OF 1790 SHEPARDS RD", "CWP_CITY": "SAINT MARIES", "CWP_STATE": "ID", "CWP_ZIP": "83861", "CWP_COUNTY": "Benewah", "NPDES_ID": "ID0022799", "REGISTRY_ID": "110011271541", "CWP_FACILITY_TYPE_INDICATOR": "POTW", "CWP_MAJOR_MINOR_STATUS": "Minor", "CWP_PERMIT_STATUS_DESC": "Effective", "STATE_WATER_BODY_NAME": "ST. JOE RIVER", "CWP_CSO_FLAG": "N"}}, {"type": "Feature", "geometry": {"type": "Point", "coordinates": [-116.710672791025, 43.7028989900376]}, "properties": {"CWP_NAME": "CALDWELL HOUSING AUTHORITY - FARMWAY VILLAGE WWTP", "CWP_STREET": "22730 FARMWAY ROAD", "CWP_CITY": "CALDWELL", "CWP_STATE": "ID", "CWP_ZIP": "83605", "CWP_COUNTY": "Canyon", "NPDES_ID": "ID0025453", "REGISTRY_ID": "110010026809", "CWP_FACILITY_TYPE_INDICATOR": "POTW", "CWP_MAJOR_MINOR_STATUS": "Minor", "CWP_PERMIT_STATUS_DESC": "Terminated", "STATE_WATER_BODY_NAME": "SEBREE CANAL", "CWP_CSO_FLAG": "N"}}, {"type": "Feature", "geometry": {"type": "Point", "coordinates": [-116.958708542677, 43.6338445180989]}, "properties": {"CWP_NAME": "HOMEDALE, CITY OF - HOMEDALE WWTP", "CWP_STREET": "3752 RIVER ROAD", "CWP_CITY": "HOMEDALE", "CWP_STATE": "ID", "CWP_ZIP": "83628", "CWP_COUNTY": "Owyhee", "NPDES_ID": "ID0020427", "REGISTRY_ID": "110006776140", "CWP_FACILITY_TYPE_INDICATOR": "POTW", "CWP_MAJOR_MINOR_STATUS": "Minor", "CWP_PERMIT_STATUS_DESC": "Admin Continued", "STATE_WATER_BODY_NAME": "SNAKE RIVER", "CWP_CSO_FLAG": "N"}}, {"type": "Feature", "geometry": {"type": "Point", "coordinates": [-114.535084485261, 42.7308488770626]}, "properties": {"CWP_NAME": "JEROME, CITY OF - JEROME WWTP", "CWP_STREET": "50 N 100 W", "CWP_CITY": "JEROME", "CWP_STATE": "ID", "CWP_ZIP": "83338", "CWP_COUNTY": "Jerome", "NPDES_ID": "ID0020168", "REGISTRY_ID": "110010027327", "CWP_FACILITY_TYPE_INDICATOR": "POTW", "CWP_MAJOR_MINOR_STATUS": "Major", "CWP_PERMIT_STATUS_DESC": "Admin Continued", "STATE_WATER_BODY_NAME": "SNAKE RIVER VIA J CANAL", "CWP_CSO_FLAG": "N"}}, {"type": "Feature", "geometry": {"type": "Point", "coordinates": [-116.830805974279, 47.7694078557673]}, "properties": {"CWP_NAME": "HAYDEN AREA REGIONAL SEWER BOARD - HARSB WWTP", "CWP_STREET": "10789 NORTH ATLAS ROAD", "CWP_CITY": "HAYDEN", "CWP_STATE": "ID", "CWP_ZIP": "83835", "CWP_COUNTY": "Kootenai", "NPDES_ID": "ID0026590", "REGISTRY_ID": "110064583142", "CWP_FACILITY_TYPE_INDICATOR": "POTW", "CWP_MAJOR_MINOR_STATUS": "Major", "CWP_PERMIT_STATUS_DESC": "Admin Continued", "STATE_WATER_BODY_NAME": "SPOKANE RIVER (RM 108.7)", "CWP_CSO_FLAG": "N"}}, {"type": "Feature", "geometry": {"type": "Point", "coordinates": [-111.332747261847, 42.3231648404532]}, "properties": {"CWP_NAME": "MONTPELIER, CITY OF - MONTPELIER WWTF", "CWP_STREET": "47 BERN ROAD", "CWP_CITY": "MONTPELIER", "CWP_STATE": "ID", "CWP_ZIP": "83254", "CWP_COUNTY": "Bear Lake", "NPDES_ID": "ID0025585", "REGISTRY_ID": "110010026818", "CWP_FACILITY_TYPE_INDICATOR": "POTW", "CWP_MAJOR_MINOR_STATUS": "Minor", "CWP_PERMIT_STATUS_DESC": "Effective", "STATE_WATER_BODY_NAME": "BEAR RIVER", "CWP_CSO_FLAG": "N"}}, {"type": "Feature", "geometry": {"type": "Point", "coordinates": [-111.127531142304, 43.7205316004982]}, "properties": {"CWP_NAME": "DRIGGS, CITY OF - DRIGGS WWTP", "CWP_STREET": "1250 WEST  WEST BATES RO", "CWP_CITY": "DRIGGS", "CWP_STATE": "ID", "CWP_ZIP": "83422", "CWP_COUNTY": "Teton", "NPDES_ID": "ID0020141", "REGISTRY_ID": "110010027309", "CWP_FACILITY_TYPE_INDICATOR": "POTW", "CWP_MAJOR_MINOR_STATUS": "Minor", "CWP_PERMIT_STATUS_DESC": "Admin Continued", "STATE_WATER_BODY_NAME": "TETON RIVER", "CWP_CSO_FLAG": "N"}}, {"type": "Feature", "geometry": {"type": "Point", "coordinates": [-116.457513171402, 46.2308359334941]}, "properties": {"CWP_NAME": "CRAIGMONT, CITY OF - CRAIGMONT WWTP", "CWP_STREET": "STATE HIGHWAY 95, ON NEZ PERCE RESERVATION", "CWP_CITY": "CRAIGMONT", "CWP_STATE": "ID", "CWP_ZIP": "83523", "CWP_COUNTY": "Lewis", "NPDES_ID": "ID0021288", "REGISTRY_ID": "110039886291", "CWP_FACILITY_TYPE_INDICATOR": "POTW", "CWP_MAJOR_MINOR_STATUS": "Minor", "CWP_PERMIT_STATUS_DESC": "Effective", "STATE_WATER_BODY_NAME": "JOHN DOBBS CREEK, LAWYERS CREEK (NORTH FORK)", "CWP_CSO_FLAG": "N"}}, {"type": "Feature", "geometry": {"type": "Point", "coordinates": [-116.674709950793, 44.5672527723533]}, "properties": {"CWP_NAME": "CAMBRIDGE, CITY OF - CAMBRIDGE WWTP", "CWP_STREET": "195 EAST CENTRAL", "CWP_CITY": "CAMBRIDGE", "CWP_STATE": "ID", "CWP_ZIP": "83610", "CWP_COUNTY": "Washington", "NPDES_ID": "ID0021806", "REGISTRY_ID": "110039696567", "CWP_FACILITY_TYPE_INDICATOR": "POTW", "CWP_MAJOR_MINOR_STATUS": "Minor", "CWP_PERMIT_STATUS_DESC": "Effective", "STATE_WATER_BODY_NAME": "WEISER RIVER", "CWP_CSO_FLAG": "N"}}, {"type": "Feature", "geometry": {"type": "Point", "coordinates": [-112.384283511966, 43.182029086151]}, "properties": {"CWP_NAME": "BLACKFOOT, CITY OF - BLACKFOOT WWTP", "CWP_STREET": "2025 RIVERTON ROAD", "CWP_CITY": "BLACKFOOT", "CWP_STATE": "ID", "CWP_ZIP": "83221", "CWP_COUNTY": "Bingham", "NPDES_ID": "ID0020044", "REGISTRY_ID": "110009725592", "CWP_FACILITY_TYPE_INDICATOR": "POTW", "CWP_MAJOR_MINOR_STATUS": "Major", "CWP_PERMIT_STATUS_DESC": "Admin Continued", "STATE_WATER_BODY_NAME": "SNAKE RIVER", "CWP_CSO_FLAG": "N"}}, {"type": "Feature", "geometry": {"type": "Point", "coordinates": [-115.944538910715, 46.3818861274771]}, "properties": {"CWP_NAME": "WEIPPE, CITY OF - WEIPPE WWTP", "CWP_STREET": "0.2 MILES NW OF CITY HALL", "CWP_CITY": "WEIPPE", "CWP_STATE": "ID", "CWP_ZIP": "83553", "CWP_COUNTY": "Clearwater", "NPDES_ID": "ID0020354", "REGISTRY_ID": "110010027416", "CWP_FACILITY_TYPE_INDICATOR": "POTW", "CWP_MAJOR_MINOR_STATUS": "Minor", "CWP_PERMIT_STATUS_DESC": "Admin Continued", "STATE_WATER_BODY_NAME": "JIM FORD CREEK", "CWP_CSO_FLAG": "N"}}, {"type": "Feature", "geometry": {"type": "Point", "coordinates": [-111.799466963803, 43.8376835384269]}, "properties": {"CWP_NAME": "REXBURG, CITY OF - REXBURG WWTP", "CWP_STREET": "525 NORTH 5TH WEST", "CWP_CITY": "REXBURG", "CWP_STATE": "ID", "CWP_ZIP": "83440", "CWP_COUNTY": "Madison", "NPDES_ID": "ID0023817", "REGISTRY_ID": "110009726029", "CWP_FACILITY_TYPE_INDICATOR": "POTW", "CWP_MAJOR_MINOR_STATUS": "Major", "CWP_PERMIT_STATUS_DESC": "Admin Continued", "STATE_WATER_BODY_NAME": "TETON RIVER, REXBURG CANAL", "CWP_CSO_FLAG": "N"}}, {"type": "Feature", "geometry": {"type": "Point", "coordinates": [-116.948116404784, 44.0807509559435]}, "properties": {"CWP_NAME": "PAYETTE, CITY OF - PAYETTE WWTP", "CWP_STREET": "522 RIVER STREET", "CWP_CITY": "PAYETTE", "CWP_STATE": "ID", "CWP_ZIP": "83661", "CWP_COUNTY": "Payette", "NPDES_ID": "ID0020672", "REGISTRY_ID": "110000761667", "CWP_FACILITY_TYPE_INDICATOR": "POTW", "CWP_MAJOR_MINOR_STATUS": "Major", "CWP_PERMIT_STATUS_DESC": "Admin Continued", "STATE_WATER_BODY_NAME": "PAYETTE RIVER", "CWP_CSO_FLAG": "N"}}, {"type": "Feature", "geometry": {"type": "Point", "coordinates": [-116.920380182449, 47.4066590788557]}, "properties": {"CWP_NAME": "WORLEY, CITY OF - WORLEY WWTP", "CWP_STREET": "SOUTH 29401 B STREET (COEUR D'ALENE RESERVATION)", "CWP_CITY": "WORLEY", "CWP_STATE": "ID", "CWP_ZIP": "83876", "CWP_COUNTY": "Kootenai", "NPDES_ID": "ID0022713", "REGISTRY_ID": "110013080094", "CWP_FACILITY_TYPE_INDICATOR": "POTW", "CWP_MAJOR_MINOR_STATUS": "Minor", "CWP_PERMIT_STATUS_DESC": "Admin Continued", "STATE_WATER_BODY_NAME": "ROCK CREEK", "CWP_CSO_FLAG": "N"}}, {"type": "Feature", "geometry": {"type": "Point", "coordinates": [-117.035430345115, 46.8295191023118]}, "properties": {"CWP_NAME": "VIOLA WATER AND SEWER DISTRICT - WWTP", "CWP_STREET": "TRESTLE RD & US-95", "CWP_CITY": "VIOLA", "CWP_STATE": "ID", "CWP_ZIP": "83872", "CWP_COUNTY": "Latah", "NPDES_ID": "ID0026310", "REGISTRY_ID": "110017708836", "CWP_FACILITY_TYPE_INDICATOR": "POTW", "CWP_MAJOR_MINOR_STATUS": "Minor", "CWP_PERMIT_STATUS_DESC": "Effective", "STATE_WATER_BODY_NAME": "FOURMILE CREEK", "CWP_CSO_FLAG": "N"}}, {"type": "Feature", "geometry": {"type": "Point", "coordinates": [-111.461002586124, 44.0831445523579]}, "properties": {"CWP_NAME": "ASHTON, CITY OF - ASHTON WWTP", "CWP_STREET": "NORTH HIGHWAY 20", "CWP_CITY": "ASHTON", "CWP_STATE": "ID", "CWP_ZIP": "83420", "CWP_COUNTY": "Fremont", "NPDES_ID": "ID0023710", "REGISTRY_ID": "110039983809", "CWP_FACILITY_TYPE_INDICATOR": "POTW", "CWP_MAJOR_MINOR_STATUS": "Minor", "CWP_PERMIT_STATUS_DESC": "Terminated", "STATE_WATER_BODY_NAME": "SEWER CREEK", "CWP_CSO_FLAG": "N"}}, {"type": "Feature", "geometry": {"type": "Point", "coordinates": [-113.61091328492, 43.9016710460016]}, "properties": {"CWP_NAME": "MACKAY, CITY OF - MACKAY WWTP", "CWP_STREET": "SMELTER AVENUE", "CWP_CITY": "MACKAY", "CWP_STATE": "ID", "CWP_ZIP": "83251", "CWP_COUNTY": "Custer", "NPDES_ID": "ID0023027", "REGISTRY_ID": "110009726001", "CWP_FACILITY_TYPE_INDICATOR": "POTW", "CWP_MAJOR_MINOR_STATUS": "Minor", "CWP_PERMIT_STATUS_DESC": "Effective", "STATE_WATER_BODY_NAME": "BIG LOST RIVER", "CWP_CSO_FLAG": "N"}}, {"type": "Feature", "geometry": {"type": "Point", "coordinates": [-116.290006964203, 44.9758966863291]}, "properties": {"CWP_NAME": "NEW MEADOWS, CITY OF - NEW MEADOWS WWTP", "CWP_STREET": "100 WEST MCLAIN STREET", "CWP_CITY": "NEW MEADOWS", "CWP_STATE": "ID", "CWP_ZIP": "83654", "CWP_COUNTY": "Adams", "NPDES_ID": "ID0023159", "REGISTRY_ID": "110010026961", "CWP_FACILITY_TYPE_INDICATOR": "POTW", "CWP_MAJOR_MINOR_STATUS": "Minor", "CWP_PERMIT_STATUS_DESC": "Admin Continued", "STATE_WATER_BODY_NAME": "LITTLE SALMON RIVER", "CWP_CSO_FLAG": "N"}}, {"type": "Feature", "geometry": {"type": "Point", "coordinates": [-116.593263353016, 47.1197564736597]}, "properties": {"CWP_NAME": "EMIDA WATER & SEWER ASSOCIATION INC - EMIDA WWTF", "CWP_STREET": "HWY 6 AND BLACKWELL R.R. LANE", "CWP_CITY": "EMIDA", "CWP_STATE": "ID", "CWP_ZIP": "83830", "CWP_COUNTY": "Benewah", "NPDES_ID": "ID0028487", "REGISTRY_ID": "110039690493", "CWP_FACILITY_TYPE_INDICATOR": "POTW", "CWP_MAJOR_MINOR_STATUS": "Minor", "CWP_PERMIT_STATUS_DESC": "Effective", "STATE_WATER_BODY_NAME": "SANTA CREEK ST. MARIES WATERSHED", "CWP_CSO_FLAG": "N"}}, {"type": "Feature", "geometry": {"type": "Point", "coordinates": [-116.027032470125, 44.5066268314405]}, "properties": {"CWP_NAME": "CASCADE, CITY OF - CASCADE WWTP", "CWP_STREET": "880 SOUTH MAIN", "CWP_CITY": "CASCADE", "CWP_STATE": "ID", "CWP_ZIP": "83611", "CWP_COUNTY": "Valley", "NPDES_ID": "ID0023167", "REGISTRY_ID": "110039969683", "CWP_FACILITY_TYPE_INDICATOR": "POTW", "CWP_MAJOR_MINOR_STATUS": "Minor", "CWP_PERMIT_STATUS_DESC": "Effective", "STATE_WATER_BODY_NAME": "NORTH FORK PAYETTE RIVER, NORTH FORK PAYETTE RIVER (RM 38)", "CWP_CSO_FLAG": "N"}}, {"type": "Feature", "geometry": {"type": "Point", "coordinates": [-116.399165338596, 47.1280653306845]}, "properties": {"CWP_NAME": "SANTA FERNWOOD SEWER DISTRICT - SANTA FERNWOOD WWTF", "CWP_STREET": "65290 HIGHWAY 3 SOUTH", "CWP_CITY": "FERNWOOD", "CWP_STATE": "ID", "CWP_ZIP": "83830", "CWP_COUNTY": "Benewah", "NPDES_ID": "ID0022845", "REGISTRY_ID": "110010829318", "CWP_FACILITY_TYPE_INDICATOR": "POTW", "CWP_MAJOR_MINOR_STATUS": "Minor", "CWP_PERMIT_STATUS_DESC": "Effective", "STATE_WATER_BODY_NAME": "ST. MARIES RIVER", "CWP_CSO_FLAG": "N"}}, {"type": "Feature", "geometry": {"type": "Point", "coordinates": [-116.339322504116, 46.5026425647838]}, "properties": {"CWP_NAME": "RIVERSIDE WATER AND SEWER DISTRICT - WWTP", "CWP_STREET": "HIGHWAY 12 (NEZ PERCE RESERVATION)", "CWP_CITY": "OROFINO", "CWP_STATE": "ID", "CWP_ZIP": "83544", "CWP_COUNTY": "Clearwater", "NPDES_ID": "ID0024503", "REGISTRY_ID": "110010829238", "CWP_FACILITY_TYPE_INDICATOR": "POTW", "CWP_MAJOR_MINOR_STATUS": "Minor", "CWP_PERMIT_STATUS_DESC": "Effective", "STATE_WATER_BODY_NAME": "CLEARWATER RIVER", "CWP_CSO_FLAG": "N"}}, {"type": "Feature", "geometry": {"type": "Point", "coordinates": [-116.699955563284, 43.6745505590824]}, "properties": {"CWP_NAME": "CALDWELL, CITY OF - CALDWELL WWTP", "CWP_STREET": "208 JOHNSON LANE", "CWP_CITY": "CALDWELL", "CWP_STATE": "ID", "CWP_ZIP": "83605", "CWP_COUNTY": "Canyon", "NPDES_ID": "ID0021504", "REGISTRY_ID": "110039983417", "CWP_FACILITY_TYPE_INDICATOR": "POTW", "CWP_MAJOR_MINOR_STATUS": "Major", "CWP_PERMIT_STATUS_DESC": "Admin Continued", "STATE_WATER_BODY_NAME": "BOISE RIVER", "CWP_CSO_FLAG": "N"}}, {"type": "Feature", "geometry": {"type": "Point", "coordinates": [-116.796206330361, 47.6819388917335]}, "properties": {"CWP_NAME": "COEUR D'ALENE, CITY OF - COEUR D'ALENE WWTP", "CWP_STREET": "765 WEST HUBBARD AVENUE", "CWP_CITY": "COEUR D'ALENE", "CWP_STATE": "ID", "CWP_ZIP": "83814", "CWP_COUNTY": "Kootenai", "NPDES_ID": "ID0022853", "REGISTRY_ID": "110010026943", "CWP_FACILITY_TYPE_INDICATOR": "POTW", "CWP_MAJOR_MINOR_STATUS": "Major", "CWP_PERMIT_STATUS_DESC": "Admin Continued", "STATE_WATER_BODY_NAME": "SPOKANE RIVER", "CWP_CSO_FLAG": "N"}}, {"type": "Feature", "geometry": {"type": "Point", "coordinates": [-116.929821336129, 47.7080345073009]}, "properties": {"CWP_NAME": "CITY OF POST FALLS WATER RECLAMATION FACILITY", "CWP_STREET": "2002 WEST SELTICE WAY", "CWP_CITY": "POST FALLS", "CWP_STATE": "ID", "CWP_ZIP": "83854", "CWP_COUNTY": "Kootenai", "NPDES_ID": "ID0025852", "REGISTRY_ID": "110064635220", "CWP_FACILITY_TYPE_INDICATOR": "POTW", "CWP_MAJOR_MINOR_STATUS": "Major", "CWP_PERMIT_STATUS_DESC": "Admin Continued", "STATE_WATER_BODY_NAME": "SPOKANE RIVER", "CWP_CSO_FLAG": "N"}}, {"type": "Feature", "geometry": {"type": "Point", "coordinates": [-116.305787524338, 45.7585884155728]}, "properties": {"CWP_NAME": "WHITE BIRD, CITY OF - WHITE BIRD WWTP", "CWP_STREET": "212 RIVER ROAD", "CWP_CITY": "WHITE BIRD", "CWP_STATE": "ID", "CWP_ZIP": "83554", "CWP_COUNTY": "Idaho", "NPDES_ID": "ID0024252", "REGISTRY_ID": "110039886200", "CWP_FACILITY_TYPE_INDICATOR": "POTW", "CWP_MAJOR_MINOR_STATUS": "Minor", "CWP_PERMIT_STATUS_DESC": "Effective", "STATE_WATER_BODY_NAME": "WHITE BIRD CREEK", "CWP_CSO_FLAG": "N"}}, {"type": "Feature", "geometry": {"type": "Point", "coordinates": [-116.188878095369, 48.7200147754915]}, "properties": {"CWP_NAME": "MOYIE SPRINGS, CITY OF - MOYIE SPRINGS WWTP", "CWP_STREET": "3331 ROOSEVELT ROAD", "CWP_CITY": "MOYIE SPRINGS", "CWP_STATE": "ID", "CWP_ZIP": "83845-0573", "CWP_COUNTY": "Boundary", "NPDES_ID": "ID0030040", "REGISTRY_ID": "110071337866", "CWP_FACILITY_TYPE_INDICATOR": "POTW", "CWP_MAJOR_MINOR_STATUS": "Other/Nonclassified", "CWP_PERMIT_STATUS_DESC": "Pending", "STATE_WATER_BODY_NAME": "KOOTENAI RIVER, KOOTENAI RIVER - MOYIE RIVER TO DEEP CREEK", "CWP_CSO_FLAG": "N"}}, {"type": "Feature", "geometry": {"type": "Point", "coordinates": [-116.815269356389, 43.6815823481581]}, "properties": {"CWP_NAME": "GREENLEAF, CITY OF - GREENLEAF WWTP", "CWP_STREET": "PECKHAM ROAD", "CWP_CITY": "GREENLEAF", "CWP_STATE": "ID", "CWP_ZIP": "83626", "CWP_COUNTY": "Canyon", "NPDES_ID": "ID0028304", "REGISTRY_ID": "110039969442", "CWP_FACILITY_TYPE_INDICATOR": "POTW", "CWP_MAJOR_MINOR_STATUS": "Minor", "CWP_PERMIT_STATUS_DESC": "Admin Continued", "STATE_WATER_BODY_NAME": "BOISE RIVER, WEST END DRAIN", "CWP_CSO_FLAG": "N"}}, {"type": "Feature", "geometry": {"type": "Point", "coordinates": [-114.309612682418, 42.5349063889453]}, "properties": {"CWP_NAME": "HANSEN, CITY OF - HANSEN WWTP", "CWP_STREET": "3715 NORTH 3775 EAST", "CWP_CITY": "HANSEN", "CWP_STATE": "ID", "CWP_ZIP": "83334", "CWP_COUNTY": "Twin Falls", "NPDES_ID": "ID0022446", "REGISTRY_ID": "110039977344", "CWP_FACILITY_TYPE_INDICATOR": "POTW", "CWP_MAJOR_MINOR_STATUS": "Minor", "CWP_PERMIT_STATUS_DESC": "Admin Continued", "STATE_WATER_BODY_NAME": "(SNAKE RIVER) TWIN FALLS CANAL CO LATERAL 14, SNAKE RIVER_VIA AGRICULTURAL DITCH", "CWP_CSO_FLAG": "N"}}, {"type": "Feature", "geometry": {"type": "Point", "coordinates": [-116.114461255757, 45.9386857823165]}, "properties": {"CWP_NAME": "GRANGEVILLE, CITY OF - GRANGEVILLE WWTP", "CWP_STREET": "174 AIRPORT ROAD", "CWP_CITY": "GRANGEVILLE", "CWP_STATE": "ID", "CWP_ZIP": "83530", "CWP_COUNTY": "Idaho", "NPDES_ID": "ID0020036", "REGISTRY_ID": "110039886157", "CWP_FACILITY_TYPE_INDICATOR": "POTW", "CWP_MAJOR_MINOR_STATUS": "Minor", "CWP_PERMIT_STATUS_DESC": "Effective", "STATE_WATER_BODY_NAME": "THREE MILE CREEK", "CWP_CSO_FLAG": "N"}}, {"type": "Feature", "geometry": {"type": "Point", "coordinates": [-116.529614078397, 43.8717161582337]}, "properties": {"CWP_NAME": "EMMETT, CITY OF - EMMETT WWTP", "CWP_STREET": "1478 CASCADE ROAD", "CWP_CITY": "EMMETT", "CWP_STATE": "ID", "CWP_ZIP": "83617", "CWP_COUNTY": "Gem", "NPDES_ID": "ID0020311", "REGISTRY_ID": "110061868297", "CWP_FACILITY_TYPE_INDICATOR": "POTW", "CWP_MAJOR_MINOR_STATUS": "Minor", "CWP_PERMIT_STATUS_DESC": "Admin Continued", "STATE_WATER_BODY_NAME": "PAYETTE RIVER AT RIVER MILE 31.5", "CWP_CSO_FLAG": "N"}}, {"type": "Feature", "geometry": {"type": "Point", "coordinates": [-113.768555255905, 42.5540467084072]}, "properties": {"CWP_NAME": "HEYBURN, CITY OF - HEYBURN WWTP", "CWP_STREET": "1421 R STREET", "CWP_CITY": "HEYBURN", "CWP_STATE": "ID", "CWP_ZIP": "83336", "CWP_COUNTY": "Minidoka", "NPDES_ID": "ID0020940", "REGISTRY_ID": "110005781895", "CWP_FACILITY_TYPE_INDICATOR": "POTW", "CWP_MAJOR_MINOR_STATUS": "Minor", "CWP_PERMIT_STATUS_DESC": "Admin Continued", "STATE_WATER_BODY_NAME": "SNAKE RIVER", "CWP_CSO_FLAG": "N"}}, {"type": "Feature", "geometry": {"type": "Point", "coordinates": [-117.033365479941, 46.731194417405]}, "properties": {"CWP_NAME": "MOSCOW, CITY OF - MOSCOW  WWTP", "CWP_STREET": "2221 WEST PULLMAN ROAD", "CWP_CITY": "MOSCOW", "CWP_STATE": "ID", "CWP_ZIP": "83843", "CWP_COUNTY": "Latah", "NPDES_ID": "ID0021491", "REGISTRY_ID": "110039983505", "CWP_FACILITY_TYPE_INDICATOR": "POTW", "CWP_MAJOR_MINOR_STATUS": "Major", "CWP_PERMIT_STATUS_DESC": "Admin Continued", "STATE_WATER_BODY_NAME": "PARADISE CREEK", "CWP_CSO_FLAG": "N"}}, {"type": "Feature", "geometry": {"type": "Point", "coordinates": [-116.319696595019, 46.5009986059409]}, "properties": {"CWP_NAME": "AHSAHKA WATER AND SEWER DISTRICT - WWTF", "CWP_STREET": "HIGHWAY 7 (NEZ PERCE RESERVATION)", "CWP_CITY": "AHSAHKA", "CWP_STATE": "ID", "CWP_ZIP": "83520", "CWP_COUNTY": "Clearwater", "NPDES_ID": "ID0025224", "REGISTRY_ID": "110010026774", "CWP_FACILITY_TYPE_INDICATOR": "POTW", "CWP_MAJOR_MINOR_STATUS": "Minor", "CWP_PERMIT_STATUS_DESC": "Effective", "STATE_WATER_BODY_NAME": "CLEARWATER RIVER", "CWP_CSO_FLAG": "N"}}, {"type": "Feature", "geometry": {"type": "Point", "coordinates": [-111.377111748737, 42.4673063911426]}, "properties": {"CWP_NAME": "GEORGETOWN, CITY OF - GEORGETOWN WWTP", "CWP_STREET": "2 CEMETARY ROAD", "CWP_CITY": "GEORGETOWN", "CWP_STATE": "ID", "CWP_ZIP": "83239", "CWP_COUNTY": "Bear Lake", "NPDES_ID": "ID0025143", "REGISTRY_ID": "110020842098", "CWP_FACILITY_TYPE_INDICATOR": "POTW", "CWP_MAJOR_MINOR_STATUS": "Other/Nonclassified", "CWP_PERMIT_STATUS_DESC": "Pending", "STATE_WATER_BODY_NAME": "UNNAMED DITCH, BEAR RIVER", "CWP_CSO_FLAG": "N"}}, {"type": "Feature", "geometry": {"type": "Point", "coordinates": [-115.308870349035, 42.9414835420782]}, "properties": {"CWP_NAME": "GLENNS FERRY, CITY OF - GLENNS FERRY WWTP", "CWP_STREET": "901 SOUTH STEEN DRIVE", "CWP_CITY": "GLENNS FERRY", "CWP_STATE": "ID", "CWP_ZIP": "83623", "CWP_COUNTY": "Elmore", "NPDES_ID": "ID0022004", "REGISTRY_ID": "110011630510", "CWP_FACILITY_TYPE_INDICATOR": "POTW", "CWP_MAJOR_MINOR_STATUS": "Minor", "CWP_PERMIT_STATUS_DESC": "Admin Continued", "STATE_WATER_BODY_NAME": "SNAKE RIVER", "CWP_CSO_FLAG": "N"}}, {"type": "Feature", "geometry": {"type": "Point", "coordinates": [-116.030280260514, 46.2354557939558]}, "properties": {"CWP_NAME": "KAMIAH, CITY OF - KAMIAH WWTP", "CWP_STREET": "1775 LAGUNA DRIVE", "CWP_CITY": "KAMIAH", "CWP_STATE": "ID", "CWP_ZIP": "83536", "CWP_COUNTY": "Lewis", "NPDES_ID": "ID0028002", "REGISTRY_ID": "110039886308", "CWP_FACILITY_TYPE_INDICATOR": "POTW", "CWP_MAJOR_MINOR_STATUS": "Minor", "CWP_PERMIT_STATUS_DESC": "Admin Continued", "STATE_WATER_BODY_NAME": "MIDDLE FORK CLEARWATER RIVER", "CWP_CSO_FLAG": "N"}}, {"type": "Feature", "geometry": {"type": "Point", "coordinates": [-111.850542791171, 42.0740975302024]}, "properties": {"CWP_NAME": "PRESTON, CITY OF - PRESTON WWTP", "CWP_STREET": "1004 EAST 1300 SOUTH", "CWP_CITY": "PRESTON", "CWP_STATE": "ID", "CWP_ZIP": "83263", "CWP_COUNTY": "Franklin", "NPDES_ID": "ID0020214", "REGISTRY_ID": "110010027354", "CWP_FACILITY_TYPE_INDICATOR": "POTW", "CWP_MAJOR_MINOR_STATUS": "Major", "CWP_PERMIT_STATUS_DESC": "Admin Continued", "STATE_WATER_BODY_NAME": "WORM CREEK", "CWP_CSO_FLAG": "N"}}, {"type": "Feature", "geometry": {"type": "Point", "coordinates": [-116.900735542893, 43.6789086556279]}, "properties": {"CWP_NAME": "WILDER, CITY OF - WILDER WWTP", "CWP_STREET": "420 HUFF RD", "CWP_CITY": "WILDER", "CWP_STATE": "ID", "CWP_ZIP": "83676", "CWP_COUNTY": "Canyon", "NPDES_ID": "ID0020265", "REGISTRY_ID": "110010027363", "CWP_FACILITY_TYPE_INDICATOR": "POTW", "CWP_MAJOR_MINOR_STATUS": "Minor", "CWP_PERMIT_STATUS_DESC": "Admin Continued", "STATE_WATER_BODY_NAME": "WILDER DRAIN DITCH,A TRIBUTARY", "CWP_CSO_FLAG": "N"}}, {"type": "Feature", "geometry": {"type": "Point", "coordinates": [-116.871765506311, 47.3399033030067]}, "properties": {"CWP_NAME": "PLUMMER, CITY OF - PLUMMER WWTP", "CWP_STREET": "324 TOETLY ROAD (COEUR D'ALENE RESERVATION)", "CWP_CITY": "PLUMMER", "CWP_STATE": "ID", "CWP_ZIP": "83851", "CWP_COUNTY": "Benewah", "NPDES_ID": "ID0022781", "REGISTRY_ID": "110013719075", "CWP_FACILITY_TYPE_INDICATOR": "POTW", "CWP_MAJOR_MINOR_STATUS": "Minor", "CWP_PERMIT_STATUS_DESC": "Effective", "STATE_WATER_BODY_NAME": "PLUMMER CREEK", "CWP_CSO_FLAG": "N"}}, {"type": "Feature", "geometry": {"type": "Point", "coordinates": [-112.12056544939, 43.7139125024465]}, "properties": {"CWP_NAME": "ROBERTS, CITY OF - ROBERTS WWTP", "CWP_STREET": "EAST 600 NORTH ROAD", "CWP_CITY": "ROBERTS", "CWP_STATE": "ID", "CWP_ZIP": "83444", "CWP_COUNTY": "Jefferson", "NPDES_ID": "ID0026913", "REGISTRY_ID": "110006676409", "CWP_FACILITY_TYPE_INDICATOR": "POTW", "CWP_MAJOR_MINOR_STATUS": "Minor", "CWP_PERMIT_STATUS_DESC": "Admin Continued", "STATE_WATER_BODY_NAME": "ROBERT BERLIN, MAYOR, ROBERTS SLOUGH", "CWP_CSO_FLAG": "N"}}, {"type": "Feature", "geometry": {"type": "Point", "coordinates": [-116.984532689524, 44.2490941608603]}, "properties": {"CWP_NAME": "WEISER, CITY OF - WEISER WWTP", "CWP_STREET": "841 W 9TH ST", "CWP_CITY": "WEISER", "CWP_STATE": "ID", "CWP_ZIP": "83672", "CWP_COUNTY": "Washington", "NPDES_ID": "ID0020290", "REGISTRY_ID": "110039969898", "CWP_FACILITY_TYPE_INDICATOR": "POTW", "CWP_MAJOR_MINOR_STATUS": "Major", "CWP_PERMIT_STATUS_DESC": "Admin Continued", "STATE_WATER_BODY_NAME": "SNAKE RIVER", "CWP_CSO_FLAG": "N"}}, {"type": "Feature", "geometry": {"type": "Point", "coordinates": [-115.980195186409, 46.1332244580195]}, "properties": {"CWP_NAME": "KOOSKIA, CITY OF (EAST STP)", "CWP_STREET": "PO BOX 126", "CWP_CITY": "KOOSKIA", "CWP_STATE": "ID", "CWP_ZIP": "83539", "CWP_COUNTY": "Idaho", "NPDES_ID": "ID0022870", "REGISTRY_ID": "110039886166", "CWP_FACILITY_TYPE_INDICATOR": "POTW", "CWP_MAJOR_MINOR_STATUS": "Minor", "CWP_PERMIT_STATUS_DESC": "Terminated", "STATE_WATER_BODY_NAME": "MIDDLE FORK CLEARWATER RIVER", "CWP_CSO_FLAG": "N"}}, {"type": "Feature", "geometry": {"type": "Point", "coordinates": [-116.814899367681, 46.4422683251982]}, "properties": {"CWP_NAME": "NEZ PERCE TRIBE - LAPWAI VALLEY WWTP", "CWP_STREET": "24025 THUNDERHILL ROAD (NEZ PERCE RESERVATION)", "CWP_CITY": "LAPWAI", "CWP_STATE": "ID", "CWP_ZIP": "83540", "CWP_COUNTY": "Nez Perce", "NPDES_ID": "ID0028347", "REGISTRY_ID": "110064604913", "CWP_FACILITY_TYPE_INDICATOR": "POTW", "CWP_MAJOR_MINOR_STATUS": "Minor", "CWP_PERMIT_STATUS_DESC": "Effective", "STATE_WATER_BODY_NAME": "CLEARWATER RIVER", "CWP_CSO_FLAG": "N"}}, {"type": "Feature", "geometry": {"type": "Point", "coordinates": [-116.202596976647, 47.5413182507348]}, "properties": {"CWP_NAME": "SOUTH FORK COEUR D'ALENE SEWER DISTRICT - PAGE WWTP", "CWP_STREET": "46643 SILVER VALLEY ROAD", "CWP_CITY": "SMELTERVILLE", "CWP_STATE": "ID", "CWP_ZIP": "83868", "CWP_COUNTY": "Shoshone", "NPDES_ID": "ID0021300", "REGISTRY_ID": "110009689961", "CWP_FACILITY_TYPE_INDICATOR": "POTW", "CWP_MAJOR_MINOR_STATUS": "Major", "CWP_PERMIT_STATUS_DESC": "Admin Continued", "STATE_WATER_BODY_NAME": "COEUR D'ALENE RIVER, SOUTH FORK COEUR D'ALENE RIVER", "CWP_CSO_FLAG": "N"}}, {"type": "Feature", "geometry": {"type": "Point", "coordinates": [-115.9771051075, 46.0954484328053]}, "properties": {"CWP_NAME": "STITES, CITY OF - STITES WWTP", "CWP_STREET": "213 MAIN", "CWP_CITY": "STITES", "CWP_STATE": "ID", "CWP_ZIP": "83552", "CWP_COUNTY": "Idaho", "NPDES_ID": "ID0020346", "REGISTRY_ID": "110028084891", "CWP_FACILITY_TYPE_INDICATOR": "POTW", "CWP_MAJOR_MINOR_STATUS": "Minor", "CWP_PERMIT_STATUS_DESC": "Terminated", "STATE_WATER_BODY_NAME": "CLEARWATER RIVER (SOUTH FORK)", "CWP_CSO_FLAG": "N"}}, {"type": "Feature", "geometry": {"type": "Point", "coordinates": [-112.239882876295, 42.789742084054]}, "properties": {"CWP_NAME": "INKOM, CITY OF - INKOM WWTP", "CWP_STREET": "1830 N OLD HIGHWAY 91", "CWP_CITY": "INKOM", "CWP_STATE": "ID", "CWP_ZIP": "83245", "CWP_COUNTY": "Bannock", "NPDES_ID": "ID0020249", "REGISTRY_ID": "110039977415", "CWP_FACILITY_TYPE_INDICATOR": "POTW", "CWP_MAJOR_MINOR_STATUS": "Minor", "CWP_PERMIT_STATUS_DESC": "Terminated", "STATE_WATER_BODY_NAME": "PORTNEUF RIVER", "CWP_CSO_FLAG": "N"}}, {"type": "Feature", "geometry": {"type": "Point", "coordinates": [-113.939621748912, 43.284776503931]}, "properties": {"CWP_NAME": "CAREY, CITY OF - CAREY WWTP", "CWP_STREET": "15 GRIFFIN LOOP", "CWP_CITY": "CAREY", "CWP_STATE": "ID", "CWP_ZIP": "83320", "CWP_COUNTY": "Blaine", "NPDES_ID": "ID0025747", "REGISTRY_ID": "110010026836", "CWP_FACILITY_TYPE_INDICATOR": "POTW", "CWP_MAJOR_MINOR_STATUS": "Minor", "CWP_PERMIT_STATUS_DESC": "Effective", "STATE_WATER_BODY_NAME": "LITTLE WOOD RIVER", "CWP_CSO_FLAG": "N"}}, {"type": "Feature", "geometry": {"type": "Point", "coordinates": [-116.814978883481, 43.7282715554674]}, "properties": {"CWP_NAME": "NOTUS, CITY OF - NOTUS WWTP", "CWP_STREET": "WEST DENVER AVE", "CWP_CITY": "NOTUS", "CWP_STATE": "ID", "CWP_ZIP": "83656", "CWP_COUNTY": "Canyon", "NPDES_ID": "ID0021016", "REGISTRY_ID": "110009725743", "CWP_FACILITY_TYPE_INDICATOR": "POTW", "CWP_MAJOR_MINOR_STATUS": "Minor", "CWP_PERMIT_STATUS_DESC": "Admin Continued", "STATE_WATER_BODY_NAME": "CONWAY GULCH", "CWP_CSO_FLAG": "N"}}, {"type": "Feature", "geometry": {"type": "Point", "coordinates": [-116.668166889199, 46.6059899308283]}, "properties": {"CWP_NAME": "KENDRICK, CITY OF - KENDRICK WWTP", "CWP_STREET": "1/4 MILE SOUTH OF KENDRICK ON HIGHWAY 3", "CWP_CITY": "KENDRICK", "CWP_STATE": "ID", "CWP_ZIP": "83537", "CWP_COUNTY": "Latah", "NPDES_ID": "ID0024554", "REGISTRY_ID": "110010027050", "CWP_FACILITY_TYPE_INDICATOR": "POTW", "CWP_MAJOR_MINOR_STATUS": "Minor", "CWP_PERMIT_STATUS_DESC": "Effective", "STATE_WATER_BODY_NAME": "POTLATCH RIVER", "CWP_CSO_FLAG": "N"}}, {"type": "Feature", "geometry": {"type": "Point", "coordinates": [-116.330657888949, 43.6681573119727]}, "properties": {"CWP_NAME": "BOISE, CITY OF - WEST BOISE WWTP", "CWP_STREET": "11818 JOPLIN ROAD", "CWP_CITY": "BOISE", "CWP_STATE": "ID", "CWP_ZIP": "83714", "CWP_COUNTY": "Ada", "NPDES_ID": "ID0023981", "REGISTRY_ID": "110000517824", "CWP_FACILITY_TYPE_INDICATOR": "POTW", "CWP_MAJOR_MINOR_STATUS": "Major", "CWP_PERMIT_STATUS_DESC": "Effective", "STATE_WATER_BODY_NAME": "BOISE RIVER, BOISE RIVER (RIVER MILE 45.1), BOISE RIVER SOUTH CHANNEL, DIXIE SLOUGH", "CWP_CSO_FLAG": "N"}}, {"type": "Feature", "geometry": {"type": "Point", "coordinates": [-114.162004310115, 43.045541508743]}, "properties": {"CWP_NAME": "RICHFIELD, CITY OF - RICHFIELD WWTP", "CWP_STREET": "180 W LINCOLN", "CWP_CITY": "RICHFIELD", "CWP_STATE": "ID", "CWP_ZIP": "83349", "CWP_COUNTY": "Lincoln", "NPDES_ID": "ID0021211", "REGISTRY_ID": "110010027176", "CWP_FACILITY_TYPE_INDICATOR": "POTW", "CWP_MAJOR_MINOR_STATUS": "Minor", "CWP_PERMIT_STATUS_DESC": "Effective", "STATE_WATER_BODY_NAME": "LITTLE WOOD RIVER", "CWP_CSO_FLAG": "N"}}, {"type": "Feature", "geometry": {"type": "Point", "coordinates": [-111.917195415596, 43.7004172923765]}, "properties": {"CWP_NAME": "RIGBY, CITY OF - RIGBY WWTP", "CWP_STREET": "3930 EAST 500 NORTH", "CWP_CITY": "RIGBY", "CWP_STATE": "ID", "CWP_ZIP": "83442", "CWP_COUNTY": "Jefferson", "NPDES_ID": "ID0020010", "REGISTRY_ID": "110010829265", "CWP_FACILITY_TYPE_INDICATOR": "POTW", "CWP_MAJOR_MINOR_STATUS": "Minor", "CWP_PERMIT_STATUS_DESC": "Admin Continued", "STATE_WATER_BODY_NAME": "DRY BED CREEK", "CWP_CSO_FLAG": "N"}}, {"type": "Feature", "geometry": {"type": "Point", "coordinates": [-111.607388629937, 42.6476996015945]}, "properties": {"CWP_NAME": "SODA SPRINGS, CITY OF - SODA SPRINGS WWTP", "CWP_STREET": "500 BIG SPRINGS ROAD", "CWP_CITY": "SODA SPRINGS", "CWP_STATE": "ID", "CWP_ZIP": "83276", "CWP_COUNTY": "Caribou", "NPDES_ID": "ID0020818", "REGISTRY_ID": "110012529184", "CWP_FACILITY_TYPE_INDICATOR": "POTW", "CWP_MAJOR_MINOR_STATUS": "Major", "CWP_PERMIT_STATUS_DESC": "Effective", "STATE_WATER_BODY_NAME": "BEAR RIVER", "CWP_CSO_FLAG": "N"}}, {"type": "Feature", "geometry": {"type": "Point", "coordinates": [-116.75706581642, 46.7309138571656]}, "properties": {"CWP_NAME": "TROY, CITY OF - TROY WWTP", "CWP_STREET": "0.5 MILES SE OF TROY CITY HALL OFF HWY 8", "CWP_CITY": "TROY", "CWP_STATE": "ID", "CWP_ZIP": "83871", "CWP_COUNTY": "Latah", "NPDES_ID": "ID0023604", "REGISTRY_ID": "110010026989", "CWP_FACILITY_TYPE_INDICATOR": "POTW", "CWP_MAJOR_MINOR_STATUS": "Minor", "CWP_PERMIT_STATUS_DESC": "Effective", "STATE_WATER_BODY_NAME": "LITTLE BEAR CREEK (WEST FORK), WEST FORK LITTLE BEAR CREEK", "CWP_CSO_FLAG": "N"}}, {"type": "Feature", "geometry": {"type": "Point", "coordinates": [-114.802839789263, 43.3393014287651]}, "properties": {"CWP_NAME": "FAIRFIELD, CITY OF - FAIRFIELD WWTP", "CWP_STREET": "407 SOLDIER ROAD", "CWP_CITY": "FAIRFIELD", "CWP_STATE": "ID", "CWP_ZIP": "83327", "CWP_COUNTY": "Camas", "NPDES_ID": "ID0024384", "REGISTRY_ID": "110009725734", "CWP_FACILITY_TYPE_INDICATOR": "POTW", "CWP_MAJOR_MINOR_STATUS": "Minor", "CWP_PERMIT_STATUS_DESC": "Admin Continued", "STATE_WATER_BODY_NAME": "SOLDIER CREEK VIA UNNAMED DRAINAGE", "CWP_CSO_FLAG": "N"}}, {"type": "Feature", "geometry": {"type": "Point", "coordinates": [-111.777639479978, 43.6349556462751]}, "properties": {"CWP_NAME": "RIRIE, CITY OF - RIRIE WWTP", "CWP_STREET": "300 RIRIE STREET", "CWP_CITY": "RIRIE", "CWP_STATE": "ID", "CWP_ZIP": "83443", "CWP_COUNTY": "Jefferson", "NPDES_ID": "ID0026174", "REGISTRY_ID": "110011271426", "CWP_FACILITY_TYPE_INDICATOR": "POTW", "CWP_MAJOR_MINOR_STATUS": "Minor", "CWP_PERMIT_STATUS_DESC": "Admin Continued", "STATE_WATER_BODY_NAME": "DRY BED (GREAT FEEDER CANAL), SNAKE RIVER", "CWP_CSO_FLAG": "N"}}, {"type": "Feature", "geometry": {"type": "Point", "coordinates": [-112.872199030424, 42.773989503427]}, "properties": {"CWP_NAME": "AMERICAN FALLS, CITY OF - AMERICAN FALLS WWTP", "CWP_STREET": "2250 VALDEZ STREET", "CWP_CITY": "AMERICAN FALLS", "CWP_STATE": "ID", "CWP_ZIP": "83211", "CWP_COUNTY": "Power", "NPDES_ID": "ID0020753", "REGISTRY_ID": "110039977996", "CWP_FACILITY_TYPE_INDICATOR": "POTW", "CWP_MAJOR_MINOR_STATUS": "Minor", "CWP_PERMIT_STATUS_DESC": "Admin Continued", "STATE_WATER_BODY_NAME": "SNAKE RIVER", "CWP_CSO_FLAG": "N"}}, {"type": "Feature", "geometry": {"type": "Point", "coordinates": [-116.91428087104, 46.9216537657796]}, "properties": {"CWP_NAME": "POTLATCH, CITY OF - POTLATCH WWTP", "CWP_STREET": "0.65 MILE WEST OF POTLATCH CITY HALL", "CWP_CITY": "POTLATCH", "CWP_STATE": "ID", "CWP_ZIP": "83855", "CWP_COUNTY": "Nez Perce", "NPDES_ID": "ID0022501", "REGISTRY_ID": "110063999641", "CWP_FACILITY_TYPE_INDICATOR": "POTW", "CWP_MAJOR_MINOR_STATUS": "Minor", "CWP_PERMIT_STATUS_DESC": "Effective", "STATE_WATER_BODY_NAME": "PALOUSE RIVER", "CWP_CSO_FLAG": "N"}}, {"type": "Feature", "geometry": {"type": "Point", "coordinates": [-116.257713617583, 47.0043060319911]}, "properties": {"CWP_NAME": "CLARKIA WATER AND SEWER DISTRICT - WWTP", "CWP_STREET": "OFF POPLAR ST-INTERSECT OF NATL FOREST RDS 301&321", "CWP_CITY": "CLARKIA", "CWP_STATE": "ID", "CWP_ZIP": "83812", "CWP_COUNTY": "Shoshone", "NPDES_ID": "ID0025071", "REGISTRY_ID": "110010026738", "CWP_FACILITY_TYPE_INDICATOR": "POTW", "CWP_MAJOR_MINOR_STATUS": "Minor", "CWP_PERMIT_STATUS_DESC": "Admin Continued", "STATE_WATER_BODY_NAME": "ST. MARIES RIVER (MIDDLE FORK)", "CWP_CSO_FLAG": "N"}}, {"type": "Feature", "geometry": {"type": "Point", "coordinates": [-116.267897431058, 46.487390968252]}, "properties": {"CWP_NAME": "OROFINO, CITY OF - OROFINO WWTP", "CWP_STREET": "10200 HIGHWAY 12 ", "CWP_CITY": "OROFINO", "CWP_STATE": "ID", "CWP_ZIP": "83544", "CWP_COUNTY": "Clearwater", "NPDES_ID": "ID0020150", "REGISTRY_ID": "110010027318", "CWP_FACILITY_TYPE_INDICATOR": "POTW", "CWP_MAJOR_MINOR_STATUS": "Minor", "CWP_PERMIT_STATUS_DESC": "Effective", "STATE_WATER_BODY_NAME": "CLEARWATER RIVER", "CWP_CSO_FLAG": "N"}}, {"type": "Feature", "geometry": {"type": "Point", "coordinates": [-116.201705918113, 43.912029201985]}, "properties": {"CWP_NAME": "HORSESHOE BEND, CITY OF - HORSESHOE BEND WWTP", "CWP_STREET": "LAGOON ROAD OFF STATE HIGHWAY 55", "CWP_CITY": "HORSESHOE BEND", "CWP_STATE": "ID", "CWP_ZIP": "83629", "CWP_COUNTY": "Boise", "NPDES_ID": "ID0021024", "REGISTRY_ID": "110039969399", "CWP_FACILITY_TYPE_INDICATOR": "POTW", "CWP_MAJOR_MINOR_STATUS": "Minor", "CWP_PERMIT_STATUS_DESC": "Effective", "STATE_WATER_BODY_NAME": "PAYETTE RIVER", "CWP_CSO_FLAG": "N"}}, {"type": "Feature", "geometry": {"type": "Point", "coordinates": [-114.486392462724, 42.6077676542595]}, "properties": {"CWP_NAME": "TWIN FALLS, CITY OF - TWIN FALLS WWTP", "CWP_STREET": "350 CANYON SPRINGS ROAD", "CWP_CITY": "TWIN FALLS", "CWP_STATE": "ID", "CWP_ZIP": "83301", "CWP_COUNTY": "Twin Falls", "NPDES_ID": "ID0021270", "REGISTRY_ID": "110039977102", "CWP_FACILITY_TYPE_INDICATOR": "POTW", "CWP_MAJOR_MINOR_STATUS": "Major", "CWP_PERMIT_STATUS_DESC": "Admin Continued", "STATE_WATER_BODY_NAME": "SNAKE RIVER, SNAKE RIVER RM 608.5", "CWP_CSO_FLAG": "N"}}, {"type": "Feature", "geometry": {"type": "Point", "coordinates": [-114.61125975168, 42.5829940166794]}, "properties": {"CWP_NAME": "FILER, CITY OF - FILER WWTP", "CWP_STREET": "4030 NORTH 2200 EAST", "CWP_CITY": "FILER", "CWP_STATE": "ID", "CWP_ZIP": "83328", "CWP_COUNTY": "Twin Falls", "NPDES_ID": "ID0020061", "REGISTRY_ID": "110039696576", "CWP_FACILITY_TYPE_INDICATOR": "POTW", "CWP_MAJOR_MINOR_STATUS": "Minor", "CWP_PERMIT_STATUS_DESC": "Admin Continued", "STATE_WATER_BODY_NAME": "CEDAR DRAW, SNAKE RIVER", "CWP_CSO_FLAG": "N"}}, {"type": "Feature", "geometry": {"type": "Point", "coordinates": [-116.56100672747, 48.2636402418701]}, "properties": {"CWP_NAME": "SANDPOINT, CITY OF - SANDPOINT WWTP", "CWP_STREET": "723 SOUTH ELLA AVE", "CWP_CITY": "SANDPOINT", "CWP_STATE": "ID", "CWP_ZIP": "83864", "CWP_COUNTY": "Bonner", "NPDES_ID": "ID0020842", "REGISTRY_ID": "110046365330", "CWP_FACILITY_TYPE_INDICATOR": "POTW", "CWP_MAJOR_MINOR_STATUS": "Major", "CWP_PERMIT_STATUS_DESC": "Effective", "STATE_WATER_BODY_NAME": "PEND OREILLE RIVER", "CWP_CSO_FLAG": "N"}}, {"type": "Feature", "geometry": {"type": "Point", "coordinates": [-113.889235760116, 45.1906631318682]}, "properties": {"CWP_NAME": "SALMON, CITY OF - SALMON WWTP", "CWP_STREET": "43 LEMHI HOLE ROAD", "CWP_CITY": "SALMON", "CWP_STATE": "ID", "CWP_ZIP": "83467", "CWP_COUNTY": "Lemhi", "NPDES_ID": "ID0020001", "REGISTRY_ID": "110011271685", "CWP_FACILITY_TYPE_INDICATOR": "POTW", "CWP_MAJOR_MINOR_STATUS": "Minor", "CWP_PERMIT_STATUS_DESC": "Effective", "STATE_WATER_BODY_NAME": "SALMON RIVER", "CWP_CSO_FLAG": "N"}}, {"type": "Feature", "geometry": {"type": "Point", "coordinates": [-114.779418622971, 42.6178247482849]}, "properties": {"CWP_NAME": "BUHL, CITY OF - BUHL WWTP", "CWP_STREET": "4269 NORTH 1360 EAST", "CWP_CITY": "BUHL", "CWP_STATE": "ID", "CWP_ZIP": "83316", "CWP_COUNTY": "Twin Falls", "NPDES_ID": "ID0020664", "REGISTRY_ID": "110007514421", "CWP_FACILITY_TYPE_INDICATOR": "POTW", "CWP_MAJOR_MINOR_STATUS": "Minor", "CWP_PERMIT_STATUS_DESC": "Admin Continued", "STATE_WATER_BODY_NAME": "MUD CREEK (EAST FORK)", "CWP_CSO_FLAG": "N"}}, {"type": "Feature", "geometry": {"type": "Point", "coordinates": [-116.496537926198, 48.310971571331]}, "properties": {"CWP_NAME": "KOOTENAI-PONDERAY SEWER DISTRICT - KOOTENAI-PONDERAY WWTP", "CWP_STREET": "511 WHISKEY JACK ROAD", "CWP_CITY": "SANDPOINT", "CWP_STATE": "ID", "CWP_ZIP": "83864", "CWP_COUNTY": "Bonner", "NPDES_ID": "ID0021229", "REGISTRY_ID": "110039882231", "CWP_FACILITY_TYPE_INDICATOR": "POTW", "CWP_MAJOR_MINOR_STATUS": "Minor", "CWP_PERMIT_STATUS_DESC": "Effective", "STATE_WATER_BODY_NAME": "BOYER SLOUGH, PEND OREILLE LAKE, UNNAMED TRIB TO BOYER SLOUGH", "CWP_CSO_FLAG": "N"}}, {"type": "Feature", "geometry": {"type": "Point", "coordinates": [-116.333400070206, 48.6976369278733]}, "properties": {"CWP_NAME": "BONNERS FERRY, CITY OF - BONNERS FERRY WWTP", "CWP_STREET": "NORTH RIVER DRIVE", "CWP_CITY": "BONNERS FERRY", "CWP_STATE": "ID", "CWP_ZIP": "83805", "CWP_COUNTY": "Boundary", "NPDES_ID": "ID0020222", "REGISTRY_ID": "110028084917", "CWP_FACILITY_TYPE_INDICATOR": "POTW", "CWP_MAJOR_MINOR_STATUS": "Minor", "CWP_PERMIT_STATUS_DESC": "Admin Continued", "STATE_WATER_BODY_NAME": "KOOTENAI RIVER", "CWP_CSO_FLAG": "N"}}, {"type": "Feature", "geometry": {"type": "Point", "coordinates": [-112.825726580898, 42.9411465129731]}, "properties": {"CWP_NAME": "ABERDEEN, CITY OF - ABERDEEN WWTP", "CWP_STREET": "2683 WEST 1750 SOUTH", "CWP_CITY": "ABERDEEN", "CWP_STATE": "ID", "CWP_ZIP": "83210", "CWP_COUNTY": "Bingham", "NPDES_ID": "ID0020176", "REGISTRY_ID": "110010027336", "CWP_FACILITY_TYPE_INDICATOR": "POTW", "CWP_MAJOR_MINOR_STATUS": "Minor", "CWP_PERMIT_STATUS_DESC": "Admin Continued", "STATE_WATER_BODY_NAME": "AMERICAN FALLS RESERVOIR, VIA, LITTLE HOLE DRAW", "CWP_CSO_FLAG": "N"}}, {"type": "Feature", "geometry": {"type": "Point", "coordinates": [-112.158545570406, 43.3792009876986]}, "properties": {"CWP_NAME": "EASTERN IDAHO REGIONAL WASTEWATER AUTHORITY - OXBOW WWTP", "CWP_STREET": "618 EAST 1250 NORTH", "CWP_CITY": "SHELLEY", "CWP_STATE": "ID", "CWP_ZIP": "83274", "CWP_COUNTY": "Bingham", "NPDES_ID": "ID0020133", "REGISTRY_ID": "110006776104", "CWP_FACILITY_TYPE_INDICATOR": "POTW", "CWP_MAJOR_MINOR_STATUS": "Major", "CWP_PERMIT_STATUS_DESC": "Admin Continued", "STATE_WATER_BODY_NAME": "SNAKE RIVER", "CWP_CSO_FLAG": "N"}}, {"type": "Feature", "geometry": {"type": "Point", "coordinates": [-116.710524056915, 46.5623647101276]}, "properties": {"CWP_NAME": "JULIAETTA, CITY OF - JULIAETTA WWTP", "CWP_STREET": "1666 HIGHWAY 3 ", "CWP_CITY": "JULIAETTA", "CWP_STATE": "ID", "CWP_ZIP": "83535", "CWP_COUNTY": "Latah", "NPDES_ID": "ID0023761", "REGISTRY_ID": "110010027005", "CWP_FACILITY_TYPE_INDICATOR": "POTW", "CWP_MAJOR_MINOR_STATUS": "Minor", "CWP_PERMIT_STATUS_DESC": "Effective", "STATE_WATER_BODY_NAME": "POTLATCH RIVER", "CWP_CSO_FLAG": "N"}}, {"type": "Feature", "geometry": {"type": "Point", "coordinates": [-117.021641850516, 46.4277253663577]}, "properties": {"CWP_NAME": "LEWISTON, CITY OF - LEWISTON WWTP", "CWP_STREET": "900 7TH AVENUE NORTH", "CWP_CITY": "LEWISTON", "CWP_STATE": "ID", "CWP_ZIP": "83501", "CWP_COUNTY": "Nez Perce", "NPDES_ID": "ID0022055", "REGISTRY_ID": "110005782536", "CWP_FACILITY_TYPE_INDICATOR": "POTW", "CWP_MAJOR_MINOR_STATUS": "Major", "CWP_PERMIT_STATUS_DESC": "Admin Continued", "STATE_WATER_BODY_NAME": "CLEARWATER, ARM OF- GRANITE DAM POOL", "CWP_CSO_FLAG": "N"}}, {"type": "Feature", "geometry": {"type": "Point", "coordinates": [-116.926440658638, 47.1565450087928]}, "properties": {"CWP_NAME": "TENSED, CITY OF - TENSED WWTP", "CWP_STREET": "1/4 MILE W OF INTERSECTION OF 3RD ST AND G ST", "CWP_CITY": "TENSED", "CWP_STATE": "ID", "CWP_ZIP": "83870", "CWP_COUNTY": "Benewah", "NPDES_ID": "ID0025101", "REGISTRY_ID": "110070055108", "CWP_FACILITY_TYPE_INDICATOR": "POTW", "CWP_MAJOR_MINOR_STATUS": "Minor", "CWP_PERMIT_STATUS_DESC": "Effective", "STATE_WATER_BODY_NAME": "HANGMAN CREEK", "CWP_CSO_FLAG": "N"}}, {"type": "Feature", "geometry": {"type": "Point", "coordinates": [-116.439995679801, 43.6386028790226]}, "properties": {"CWP_NAME": "MERIDIAN, CITY OF - MERIDIAN WWTP", "CWP_STREET": "3401 NORTH TEN MILE ROAD", "CWP_CITY": "MERIDIAN", "CWP_STATE": "ID", "CWP_ZIP": "83646", "CWP_COUNTY": "Ada", "NPDES_ID": "ID0020192", "REGISTRY_ID": "110037117722", "CWP_FACILITY_TYPE_INDICATOR": "POTW", "CWP_MAJOR_MINOR_STATUS": "Major", "CWP_PERMIT_STATUS_DESC": "Admin Continued", "STATE_WATER_BODY_NAME": "FIVE MILE CREEK, BOISE RIVER", "CWP_CSO_FLAG": "N"}}, {"type": "Feature", "geometry": {"type": "Point", "coordinates": [-116.32959623813, 46.0412750320933]}, "properties": {"CWP_NAME": "COTTONWOOD, CITY OF - COTTONWOOD WWTP", "CWP_STREET": ".45 MI E BY SE OF COTTONWOOD AIRPORT ON AIRPORT RD", "CWP_CITY": "COTTONWOOD", "CWP_STATE": "ID", "CWP_ZIP": "83522", "CWP_COUNTY": "Idaho", "NPDES_ID": "ID0021849", "REGISTRY_ID": "110039886139", "CWP_FACILITY_TYPE_INDICATOR": "POTW", "CWP_MAJOR_MINOR_STATUS": "Minor", "CWP_PERMIT_STATUS_DESC": "Effective", "STATE_WATER_BODY_NAME": "COTTONWOOD CREEK", "CWP_CSO_FLAG": "N"}}, {"type": "Feature", "geometry": {"type": "Point", "coordinates": [-116.571774326303, 48.3214900346567]}, "properties": {"CWP_NAME": "CITY OF SANDPOINT - SAND CREEK WTP", "CWP_STREET": "951 SCHWEITZER BASIN ROAD", "CWP_CITY": "SANDPOINT", "CWP_STATE": "ID", "CWP_ZIP": "83864", "CWP_COUNTY": "Bonner", "NPDES_ID": "ID0024350", "REGISTRY_ID": "110070164686", "CWP_FACILITY_TYPE_INDICATOR": "POTW", "CWP_MAJOR_MINOR_STATUS": "Minor", "CWP_PERMIT_STATUS_DESC": "Terminated", "STATE_WATER_BODY_NAME": "SAND CREEK", "CWP_CSO_FLAG": "N"}}, {"type": "Feature", "geometry": {"type": "Point", "coordinates": [-116.398113971169, 46.8556058041417]}, "properties": {"CWP_NAME": "BOVILL, CITY OF - BOVILL WWTP", "CWP_STREET": "CORNER OF HIGHWAY 3 AND HIGHWAY 8", "CWP_CITY": "BOVILL", "CWP_STATE": "ID", "CWP_ZIP": "83806", "CWP_COUNTY": "Latah", "NPDES_ID": "ID0022861", "REGISTRY_ID": "110010026952", "CWP_FACILITY_TYPE_INDICATOR": "POTW", "CWP_MAJOR_MINOR_STATUS": "Minor", "CWP_PERMIT_STATUS_DESC": "Admin Continued", "STATE_WATER_BODY_NAME": "POTLATCH RIVER", "CWP_CSO_FLAG": "N"}}, {"type": "Feature", "geometry": {"type": "Point", "coordinates": [-116.624274491362, 46.2378848034984]}, "properties": {"CWP_NAME": "WINCHESTER, CITY OF - WINCHESTER WWTP", "CWP_STREET": "570 NORTH SHORE ROAD (NEZ PERCE RESERVATION)", "CWP_CITY": "WINCHESTER", "CWP_STATE": "ID", "CWP_ZIP": "83555", "CWP_COUNTY": "Lewis", "NPDES_ID": "ID0020184", "REGISTRY_ID": "110006776113", "CWP_FACILITY_TYPE_INDICATOR": "POTW", "CWP_MAJOR_MINOR_STATUS": "Minor", "CWP_PERMIT_STATUS_DESC": "Effective", "STATE_WATER_BODY_NAME": "LAPWAI CREEK", "CWP_CSO_FLAG": "N"}}]}