{"type": "FeatureCollection", "features": [{"type": "Feature", "geometry": {"type": "Point", "coordinates": [-119.070117705516, 39.5517087997399]}, "properties": {"CWP_NAME": "UNKNOWN", "CWP_STREET": "UNKNOWN", "CWP_CITY": "UNKNOWN", "CWP_STATE": "NV", "CWP_ZIP": "00000", "CWP_COUNTY": "Lyon", "NPDES_ID": "NV0020176", "REGISTRY_ID": "110064598797", "CWP_FACILITY_TYPE_INDICATOR": "POTW", "CWP_MAJOR_MINOR_STATUS": "Other/Nonclassified", "CWP_PERMIT_STATUS_DESC": "Not Needed", "STATE_WATER_BODY_NAME": null, "CWP_CSO_FLAG": "N"}}, {"type": "Feature", "geometry": {"type": "Point", "coordinates": [-114.829051382749, 35.9621250342112]}, "properties": {"CWP_NAME": "UNKNOWN", "CWP_STREET": "UNKNOWN", "CWP_CITY": null, "CWP_STATE": "NV", "CWP_ZIP": "00000", "CWP_COUNTY": "Clark", "NPDES_ID": "NV0020117", "REGISTRY_ID": "110028145763", "CWP_FACILITY_TYPE_INDICATOR": "POTW", "CWP_MAJOR_MINOR_STATUS": "Minor", "CWP_PERMIT_STATUS_DESC": "Terminated", "STATE_WATER_BODY_NAME": "LAS VEGAS WASH", "CWP_CSO_FLAG": "N"}}, {"type": "Feature", "geometry": {"type": "Point", "coordinates": [-114.89481197999, 39.2468856813119]}, "properties": {"CWP_NAME": "UNKNOWN", "CWP_STREET": "UNKNOWN", "CWP_CITY": "UNKNOWN", "CWP_STATE": "NV", "CWP_ZIP": "00000", "CWP_COUNTY": "White Pine", "NPDES_ID": "NV0020036", "REGISTRY_ID": "110028163350", "CWP_FACILITY_TYPE_INDICATOR": "POTW", "CWP_MAJOR_MINOR_STATUS": "Minor", "CWP_PERMIT_STATUS_DESC": "Terminated", "STATE_WATER_BODY_NAME": "MURRY CREEK", "CWP_CSO_FLAG": "N"}}, {"type": "Feature", "geometry": {"type": "Point", "coordinates": [-119.712506242397, 39.5129686500576]}, "properties": {"CWP_NAME": "TRUCKEE MEADOWS WATER RECLAMATION FACILITY", "CWP_STREET": "8500 CLEAN WATER WAY", "CWP_CITY": "RENO", "CWP_STATE": "NV", "CWP_ZIP": "89502", "CWP_COUNTY": "Washoe", "NPDES_ID": "NV0020150", "REGISTRY_ID": "110000555943", "CWP_FACILITY_TYPE_INDICATOR": "POTW", "CWP_MAJOR_MINOR_STATUS": "Major", "CWP_PERMIT_STATUS_DESC": "Admin Continued", "STATE_WATER_BODY_NAME": "FACILITY, GROUNDWATER VIA RIB, TRUCKEE RIVER, TRUCKEE RIVER VIA STEAMBOAT CREEK, TRUCKEE TIVER", "CWP_CSO_FLAG": "N"}}, {"type": "Feature", "geometry": {"type": "Point", "coordinates": [-115.055230942369, 36.2054078495895]}, "properties": {"CWP_NAME": "CITY OF NORTH LAS VEGAS WATER RECLAMATION FACILITY", "CWP_STREET": "APN 14016401007", "CWP_CITY": "UNINCORPORATED CLARK COUNTY", "CWP_STATE": "NV", "CWP_ZIP": "89156", "CWP_COUNTY": null, "NPDES_ID": "NV0023647", "REGISTRY_ID": "110064647663", "CWP_FACILITY_TYPE_INDICATOR": "POTW", "CWP_MAJOR_MINOR_STATUS": "Major", "CWP_PERMIT_STATUS_DESC": "Admin Continued", "STATE_WATER_BODY_NAME": "LAS VEGAS WASH, NORTH LAS VEGAS WRF", "CWP_CSO_FLAG": "N"}}, {"type": "Feature", "geometry": {"type": "Point", "coordinates": [-117.070382153797, 39.49201285164]}, "properties": {"CWP_NAME": "UNKNOWN", "CWP_STREET": "UNKNOWN", "CWP_CITY": "UNKNOWN", "CWP_STATE": "NV", "CWP_ZIP": "00000", "CWP_COUNTY": "Lander", "NPDES_ID": "NV0020079", "REGISTRY_ID": "110064641357", "CWP_FACILITY_TYPE_INDICATOR": "POTW", "CWP_MAJOR_MINOR_STATUS": "Other/Nonclassified", "CWP_PERMIT_STATUS_DESC": "Not Needed", "STATE_WATER_BODY_NAME": null, "CWP_CSO_FLAG": "N"}}, {"type": "Feature", "geometry": {"type": "Point", "coordinates": [-114.829051382749, 35.9621250342112]}, "properties": {"CWP_NAME": "UNKNOWN", "CWP_STREET": "UNKNOWN", "CWP_CITY": null, "CWP_STATE": "NV", "CWP_ZIP": "00000", "CWP_COUNTY": "Clark", "NPDES_ID": "NV0020940", "REGISTRY_ID": "110028145763", "CWP_FACILITY_TYPE_INDICATOR": "POTW", "CWP_MAJOR_MINOR_STATUS": "Minor", "CWP_PERMIT_STATUS_DESC": "Terminated", "STATE_WATER_BODY_NAME": "UNNAMED DRY WASH", "CWP_CSO_FLAG": "N"}}, {"type": "Feature", "geometry": {"type": "Point", "coordinates": [-118.476272857312, 40.1666958943799]}, "properties": {"CWP_NAME": "LOVELOCK WASTEWATER TREATMENT FACILITY", "CWP_STREET": "815 S. MERIDIAN ROAD", "CWP_CITY": "LOVELOCK", "CWP_STATE": "NV", "CWP_ZIP": "89419", "CWP_COUNTY": "Pershing", "NPDES_ID": "NV0020311", "REGISTRY_ID": "110006702666", "CWP_FACILITY_TYPE_INDICATOR": "POTW", "CWP_MAJOR_MINOR_STATUS": "Minor", "CWP_PERMIT_STATUS_DESC": "Effective", "STATE_WATER_BODY_NAME": "HUMBOLDT SINK VIA THE LOVELOCK DRAIN, INFLUENT", "CWP_CSO_FLAG": "N"}}, {"type": "Feature", "geometry": {"type": "Point", "coordinates": [-115.762525025853, 40.833202630624]}, "properties": {"CWP_NAME": "UNKNOWN", "CWP_STREET": "UNKNOWN", "CWP_CITY": "UNKNOWN", "CWP_STATE": "NV", "CWP_ZIP": "00000", "CWP_COUNTY": "Elko", "NPDES_ID": "NV0020265", "REGISTRY_ID": "110064622083", "CWP_FACILITY_TYPE_INDICATOR": "POTW", "CWP_MAJOR_MINOR_STATUS": "Other/Nonclassified", "CWP_PERMIT_STATUS_DESC": "Not Needed", "STATE_WATER_BODY_NAME": "HANSEN GULCH", "CWP_CSO_FLAG": "N"}}, {"type": "Feature", "geometry": {"type": "Point", "coordinates": [-115.776192922848, 40.8190949631967]}, "properties": {"CWP_NAME": "UNKNOWN", "CWP_STREET": "UNKNOWN", "CWP_CITY": null, "CWP_STATE": "NV", "CWP_ZIP": "00000", "CWP_COUNTY": "Elko", "NPDES_ID": "NV0020087", "REGISTRY_ID": "110028145754", "CWP_FACILITY_TYPE_INDICATOR": "POTW", "CWP_MAJOR_MINOR_STATUS": "Minor", "CWP_PERMIT_STATUS_DESC": "Terminated", "STATE_WATER_BODY_NAME": "HUMBOLDT RIVER", "CWP_CSO_FLAG": "N"}}, {"type": "Feature", "geometry": {"type": "Point", "coordinates": [-114.857219051573, 35.9391518480731]}, "properties": {"CWP_NAME": "BOULER CITY WWTP", "CWP_STREET": "2000 BUCHANAN BLVD", "CWP_CITY": "BOULDER CITY", "CWP_STATE": "NV", "CWP_ZIP": "890053670", "CWP_COUNTY": "Clark", "NPDES_ID": "NV0021288", "REGISTRY_ID": "110028153799", "CWP_FACILITY_TYPE_INDICATOR": "POTW", "CWP_MAJOR_MINOR_STATUS": "Minor", "CWP_PERMIT_STATUS_DESC": "Terminated", "STATE_WATER_BODY_NAME": "GDWATER OF STATE VIA TWO DRY WASHES", "CWP_CSO_FLAG": "N"}}, {"type": "Feature", "geometry": {"type": "Point", "coordinates": [-117.717212810485, 41.997505364485]}, "properties": {"CWP_NAME": "MCDERMITT WWTP", "CWP_STREET": "UNKNOWN", "CWP_CITY": "MCDERMITT", "CWP_STATE": "NV", "CWP_ZIP": "00000", "CWP_COUNTY": "Humboldt", "NPDES_ID": "NV0020371", "REGISTRY_ID": "110039864233", "CWP_FACILITY_TYPE_INDICATOR": "POTW", "CWP_MAJOR_MINOR_STATUS": "Minor", "CWP_PERMIT_STATUS_DESC": "Terminated", "STATE_WATER_BODY_NAME": "QUINN RIVER VIA UNNAMED DRY WASH", "CWP_CSO_FLAG": "N"}}, {"type": "Feature", "geometry": {"type": "Point", "coordinates": [-119.927023293848, 38.9687654330146]}, "properties": {"CWP_NAME": "UNKNOWN", "CWP_STREET": "UNKNOWN", "CWP_CITY": null, "CWP_STATE": "NV", "CWP_ZIP": "00000", "CWP_COUNTY": "Douglas", "NPDES_ID": "NV0020214", "REGISTRY_ID": "110028155065", "CWP_FACILITY_TYPE_INDICATOR": "POTW", "CWP_MAJOR_MINOR_STATUS": "Minor", "CWP_PERMIT_STATUS_DESC": "Terminated", "STATE_WATER_BODY_NAME": "MARTIN SLOUGH TO EAST FORK CARSON R", "CWP_CSO_FLAG": "N"}}, {"type": "Feature", "geometry": {"type": "Point", "coordinates": [-118.755340535883, 39.4638999111401]}, "properties": {"CWP_NAME": "FALLON WASTEWATER TREATMENT PLANT", "CWP_STREET": "1375 NEW RIVER PARKWAY", "CWP_CITY": "FALLON", "CWP_STATE": "NV", "CWP_ZIP": "89406", "CWP_COUNTY": "Churchill", "NPDES_ID": "NV0020061", "REGISTRY_ID": "110000734616", "CWP_FACILITY_TYPE_INDICATOR": "POTW", "CWP_MAJOR_MINOR_STATUS": "Major", "CWP_PERMIT_STATUS_DESC": "Admin Continued", "STATE_WATER_BODY_NAME": "INFLUENT, NEW RIVER DRAIN VIA UNNAMED DITCH", "CWP_CSO_FLAG": "N"}}, {"type": "Feature", "geometry": {"type": "Point", "coordinates": [-119.829853419515, 39.6647454370925]}, "properties": {"CWP_NAME": "LEMMON VALLEY WWTP", "CWP_STREET": "11000 LEMMON DR", "CWP_CITY": "RENO", "CWP_STATE": "NV", "CWP_ZIP": "895069045", "CWP_COUNTY": "Washoe", "NPDES_ID": "NV0021539", "REGISTRY_ID": "110006702657", "CWP_FACILITY_TYPE_INDICATOR": "POTW", "CWP_MAJOR_MINOR_STATUS": "Minor", "CWP_PERMIT_STATUS_DESC": "Terminated", "STATE_WATER_BODY_NAME": "LEMMON LAKE", "CWP_CSO_FLAG": "N"}}, {"type": "Feature", "geometry": {"type": "Point", "coordinates": [-115.034174201918, 36.0999794158882]}, "properties": {"CWP_NAME": "5857 E FRAMINGO RD", "CWP_STREET": "UNKNOWN", "CWP_CITY": null, "CWP_STATE": "NV", "CWP_ZIP": "00000", "CWP_COUNTY": "Clark", "NPDES_ID": "NV0022161", "REGISTRY_ID": "110028159579", "CWP_FACILITY_TYPE_INDICATOR": "POTW", "CWP_MAJOR_MINOR_STATUS": "Minor", "CWP_PERMIT_STATUS_DESC": "Terminated", "STATE_WATER_BODY_NAME": "LAS VEGAS WASH VIA PIPELINE", "CWP_CSO_FLAG": "N"}}, {"type": "Feature", "geometry": {"type": "Point", "coordinates": [-117.755612814696, 40.9672059610817]}, "properties": {"CWP_NAME": "UNKNOWN", "CWP_STREET": "UNKNOWN", "CWP_CITY": "UNKNOWN", "CWP_STATE": "NV", "CWP_ZIP": "00000", "CWP_COUNTY": "Humboldt", "NPDES_ID": "NV0020737", "REGISTRY_ID": "110009148902", "CWP_FACILITY_TYPE_INDICATOR": "POTW", "CWP_MAJOR_MINOR_STATUS": "Other/Nonclassified", "CWP_PERMIT_STATUS_DESC": "Not Needed", "STATE_WATER_BODY_NAME": "HUMBOLDT RIVERFIELD IRRIGATION", "CWP_CSO_FLAG": "N"}}, {"type": "Feature", "geometry": {"type": "Point", "coordinates": [-118.80025269309, 39.5150254712964]}, "properties": {"CWP_NAME": "MOODY LANE REGIONAL WATER RECLAMATION FACILITY", "CWP_STREET": "2831 MOODY LANE", "CWP_CITY": "FALLON", "CWP_STATE": "NV", "CWP_ZIP": "89406", "CWP_COUNTY": "Churchill", "NPDES_ID": "NV0023582", "REGISTRY_ID": "110040090665", "CWP_FACILITY_TYPE_INDICATOR": "POTW", "CWP_MAJOR_MINOR_STATUS": "Minor", "CWP_PERMIT_STATUS_DESC": "Admin Continued", "STATE_WATER_BODY_NAME": "STILLWATER NATIONAL WILDLIFE REFUGE", "CWP_CSO_FLAG": "N"}}, {"type": "Feature", "geometry": {"type": "Point", "coordinates": [-114.588861231748, 35.1566354709091]}, "properties": {"CWP_NAME": "LAUGHLIN WATER RESOURCE CENTER (LWRC)", "CWP_STREET": "450 BRUCE WOODBURY", "CWP_CITY": "LAUGHLIN", "CWP_STATE": "NV", "CWP_ZIP": "89029", "CWP_COUNTY": "Clark", "NPDES_ID": "NV0021563", "REGISTRY_ID": "110000914690", "CWP_FACILITY_TYPE_INDICATOR": "POTW", "CWP_MAJOR_MINOR_STATUS": "Major", "CWP_PERMIT_STATUS_DESC": "Effective", "STATE_WATER_BODY_NAME": "COLORADO RIVER, NA", "CWP_CSO_FLAG": "N"}}, {"type": "Feature", "geometry": {"type": "Point", "coordinates": [-119.948900213906, 39.0354132947368]}, "properties": {"CWP_NAME": "UNKNOWN", "CWP_STREET": "UNKNOWN", "CWP_CITY": null, "CWP_STATE": "NV", "CWP_ZIP": "00000", "CWP_COUNTY": "Douglas", "NPDES_ID": "NV0020052", "REGISTRY_ID": "110064591534", "CWP_FACILITY_TYPE_INDICATOR": "POTW", "CWP_MAJOR_MINOR_STATUS": "Other/Nonclassified", "CWP_PERMIT_STATUS_DESC": "Not Needed", "STATE_WATER_BODY_NAME": "EAST FORK, CARSON RIVER", "CWP_CSO_FLAG": "N"}}, {"type": "Feature", "geometry": {"type": "Point", "coordinates": [-114.829051382749, 35.9621250342112]}, "properties": {"CWP_NAME": "UNKNOWN", "CWP_STREET": "UNKNOWN", "CWP_CITY": null, "CWP_STATE": "NV", "CWP_ZIP": "00000", "CWP_COUNTY": "Clark", "NPDES_ID": "NV0022187", "REGISTRY_ID": "110028145763", "CWP_FACILITY_TYPE_INDICATOR": "POTW", "CWP_MAJOR_MINOR_STATUS": "Minor", "CWP_PERMIT_STATUS_DESC": "Terminated", "STATE_WATER_BODY_NAME": "LAS VEGAS WASH VIA PIPELINE", "CWP_CSO_FLAG": "N"}}, {"type": "Feature", "geometry": {"type": "Point", "coordinates": [-116.759631857739, 36.9085949188224]}, "properties": {"CWP_NAME": "WINGATE ELEMENTARY HIGH SCHOOL", "CWP_STREET": "UNKNOWN", "CWP_CITY": "UNKNOWN", "CWP_STATE": "NV", "CWP_ZIP": "00000", "CWP_COUNTY": "Nye", "NPDES_ID": "NV0020958", "REGISTRY_ID": "110064619890", "CWP_FACILITY_TYPE_INDICATOR": "POTW", "CWP_MAJOR_MINOR_STATUS": "Other/Nonclassified", "CWP_PERMIT_STATUS_DESC": "Not Needed", "STATE_WATER_BODY_NAME": null, "CWP_CSO_FLAG": "N"}}, {"type": "Feature", "geometry": {"type": "Point", "coordinates": [-119.636912789465, 39.3083054233065]}, "properties": {"CWP_NAME": "VIRGINIA CITY WASTEWATER TREATMENT PLANT", "CWP_STREET": "1001 SIX MILE CANYON ROAD", "CWP_CITY": "VIRGINIA CITY", "CWP_STATE": "NV", "CWP_ZIP": "89440", "CWP_COUNTY": "Storey", "NPDES_ID": "NV0020451", "REGISTRY_ID": "110009148911", "CWP_FACILITY_TYPE_INDICATOR": "POTW", "CWP_MAJOR_MINOR_STATUS": "Minor", "CWP_PERMIT_STATUS_DESC": "Effective", "STATE_WATER_BODY_NAME": "RECEIVING WATER - AMBIENT, SIX MILE CANYON CREEK, TREATMENT PLANT INLET", "CWP_CSO_FLAG": "N"}}, {"type": "Feature", "geometry": {"type": "Point", "coordinates": [-119.927023293848, 38.9687654330146]}, "properties": {"CWP_NAME": "UNKNOWN", "CWP_STREET": "UNKNOWN", "CWP_CITY": "UNKNOWN", "CWP_STATE": "NV", "CWP_ZIP": "00000", "CWP_COUNTY": "Douglas", "NPDES_ID": "NV0020257", "REGISTRY_ID": "110028155065", "CWP_FACILITY_TYPE_INDICATOR": "POTW", "CWP_MAJOR_MINOR_STATUS": "Minor", "CWP_PERMIT_STATUS_DESC": "Terminated", "STATE_WATER_BODY_NAME": "EVAPOTRANSPIRATION AREA & PERCOLATI", "CWP_CSO_FLAG": "N"}}, {"type": "Feature", "geometry": {"type": "Point", "coordinates": [-115.043271748999, 36.1372248421841]}, "properties": {"CWP_NAME": "CITY OF LAS VEGAS WATER POLLUTION CONTROL FACILITY", "CWP_STREET": "6005 E. VEGAS VALLEY DR.", "CWP_CITY": "LAS VEGAS", "CWP_STATE": "NV", "CWP_ZIP": "89142", "CWP_COUNTY": "Clark", "NPDES_ID": "NV0020133", "REGISTRY_ID": "110000543635", "CWP_FACILITY_TYPE_INDICATOR": "POTW", "CWP_MAJOR_MINOR_STATUS": "Major", "CWP_PERMIT_STATUS_DESC": "Admin Continued", "STATE_WATER_BODY_NAME": "LAS VEGAS WASH", "CWP_CSO_FLAG": "N"}}, {"type": "Feature", "geometry": {"type": "Point", "coordinates": [-116.941612858688, 40.6462955167012]}, "properties": {"CWP_NAME": "UNKNOWN", "CWP_STREET": "UNKNOWN", "CWP_CITY": "UNKNOWN", "CWP_STATE": "NV", "CWP_ZIP": "00000", "CWP_COUNTY": "Lander", "NPDES_ID": "NV0020206", "REGISTRY_ID": "110064618711", "CWP_FACILITY_TYPE_INDICATOR": "POTW", "CWP_MAJOR_MINOR_STATUS": "Other/Nonclassified", "CWP_PERMIT_STATUS_DESC": "Not Needed", "STATE_WATER_BODY_NAME": "UNNAMED DITCH TRIBUTARY TO REESE RI", "CWP_CSO_FLAG": "N"}}, {"type": "Feature", "geometry": {"type": "Point", "coordinates": [-114.672072725886, 41.9795758398252]}, "properties": {"CWP_NAME": "UNKNOWN", "CWP_STREET": "UNKNOWN", "CWP_CITY": "UNKNOWN", "CWP_STATE": "NV", "CWP_ZIP": "00000", "CWP_COUNTY": "Elko", "NPDES_ID": "NV0020770", "REGISTRY_ID": "110064618702", "CWP_FACILITY_TYPE_INDICATOR": "POTW", "CWP_MAJOR_MINOR_STATUS": "Other/Nonclassified", "CWP_PERMIT_STATUS_DESC": "Not Needed", "STATE_WATER_BODY_NAME": null, "CWP_CSO_FLAG": "N"}}, {"type": "Feature", "geometry": {"type": "Point", "coordinates": [-115.776192922848, 40.8190949631967]}, "properties": {"CWP_NAME": "UNKNOWN", "CWP_STREET": "UNKNOWN", "CWP_CITY": "CARLIN", "CWP_STATE": "NV", "CWP_ZIP": "00000", "CWP_COUNTY": "Elko", "NPDES_ID": "NV0020001", "REGISTRY_ID": "110028145754", "CWP_FACILITY_TYPE_INDICATOR": "POTW", "CWP_MAJOR_MINOR_STATUS": "Minor", "CWP_PERMIT_STATUS_DESC": "Terminated", "STATE_WATER_BODY_NAME": "HUMBOLDT RIVER", "CWP_CSO_FLAG": "N"}}, {"type": "Feature", "geometry": {"type": "Point", "coordinates": [-114.829051382749, 35.9621250342112]}, "properties": {"CWP_NAME": "UNKNOWN", "CWP_STREET": "UNKNOWN", "CWP_CITY": null, "CWP_STATE": "NV", "CWP_ZIP": "00000", "CWP_COUNTY": "Clark", "NPDES_ID": "NV0020125", "REGISTRY_ID": "110028145763", "CWP_FACILITY_TYPE_INDICATOR": "POTW", "CWP_MAJOR_MINOR_STATUS": "Minor", "CWP_PERMIT_STATUS_DESC": "Terminated", "STATE_WATER_BODY_NAME": "VIRGIN RIVER, LAKE MEAD COLORADO RI", "CWP_CSO_FLAG": "N"}}, {"type": "Feature", "geometry": {"type": "Point", "coordinates": [-115.776192922848, 40.8190949631967]}, "properties": {"CWP_NAME": "UNKNOWN", "CWP_STREET": "UNKNOWN", "CWP_CITY": null, "CWP_STATE": "NV", "CWP_ZIP": "00000", "CWP_COUNTY": "Elko", "NPDES_ID": "NV0020028", "REGISTRY_ID": "110028145754", "CWP_FACILITY_TYPE_INDICATOR": "POTW", "CWP_MAJOR_MINOR_STATUS": "Minor", "CWP_PERMIT_STATUS_DESC": "Terminated", "STATE_WATER_BODY_NAME": "HUMBOLDT RIVER", "CWP_CSO_FLAG": "N"}}, {"type": "Feature", "geometry": {"type": "Point", "coordinates": [-116.932482939297, 40.643825978872]}, "properties": {"CWP_NAME": "BATTLE MOUNTAIN SEWAGE TREATMENT FACILITY", "CWP_STREET": "0 N. SECOND ST.", "CWP_CITY": "BATTLE MOUNTAIN", "CWP_STATE": "NV", "CWP_ZIP": "89820", "CWP_COUNTY": null, "NPDES_ID": "NV0023167", "REGISTRY_ID": "110064329542", "CWP_FACILITY_TYPE_INDICATOR": "POTW", "CWP_MAJOR_MINOR_STATUS": "Minor", "CWP_PERMIT_STATUS_DESC": "Terminated", "STATE_WATER_BODY_NAME": "MONITORING WELL - NO DISCHARGE, REESE RIVER AND POTENTIALLY THE HUMBOLDT RIVER", "CWP_CSO_FLAG": "N"}}, {"type": "Feature", "geometry": {"type": "Point", "coordinates": [-115.047267435424, 36.1148443108879]}, "properties": {"CWP_NAME": "FLAMINGO WATER RESOURCE CENTER", "CWP_STREET": "5857 E. FLAMINGO ROAD", "CWP_CITY": "LAS VEGAS", "CWP_STATE": "NV", "CWP_ZIP": "89122", "CWP_COUNTY": "Clark", "NPDES_ID": "NV0021261", "REGISTRY_ID": "110059864179", "CWP_FACILITY_TYPE_INDICATOR": "POTW", "CWP_MAJOR_MINOR_STATUS": "Major", "CWP_PERMIT_STATUS_DESC": "Admin Continued", "STATE_WATER_BODY_NAME": "LAS VEGAS WASH", "CWP_CSO_FLAG": "N"}}, {"type": "Feature", "geometry": {"type": "Point", "coordinates": [-119.752142068432, 39.5053127176919]}, "properties": {"CWP_NAME": "UNKNOWN", "CWP_STREET": "UNKNOWN", "CWP_CITY": null, "CWP_STATE": "NV", "CWP_ZIP": "00000", "CWP_COUNTY": "Washoe", "NPDES_ID": "NV0020010", "REGISTRY_ID": "110028153557", "CWP_FACILITY_TYPE_INDICATOR": "POTW", "CWP_MAJOR_MINOR_STATUS": "Minor", "CWP_PERMIT_STATUS_DESC": "Terminated", "STATE_WATER_BODY_NAME": "CARSON RIVER", "CWP_CSO_FLAG": "N"}}, {"type": "Feature", "geometry": {"type": "Point", "coordinates": [-119.871693482554, 39.6445655446357]}, "properties": {"CWP_NAME": "STEAD WRF", "CWP_STREET": "4250 NORTON DR", "CWP_CITY": "RENO", "CWP_STATE": "NV", "CWP_ZIP": "895068949", "CWP_COUNTY": "Washoe", "NPDES_ID": "NV0020168", "REGISTRY_ID": "110000734625", "CWP_FACILITY_TYPE_INDICATOR": "POTW", "CWP_MAJOR_MINOR_STATUS": "Major", "CWP_PERMIT_STATUS_DESC": "Terminated", "STATE_WATER_BODY_NAME": "LEMON LAKE", "CWP_CSO_FLAG": "N"}}, {"type": "Feature", "geometry": {"type": "Point", "coordinates": [-115.000450515528, 36.0710212447643]}, "properties": {"CWP_NAME": "KURT R. SEGLER WATER RECLAMATION FACILITY", "CWP_STREET": "450 E. GALLERIA BLDG. C", "CWP_CITY": "HENDERSON", "CWP_STATE": "NV", "CWP_ZIP": "89011", "CWP_COUNTY": null, "NPDES_ID": "NV0022098", "REGISTRY_ID": "110000734643", "CWP_FACILITY_TYPE_INDICATOR": "POTW", "CWP_MAJOR_MINOR_STATUS": "Major", "CWP_PERMIT_STATUS_DESC": "Admin Continued", "STATE_WATER_BODY_NAME": "LAS VEGAS WASH, NA", "CWP_CSO_FLAG": "N"}}, {"type": "Feature", "geometry": {"type": "Point", "coordinates": [-119.733402894763, 39.5272552796884]}, "properties": {"CWP_NAME": "UNKNOWN", "CWP_STREET": "UNKNOWN", "CWP_CITY": null, "CWP_STATE": "NV", "CWP_ZIP": "00000", "CWP_COUNTY": "Carson City (city)", "NPDES_ID": "NV0020222", "REGISTRY_ID": "110028159551", "CWP_FACILITY_TYPE_INDICATOR": "POTW", "CWP_MAJOR_MINOR_STATUS": "Minor", "CWP_PERMIT_STATUS_DESC": "Terminated", "STATE_WATER_BODY_NAME": "CARSON RIVER", "CWP_CSO_FLAG": "N"}}, {"type": "Feature", "geometry": {"type": "Point", "coordinates": [-115.002722203451, 36.0711957131179]}, "properties": {"CWP_NAME": "HENDERSON, CITY OF", "CWP_STREET": "MOSER DRIVE FACILITY", "CWP_CITY": "HENDERSON", "CWP_STATE": "NV", "CWP_ZIP": "00000", "CWP_COUNTY": "Clark", "NPDES_ID": "NV0022080", "REGISTRY_ID": "110028162814", "CWP_FACILITY_TYPE_INDICATOR": "POTW", "CWP_MAJOR_MINOR_STATUS": "Minor", "CWP_PERMIT_STATUS_DESC": "Terminated", "STATE_WATER_BODY_NAME": "LAS VEGAS WASH LAS VEGAS BAY", "CWP_CSO_FLAG": "N"}}, {"type": "Feature", "geometry": {"type": "Point", "coordinates": [-114.51425190382, 37.6125053066029]}, "properties": {"CWP_NAME": "UNKNOWN", "CWP_STREET": "UNKNOWN", "CWP_CITY": null, "CWP_STATE": "NV", "CWP_ZIP": "00000", "CWP_COUNTY": "Lincoln", "NPDES_ID": "NV0020044", "REGISTRY_ID": "110028163369", "CWP_FACILITY_TYPE_INDICATOR": "POTW", "CWP_MAJOR_MINOR_STATUS": "Minor", "CWP_PERMIT_STATUS_DESC": "Terminated", "STATE_WATER_BODY_NAME": "MEADOW VALLEY CREEK", "CWP_CSO_FLAG": "N"}}, {"type": "Feature", "geometry": {"type": "Point", "coordinates": [-115.134167151081, 36.2081939445728]}, "properties": {"CWP_NAME": "NNSA/NSO NORTH LAS VEGAS FACILITY", "CWP_STREET": "2621 LOSSEE ROAD", "CWP_CITY": "NORTH LAS VEGAS", "CWP_STATE": "NV", "CWP_ZIP": "89030", "CWP_COUNTY": "Clark", "NPDES_ID": "NV0023507", "REGISTRY_ID": "110028155056", "CWP_FACILITY_TYPE_INDICATOR": "NON-POTW", "CWP_MAJOR_MINOR_STATUS": "Minor", "CWP_PERMIT_STATUS_DESC": "Terminated", "STATE_WATER_BODY_NAME": "GROUNDWATER OF THE STATE AND LAS VEGAS WASH, GROUNDWATERS OF THE STATE VIA PERCLATION, LAS VEGAS WASH VIA THE NORTH LAS VEGAS STORMDRAIN", "CWP_CSO_FLAG": "N"}}, {"type": "Feature", "geometry": {"type": "Point", "coordinates": [-118.725402993574, 39.4201955559974]}, "properties": {"CWP_NAME": "NAVAL AIR STATION FALLON", "CWP_STREET": "4755 PASTURE ROAD, BLDG 307, 3RD FLOOR", "CWP_CITY": "FALLON", "CWP_STATE": "NV", "CWP_ZIP": "89496", "CWP_COUNTY": "Churchill", "NPDES_ID": "NV0110001", "REGISTRY_ID": "110000848389", "CWP_FACILITY_TYPE_INDICATOR": "NON-POTW", "CWP_MAJOR_MINOR_STATUS": "Minor", "CWP_PERMIT_STATUS_DESC": "Admin Continued", "STATE_WATER_BODY_NAME": "GROUNDWATER, LOWER DIAGONAL DRAIN", "CWP_CSO_FLAG": "N"}}, {"type": "Feature", "geometry": {"type": "Point", "coordinates": [-118.63301281905, 38.5630048762613]}, "properties": {"CWP_NAME": "HAWTHORNE ARMY DEPOT", "CWP_STREET": "WADF (WESTERN AREA DEMILITARIZATION FACILITY", "CWP_CITY": "HAWTHORNE", "CWP_STATE": "NV", "CWP_ZIP": "89415", "CWP_COUNTY": "Mineral", "NPDES_ID": "NV0021946", "REGISTRY_ID": "110042074545", "CWP_FACILITY_TYPE_INDICATOR": "NON-POTW", "CWP_MAJOR_MINOR_STATUS": "Minor", "CWP_PERMIT_STATUS_DESC": "Effective", "STATE_WATER_BODY_NAME": "DUST SUPPRESSION, EVAPORATION POND, EVAPORATON POND, GROUNDWATER, SUM, WALKER LAKE", "CWP_CSO_FLAG": "N"}}, {"type": "Feature", "geometry": {"type": "Point", "coordinates": [-114.834092085352, 35.9789954181421]}, "properties": {"CWP_NAME": "UNKNOWN", "CWP_STREET": "UNKNOWN", "CWP_CITY": "UNKNOWN", "CWP_STATE": "NV", "CWP_ZIP": "00000", "CWP_COUNTY": "Clark", "NPDES_ID": "NV0020290", "REGISTRY_ID": "110064634070", "CWP_FACILITY_TYPE_INDICATOR": "POTW", "CWP_MAJOR_MINOR_STATUS": "Other/Nonclassified", "CWP_PERMIT_STATUS_DESC": "Not Needed", "STATE_WATER_BODY_NAME": "NO DISCHARGE TO SURFACE WATER", "CWP_CSO_FLAG": "N"}}]}