{"type": "FeatureCollection", "features": [{"type": "Feature", "geometry": {"type": "Point", "coordinates": [145.712412224964, 15.241978141906]}, "properties": {"CWP_NAME": "MANAGAHA ISLAND WASTEWATER TREATMENT PLANT", "CWP_STREET": "MANAGAHA ISLAND, NORTHERN MARIANA ISLANDS", "CWP_CITY": "NORTHERN MARIANA ISLANDS, COMMONWEALTH OF THE", "CWP_STATE": "MP", "CWP_ZIP": "96950", "CWP_COUNTY": "Saipan", "NPDES_ID": "MP0020371", "REGISTRY_ID": "110064619104", "CWP_FACILITY_TYPE_INDICATOR": "POTW", "CWP_MAJOR_MINOR_STATUS": "Minor", "CWP_PERMIT_STATUS_DESC": "Effective", "STATE_WATER_BODY_NAME": "MARINE WATERS BY TANAPAG HARBOR, SAIPAN, PHILIPPINE SEA", "CWP_CSO_FLAG": "N"}}, {"type": "Feature", "geometry": {"type": "Point", "coordinates": [145.749994880399, 15.1800058775751]}, "properties": {"CWP_NAME": "SADOG TASI WWTP", "CWP_STREET": "SADOG TASI RD.", "CWP_CITY": "SAIPAN", "CWP_STATE": "MP", "CWP_ZIP": "96950", "CWP_COUNTY": null, "NPDES_ID": "MP0020010", "REGISTRY_ID": "110024584163", "CWP_FACILITY_TYPE_INDICATOR": "POTW", "CWP_MAJOR_MINOR_STATUS": "Major", "CWP_PERMIT_STATUS_DESC": "Admin Continued", "STATE_WATER_BODY_NAME": "TANAPAG HARBOR PUERTO RICO INDUSTRI", "CWP_CSO_FLAG": "N"}}, {"type": "Feature", "geometry": {"type": "Point", "coordinates": [145.696133596451, 15.1217810904146]}, "properties": {"CWP_NAME": "AGINGAN STP", "CWP_STREET": "AGINGAN POINT", "CWP_CITY": "SAIPAN", "CWP_STATE": "MP", "CWP_ZIP": "96950", "CWP_COUNTY": "Saipan", "NPDES_ID": "MP0020028", "REGISTRY_ID": "110024584172", "CWP_FACILITY_TYPE_INDICATOR": "POTW", "CWP_MAJOR_MINOR_STATUS": "Major", "CWP_PERMIT_STATUS_DESC": "Admin Continued", "STATE_WATER_BODY_NAME": "AGINGAN POINT, PACIFIC OCEAN, PHILIPPINE SEA", "CWP_CSO_FLAG": "N"}}]}