{"type": "FeatureCollection", "features": [{"type": "Feature", "geometry": {"type": "Point", "coordinates": [-65.0201480993614, 18.3513465372132]}, "properties": {"CWP_NAME": "BORDEAUX WTP", "CWP_STREET": "ESTATE BORDEAUX", "CWP_CITY": "ST THOMAS", "CWP_STATE": "VI", "CWP_ZIP": "00802", "CWP_COUNTY": null, "NPDES_ID": "VI0039977", "REGISTRY_ID": "110039988449", "CWP_FACILITY_TYPE_INDICATOR": "POTW", "CWP_MAJOR_MINOR_STATUS": "Minor", "CWP_PERMIT_STATUS_DESC": "Admin Continued", "STATE_WATER_BODY_NAME": "FORTUNA DRAINAGE", "CWP_CSO_FLAG": "N"}}, {"type": "Feature", "geometry": {"type": "Point", "coordinates": [-64.8612513337705, 18.3188459308519]}, "properties": {"CWP_NAME": "NADIR WTP", "CWP_STREET": "BOVONI", "CWP_CITY": "ST THOMAS", "CWP_STATE": "VI", "CWP_ZIP": "00801", "CWP_COUNTY": null, "NPDES_ID": "VI0020125", "REGISTRY_ID": "110028188191", "CWP_FACILITY_TYPE_INDICATOR": "POTW", "CWP_MAJOR_MINOR_STATUS": "Minor", "CWP_PERMIT_STATUS_DESC": "Terminated", "STATE_WATER_BODY_NAME": "MANGROVE LAGOON", "CWP_CSO_FLAG": "N"}}, {"type": "Feature", "geometry": {"type": "Point", "coordinates": [-64.7590235668381, 18.3407902962834]}, "properties": {"CWP_NAME": "GEORGE SIMMONDS WWTP", "CWP_STREET": "ESTATE ADRIAN_#16", "CWP_CITY": "ST. JOHN", "CWP_STATE": "VI", "CWP_ZIP": "00830", "CWP_COUNTY": "St. John", "NPDES_ID": "VI0040266", "REGISTRY_ID": "110039725571", "CWP_FACILITY_TYPE_INDICATOR": "POTW", "CWP_MAJOR_MINOR_STATUS": "Minor", "CWP_PERMIT_STATUS_DESC": "Admin Continued", "STATE_WATER_BODY_NAME": "FISH BAY, GUT ST. JOHN, V.I", "CWP_CSO_FLAG": "N"}}, {"type": "Feature", "geometry": {"type": "Point", "coordinates": [-64.8091652828524, 18.3288086242888]}, "properties": {"CWP_NAME": "NEW CRUZ BAY WWTP", "CWP_STREET": "CONTANT ROAD ADJACENT TO ENIGHED POND", "CWP_CITY": "ST. JOHN", "CWP_STATE": "VI", "CWP_ZIP": "00830", "CWP_COUNTY": null, "NPDES_ID": "VI0040835", "REGISTRY_ID": "110010911950", "CWP_FACILITY_TYPE_INDICATOR": "POTW", "CWP_MAJOR_MINOR_STATUS": "Minor", "CWP_PERMIT_STATUS_DESC": "Expired", "STATE_WATER_BODY_NAME": "TURNER BAY, ST. JOHN, VI", "CWP_CSO_FLAG": "N"}}, {"type": "Feature", "geometry": {"type": "Point", "coordinates": [-64.9596147140011, 18.3696936126938]}, "properties": {"CWP_NAME": "VIWMA - BRASSVIEW", "CWP_STREET": "#14 - 70 BONNE RESOLUTION", "CWP_CITY": "ST THOMAS", "CWP_STATE": "VI", "CWP_ZIP": "00802", "CWP_COUNTY": null, "NPDES_ID": "VI0039811", "REGISTRY_ID": "110039725517", "CWP_FACILITY_TYPE_INDICATOR": "POTW", "CWP_MAJOR_MINOR_STATUS": "Minor", "CWP_PERMIT_STATUS_DESC": "Admin Continued", "STATE_WATER_BODY_NAME": "HULL BAY", "CWP_CSO_FLAG": "N"}}, {"type": "Feature", "geometry": {"type": "Point", "coordinates": [-64.7840678837312, 17.725303098557]}, "properties": {"CWP_NAME": "ANGUILLA WASTEWATER TREATMENT FACILITY", "CWP_STREET": "3A & 4A BETHLEHEM MIDDLE WORKS", "CWP_CITY": "ST.CROIX", "CWP_STATE": "VI", "CWP_ZIP": "00820", "CWP_COUNTY": "St. Croix", "NPDES_ID": "VI0020036", "REGISTRY_ID": "110010135086", "CWP_FACILITY_TYPE_INDICATOR": "POTW", "CWP_MAJOR_MINOR_STATUS": "Major", "CWP_PERMIT_STATUS_DESC": "Expired", "STATE_WATER_BODY_NAME": "CARIBBEAN SEA", "CWP_CSO_FLAG": "N"}}, {"type": "Feature", "geometry": {"type": "Point", "coordinates": [-64.9719615094829, 18.3303932274835]}, "properties": {"CWP_NAME": "RED POINT WASTEWATER TREATMENT FACILITY", "CWP_STREET": "70, 70-1 & 70-2 ESTATE LINDBERG BAY #4A SOUTHSIDE ", "CWP_CITY": "CHARLOTTE AMALIE", "CWP_STATE": "VI", "CWP_ZIP": "00802", "CWP_COUNTY": null, "NPDES_ID": "VI0020044", "REGISTRY_ID": "110070106227", "CWP_FACILITY_TYPE_INDICATOR": "POTW", "CWP_MAJOR_MINOR_STATUS": "Major", "CWP_PERMIT_STATUS_DESC": "Expired", "STATE_WATER_BODY_NAME": "CARIBBEAN SEA", "CWP_CSO_FLAG": "N"}}, {"type": "Feature", "geometry": {"type": "Point", "coordinates": [-64.8559723118598, 18.3263462790174]}, "properties": {"CWP_NAME": "VESSUP BAY WTP", "CWP_STREET": "VESSUP BAY", "CWP_CITY": "ST THOMAS", "CWP_STATE": "VI", "CWP_ZIP": "00801", "CWP_COUNTY": null, "NPDES_ID": "VI0020133", "REGISTRY_ID": "110010135095", "CWP_FACILITY_TYPE_INDICATOR": "POTW", "CWP_MAJOR_MINOR_STATUS": "Minor", "CWP_PERMIT_STATUS_DESC": "Admin Continued", "STATE_WATER_BODY_NAME": "VESSUP BAY", "CWP_CSO_FLAG": "N"}}, {"type": "Feature", "geometry": {"type": "Point", "coordinates": [-64.8787332603863, 18.3155211359746]}, "properties": {"CWP_NAME": "MANGROVE LAGOON", "CWP_STREET": "#1A ESTATE BOVONI", "CWP_CITY": "ST. THOMAS", "CWP_STATE": "VI", "CWP_ZIP": "00802", "CWP_COUNTY": null, "NPDES_ID": "VI0002003", "REGISTRY_ID": "110012287943", "CWP_FACILITY_TYPE_INDICATOR": "POTW", "CWP_MAJOR_MINOR_STATUS": "Minor", "CWP_PERMIT_STATUS_DESC": "Expired", "STATE_WATER_BODY_NAME": "SHORE OF STALLEY BAY", "CWP_CSO_FLAG": "N"}}]}