{"type": "FeatureCollection", "features": [{"type": "Feature", "geometry": {"type": "Point", "coordinates": [-72.6259911764532, 41.9594489212147]}, "properties": {"CWP_NAME": "SUFFIELD WPCF", "CWP_STREET": "844 EAST ST SOUTH", "CWP_CITY": "SUFFIELD", "CWP_STATE": "CT", "CWP_ZIP": "06078", "CWP_COUNTY": "Hartford", "NPDES_ID": "CT0100552", "REGISTRY_ID": "110000759493", "CWP_FACILITY_TYPE_INDICATOR": "POTW", "CWP_MAJOR_MINOR_STATUS": "Major", "CWP_PERMIT_STATUS_DESC": "Expired", "STATE_WATER_BODY_NAME": "STONY BROOK", "CWP_CSO_FLAG": "N"}}, {"type": "Feature", "geometry": {"type": "Point", "coordinates": [-72.9197008405956, 41.6604989173177]}, "properties": {"CWP_NAME": "BRISTOL WATER RECLAMATION FACILITY", "CWP_STREET": "75 BATTISTO RD.", "CWP_CITY": "BRISTOL", "CWP_STATE": "CT", "CWP_ZIP": "06010", "CWP_COUNTY": "Hartford", "NPDES_ID": "CT0100374", "REGISTRY_ID": "110002051993", "CWP_FACILITY_TYPE_INDICATOR": "POTW", "CWP_MAJOR_MINOR_STATUS": "Major", "CWP_PERMIT_STATUS_DESC": "Effective", "STATE_WATER_BODY_NAME": "PEQUABUCK RIVER", "CWP_CSO_FLAG": "N"}}, {"type": "Feature", "geometry": {"type": "Point", "coordinates": [-72.9215813332279, 41.8176482803689]}, "properties": {"CWP_NAME": "CANTON WPCF", "CWP_STREET": "50 OLD RIVER ROAD", "CWP_CITY": "CANTON", "CWP_STATE": "CT", "CWP_ZIP": "06022", "CWP_COUNTY": "Hartford", "NPDES_ID": "CT0100072", "REGISTRY_ID": "110055979080", "CWP_FACILITY_TYPE_INDICATOR": "POTW", "CWP_MAJOR_MINOR_STATUS": "Minor", "CWP_PERMIT_STATUS_DESC": "Effective", "STATE_WATER_BODY_NAME": "FARMINGTON RIVER", "CWP_CSO_FLAG": "N"}}, {"type": "Feature", "geometry": {"type": "Point", "coordinates": [-72.4351513454314, 41.3994886458911]}, "properties": {"CWP_NAME": "DEEP RIVER WPCF", "CWP_STREET": "99 WINTER AVENUE", "CWP_CITY": "DEEP RIVER", "CWP_STATE": "CT", "CWP_ZIP": "06417", "CWP_COUNTY": "Middlesex", "NPDES_ID": "CT0101745", "REGISTRY_ID": "110006780858", "CWP_FACILITY_TYPE_INDICATOR": "POTW", "CWP_MAJOR_MINOR_STATUS": "Minor", "CWP_PERMIT_STATUS_DESC": "Admin Continued", "STATE_WATER_BODY_NAME": "CONNECTICUT RIVER", "CWP_CSO_FLAG": "N"}}, {"type": "Feature", "geometry": {"type": "Point", "coordinates": [-72.8287119072551, 41.7289975958728]}, "properties": {"CWP_NAME": "FARMINGTON WPCF", "CWP_STREET": "1 WESTERBERG DRIVE", "CWP_CITY": "FARMINGTON", "CWP_STATE": "CT", "CWP_ZIP": "06032", "CWP_COUNTY": "Hartford", "NPDES_ID": "CT0100218", "REGISTRY_ID": "110000731003", "CWP_FACILITY_TYPE_INDICATOR": "POTW", "CWP_MAJOR_MINOR_STATUS": "Major", "CWP_PERMIT_STATUS_DESC": "Effective", "STATE_WATER_BODY_NAME": "FARMINGTON RIVER", "CWP_CSO_FLAG": "N"}}, {"type": "Feature", "geometry": {"type": "Point", "coordinates": [-71.9651205275636, 41.4336485166335]}, "properties": {"CWP_NAME": "LEDYARD WPC AUTHORITY", "CWP_STREET": "741 COLONEL LEDYARD HIGHWAY", "CWP_CITY": "LEDYARD", "CWP_STATE": "CT", "CWP_ZIP": "06339", "CWP_COUNTY": "New London", "NPDES_ID": "CT0101681", "REGISTRY_ID": "110006780849", "CWP_FACILITY_TYPE_INDICATOR": "POTW", "CWP_MAJOR_MINOR_STATUS": "Minor", "CWP_PERMIT_STATUS_DESC": "Effective", "STATE_WATER_BODY_NAME": "MYSTIC RIVER/SETH WILLIAMS BROOK", "CWP_CSO_FLAG": "N"}}, {"type": "Feature", "geometry": {"type": "Point", "coordinates": [-72.1054705706127, 41.4393286311772]}, "properties": {"CWP_NAME": "MONTVILLE WPCA", "CWP_STREET": "83 PINK ROW", "CWP_CITY": "UNCASVILLE", "CWP_STATE": "CT", "CWP_ZIP": "06382", "CWP_COUNTY": "New London", "NPDES_ID": "CT0100935", "REGISTRY_ID": "110000915591", "CWP_FACILITY_TYPE_INDICATOR": "POTW", "CWP_MAJOR_MINOR_STATUS": "Major", "CWP_PERMIT_STATUS_DESC": "Effective", "STATE_WATER_BODY_NAME": "THAMES RIVER", "CWP_CSO_FLAG": "N"}}, {"type": "Feature", "geometry": {"type": "Point", "coordinates": [-73.0442713650122, 41.5216183813777]}, "properties": {"CWP_NAME": "WATERBURY WPCF", "CWP_STREET": "210 MUNICIPAL ROAD", "CWP_CITY": "WATERBURY", "CWP_STATE": "CT", "CWP_ZIP": "06708", "CWP_COUNTY": "New Haven", "NPDES_ID": "CT0100625", "REGISTRY_ID": "110002057513", "CWP_FACILITY_TYPE_INDICATOR": "POTW", "CWP_MAJOR_MINOR_STATUS": "Major", "CWP_PERMIT_STATUS_DESC": "Effective", "STATE_WATER_BODY_NAME": "NAUGATUCK RIVER", "CWP_CSO_FLAG": "N"}}, {"type": "Feature", "geometry": {"type": "Point", "coordinates": [-73.6248342641485, 41.0133376301471]}, "properties": {"CWP_NAME": "GREENWICH WPCF", "CWP_STREET": "SHORE ROAD", "CWP_CITY": "GREENWICH", "CWP_STATE": "CT", "CWP_ZIP": "06830", "CWP_COUNTY": "Fairfield", "NPDES_ID": "CT0100234", "REGISTRY_ID": "110055973371", "CWP_FACILITY_TYPE_INDICATOR": "POTW", "CWP_MAJOR_MINOR_STATUS": "Major", "CWP_PERMIT_STATUS_DESC": "Effective", "STATE_WATER_BODY_NAME": "GREENWICH HARBOR", "CWP_CSO_FLAG": "N"}}, {"type": "Feature", "geometry": {"type": "Point", "coordinates": [-73.5299611557058, 41.0462555247076]}, "properties": {"CWP_NAME": "CITY OF STAMFORD WPCF", "CWP_STREET": "111 HARBOR VIEW AVE", "CWP_CITY": "STAMFORD", "CWP_STATE": "CT", "CWP_ZIP": "06902", "CWP_COUNTY": "Fairfield", "NPDES_ID": "CT0101087", "REGISTRY_ID": "110055974076", "CWP_FACILITY_TYPE_INDICATOR": "POTW", "CWP_MAJOR_MINOR_STATUS": "Major", "CWP_PERMIT_STATUS_DESC": "Effective", "STATE_WATER_BODY_NAME": "STAMFORD HARBOR", "CWP_CSO_FLAG": "N"}}, {"type": "Feature", "geometry": {"type": "Point", "coordinates": [-72.8375837049987, 41.4461076975885]}, "properties": {"CWP_NAME": "WALLINGFORD WPCF", "CWP_STREET": "155 JOHN STREET", "CWP_CITY": "WALLINGFORD", "CWP_STATE": "CT", "CWP_ZIP": "06492", "CWP_COUNTY": "New Haven", "NPDES_ID": "CT0100617", "REGISTRY_ID": "110000731030", "CWP_FACILITY_TYPE_INDICATOR": "POTW", "CWP_MAJOR_MINOR_STATUS": "Major", "CWP_PERMIT_STATUS_DESC": "Effective", "STATE_WATER_BODY_NAME": "QUINNIPIAC RIVER", "CWP_CSO_FLAG": "N"}}, {"type": "Feature", "geometry": {"type": "Point", "coordinates": [-71.9061852642972, 41.9059392733507]}, "properties": {"CWP_NAME": "PUTNAM WPCA", "CWP_STREET": "124 QUIENBAUG AVE.", "CWP_CITY": "PUTNAM", "CWP_STATE": "CT", "CWP_ZIP": "06260", "CWP_COUNTY": "Windham", "NPDES_ID": "CT0100960", "REGISTRY_ID": "110006618222", "CWP_FACILITY_TYPE_INDICATOR": "POTW", "CWP_MAJOR_MINOR_STATUS": "Major", "CWP_PERMIT_STATUS_DESC": "Admin Continued", "STATE_WATER_BODY_NAME": "QUINEBAUG RIVER", "CWP_CSO_FLAG": "N"}}, {"type": "Feature", "geometry": {"type": "Point", "coordinates": [-72.8716725132807, 41.3643377228891]}, "properties": {"CWP_NAME": "NORTH HAVEN WPCF", "CWP_STREET": "1122 UNIVERSAL DRIVE", "CWP_CITY": "NORTH HAVEN", "CWP_STATE": "CT", "CWP_ZIP": "06473", "CWP_COUNTY": "New Haven", "NPDES_ID": "CT0100404", "REGISTRY_ID": "110001735221", "CWP_FACILITY_TYPE_INDICATOR": "POTW", "CWP_MAJOR_MINOR_STATUS": "Major", "CWP_PERMIT_STATUS_DESC": "Admin Continued", "STATE_WATER_BODY_NAME": "QUINNIPIAC RIVER", "CWP_CSO_FLAG": "N"}}, {"type": "Feature", "geometry": {"type": "Point", "coordinates": [-73.1713258050114, 41.1729988163318]}, "properties": {"CWP_NAME": "BRIDGEPORT EAST SIDE WPCF", "CWP_STREET": "695 SEAVIEW AVENUE", "CWP_CITY": "BRIDGEPORT", "CWP_STATE": "CT", "CWP_ZIP": "06607", "CWP_COUNTY": "Fairfield", "NPDES_ID": "CT0101010", "REGISTRY_ID": "110000759518", "CWP_FACILITY_TYPE_INDICATOR": "POTW", "CWP_MAJOR_MINOR_STATUS": "Major", "CWP_PERMIT_STATUS_DESC": "Effective", "STATE_WATER_BODY_NAME": "POQUONNOCK RIVER", "CWP_CSO_FLAG": "Y"}}, {"type": "Feature", "geometry": {"type": "Point", "coordinates": [-72.6461872344846, 41.567772510573]}, "properties": {"CWP_NAME": "PORTLAND WPCF", "CWP_STREET": "LOWER MAIN ST", "CWP_CITY": "PORTLAND", "CWP_STATE": "CT", "CWP_ZIP": "06480", "CWP_COUNTY": "Middlesex", "NPDES_ID": "CT0101150", "REGISTRY_ID": "110006618213", "CWP_FACILITY_TYPE_INDICATOR": "POTW", "CWP_MAJOR_MINOR_STATUS": "Major", "CWP_PERMIT_STATUS_DESC": "Admin Continued", "STATE_WATER_BODY_NAME": "CONNECTICUT RIVER", "CWP_CSO_FLAG": "N"}}, {"type": "Feature", "geometry": {"type": "Point", "coordinates": [-73.1081655010289, 41.2231612133277]}, "properties": {"CWP_NAME": "HOUSATONIC WPCF", "CWP_STREET": "1225 ORONOQUE ROAD", "CWP_CITY": "MILFORD", "CWP_STATE": "CT", "CWP_ZIP": "06460", "CWP_COUNTY": "New Haven", "NPDES_ID": "CT0101656", "REGISTRY_ID": "110006618071", "CWP_FACILITY_TYPE_INDICATOR": "POTW", "CWP_MAJOR_MINOR_STATUS": "Major", "CWP_PERMIT_STATUS_DESC": "Effective", "STATE_WATER_BODY_NAME": "HOUSATONIC RIVER", "CWP_CSO_FLAG": "N"}}, {"type": "Feature", "geometry": {"type": "Point", "coordinates": [-72.6197642661125, 41.9190477701111]}, "properties": {"CWP_NAME": "EAST WINDSOR WPCF", "CWP_STREET": "192 SOUTH WATER STREET", "CWP_CITY": "EAST WINDSOR", "CWP_STATE": "CT", "CWP_ZIP": "06088", "CWP_COUNTY": "Hartford", "NPDES_ID": "CT0100196", "REGISTRY_ID": "110030348808", "CWP_FACILITY_TYPE_INDICATOR": "POTW", "CWP_MAJOR_MINOR_STATUS": "Major", "CWP_PERMIT_STATUS_DESC": "Effective", "STATE_WATER_BODY_NAME": "CONNECTICUT RIVER", "CWP_CSO_FLAG": "N"}}, {"type": "Feature", "geometry": {"type": "Point", "coordinates": [-72.6055414865611, 41.9719881715936]}, "properties": {"CWP_NAME": "ENFIELD POTW, TOWN OF", "CWP_STREET": "90 PARSONS ROAD", "CWP_CITY": "ENFIELD", "CWP_STATE": "CT", "CWP_ZIP": "06082", "CWP_COUNTY": "Hartford", "NPDES_ID": "CT0100200", "REGISTRY_ID": "110000736393", "CWP_FACILITY_TYPE_INDICATOR": "POTW", "CWP_MAJOR_MINOR_STATUS": "Major", "CWP_PERMIT_STATUS_DESC": "Effective", "STATE_WATER_BODY_NAME": "CONNECTICUT RIVER", "CWP_CSO_FLAG": "N"}}, {"type": "Feature", "geometry": {"type": "Point", "coordinates": [-72.9320323247502, 41.2672208135714]}, "properties": {"CWP_NAME": "WEST HAVEN WPCF", "CWP_STREET": "2 BEACH STREET", "CWP_CITY": "WEST HAVEN", "CWP_STATE": "CT", "CWP_ZIP": "06516", "CWP_COUNTY": "New Haven", "NPDES_ID": "CT0101079", "REGISTRY_ID": "110001404221", "CWP_FACILITY_TYPE_INDICATOR": "POTW", "CWP_MAJOR_MINOR_STATUS": "Major", "CWP_PERMIT_STATUS_DESC": "Admin Continued", "STATE_WATER_BODY_NAME": "LONG ISLAND SOUND/NEW HAVEN HARBOR", "CWP_CSO_FLAG": "N"}}, {"type": "Feature", "geometry": {"type": "Point", "coordinates": [-71.9086008109613, 41.3357887710166]}, "properties": {"CWP_NAME": "STONINGTON BOROUGH WPCF", "CWP_STREET": "2 HIGH STREET", "CWP_CITY": "STONINGTON", "CWP_STATE": "CT", "CWP_ZIP": "06378", "CWP_COUNTY": "New London", "NPDES_ID": "CT0101281", "REGISTRY_ID": "110009129344", "CWP_FACILITY_TYPE_INDICATOR": "POTW", "CWP_MAJOR_MINOR_STATUS": "Minor", "CWP_PERMIT_STATUS_DESC": "Effective", "STATE_WATER_BODY_NAME": "STONINGTON HARBOR", "CWP_CSO_FLAG": "N"}}, {"type": "Feature", "geometry": {"type": "Point", "coordinates": [-73.0710621719642, 41.4316196086495]}, "properties": {"CWP_NAME": "BEACON FALLS WPCF", "CWP_STREET": "411 LOPUS ROAD", "CWP_CITY": "BEACON FALLS", "CWP_STATE": "CT", "CWP_ZIP": "06403", "CWP_COUNTY": "New Haven", "NPDES_ID": "CT0101061", "REGISTRY_ID": "110010052806", "CWP_FACILITY_TYPE_INDICATOR": "POTW", "CWP_MAJOR_MINOR_STATUS": "Minor", "CWP_PERMIT_STATUS_DESC": "Expired", "STATE_WATER_BODY_NAME": "NAUGATUCK RIVER", "CWP_CSO_FLAG": "N"}}, {"type": "Feature", "geometry": {"type": "Point", "coordinates": [-72.6122234354238, 41.706675526448]}, "properties": {"CWP_NAME": "GLASTONBURY WPCF", "CWP_STREET": "2149 MAIN STREET", "CWP_CITY": "GLASTONBURY", "CWP_STATE": "CT", "CWP_ZIP": "06033", "CWP_COUNTY": "Hartford", "NPDES_ID": "CT0100226", "REGISTRY_ID": "110000515808", "CWP_FACILITY_TYPE_INDICATOR": "POTW", "CWP_MAJOR_MINOR_STATUS": "Major", "CWP_PERMIT_STATUS_DESC": "Effective", "STATE_WATER_BODY_NAME": "CONNECTICUT RIVER", "CWP_CSO_FLAG": "N"}}, {"type": "Feature", "geometry": {"type": "Point", "coordinates": [-73.0539867412629, 41.4729830354106]}, "properties": {"CWP_NAME": "NAUGATUCK, BOROUGH OF", "CWP_STREET": "500 CHERRY STREET", "CWP_CITY": "NAUGATUCK", "CWP_STATE": "CT", "CWP_ZIP": "06770", "CWP_COUNTY": "New Haven", "NPDES_ID": "CT0100641", "REGISTRY_ID": "110001404365", "CWP_FACILITY_TYPE_INDICATOR": "POTW", "CWP_MAJOR_MINOR_STATUS": "Major", "CWP_PERMIT_STATUS_DESC": "Admin Continued", "STATE_WATER_BODY_NAME": "NAUGATUCK RIVER", "CWP_CSO_FLAG": "N"}}, {"type": "Feature", "geometry": {"type": "Point", "coordinates": [-72.4905712201512, 41.9834986005643]}, "properties": {"CWP_NAME": "SOMERSVILLE WPCF", "CWP_STREET": "33 QUALITY AVENUE", "CWP_CITY": "SOMERS", "CWP_STATE": "CT", "CWP_ZIP": "06071", "CWP_COUNTY": "Tolland", "NPDES_ID": "CT0101605", "REGISTRY_ID": "110010052753", "CWP_FACILITY_TYPE_INDICATOR": "POTW", "CWP_MAJOR_MINOR_STATUS": "Minor", "CWP_PERMIT_STATUS_DESC": "Effective", "STATE_WATER_BODY_NAME": "SCANTIC RIVER", "CWP_CSO_FLAG": "N"}}, {"type": "Feature", "geometry": {"type": "Point", "coordinates": [-72.9025057747099, 41.2825713455587]}, "properties": {"CWP_NAME": "NEW HAVEN EAST SHORE STP", "CWP_STREET": "345 EAST SHORE PARKWAY", "CWP_CITY": "NEW HAVEN", "CWP_STATE": "CT", "CWP_ZIP": "06512", "CWP_COUNTY": "New Haven", "NPDES_ID": "CT0100366", "REGISTRY_ID": "110001730770", "CWP_FACILITY_TYPE_INDICATOR": "POTW", "CWP_MAJOR_MINOR_STATUS": "Major", "CWP_PERMIT_STATUS_DESC": "Admin Continued", "STATE_WATER_BODY_NAME": "NEW HAVEN HARBOR", "CWP_CSO_FLAG": "Y"}}, {"type": "Feature", "geometry": {"type": "Point", "coordinates": [-72.6392417675216, 41.5586057194238]}, "properties": {"CWP_NAME": "MIDDLETOWN WPCF", "CWP_STREET": "100 RIVER ROAD", "CWP_CITY": "MIDDLETOWN", "CWP_STATE": "CT", "CWP_ZIP": "06457", "CWP_COUNTY": "Middlesex", "NPDES_ID": "CT0100323", "REGISTRY_ID": "110006618053", "CWP_FACILITY_TYPE_INDICATOR": "POTW", "CWP_MAJOR_MINOR_STATUS": "Major", "CWP_PERMIT_STATUS_DESC": "Terminated", "STATE_WATER_BODY_NAME": "CONNECTICUT RIVER", "CWP_CSO_FLAG": "N"}}, {"type": "Feature", "geometry": {"type": "Point", "coordinates": [-73.4904395511926, 41.2901670008064]}, "properties": {"CWP_NAME": "RIDGEFIELD, TOWN OF (MAIN)", "CWP_STREET": "22 SOUTH ST.", "CWP_CITY": "RIDGEFIELD", "CWP_STATE": "CT", "CWP_ZIP": "06877", "CWP_COUNTY": "Fairfield", "NPDES_ID": "CT0100854", "REGISTRY_ID": "110001123551", "CWP_FACILITY_TYPE_INDICATOR": "POTW", "CWP_MAJOR_MINOR_STATUS": "Major", "CWP_PERMIT_STATUS_DESC": "Effective", "STATE_WATER_BODY_NAME": "GREAT SWAMP TRIP TO NORWALK RIVER", "CWP_CSO_FLAG": "N"}}, {"type": "Feature", "geometry": {"type": "Point", "coordinates": [-72.7978561665105, 41.8708252073765]}, "properties": {"CWP_NAME": "TOWN OF SIMSBURY WPCF", "CWP_STREET": "36 DRAKE HILL ROAD", "CWP_CITY": "SIMSBURY", "CWP_STATE": "CT", "CWP_ZIP": "06070", "CWP_COUNTY": "Hartford", "NPDES_ID": "CT0100919", "REGISTRY_ID": "110006618259", "CWP_FACILITY_TYPE_INDICATOR": "POTW", "CWP_MAJOR_MINOR_STATUS": "Major", "CWP_PERMIT_STATUS_DESC": "Effective", "STATE_WATER_BODY_NAME": "FARMINGTON RIVER", "CWP_CSO_FLAG": "N"}}, {"type": "Feature", "geometry": {"type": "Point", "coordinates": [-72.6354619320783, 41.8295202427592]}, "properties": {"CWP_NAME": "SOUTH WINDSOR WPCF", "CWP_STREET": "1 VIBERT ST.", "CWP_CITY": "SOUTH WINDSOR", "CWP_STATE": "CT", "CWP_ZIP": "06074", "CWP_COUNTY": "Hartford", "NPDES_ID": "CT0100510", "REGISTRY_ID": "110000516923", "CWP_FACILITY_TYPE_INDICATOR": "POTW", "CWP_MAJOR_MINOR_STATUS": "Major", "CWP_PERMIT_STATUS_DESC": "Effective", "STATE_WATER_BODY_NAME": "CONNECTICUT RIVER", "CWP_CSO_FLAG": "N"}}, {"type": "Feature", "geometry": {"type": "Point", "coordinates": [-73.2119607846705, 41.1601187220902]}, "properties": {"CWP_NAME": "BRIDGEPORT WESTSIDE WPCA", "CWP_STREET": "205 BOSTWICK AVENUE", "CWP_CITY": "BRIDGEPORT", "CWP_STATE": "CT", "CWP_ZIP": "06605", "CWP_COUNTY": "Fairfield", "NPDES_ID": "CT0100056", "REGISTRY_ID": "110039877194", "CWP_FACILITY_TYPE_INDICATOR": "POTW", "CWP_MAJOR_MINOR_STATUS": "Major", "CWP_PERMIT_STATUS_DESC": "Effective", "STATE_WATER_BODY_NAME": "CEDAR CREEK/LONG ISLAND SOUND", "CWP_CSO_FLAG": "Y"}}, {"type": "Feature", "geometry": {"type": "Point", "coordinates": [-72.8278791217074, 41.5134390531918]}, "properties": {"CWP_NAME": "MERIDEN WPCF", "CWP_STREET": "226 EVANSVILLE AVENUE", "CWP_CITY": "MERIDEN", "CWP_STATE": "CT", "CWP_ZIP": "06451", "CWP_COUNTY": "New Haven", "NPDES_ID": "CT0100315", "REGISTRY_ID": "110000754103", "CWP_FACILITY_TYPE_INDICATOR": "POTW", "CWP_MAJOR_MINOR_STATUS": "Major", "CWP_PERMIT_STATUS_DESC": "Effective", "STATE_WATER_BODY_NAME": "QUINNIPIAC RIVER", "CWP_CSO_FLAG": "N"}}, {"type": "Feature", "geometry": {"type": "Point", "coordinates": [-72.0845838143658, 41.5261995610549]}, "properties": {"CWP_NAME": "NORWICH WPCF", "CWP_STREET": "FALLS AVENUE", "CWP_CITY": "NORWICH", "CWP_STATE": "CT", "CWP_ZIP": "06360", "CWP_COUNTY": "New London", "NPDES_ID": "CT0100412", "REGISTRY_ID": "110033215660", "CWP_FACILITY_TYPE_INDICATOR": "POTW", "CWP_MAJOR_MINOR_STATUS": "Major", "CWP_PERMIT_STATUS_DESC": "Effective", "STATE_WATER_BODY_NAME": "THAMES RIVER", "CWP_CSO_FLAG": "Y"}}, {"type": "Feature", "geometry": {"type": "Point", "coordinates": [-72.0831610764365, 41.3540387111462]}, "properties": {"CWP_NAME": "GROTON WPCA , CITY OF", "CWP_STREET": "311 THAMES STREET", "CWP_CITY": "GROTON", "CWP_STATE": "CT", "CWP_ZIP": "06340", "CWP_COUNTY": "New London", "NPDES_ID": "CT0101184", "REGISTRY_ID": "110013406019", "CWP_FACILITY_TYPE_INDICATOR": "POTW", "CWP_MAJOR_MINOR_STATUS": "Major", "CWP_PERMIT_STATUS_DESC": "Effective", "STATE_WATER_BODY_NAME": "THAMES RIVER", "CWP_CSO_FLAG": "N"}}, {"type": "Feature", "geometry": {"type": "Point", "coordinates": [-73.4126049902407, 41.1022239478809]}, "properties": {"CWP_NAME": "NORWALK WPCF", "CWP_STREET": "60 SOUTH SMITH STREET", "CWP_CITY": "EAST NORWALK", "CWP_STATE": "CT", "CWP_ZIP": "06855", "CWP_COUNTY": "Fairfield", "NPDES_ID": "CT0101249", "REGISTRY_ID": "110007078535", "CWP_FACILITY_TYPE_INDICATOR": "POTW", "CWP_MAJOR_MINOR_STATUS": "Major", "CWP_PERMIT_STATUS_DESC": "Effective", "STATE_WATER_BODY_NAME": "NORWALK RIVER", "CWP_CSO_FLAG": "N"}}, {"type": "Feature", "geometry": {"type": "Point", "coordinates": [-72.0723206601406, 41.6148682357299]}, "properties": {"CWP_NAME": "SPRAGUE WWTP", "CWP_STREET": "45 BUSHNELL HOLLOW RD", "CWP_CITY": "BALTIC", "CWP_STATE": "CT", "CWP_ZIP": "06330", "CWP_COUNTY": "New London", "NPDES_ID": "CT0100978", "REGISTRY_ID": "110006780876", "CWP_FACILITY_TYPE_INDICATOR": "POTW", "CWP_MAJOR_MINOR_STATUS": "Minor", "CWP_PERMIT_STATUS_DESC": "Admin Continued", "STATE_WATER_BODY_NAME": "SHETUCKET RIVER", "CWP_CSO_FLAG": "N"}}, {"type": "Feature", "geometry": {"type": "Point", "coordinates": [-73.4181133578556, 41.4027189777937]}, "properties": {"CWP_NAME": "DANBURY WPCF", "CWP_STREET": "NEWTOWN ROAD", "CWP_CITY": "DANBURY", "CWP_STATE": "CT", "CWP_ZIP": "06810", "CWP_COUNTY": "Fairfield", "NPDES_ID": "CT0100145", "REGISTRY_ID": "110000723432", "CWP_FACILITY_TYPE_INDICATOR": "POTW", "CWP_MAJOR_MINOR_STATUS": "Major", "CWP_PERMIT_STATUS_DESC": "Effective", "STATE_WATER_BODY_NAME": "STILL RVR(E. SWAMP/LIMEKILN BROOKS)", "CWP_CSO_FLAG": "N"}}, {"type": "Feature", "geometry": {"type": "Point", "coordinates": [-72.8836955658068, 41.5669397301266]}, "properties": {"CWP_NAME": "SOUTHINGTON WPCF", "CWP_STREET": "999 MERIDEN WATERBURY TNPK", "CWP_CITY": "PLANTSVILLE", "CWP_STATE": "CT", "CWP_ZIP": "06479", "CWP_COUNTY": "Hartford", "NPDES_ID": "CT0100536", "REGISTRY_ID": "110009129353", "CWP_FACILITY_TYPE_INDICATOR": "POTW", "CWP_MAJOR_MINOR_STATUS": "Major", "CWP_PERMIT_STATUS_DESC": "Effective", "STATE_WATER_BODY_NAME": "QUINNIPIAC RIVER", "CWP_CSO_FLAG": "N"}}, {"type": "Feature", "geometry": {"type": "Point", "coordinates": [-72.3045409961934, 41.9468889979924]}, "properties": {"CWP_NAME": "STAFFORD WPCF", "CWP_STREET": "50 RIVER ROAD", "CWP_CITY": "STAFFORD SPRINGS", "CWP_STATE": "CT", "CWP_ZIP": "06076", "CWP_COUNTY": "Tolland", "NPDES_ID": "CT0101214", "REGISTRY_ID": "110001734053", "CWP_FACILITY_TYPE_INDICATOR": "POTW", "CWP_MAJOR_MINOR_STATUS": "Major", "CWP_PERMIT_STATUS_DESC": "Admin Continued", "STATE_WATER_BODY_NAME": "WILLIMANTIC RIVER", "CWP_CSO_FLAG": "N"}}, {"type": "Feature", "geometry": {"type": "Point", "coordinates": [-72.8650112518086, 41.6803280747955]}, "properties": {"CWP_NAME": "PLAINVILLE WPCF", "CWP_STREET": "CRONK RD.", "CWP_CITY": "PLAINVILLE", "CWP_STATE": "CT", "CWP_ZIP": "06062", "CWP_COUNTY": "Hartford", "NPDES_ID": "CT0100455", "REGISTRY_ID": "110055972452", "CWP_FACILITY_TYPE_INDICATOR": "POTW", "CWP_MAJOR_MINOR_STATUS": "Major", "CWP_PERMIT_STATUS_DESC": "Effective", "STATE_WATER_BODY_NAME": "PEQABUCK RIVER", "CWP_CSO_FLAG": "N"}}, {"type": "Feature", "geometry": {"type": "Point", "coordinates": [-73.0802910117085, 41.3311482292311]}, "properties": {"CWP_NAME": "ANSONIA WPCA, CITY OF", "CWP_STREET": "NORTH DIVISION STREET", "CWP_CITY": "ANSONIA", "CWP_STATE": "CT", "CWP_ZIP": "06401", "CWP_COUNTY": "New Haven", "NPDES_ID": "CT0100013", "REGISTRY_ID": "110006615528", "CWP_FACILITY_TYPE_INDICATOR": "POTW", "CWP_MAJOR_MINOR_STATUS": "Major", "CWP_PERMIT_STATUS_DESC": "Effective", "STATE_WATER_BODY_NAME": "NAUGATUCK RIVER", "CWP_CSO_FLAG": "N"}}, {"type": "Feature", "geometry": {"type": "Point", "coordinates": [-71.894699121044, 41.9341465151104]}, "properties": {"CWP_NAME": "THOMPSON WPCF", "CWP_STREET": "40 RIVERSIDE DR.", "CWP_CITY": "THOMPSON", "CWP_STATE": "CT", "CWP_ZIP": "06277", "CWP_COUNTY": "Windham", "NPDES_ID": "CT0100706", "REGISTRY_ID": "110006780894", "CWP_FACILITY_TYPE_INDICATOR": "POTW", "CWP_MAJOR_MINOR_STATUS": "Major", "CWP_PERMIT_STATUS_DESC": "Effective", "STATE_WATER_BODY_NAME": "QUINEBAUG RIVER", "CWP_CSO_FLAG": "N"}}, {"type": "Feature", "geometry": {"type": "Point", "coordinates": [-71.965401111309, 41.3498487727702]}, "properties": {"CWP_NAME": "MYSTIC WPCF", "CWP_STREET": "22 EDGEMONT STREET", "CWP_CITY": "MYSTIC", "CWP_STATE": "CT", "CWP_ZIP": "06355", "CWP_COUNTY": "New London", "NPDES_ID": "CT0100544", "REGISTRY_ID": "110010052851", "CWP_FACILITY_TYPE_INDICATOR": "POTW", "CWP_MAJOR_MINOR_STATUS": "Minor", "CWP_PERMIT_STATUS_DESC": "Admin Continued", "STATE_WATER_BODY_NAME": "MYSTIC RIVER", "CWP_CSO_FLAG": "N"}}, {"type": "Feature", "geometry": {"type": "Point", "coordinates": [-71.8350515331153, 41.3519379025281]}, "properties": {"CWP_NAME": "STONINGTON PAWCATUCK WPCF", "CWP_STREET": "38 MARY HALL ROAD", "CWP_CITY": "PAWCATUCK", "CWP_STATE": "CT", "CWP_ZIP": "06379", "CWP_COUNTY": "New London", "NPDES_ID": "CT0101290", "REGISTRY_ID": "110006368055", "CWP_FACILITY_TYPE_INDICATOR": "POTW", "CWP_MAJOR_MINOR_STATUS": "Major", "CWP_PERMIT_STATUS_DESC": "Effective", "STATE_WATER_BODY_NAME": "PAWCATUCK RIVER", "CWP_CSO_FLAG": "N"}}, {"type": "Feature", "geometry": {"type": "Point", "coordinates": [-72.5610717837393, 41.7773532613536]}, "properties": {"CWP_NAME": "MANCHESTER WPCF", "CWP_STREET": "120 THRALL ROAD", "CWP_CITY": "MANCHESTER", "CWP_STATE": "CT", "CWP_ZIP": "06040", "CWP_COUNTY": "Hartford", "NPDES_ID": "CT0100293", "REGISTRY_ID": "110013718183", "CWP_FACILITY_TYPE_INDICATOR": "POTW", "CWP_MAJOR_MINOR_STATUS": "Major", "CWP_PERMIT_STATUS_DESC": "Admin Continued", "STATE_WATER_BODY_NAME": "HOCKANUM RIVER", "CWP_CSO_FLAG": "N"}}, {"type": "Feature", "geometry": {"type": "Point", "coordinates": [-73.5002727434879, 41.3207223722129]}, "properties": {"CWP_NAME": "RIDGEFIELD, TOWN OF", "CWP_STREET": "9101 ETHAN ALLEN HIGHWAY RT.7", "CWP_CITY": "RIDGEFIELD", "CWP_STATE": "CT", "CWP_ZIP": "06877", "CWP_COUNTY": "Fairfield", "NPDES_ID": "CT0101451", "REGISTRY_ID": "110009068230", "CWP_FACILITY_TYPE_INDICATOR": "POTW", "CWP_MAJOR_MINOR_STATUS": "Minor", "CWP_PERMIT_STATUS_DESC": "Effective", "STATE_WATER_BODY_NAME": "NORWALK RIVER", "CWP_CSO_FLAG": "N"}}, {"type": "Feature", "geometry": {"type": "Point", "coordinates": [-72.2631271943798, 41.8116435282469]}, "properties": {"CWP_NAME": "UNIVERSITY OF CONNECTICUT", "CWP_STREET": "31 LEDOYT ROAD, BOX U-3055", "CWP_CITY": "STORRS", "CWP_STATE": "CT", "CWP_ZIP": "062683038", "CWP_COUNTY": "Tolland", "NPDES_ID": "CT0101320", "REGISTRY_ID": "110039880732", "CWP_FACILITY_TYPE_INDICATOR": "POTW", "CWP_MAJOR_MINOR_STATUS": "Major", "CWP_PERMIT_STATUS_DESC": "Effective", "STATE_WATER_BODY_NAME": "WILLIMANTIC RIVER", "CWP_CSO_FLAG": "N"}}, {"type": "Feature", "geometry": {"type": "Point", "coordinates": [-72.6298141928185, 41.9120492442687]}, "properties": {"CWP_NAME": "WINDSOR LOCKS WPCF", "CWP_STREET": "1 STANTON ROAD", "CWP_CITY": "WINDSOR LOCKS", "CWP_STATE": "CT", "CWP_ZIP": "06096", "CWP_COUNTY": "Hartford", "NPDES_ID": "CT0101591", "REGISTRY_ID": "110000914422", "CWP_FACILITY_TYPE_INDICATOR": "POTW", "CWP_MAJOR_MINOR_STATUS": "Major", "CWP_PERMIT_STATUS_DESC": "Effective", "STATE_WATER_BODY_NAME": "CONNECTICUT RIVER", "CWP_CSO_FLAG": "N"}}, {"type": "Feature", "geometry": {"type": "Point", "coordinates": [-72.487308471506, 41.8648285373942]}, "properties": {"CWP_NAME": "VERNON WPCF", "CWP_STREET": "100 WINDSORVILLE ROAD", "CWP_CITY": "VERNON", "CWP_STATE": "CT", "CWP_ZIP": "06066", "CWP_COUNTY": "Tolland", "NPDES_ID": "CT0100609", "REGISTRY_ID": "110055974913", "CWP_FACILITY_TYPE_INDICATOR": "POTW", "CWP_MAJOR_MINOR_STATUS": "Major", "CWP_PERMIT_STATUS_DESC": "Effective", "STATE_WATER_BODY_NAME": "HOCKAMAN RIVER", "CWP_CSO_FLAG": "N"}}, {"type": "Feature", "geometry": {"type": "Point", "coordinates": [-72.0964476639559, 41.3419383302283]}, "properties": {"CWP_NAME": "NEW LONDON WPCF", "CWP_STREET": "100 TRUMBULL STREET", "CWP_CITY": "NEW LONDON", "CWP_STATE": "CT", "CWP_ZIP": "06320", "CWP_COUNTY": "New London", "NPDES_ID": "CT0100382", "REGISTRY_ID": "110002057023", "CWP_FACILITY_TYPE_INDICATOR": "POTW", "CWP_MAJOR_MINOR_STATUS": "Major", "CWP_PERMIT_STATUS_DESC": "Effective", "STATE_WATER_BODY_NAME": "THAMES RIVER", "CWP_CSO_FLAG": "N"}}, {"type": "Feature", "geometry": {"type": "Point", "coordinates": [-73.099538299769, 41.1883331619773]}, "properties": {"CWP_NAME": "MILFORD BEAVERBROOK WPCF", "CWP_STREET": "75 DEERWOOD AVE", "CWP_CITY": "MILFORD", "CWP_STATE": "CT", "CWP_ZIP": "06460", "CWP_COUNTY": "New Haven", "NPDES_ID": "CT0100749", "REGISTRY_ID": "110000731058", "CWP_FACILITY_TYPE_INDICATOR": "POTW", "CWP_MAJOR_MINOR_STATUS": "Major", "CWP_PERMIT_STATUS_DESC": "Expired", "STATE_WATER_BODY_NAME": "HOUSATONIC RIVER", "CWP_CSO_FLAG": "N"}}, {"type": "Feature", "geometry": {"type": "Point", "coordinates": [-73.4091516210524, 41.5693184192374]}, "properties": {"CWP_NAME": "NEW MILFORD WPCF, TOWN OF", "CWP_STREET": "123 WEST STREET", "CWP_CITY": "NEW MILFORD", "CWP_STATE": "CT", "CWP_ZIP": "06776", "CWP_COUNTY": "Litchfield", "NPDES_ID": "CT0100391", "REGISTRY_ID": "110000731021", "CWP_FACILITY_TYPE_INDICATOR": "POTW", "CWP_MAJOR_MINOR_STATUS": "Major", "CWP_PERMIT_STATUS_DESC": "Effective", "STATE_WATER_BODY_NAME": "HOUSATONIC RIVER", "CWP_CSO_FLAG": "N"}}, {"type": "Feature", "geometry": {"type": "Point", "coordinates": [-72.6698843976452, 41.890977224013]}, "properties": {"CWP_NAME": "POQUONOCK WPCF", "CWP_STREET": "1222 POQUONOCK AVENUE", "CWP_CITY": "WINDSOR", "CWP_STATE": "CT", "CWP_ZIP": "060951809", "CWP_COUNTY": "Hartford", "NPDES_ID": "CT0100994", "REGISTRY_ID": "110000731067", "CWP_FACILITY_TYPE_INDICATOR": "POTW", "CWP_MAJOR_MINOR_STATUS": "Major", "CWP_PERMIT_STATUS_DESC": "Effective", "STATE_WATER_BODY_NAME": "FARMINGTON RIVER", "CWP_CSO_FLAG": "N"}}, {"type": "Feature", "geometry": {"type": "Point", "coordinates": [-72.9917725332442, 41.668995711166]}, "properties": {"CWP_NAME": "PLYMOUTH WPCF", "CWP_STREET": "35 CANAL STREET", "CWP_CITY": "PEQUABUCK", "CWP_STATE": "CT", "CWP_ZIP": "06781", "CWP_COUNTY": "Litchfield", "NPDES_ID": "CT0100463", "REGISTRY_ID": "110006366841", "CWP_FACILITY_TYPE_INDICATOR": "POTW", "CWP_MAJOR_MINOR_STATUS": "Major", "CWP_PERMIT_STATUS_DESC": "Admin Continued", "STATE_WATER_BODY_NAME": "PEQUABUCK RIVER", "CWP_CSO_FLAG": "N"}}, {"type": "Feature", "geometry": {"type": "Point", "coordinates": [-73.0787594849458, 41.6463948414863]}, "properties": {"CWP_NAME": "THOMASTON WPCA", "CWP_STREET": "258 OLD WATERBURY ROAD", "CWP_CITY": "THOMASTON", "CWP_STATE": "CT", "CWP_ZIP": "06787", "CWP_COUNTY": "Litchfield", "NPDES_ID": "CT0100781", "REGISTRY_ID": "110055974352", "CWP_FACILITY_TYPE_INDICATOR": "POTW", "CWP_MAJOR_MINOR_STATUS": "Major", "CWP_PERMIT_STATUS_DESC": "Expired", "STATE_WATER_BODY_NAME": "NAUGATUCK RIVER", "CWP_CSO_FLAG": "N"}}, {"type": "Feature", "geometry": {"type": "Point", "coordinates": [-72.0201104856655, 41.336878745913]}, "properties": {"CWP_NAME": "GROTON WPCF", "CWP_STREET": "170 GARY COURT", "CWP_CITY": "GROTON", "CWP_STATE": "CT", "CWP_ZIP": "06340", "CWP_COUNTY": "New London", "NPDES_ID": "CT0100242", "REGISTRY_ID": "110006366832", "CWP_FACILITY_TYPE_INDICATOR": "POTW", "CWP_MAJOR_MINOR_STATUS": "Major", "CWP_PERMIT_STATUS_DESC": "Admin Continued", "STATE_WATER_BODY_NAME": "THAMES RIVER", "CWP_CSO_FLAG": "N"}}, {"type": "Feature", "geometry": {"type": "Point", "coordinates": [-72.5464218100586, 41.5641995067594]}, "properties": {"CWP_NAME": "EAST HAMPTON WPCA", "CWP_STREET": "20 GILDERSLEEVE DRIVE", "CWP_CITY": "EAST HAMPTON", "CWP_STATE": "CT", "CWP_ZIP": "06424", "CWP_COUNTY": "Middlesex", "NPDES_ID": "CT0024694", "REGISTRY_ID": "110030384377", "CWP_FACILITY_TYPE_INDICATOR": "POTW", "CWP_MAJOR_MINOR_STATUS": "Major", "CWP_PERMIT_STATUS_DESC": "Effective", "STATE_WATER_BODY_NAME": "CONNECTICUT RIVER", "CWP_CSO_FLAG": "N"}}, {"type": "Feature", "geometry": {"type": "Point", "coordinates": [-72.8052170831935, 41.2635830594873]}, "properties": {"CWP_NAME": "BRANFORD WPCF", "CWP_STREET": "75 BLOCK ISLAND ROAD", "CWP_CITY": "BRANFORD", "CWP_STATE": "CT", "CWP_ZIP": "06405", "CWP_COUNTY": "New Haven", "NPDES_ID": "CT0100048", "REGISTRY_ID": "110006617973", "CWP_FACILITY_TYPE_INDICATOR": "POTW", "CWP_MAJOR_MINOR_STATUS": "Major", "CWP_PERMIT_STATUS_DESC": "Effective", "STATE_WATER_BODY_NAME": "BRANFORD HARBOR", "CWP_CSO_FLAG": "N"}}, {"type": "Feature", "geometry": {"type": "Point", "coordinates": [-72.6508286382168, 41.5869055906355]}, "properties": {"CWP_NAME": "MATTABASSETT DISTRICT CROMWELL", "CWP_STREET": "245 MAIN STREET", "CWP_CITY": "CROMWELL", "CWP_STATE": "CT", "CWP_ZIP": "06416", "CWP_COUNTY": "Middlesex", "NPDES_ID": "CT0100307", "REGISTRY_ID": "110001404178", "CWP_FACILITY_TYPE_INDICATOR": "POTW", "CWP_MAJOR_MINOR_STATUS": "Major", "CWP_PERMIT_STATUS_DESC": "Admin Continued", "STATE_WATER_BODY_NAME": "CONNECTICUT RIVER", "CWP_CSO_FLAG": "N"}}, {"type": "Feature", "geometry": {"type": "Point", "coordinates": [-72.8665508827621, 41.5337880157366]}, "properties": {"CWP_NAME": "CHESHIRE WPCF", "CWP_STREET": "1325 CHESHIRE STREET", "CWP_CITY": "CHESHIRE", "CWP_STATE": "CT", "CWP_ZIP": "06410", "CWP_COUNTY": "New Haven", "NPDES_ID": "CT0100081", "REGISTRY_ID": "110000730987", "CWP_FACILITY_TYPE_INDICATOR": "POTW", "CWP_MAJOR_MINOR_STATUS": "Major", "CWP_PERMIT_STATUS_DESC": "Admin Continued", "STATE_WATER_BODY_NAME": "QUINNIPIAC RIVER", "CWP_CSO_FLAG": "N"}}, {"type": "Feature", "geometry": {"type": "Point", "coordinates": [-73.1257013845646, 41.1781681220198]}, "properties": {"CWP_NAME": "STRATFORD WPCF", "CWP_STREET": "105 BEACON POINT ROAD", "CWP_CITY": "STRATFORD", "CWP_STATE": "CT", "CWP_ZIP": "06615", "CWP_COUNTY": "Fairfield", "NPDES_ID": "CT0101036", "REGISTRY_ID": "110001405257", "CWP_FACILITY_TYPE_INDICATOR": "POTW", "CWP_MAJOR_MINOR_STATUS": "Major", "CWP_PERMIT_STATUS_DESC": "Effective", "STATE_WATER_BODY_NAME": "HOUSATONIC RIVER", "CWP_CSO_FLAG": "N"}}, {"type": "Feature", "geometry": {"type": "Point", "coordinates": [-72.6505570534593, 41.7625081464569]}, "properties": {"CWP_NAME": "EAST HARTFORD WPCF_(MDC)", "CWP_STREET": "65 PITKIN STREET", "CWP_CITY": "EAST HARTFORD", "CWP_STATE": "CT", "CWP_ZIP": "06108", "CWP_COUNTY": "Hartford", "NPDES_ID": "CT0100170", "REGISTRY_ID": "110000523504", "CWP_FACILITY_TYPE_INDICATOR": "POTW", "CWP_MAJOR_MINOR_STATUS": "Major", "CWP_PERMIT_STATUS_DESC": "Admin Continued", "STATE_WATER_BODY_NAME": "HOCKANUM RIVER", "CWP_CSO_FLAG": "N"}}, {"type": "Feature", "geometry": {"type": "Point", "coordinates": [-73.1173125424654, 41.779994551651]}, "properties": {"CWP_NAME": "CITY OF TORRINGTON", "CWP_STREET": "BOGUE ROAD", "CWP_CITY": "TORRINGTON", "CWP_STATE": "CT", "CWP_ZIP": "06790", "CWP_COUNTY": "Litchfield", "NPDES_ID": "CT0100579", "REGISTRY_ID": "110030348318", "CWP_FACILITY_TYPE_INDICATOR": "POTW", "CWP_MAJOR_MINOR_STATUS": "Major", "CWP_PERMIT_STATUS_DESC": "Effective", "STATE_WATER_BODY_NAME": "NAUGATUCK RIVER", "CWP_CSO_FLAG": "N"}}, {"type": "Feature", "geometry": {"type": "Point", "coordinates": [-72.6458338077544, 41.683341711016]}, "properties": {"CWP_NAME": "ROCKY HILL WPCF", "CWP_STREET": "80 GOFF BROOK LANE", "CWP_CITY": "ROCKY HILL", "CWP_STATE": "CT", "CWP_ZIP": "06067", "CWP_COUNTY": "Hartford", "NPDES_ID": "CT0100480", "REGISTRY_ID": "110000523176", "CWP_FACILITY_TYPE_INDICATOR": "POTW", "CWP_MAJOR_MINOR_STATUS": "Major", "CWP_PERMIT_STATUS_DESC": "Effective", "STATE_WATER_BODY_NAME": "CONNECTICUT RIVER", "CWP_CSO_FLAG": "N"}}, {"type": "Feature", "geometry": {"type": "Point", "coordinates": [-71.9172109452181, 41.7193784759621]}, "properties": {"CWP_NAME": "PLAINFIELD NORTH WPCF", "CWP_STREET": "RT 14", "CWP_CITY": "CENTRAL VILLAGE", "CWP_STATE": "CT", "CWP_ZIP": "06332", "CWP_COUNTY": "Windham", "NPDES_ID": "CT0100447", "REGISTRY_ID": "110030325084", "CWP_FACILITY_TYPE_INDICATOR": "POTW", "CWP_MAJOR_MINOR_STATUS": "Major", "CWP_PERMIT_STATUS_DESC": "Expired", "STATE_WATER_BODY_NAME": "MOOSUP RIVER", "CWP_CSO_FLAG": "N"}}, {"type": "Feature", "geometry": {"type": "Point", "coordinates": [-73.2163315428726, 41.9998383609289]}, "properties": {"CWP_NAME": "NORFOLK SEWER DISTRICT", "CWP_STREET": "259 GREENWOODS RD. WEST", "CWP_CITY": "NORFOLK", "CWP_STATE": "CT", "CWP_ZIP": "06058", "CWP_COUNTY": "Litchfield", "NPDES_ID": "CT0101231", "REGISTRY_ID": "110000731094", "CWP_FACILITY_TYPE_INDICATOR": "POTW", "CWP_MAJOR_MINOR_STATUS": "Minor", "CWP_PERMIT_STATUS_DESC": "Effective", "STATE_WATER_BODY_NAME": "BLACKBERRY RIVER", "CWP_CSO_FLAG": "N"}}, {"type": "Feature", "geometry": {"type": "Point", "coordinates": [-73.0538257913956, 41.9418006072978]}, "properties": {"CWP_NAME": "WINSTED WPCF", "CWP_STREET": "ROUTE 8 NORTH", "CWP_CITY": "WINCHESTER", "CWP_STATE": "CT", "CWP_ZIP": "06098", "CWP_COUNTY": "Litchfield", "NPDES_ID": "CT0101222", "REGISTRY_ID": "110006618311", "CWP_FACILITY_TYPE_INDICATOR": "POTW", "CWP_MAJOR_MINOR_STATUS": "Major", "CWP_PERMIT_STATUS_DESC": "Admin Continued", "STATE_WATER_BODY_NAME": "STILL RIVER", "CWP_CSO_FLAG": "N"}}, {"type": "Feature", "geometry": {"type": "Point", "coordinates": [-72.4585112461509, 41.4504082692246]}, "properties": {"CWP_NAME": "EAST HADDAM WPCF", "CWP_STREET": "17 LUMBERYARD ROAD", "CWP_CITY": "EAST HADDAM", "CWP_STATE": "CT", "CWP_ZIP": "06423", "CWP_COUNTY": "Middlesex", "NPDES_ID": "CT0101761", "REGISTRY_ID": "110009068249", "CWP_FACILITY_TYPE_INDICATOR": "POTW", "CWP_MAJOR_MINOR_STATUS": "Minor", "CWP_PERMIT_STATUS_DESC": "Effective", "STATE_WATER_BODY_NAME": "CONNECTICUT RIVER", "CWP_CSO_FLAG": "N"}}, {"type": "Feature", "geometry": {"type": "Point", "coordinates": [-72.6563900562607, 41.7313978927468]}, "properties": {"CWP_NAME": "HARTFORD WPCF", "CWP_STREET": "240 BRAINARD RD", "CWP_CITY": "HARTFORD", "CWP_STATE": "CT", "CWP_ZIP": "06114", "CWP_COUNTY": "Hartford", "NPDES_ID": "CT0100251", "REGISTRY_ID": "110010052904", "CWP_FACILITY_TYPE_INDICATOR": "POTW", "CWP_MAJOR_MINOR_STATUS": "Major", "CWP_PERMIT_STATUS_DESC": "Admin Continued", "STATE_WATER_BODY_NAME": "CONNECTICUT RIVER", "CWP_CSO_FLAG": "Y"}}, {"type": "Feature", "geometry": {"type": "Point", "coordinates": [-73.2842411349123, 41.4147285313657]}, "properties": {"CWP_NAME": "NEWTOWN WPCF", "CWP_STREET": "24 COMMERCE ROAD", "CWP_CITY": "NEWTOWN", "CWP_STATE": "CT", "CWP_ZIP": "06470", "CWP_COUNTY": "Fairfield", "NPDES_ID": "CT0101788", "REGISTRY_ID": "110002351776", "CWP_FACILITY_TYPE_INDICATOR": "POTW", "CWP_MAJOR_MINOR_STATUS": "Minor", "CWP_PERMIT_STATUS_DESC": "Admin Continued", "STATE_WATER_BODY_NAME": "POOTATUCK RIVER", "CWP_CSO_FLAG": "N"}}, {"type": "Feature", "geometry": {"type": "Point", "coordinates": [-73.2451700585373, 41.1262727291628]}, "properties": {"CWP_NAME": "FAIRFIELD WPCF", "CWP_STREET": "330 ONE ROD HIGHWAY", "CWP_CITY": "FAIRFIELD", "CWP_STATE": "CT", "CWP_ZIP": "06824", "CWP_COUNTY": "Fairfield", "NPDES_ID": "CT0101044", "REGISTRY_ID": "110000528634", "CWP_FACILITY_TYPE_INDICATOR": "POTW", "CWP_MAJOR_MINOR_STATUS": "Major", "CWP_PERMIT_STATUS_DESC": "Effective", "STATE_WATER_BODY_NAME": "LONG ISLAND SOUND", "CWP_CSO_FLAG": "N"}}, {"type": "Feature", "geometry": {"type": "Point", "coordinates": [-73.4836811347221, 41.1406681717195]}, "properties": {"CWP_NAME": "NEW CANAAN STP", "CWP_STREET": "394 MAIN STREET", "CWP_CITY": "NEW CANAAN", "CWP_STATE": "CT", "CWP_ZIP": "06840", "CWP_COUNTY": "Fairfield", "NPDES_ID": "CT0101273", "REGISTRY_ID": "110039820227", "CWP_FACILITY_TYPE_INDICATOR": "POTW", "CWP_MAJOR_MINOR_STATUS": "Major", "CWP_PERMIT_STATUS_DESC": "Effective", "STATE_WATER_BODY_NAME": "FIVE MILE RIVER", "CWP_CSO_FLAG": "N"}}, {"type": "Feature", "geometry": {"type": "Point", "coordinates": [-73.0829044412948, 41.3125079774812]}, "properties": {"CWP_NAME": "SHELTON, CITY OF", "CWP_STREET": "10 RIVERDALE AVE", "CWP_CITY": "SHELTON", "CWP_STATE": "CT", "CWP_ZIP": "06484", "CWP_COUNTY": "Fairfield", "NPDES_ID": "CT0100714", "REGISTRY_ID": "110000731049", "CWP_FACILITY_TYPE_INDICATOR": "POTW", "CWP_MAJOR_MINOR_STATUS": "Major", "CWP_PERMIT_STATUS_DESC": "Effective", "STATE_WATER_BODY_NAME": "HOUSATONIC RIVER", "CWP_CSO_FLAG": "N"}}, {"type": "Feature", "geometry": {"type": "Point", "coordinates": [-73.4293045161648, 41.2582572519142]}, "properties": {"CWP_NAME": "REDDING, TOWN OF", "CWP_STREET": "19 NORTH MAIN STREET", "CWP_CITY": "REDDING", "CWP_STATE": "CT", "CWP_ZIP": "06896", "CWP_COUNTY": "Fairfield", "NPDES_ID": "CT0101770", "REGISTRY_ID": "110009693368", "CWP_FACILITY_TYPE_INDICATOR": "POTW", "CWP_MAJOR_MINOR_STATUS": "Minor", "CWP_PERMIT_STATUS_DESC": "Admin Continued", "STATE_WATER_BODY_NAME": "NORWALK RIVER", "CWP_CSO_FLAG": "N"}}, {"type": "Feature", "geometry": {"type": "Point", "coordinates": [-73.4310663357172, 42.0145449695883]}, "properties": {"CWP_NAME": "SALISBURY, TOWN OF", "CWP_STREET": "27 MAIN STREET", "CWP_CITY": "SALISBURY", "CWP_STATE": "CT", "CWP_ZIP": "06068", "CWP_COUNTY": "Litchfield", "NPDES_ID": "CT0100498", "REGISTRY_ID": "110006795520", "CWP_FACILITY_TYPE_INDICATOR": "POTW", "CWP_MAJOR_MINOR_STATUS": "Minor", "CWP_PERMIT_STATUS_DESC": "Effective", "STATE_WATER_BODY_NAME": "FACTORY BROOK", "CWP_CSO_FLAG": "N"}}, {"type": "Feature", "geometry": {"type": "Point", "coordinates": [-73.3681748706647, 41.1203830637024]}, "properties": {"CWP_NAME": "WESTPORT WPCF", "CWP_STREET": "4 ELAINE ROAD", "CWP_CITY": "WESTPORT", "CWP_STATE": "CT", "CWP_ZIP": "06880", "CWP_COUNTY": "Fairfield", "NPDES_ID": "CT0100684", "REGISTRY_ID": "110006618295", "CWP_FACILITY_TYPE_INDICATOR": "POTW", "CWP_MAJOR_MINOR_STATUS": "Major", "CWP_PERMIT_STATUS_DESC": "Effective", "STATE_WATER_BODY_NAME": "SAUGATUCK RIVER", "CWP_CSO_FLAG": "N"}}, {"type": "Feature", "geometry": {"type": "Point", "coordinates": [-71.9848741524253, 41.6009638177671]}, "properties": {"CWP_NAME": "JEWETT CITY WPCF", "CWP_STREET": "52 WEDGEWOOD ROAD", "CWP_CITY": "JEWETT CITY", "CWP_STATE": "CT", "CWP_ZIP": "06351", "CWP_COUNTY": "New London", "NPDES_ID": "CT0100269", "REGISTRY_ID": "110033642529", "CWP_FACILITY_TYPE_INDICATOR": "POTW", "CWP_MAJOR_MINOR_STATUS": "Major", "CWP_PERMIT_STATUS_DESC": "Effective", "STATE_WATER_BODY_NAME": "QUINEBAUG RIVER", "CWP_CSO_FLAG": "N"}}, {"type": "Feature", "geometry": {"type": "Point", "coordinates": [-73.2443166375571, 41.7146677812969]}, "properties": {"CWP_NAME": "LITCHFIELD WPCF", "CWP_STREET": "29 STODDARD RD", "CWP_CITY": "BANTAM", "CWP_STATE": "CT", "CWP_ZIP": "06750", "CWP_COUNTY": "Litchfield", "NPDES_ID": "CT0100803", "REGISTRY_ID": "110006823900", "CWP_FACILITY_TYPE_INDICATOR": "POTW", "CWP_MAJOR_MINOR_STATUS": "Minor", "CWP_PERMIT_STATUS_DESC": "Admin Continued", "STATE_WATER_BODY_NAME": "BANTAM RIVER", "CWP_CSO_FLAG": "N"}}, {"type": "Feature", "geometry": {"type": "Point", "coordinates": [-71.928108031083, 41.6694660924255]}, "properties": {"CWP_NAME": "PLAINFIELD VILLAGE STP", "CWP_STREET": "BIRCH ST.", "CWP_CITY": "PLAINFIELD", "CWP_STATE": "CT", "CWP_ZIP": "06374", "CWP_COUNTY": "Windham", "NPDES_ID": "CT0100439", "REGISTRY_ID": "110010052833", "CWP_FACILITY_TYPE_INDICATOR": "POTW", "CWP_MAJOR_MINOR_STATUS": "Minor", "CWP_PERMIT_STATUS_DESC": "Admin Continued", "STATE_WATER_BODY_NAME": "MILL BROOK-QUINEBAUG RIVER", "CWP_CSO_FLAG": "N"}}, {"type": "Feature", "geometry": {"type": "Point", "coordinates": [-72.9578608987884, 41.8683268847517]}, "properties": {"CWP_NAME": "NEW HARTFORD WPCF", "CWP_STREET": "RT#44", "CWP_CITY": "NEW HARTFORD", "CWP_STATE": "CT", "CWP_ZIP": "06057", "CWP_COUNTY": "Litchfield", "NPDES_ID": "CT0100331", "REGISTRY_ID": "110010052824", "CWP_FACILITY_TYPE_INDICATOR": "POTW", "CWP_MAJOR_MINOR_STATUS": "Minor", "CWP_PERMIT_STATUS_DESC": "Effective", "STATE_WATER_BODY_NAME": "FARMINGTON RIVER", "CWP_CSO_FLAG": "N"}}, {"type": "Feature", "geometry": {"type": "Point", "coordinates": [-72.194660879733, 41.7159988139005]}, "properties": {"CWP_NAME": "WINDHAM TOWN OF WPCF", "CWP_STREET": "2 MAIN STREET", "CWP_CITY": "WILLIMANTIC", "CWP_STATE": "CT", "CWP_ZIP": "06226", "CWP_COUNTY": "Windham", "NPDES_ID": "CT0101001", "REGISTRY_ID": "110055976662", "CWP_FACILITY_TYPE_INDICATOR": "POTW", "CWP_MAJOR_MINOR_STATUS": "Major", "CWP_PERMIT_STATUS_DESC": "Effective", "STATE_WATER_BODY_NAME": "SHETUCKET RIVER", "CWP_CSO_FLAG": "N"}}, {"type": "Feature", "geometry": {"type": "Point", "coordinates": [-73.0873138219628, 41.3663872708663]}, "properties": {"CWP_NAME": "SEYMOUR WPCF, TOWN OF", "CWP_STREET": "723 DERBY AVE, EXT.", "CWP_CITY": "SEYMOUR", "CWP_STATE": "CT", "CWP_ZIP": "06483", "CWP_COUNTY": "New Haven", "NPDES_ID": "CT0100501", "REGISTRY_ID": "110002043048", "CWP_FACILITY_TYPE_INDICATOR": "POTW", "CWP_MAJOR_MINOR_STATUS": "Major", "CWP_PERMIT_STATUS_DESC": "Effective", "STATE_WATER_BODY_NAME": "NAUGATUCK RIVER", "CWP_CSO_FLAG": "N"}}, {"type": "Feature", "geometry": {"type": "Point", "coordinates": [-71.8849306735109, 41.7933288437823]}, "properties": {"CWP_NAME": "KILLINGLY WPCF TOWN OF", "CWP_STREET": "31 WAUREGAN RD.", "CWP_CITY": "DANIELSON", "CWP_STATE": "CT", "CWP_ZIP": "06239", "CWP_COUNTY": "Windham", "NPDES_ID": "CT0101257", "REGISTRY_ID": "110001123560", "CWP_FACILITY_TYPE_INDICATOR": "POTW", "CWP_MAJOR_MINOR_STATUS": "Major", "CWP_PERMIT_STATUS_DESC": "Effective", "STATE_WATER_BODY_NAME": "QUINEBAUG RIVER", "CWP_CSO_FLAG": "N"}}, {"type": "Feature", "geometry": {"type": "Point", "coordinates": [-73.0862031558021, 41.3154433650954]}, "properties": {"CWP_NAME": "DERBY, CITY OF WPCF", "CWP_STREET": "1 CAROLINE STREET", "CWP_CITY": "DERBY", "CWP_STATE": "CT", "CWP_ZIP": "06418", "CWP_COUNTY": "New Haven", "NPDES_ID": "CT0100161", "REGISTRY_ID": "110000730996", "CWP_FACILITY_TYPE_INDICATOR": "POTW", "CWP_MAJOR_MINOR_STATUS": "Major", "CWP_PERMIT_STATUS_DESC": "Effective", "STATE_WATER_BODY_NAME": "HOUSATONIC RIVER", "CWP_CSO_FLAG": "N"}}, {"type": "Feature", "geometry": {"type": "Point", "coordinates": [-73.4886112658268, 41.883588364249]}, "properties": {"CWP_NAME": "SHARON WPCF", "CWP_STREET": "KING HILL RD.", "CWP_CITY": "SHARON", "CWP_STATE": "CT", "CWP_ZIP": "06069", "CWP_COUNTY": "Litchfield", "NPDES_ID": "CT0101052", "REGISTRY_ID": "110010052799", "CWP_FACILITY_TYPE_INDICATOR": "POTW", "CWP_MAJOR_MINOR_STATUS": "Minor", "CWP_PERMIT_STATUS_DESC": "Expired", "STATE_WATER_BODY_NAME": "TEN MILE RIVER", "CWP_CSO_FLAG": "N"}}, {"type": "Feature", "geometry": {"type": "Point", "coordinates": [-73.3383075328028, 42.0300088183827]}, "properties": {"CWP_NAME": "CANAAN FIRE DISTRICT", "CWP_STREET": "251 WEST STREET", "CWP_CITY": "NORTH CANAAN", "CWP_STATE": "CT", "CWP_ZIP": "06018", "CWP_COUNTY": "Litchfield", "NPDES_ID": "CT0100064", "REGISTRY_ID": "110006780901", "CWP_FACILITY_TYPE_INDICATOR": "POTW", "CWP_MAJOR_MINOR_STATUS": "Minor", "CWP_PERMIT_STATUS_DESC": "Effective", "STATE_WATER_BODY_NAME": "BLACKBERRY RIVER", "CWP_CSO_FLAG": "N"}}]}