{"type": "FeatureCollection", "features": [{"type": "Feature", "geometry": {"type": "Point", "coordinates": [-110.912513612354, 32.2070999815514]}, "properties": {"CWP_NAME": "RANDOLPH PARK WATER REC FAC", "CWP_STREET": "3755 E. 22ND STREET", "CWP_CITY": "TUCSON", "CWP_STATE": "AZ", "CWP_ZIP": "85716", "CWP_COUNTY": "Pima", "NPDES_ID": "AZ0025283", "REGISTRY_ID": "110055020294", "CWP_FACILITY_TYPE_INDICATOR": "POTW", "CWP_MAJOR_MINOR_STATUS": "Minor", "CWP_PERMIT_STATUS_DESC": "Terminated", "STATE_WATER_BODY_NAME": "SANTA CRUZ RIVER", "CWP_CSO_FLAG": "N"}}, {"type": "Feature", "geometry": {"type": "Point", "coordinates": [-114.061671357265, 35.1766652053647]}, "properties": {"CWP_NAME": "CITY OF KINGMAN - DOWNTOWN POND", "CWP_STREET": "1760 SOUTH HIGHWAY 66", "CWP_CITY": "KINGMAN", "CWP_STATE": "AZ", "CWP_ZIP": "86401", "CWP_COUNTY": null, "NPDES_ID": "AZ0026018", "REGISTRY_ID": "110045293035", "CWP_FACILITY_TYPE_INDICATOR": "POTW", "CWP_MAJOR_MINOR_STATUS": "Minor", "CWP_PERMIT_STATUS_DESC": "Effective", "STATE_WATER_BODY_NAME": null, "CWP_CSO_FLAG": "N"}}, {"type": "Feature", "geometry": {"type": "Point", "coordinates": [-109.868567262883, 36.9164779291032]}, "properties": {"CWP_NAME": "CANE VALLEY WELLHEAD TREATMENT", "CWP_STREET": "NORTH OF DENNEHOTSO", "CWP_CITY": "DENNEHOTSO", "CWP_STATE": "AZ", "CWP_ZIP": "86535", "CWP_COUNTY": "Apache", "NPDES_ID": "NN0030342", "REGISTRY_ID": "110064593131", "CWP_FACILITY_TYPE_INDICATOR": "POTW", "CWP_MAJOR_MINOR_STATUS": "Minor", "CWP_PERMIT_STATUS_DESC": "Terminated", "STATE_WATER_BODY_NAME": "GYPSUM CREEK", "CWP_CSO_FLAG": "N"}}, {"type": "Feature", "geometry": {"type": "Point", "coordinates": [-109.71101016216, 32.8020052570258]}, "properties": {"CWP_NAME": "CITY OF SAFFORD - GILA RESOURCES WRP", "CWP_STREET": "1395 W RECLAMATION WAY", "CWP_CITY": "SAFFORD", "CWP_STATE": "AZ", "CWP_ZIP": "85546", "CWP_COUNTY": null, "NPDES_ID": "AZ0024911", "REGISTRY_ID": "110012330520", "CWP_FACILITY_TYPE_INDICATOR": "POTW", "CWP_MAJOR_MINOR_STATUS": "Major", "CWP_PERMIT_STATUS_DESC": "Effective", "STATE_WATER_BODY_NAME": null, "CWP_CSO_FLAG": "N"}}, {"type": "Feature", "geometry": {"type": "Point", "coordinates": [-111.406799149685, 33.0300669812382]}, "properties": {"CWP_NAME": "SOUTH PLANT RD WWTP", "CWP_STREET": "100 S PLANT RD", "CWP_CITY": "FLORENCE", "CWP_STATE": "AZ", "CWP_ZIP": "85232", "CWP_COUNTY": "Pinal", "NPDES_ID": "AZ0022594", "REGISTRY_ID": "110006785345", "CWP_FACILITY_TYPE_INDICATOR": "POTW", "CWP_MAJOR_MINOR_STATUS": "Minor", "CWP_PERMIT_STATUS_DESC": "Terminated", "STATE_WATER_BODY_NAME": "GILA RIVER", "CWP_CSO_FLAG": "N"}}, {"type": "Feature", "geometry": {"type": "Point", "coordinates": [-112.582135076937, 33.3634861188801]}, "properties": {"CWP_NAME": "GARNEY CONSTRUCTION INC", "CWP_STREET": "915 S. 7TH STREET", "CWP_CITY": "BUCKEYE", "CWP_STATE": "AZ", "CWP_ZIP": "85326", "CWP_COUNTY": "Maricopa", "NPDES_ID": "AZ0025551", "REGISTRY_ID": "110035769521", "CWP_FACILITY_TYPE_INDICATOR": "POTW", "CWP_MAJOR_MINOR_STATUS": "Minor", "CWP_PERMIT_STATUS_DESC": "Terminated", "STATE_WATER_BODY_NAME": "ARLINGTON CANAL, TRIBUTARY TO GILA", "CWP_CSO_FLAG": "N"}}, {"type": "Feature", "geometry": {"type": "Point", "coordinates": [-112.466591149478, 34.5418553684211]}, "properties": {"CWP_NAME": "BIG PARK IMPROV DIST PLANT #1", "CWP_STREET": "255 E GURLEY ST", "CWP_CITY": "PRESCOTT", "CWP_STATE": "AZ", "CWP_ZIP": "86301", "CWP_COUNTY": "Yavapai", "NPDES_ID": "AZ0023728", "REGISTRY_ID": "110054931918", "CWP_FACILITY_TYPE_INDICATOR": "POTW", "CWP_MAJOR_MINOR_STATUS": "Minor", "CWP_PERMIT_STATUS_DESC": "Terminated", "STATE_WATER_BODY_NAME": "DRY TRIBUTARY TO DRY BEAVER CREEK", "CWP_CSO_FLAG": "N"}}, {"type": "Feature", "geometry": {"type": "Point", "coordinates": [-112.707701147724, 33.4245653759436]}, "properties": {"CWP_NAME": "TOWN OF BUCKEYE - SUNDANCE WWRF", "CWP_STREET": "21760 W WATKINS ST", "CWP_CITY": "BUCKEYE", "CWP_STATE": "AZ", "CWP_ZIP": "85326", "CWP_COUNTY": null, "NPDES_ID": "AZ0024881", "REGISTRY_ID": "110009067026", "CWP_FACILITY_TYPE_INDICATOR": "POTW", "CWP_MAJOR_MINOR_STATUS": "Major", "CWP_PERMIT_STATUS_DESC": "Effective", "STATE_WATER_BODY_NAME": null, "CWP_CSO_FLAG": "N"}}, {"type": "Feature", "geometry": {"type": "Point", "coordinates": [-109.981797085412, 34.1703527122602]}, "properties": {"CWP_NAME": "PINETOP-LAKESIDE SAN DIST", "CWP_STREET": "2600 W. ALISA LN", "CWP_CITY": "LAKESIDE", "CWP_STATE": "AZ", "CWP_ZIP": "85929", "CWP_COUNTY": "Navajo", "NPDES_ID": "AZ0025437", "REGISTRY_ID": "110064630234", "CWP_FACILITY_TYPE_INDICATOR": "POTW", "CWP_MAJOR_MINOR_STATUS": "Major", "CWP_PERMIT_STATUS_DESC": "Terminated", "STATE_WATER_BODY_NAME": "UNNAMED WASH, TRIB TO SHOWLOW CREEK", "CWP_CSO_FLAG": "N"}}, {"type": "Feature", "geometry": {"type": "Point", "coordinates": [-109.981797085412, 34.1703527122602]}, "properties": {"CWP_NAME": "UNKNOWN", "CWP_STREET": "UNKNOWN", "CWP_CITY": "UNKNOWN", "CWP_STATE": "AZ", "CWP_ZIP": "00000", "CWP_COUNTY": "Navajo", "NPDES_ID": "AZ0022675", "REGISTRY_ID": "110064630234", "CWP_FACILITY_TYPE_INDICATOR": "POTW", "CWP_MAJOR_MINOR_STATUS": "Other/Nonclassified", "CWP_PERMIT_STATUS_DESC": "Not Needed", "STATE_WATER_BODY_NAME": "ROCKY ARROYO", "CWP_CSO_FLAG": "N"}}, {"type": "Feature", "geometry": {"type": "Point", "coordinates": [-110.758699791922, 31.5378846785516]}, "properties": {"CWP_NAME": "TOWN OF PATAGONIA - WWTP", "CWP_STREET": "151 COSTELLO DR", "CWP_CITY": "PATAGONIA", "CWP_STATE": "AZ", "CWP_ZIP": "85624", "CWP_COUNTY": null, "NPDES_ID": "AZ0025011", "REGISTRY_ID": "110017709826", "CWP_FACILITY_TYPE_INDICATOR": "POTW", "CWP_MAJOR_MINOR_STATUS": "Minor", "CWP_PERMIT_STATUS_DESC": "Effective", "STATE_WATER_BODY_NAME": null, "CWP_CSO_FLAG": "N"}}, {"type": "Feature", "geometry": {"type": "Point", "coordinates": [-113.935019820338, 35.2964603201575]}, "properties": {"CWP_NAME": "CITY OF KINGMAN - HILLTOP WWTP", "CWP_STREET": "5925 N HWY 66", "CWP_CITY": "KINGMAN", "CWP_STATE": "AZ", "CWP_ZIP": "86401", "CWP_COUNTY": "Mohave", "NPDES_ID": "AZ0025844", "REGISTRY_ID": "110015944077", "CWP_FACILITY_TYPE_INDICATOR": "POTW", "CWP_MAJOR_MINOR_STATUS": "Major", "CWP_PERMIT_STATUS_DESC": "Terminated", "STATE_WATER_BODY_NAME": null, "CWP_CSO_FLAG": "N"}}, {"type": "Feature", "geometry": {"type": "Point", "coordinates": [-114.06192856327, 35.174977177661]}, "properties": {"CWP_NAME": "KINGMAN WWTP", "CWP_STREET": "1760 S. HIGHWAY 66", "CWP_CITY": "KINGMAN", "CWP_STATE": "AZ", "CWP_ZIP": "86401", "CWP_COUNTY": "Mohave", "NPDES_ID": "AZ0022489", "REGISTRY_ID": "110055977144", "CWP_FACILITY_TYPE_INDICATOR": "POTW", "CWP_MAJOR_MINOR_STATUS": "Minor", "CWP_PERMIT_STATUS_DESC": "Terminated", "STATE_WATER_BODY_NAME": "COLORADO RIVER", "CWP_CSO_FLAG": "N"}}, {"type": "Feature", "geometry": {"type": "Point", "coordinates": [-112.319732654191, 33.5786156862759]}, "properties": {"CWP_NAME": "CITY OF EL MIRAGE - WWTP", "CWP_STREET": "10355 N 121ST AVE", "CWP_CITY": "EL MIRAGE", "CWP_STATE": "AZ", "CWP_ZIP": "85335", "CWP_COUNTY": null, "NPDES_ID": "AZ0023272", "REGISTRY_ID": "110006528908", "CWP_FACILITY_TYPE_INDICATOR": "POTW", "CWP_MAJOR_MINOR_STATUS": "Major", "CWP_PERMIT_STATUS_DESC": "Effective", "STATE_WATER_BODY_NAME": null, "CWP_CSO_FLAG": "N"}}, {"type": "Feature", "geometry": {"type": "Point", "coordinates": [-110.088221106725, 34.5133856594189]}, "properties": {"CWP_NAME": "TOWN OF SNOWFLAKE - WWTP", "CWP_STREET": "501 SNOW LN", "CWP_CITY": "SNOWFLAKE", "CWP_STATE": "AZ", "CWP_ZIP": "85937", "CWP_COUNTY": "Navajo", "NPDES_ID": "AZ0026034", "REGISTRY_ID": "110015966506", "CWP_FACILITY_TYPE_INDICATOR": "POTW", "CWP_MAJOR_MINOR_STATUS": "Minor", "CWP_PERMIT_STATUS_DESC": "Terminated", "STATE_WATER_BODY_NAME": null, "CWP_CSO_FLAG": "N"}}, {"type": "Feature", "geometry": {"type": "Point", "coordinates": [-111.941850930514, 33.3636849023385]}, "properties": {"CWP_NAME": "KYRENE WRP", "CWP_STREET": "311 W GUADALUPE RD", "CWP_CITY": "TEMPE", "CWP_STATE": "AZ", "CWP_ZIP": "85283", "CWP_COUNTY": "Maricopa", "NPDES_ID": "AZ0023248", "REGISTRY_ID": "110024381961", "CWP_FACILITY_TYPE_INDICATOR": "POTW", "CWP_MAJOR_MINOR_STATUS": "Minor", "CWP_PERMIT_STATUS_DESC": "Terminated", "STATE_WATER_BODY_NAME": "SALT RIVER", "CWP_CSO_FLAG": "N"}}, {"type": "Feature", "geometry": {"type": "Point", "coordinates": [-111.540451047887, 33.3788654813573]}, "properties": {"CWP_NAME": "APACHE JUNCTION WATER COMPANY", "CWP_STREET": "575 E BASELINE AVE", "CWP_CITY": "APACHE JUNCTION", "CWP_STATE": "AZ", "CWP_ZIP": "851199205", "CWP_COUNTY": "Pinal", "NPDES_ID": "AZ0026042", "REGISTRY_ID": "110032631711", "CWP_FACILITY_TYPE_INDICATOR": "POTW", "CWP_MAJOR_MINOR_STATUS": "Minor", "CWP_PERMIT_STATUS_DESC": "Terminated", "STATE_WATER_BODY_NAME": "WEEKS WASH TRIB TO SIPHON DRAW", "CWP_CSO_FLAG": "N"}}, {"type": "Feature", "geometry": {"type": "Point", "coordinates": [-112.181390953978, 35.2705554495834]}, "properties": {"CWP_NAME": "CITY OF WILLIAMS - WWTP", "CWP_STREET": "1106 E ELLEN WAY", "CWP_CITY": "WILLIAMS", "CWP_STATE": "AZ", "CWP_ZIP": "86046", "CWP_COUNTY": null, "NPDES_ID": "AZ0025755", "REGISTRY_ID": "110037455232", "CWP_FACILITY_TYPE_INDICATOR": "POTW", "CWP_MAJOR_MINOR_STATUS": "Minor", "CWP_PERMIT_STATUS_DESC": "Effective", "STATE_WATER_BODY_NAME": null, "CWP_CSO_FLAG": "N"}}, {"type": "Feature", "geometry": {"type": "Point", "coordinates": [-112.611681431431, 33.660655436166]}, "properties": {"CWP_NAME": "SUN VALLEY SOUTH WRP", "CWP_STREET": "INTERSECTION OF SUNVALLEY PARKWAY AND ANTHEM WAY", "CWP_CITY": "BUCKEYE", "CWP_STATE": "AZ", "CWP_ZIP": "85326", "CWP_COUNTY": "Maricopa", "NPDES_ID": "AZ0025691", "REGISTRY_ID": "110032769243", "CWP_FACILITY_TYPE_INDICATOR": "POTW", "CWP_MAJOR_MINOR_STATUS": "Major", "CWP_PERMIT_STATUS_DESC": "Terminated", "STATE_WATER_BODY_NAME": null, "CWP_CSO_FLAG": "N"}}, {"type": "Feature", "geometry": {"type": "Point", "coordinates": [-111.955071002073, 33.8273349423611]}, "properties": {"CWP_NAME": "CAVE CREEK, TOWN OF", "CWP_STREET": "37622 N. CAVE CREEK ROAD", "CWP_CITY": "CAVE CREEK", "CWP_STATE": "AZ", "CWP_ZIP": "85327", "CWP_COUNTY": "Maricopa", "NPDES_ID": "AZ0025763", "REGISTRY_ID": "110006785167", "CWP_FACILITY_TYPE_INDICATOR": "POTW", "CWP_MAJOR_MINOR_STATUS": "Minor", "CWP_PERMIT_STATUS_DESC": "Terminated", "STATE_WATER_BODY_NAME": "ANDORRA WASH TRIB TO CAVE CREEK", "CWP_CSO_FLAG": "N"}}, {"type": "Feature", "geometry": {"type": "Point", "coordinates": [-112.582135076937, 33.3634861188801]}, "properties": {"CWP_NAME": "CENTRAL BUCKEYE WASTEWATER TREATMENT PLANT", "CWP_STREET": "915 S 7TH ST", "CWP_CITY": "BUCKEYE", "CWP_STATE": "AZ", "CWP_ZIP": "85326", "CWP_COUNTY": null, "NPDES_ID": "AZ0025313", "REGISTRY_ID": "110035769521", "CWP_FACILITY_TYPE_INDICATOR": "POTW", "CWP_MAJOR_MINOR_STATUS": "Major", "CWP_PERMIT_STATUS_DESC": "Effective", "STATE_WATER_BODY_NAME": null, "CWP_CSO_FLAG": "N"}}, {"type": "Feature", "geometry": {"type": "Point", "coordinates": [-114.308611660246, 34.1433053607608]}, "properties": {"CWP_NAME": "JOINT VENTURE WWTF", "CWP_STREET": "12501 AGENCY RD", "CWP_CITY": "PARKER", "CWP_STATE": "AZ", "CWP_ZIP": "85344", "CWP_COUNTY": "La Paz", "NPDES_ID": "AZ0021415", "REGISTRY_ID": "110006785381", "CWP_FACILITY_TYPE_INDICATOR": "POTW", "CWP_MAJOR_MINOR_STATUS": "Major", "CWP_PERMIT_STATUS_DESC": "Effective", "STATE_WATER_BODY_NAME": "COLORADO RIVER", "CWP_CSO_FLAG": "N"}}, {"type": "Feature", "geometry": {"type": "Point", "coordinates": [-112.27458128074, 33.5516953788886]}, "properties": {"CWP_NAME": "CITY OF PEORIA - BUTLER DRIVE WRF", "CWP_STREET": "8660 N 79TH AVE", "CWP_CITY": "PEORIA", "CWP_STATE": "AZ", "CWP_ZIP": "85345", "CWP_COUNTY": null, "NPDES_ID": "AZ0025119", "REGISTRY_ID": "110020069968", "CWP_FACILITY_TYPE_INDICATOR": "POTW", "CWP_MAJOR_MINOR_STATUS": "Major", "CWP_PERMIT_STATUS_DESC": "Effective", "STATE_WATER_BODY_NAME": null, "CWP_CSO_FLAG": "N"}}, {"type": "Feature", "geometry": {"type": "Point", "coordinates": [-110.230621784893, 36.7331169085845]}, "properties": {"CWP_NAME": "KAYENTA WASTEWATER TREATMENT LAGOON", "CWP_STREET": "1 M EAST OF KAYENTA", "CWP_CITY": "KAYENTA", "CWP_STATE": "AZ", "CWP_ZIP": "86033", "CWP_COUNTY": "Navajo", "NPDES_ID": "NN0020281", "REGISTRY_ID": "110010062699", "CWP_FACILITY_TYPE_INDICATOR": "POTW", "CWP_MAJOR_MINOR_STATUS": "Minor", "CWP_PERMIT_STATUS_DESC": "Effective", "STATE_WATER_BODY_NAME": "LAGUANA & CHINLE WASH SAN JUAN RVR, LAGUNA WASH", "CWP_CSO_FLAG": "N"}}, {"type": "Feature", "geometry": {"type": "Point", "coordinates": [-111.955071002073, 33.8273349423611]}, "properties": {"CWP_NAME": "CAVE CREEK, TOWN OF", "CWP_STREET": "37622 N CAVE CREEK RD", "CWP_CITY": "CAVE CREEK", "CWP_STATE": "AZ", "CWP_ZIP": "85327", "CWP_COUNTY": "Maricopa", "NPDES_ID": "AZ0024074", "REGISTRY_ID": "110006785167", "CWP_FACILITY_TYPE_INDICATOR": "POTW", "CWP_MAJOR_MINOR_STATUS": "Minor", "CWP_PERMIT_STATUS_DESC": "Terminated", "STATE_WATER_BODY_NAME": null, "CWP_CSO_FLAG": "N"}}, {"type": "Feature", "geometry": {"type": "Point", "coordinates": [-110.908061125024, 33.0450047476362]}, "properties": {"CWP_NAME": "TOWN OF KEARNY WASTEWATER RECLAMATION FACILITY", "CWP_STREET": "501 W VETERANS AVE", "CWP_CITY": "KEARNY", "CWP_STATE": "AZ", "CWP_ZIP": "85137", "CWP_COUNTY": null, "NPDES_ID": "AZ0024449", "REGISTRY_ID": "110010062234", "CWP_FACILITY_TYPE_INDICATOR": "POTW", "CWP_MAJOR_MINOR_STATUS": "Minor", "CWP_PERMIT_STATUS_DESC": "Effective", "STATE_WATER_BODY_NAME": null, "CWP_CSO_FLAG": "N"}}, {"type": "Feature", "geometry": {"type": "Point", "coordinates": [-111.558211011171, 35.2256253508966]}, "properties": {"CWP_NAME": "CITY OF FLAGSTAFF - WILDCAT HILL WWTP", "CWP_STREET": "2800 N EL PASO FLAGSTAFF RD", "CWP_CITY": "FLAGSTAFF", "CWP_STATE": "AZ", "CWP_ZIP": "86004", "CWP_COUNTY": null, "NPDES_ID": "AZ0020427", "REGISTRY_ID": "110043316612", "CWP_FACILITY_TYPE_INDICATOR": "POTW", "CWP_MAJOR_MINOR_STATUS": "Major", "CWP_PERMIT_STATUS_DESC": "Effective", "STATE_WATER_BODY_NAME": null, "CWP_CSO_FLAG": "N"}}, {"type": "Feature", "geometry": {"type": "Point", "coordinates": [-111.829779197744, 33.4172485365774]}, "properties": {"CWP_NAME": "CITY OF MESA - NORTHWEST WRP", "CWP_STREET": "960 N RIVERVIEW", "CWP_CITY": "MESA", "CWP_STATE": "AZ", "CWP_ZIP": "85201", "CWP_COUNTY": null, "NPDES_ID": "AZ0024031", "REGISTRY_ID": "110063880812", "CWP_FACILITY_TYPE_INDICATOR": "POTW", "CWP_MAJOR_MINOR_STATUS": "Major", "CWP_PERMIT_STATUS_DESC": "Effective", "STATE_WATER_BODY_NAME": null, "CWP_CSO_FLAG": "N"}}, {"type": "Feature", "geometry": {"type": "Point", "coordinates": [-114.220611148726, 33.7083050354888]}, "properties": {"CWP_NAME": "TOWN OF QUARTZSITE - WWTP", "CWP_STREET": "2054 N CENTRAL BLVD", "CWP_CITY": "QUARTZSITE", "CWP_STATE": "AZ", "CWP_ZIP": "85346", "CWP_COUNTY": null, "NPDES_ID": "AZ0023752", "REGISTRY_ID": "110010062528", "CWP_FACILITY_TYPE_INDICATOR": "POTW", "CWP_MAJOR_MINOR_STATUS": "Minor", "CWP_PERMIT_STATUS_DESC": "Effective", "STATE_WATER_BODY_NAME": null, "CWP_CSO_FLAG": "N"}}, {"type": "Feature", "geometry": {"type": "Point", "coordinates": [-109.145310473329, 33.8486049600971]}, "properties": {"CWP_NAME": "ALPINE  SD WWT (PONDS)", "CWP_STREET": "COUNTY RD 2311 @ 1/2 MILE", "CWP_CITY": "ALPINE", "CWP_STATE": "AZ", "CWP_ZIP": "85920", "CWP_COUNTY": "Apache", "NPDES_ID": "AZ0025089", "REGISTRY_ID": "110020044389", "CWP_FACILITY_TYPE_INDICATOR": "POTW", "CWP_MAJOR_MINOR_STATUS": "Minor", "CWP_PERMIT_STATUS_DESC": "Terminated", "STATE_WATER_BODY_NAME": "SAN FRANCISCO RIVER", "CWP_CSO_FLAG": "N"}}, {"type": "Feature", "geometry": {"type": "Point", "coordinates": [-110.833130523951, 33.4261275960228]}, "properties": {"CWP_NAME": "MIAMI WASTEWATER RECLAMATION FACILITY", "CWP_STREET": "US HWY 60 & SR 188", "CWP_CITY": "MIAMI", "CWP_STATE": "AZ", "CWP_ZIP": "85539", "CWP_COUNTY": "Gila", "NPDES_ID": "AZ0025909", "REGISTRY_ID": "110039505693", "CWP_FACILITY_TYPE_INDICATOR": "POTW", "CWP_MAJOR_MINOR_STATUS": "Minor", "CWP_PERMIT_STATUS_DESC": "Terminated", "STATE_WATER_BODY_NAME": null, "CWP_CSO_FLAG": "N"}}, {"type": "Feature", "geometry": {"type": "Point", "coordinates": [-110.994240418754, 32.2044649637202]}, "properties": {"CWP_NAME": "PIMA COUNTY STORM WATER PERMIT", "CWP_STREET": "COUNTY WIDE", "CWP_CITY": "TUCSON", "CWP_STATE": "AZ", "CWP_ZIP": "85713", "CWP_COUNTY": "Pima", "NPDES_ID": "AZS000002", "REGISTRY_ID": "110002138044", "CWP_FACILITY_TYPE_INDICATOR": "POTW", "CWP_MAJOR_MINOR_STATUS": "Major", "CWP_PERMIT_STATUS_DESC": "Effective", "STATE_WATER_BODY_NAME": null, "CWP_CSO_FLAG": "N"}}, {"type": "Feature", "geometry": {"type": "Point", "coordinates": [-112.676031513826, 33.3984148876328]}, "properties": {"CWP_NAME": "PALO VERDE ROAD WWTP", "CWP_STREET": "EAST OF PALO VERDE RD", "CWP_CITY": "BUCKEYE", "CWP_STATE": "AZ", "CWP_ZIP": "85326", "CWP_COUNTY": null, "NPDES_ID": "AZ0025500", "REGISTRY_ID": "110033164787", "CWP_FACILITY_TYPE_INDICATOR": "POTW", "CWP_MAJOR_MINOR_STATUS": "Minor", "CWP_PERMIT_STATUS_DESC": "Effective", "STATE_WATER_BODY_NAME": null, "CWP_CSO_FLAG": "N"}}, {"type": "Feature", "geometry": {"type": "Point", "coordinates": [-111.831477118041, 33.4164508377246]}, "properties": {"CWP_NAME": "MESA, CITY OF", "CWP_STREET": "55 N. CENTER STREET", "CWP_CITY": "MESA", "CWP_STATE": "AZ", "CWP_ZIP": "85201", "CWP_COUNTY": "Maricopa", "NPDES_ID": "AZS000004", "REGISTRY_ID": "110015959355", "CWP_FACILITY_TYPE_INDICATOR": "POTW", "CWP_MAJOR_MINOR_STATUS": "Major", "CWP_PERMIT_STATUS_DESC": "Effective", "STATE_WATER_BODY_NAME": null, "CWP_CSO_FLAG": "N"}}, {"type": "Feature", "geometry": {"type": "Point", "coordinates": [-114.724921285904, 32.5929153026957]}, "properties": {"CWP_NAME": "SOMERTON WWTP NEW PLANT", "CWP_STREET": "501 S. TUMBAGA LOOP", "CWP_CITY": "SOMERTON", "CWP_STATE": "AZ", "CWP_ZIP": "85350", "CWP_COUNTY": "Yuma", "NPDES_ID": "AZ0025186", "REGISTRY_ID": "110055979801", "CWP_FACILITY_TYPE_INDICATOR": "POTW", "CWP_MAJOR_MINOR_STATUS": "Major", "CWP_PERMIT_STATUS_DESC": "Terminated", "STATE_WATER_BODY_NAME": null, "CWP_CSO_FLAG": "N"}}, {"type": "Feature", "geometry": {"type": "Point", "coordinates": [-114.663344703753, 32.7308380505162]}, "properties": {"CWP_NAME": "CITY OF YUMA - FIGUEROA AVE WPCF", "CWP_STREET": "289 N FIGUEROA AVE", "CWP_CITY": "YUMA", "CWP_STATE": "AZ", "CWP_ZIP": "85364", "CWP_COUNTY": null, "NPDES_ID": "AZ0020443", "REGISTRY_ID": "110000522257", "CWP_FACILITY_TYPE_INDICATOR": "POTW", "CWP_MAJOR_MINOR_STATUS": "Major", "CWP_PERMIT_STATUS_DESC": "Effective", "STATE_WATER_BODY_NAME": null, "CWP_CSO_FLAG": "N"}}, {"type": "Feature", "geometry": {"type": "Point", "coordinates": [-111.798391049156, 33.357985005857]}, "properties": {"CWP_NAME": "NEELY WATER RECLAMATION PLANT", "CWP_STREET": "402 N. NEELY STREET", "CWP_CITY": "GILBERT", "CWP_STATE": "AZ", "CWP_ZIP": "85296", "CWP_COUNTY": "Maricopa", "NPDES_ID": "AZ0025364", "REGISTRY_ID": "110055026154", "CWP_FACILITY_TYPE_INDICATOR": "POTW", "CWP_MAJOR_MINOR_STATUS": "Minor", "CWP_PERMIT_STATUS_DESC": "Terminated", "STATE_WATER_BODY_NAME": "GILA RIVER", "CWP_CSO_FLAG": "N"}}, {"type": "Feature", "geometry": {"type": "Point", "coordinates": [-111.685580926336, 32.7627047807671]}, "properties": {"CWP_NAME": "ARIZONA CITY SANITARY DISTRICT - WWTP", "CWP_STREET": "12922 S KASHMIR RD", "CWP_CITY": "ARIZONA CITY", "CWP_STATE": "AZ", "CWP_ZIP": "85123", "CWP_COUNTY": null, "NPDES_ID": "AZ0024244", "REGISTRY_ID": "110006785185", "CWP_FACILITY_TYPE_INDICATOR": "POTW", "CWP_MAJOR_MINOR_STATUS": "Major", "CWP_PERMIT_STATUS_DESC": "Effective", "STATE_WATER_BODY_NAME": null, "CWP_CSO_FLAG": "N"}}, {"type": "Feature", "geometry": {"type": "Point", "coordinates": [-111.021990809599, 32.2798146709239]}, "properties": {"CWP_NAME": "PIMA COUNTY - WATER RECLAMATIO", "CWP_STREET": "2600 W SWEETWATER DR", "CWP_CITY": "TUCSON", "CWP_STATE": "AZ", "CWP_ZIP": "857056915", "CWP_COUNTY": "Pima", "NPDES_ID": "AZ0020923", "REGISTRY_ID": "110002042021", "CWP_FACILITY_TYPE_INDICATOR": "POTW", "CWP_MAJOR_MINOR_STATUS": "Major", "CWP_PERMIT_STATUS_DESC": "Terminated", "STATE_WATER_BODY_NAME": "SANTA CRUZ RIVER", "CWP_CSO_FLAG": "N"}}, {"type": "Feature", "geometry": {"type": "Point", "coordinates": [-111.8228013574, 33.4278353575221]}, "properties": {"CWP_NAME": "CITY OF MESA - SOUTHEAST WATER RECLAMATION PLANT", "CWP_STREET": "6312 E BASELINE RD", "CWP_CITY": "MESA", "CWP_STATE": "AZ", "CWP_ZIP": "85206", "CWP_COUNTY": null, "NPDES_ID": "AZ0025151", "REGISTRY_ID": "110020069986", "CWP_FACILITY_TYPE_INDICATOR": "POTW", "CWP_MAJOR_MINOR_STATUS": "Major", "CWP_PERMIT_STATUS_DESC": "Effective", "STATE_WATER_BODY_NAME": null, "CWP_CSO_FLAG": "N"}}, {"type": "Feature", "geometry": {"type": "Point", "coordinates": [-111.959801437755, 33.8376249863541]}, "properties": {"CWP_NAME": "TOWN OF CAVE CREEK - WRF", "CWP_STREET": "37622 N CAVE CREEK RD", "CWP_CITY": "CAVE CREEK", "CWP_STATE": "AZ", "CWP_ZIP": "85331", "CWP_COUNTY": null, "NPDES_ID": "AZ0025828", "REGISTRY_ID": "110039139394", "CWP_FACILITY_TYPE_INDICATOR": "POTW", "CWP_MAJOR_MINOR_STATUS": "Minor", "CWP_PERMIT_STATUS_DESC": "Effective", "STATE_WATER_BODY_NAME": null, "CWP_CSO_FLAG": "N"}}, {"type": "Feature", "geometry": {"type": "Point", "coordinates": [-112.582135076937, 33.3634861188801]}, "properties": {"CWP_NAME": "WASTEWATER TREATMENT PLANT", "CWP_STREET": "715 E MONROE AVE", "CWP_CITY": "UNKNOWN", "CWP_STATE": "AZ", "CWP_ZIP": "85326", "CWP_COUNTY": "Maricopa", "NPDES_ID": "AZ0022900", "REGISTRY_ID": "110035769521", "CWP_FACILITY_TYPE_INDICATOR": "POTW", "CWP_MAJOR_MINOR_STATUS": "Minor", "CWP_PERMIT_STATUS_DESC": "Terminated", "STATE_WATER_BODY_NAME": "ARLINGTON CANAL", "CWP_CSO_FLAG": "N"}}, {"type": "Feature", "geometry": {"type": "Point", "coordinates": [-109.080949724682, 35.6394908601957]}, "properties": {"CWP_NAME": "WINDOW ROCK WWTF", "CWP_STREET": "LAGOON ROAD", "CWP_CITY": "FORT DEFIANCE", "CWP_STATE": "AZ", "CWP_ZIP": "86515", "CWP_COUNTY": "Apache", "NPDES_ID": "NN0021555", "REGISTRY_ID": "110024409433", "CWP_FACILITY_TYPE_INDICATOR": "POTW", "CWP_MAJOR_MINOR_STATUS": "Major", "CWP_PERMIT_STATUS_DESC": "Effective", "STATE_WATER_BODY_NAME": "BLACK CREEK", "CWP_CSO_FLAG": "N"}}, {"type": "Feature", "geometry": {"type": "Point", "coordinates": [-111.307011273776, 33.2914450830806]}, "properties": {"CWP_NAME": "QUEEN VALLEY SD WWTP", "CWP_STREET": "281 W MONTE VISTA", "CWP_CITY": "QUEEN VALLEY", "CWP_STATE": "AZ", "CWP_ZIP": "85219", "CWP_COUNTY": "Maricopa", "NPDES_ID": "AZ0022071", "REGISTRY_ID": "110055977395", "CWP_FACILITY_TYPE_INDICATOR": "POTW", "CWP_MAJOR_MINOR_STATUS": "Minor", "CWP_PERMIT_STATUS_DESC": "Terminated", "STATE_WATER_BODY_NAME": "QUEEN CREEK MID GILA RIVER BASIN", "CWP_CSO_FLAG": "N"}}, {"type": "Feature", "geometry": {"type": "Point", "coordinates": [-109.96401026468, 33.8370360365248]}, "properties": {"CWP_NAME": "WHITERIVER SEWAGE LAGOONS", "CWP_STREET": "CANYON DAY", "CWP_CITY": "WHITERIVER", "CWP_STATE": "AZ", "CWP_ZIP": "85941", "CWP_COUNTY": "Navajo", "NPDES_ID": "AZ0024058", "REGISTRY_ID": "110024527635", "CWP_FACILITY_TYPE_INDICATOR": "POTW", "CWP_MAJOR_MINOR_STATUS": "Minor", "CWP_PERMIT_STATUS_DESC": "Effective", "STATE_WATER_BODY_NAME": "WHITE RIVER", "CWP_CSO_FLAG": "N"}}, {"type": "Feature", "geometry": {"type": "Point", "coordinates": [-109.333009925071, 35.2162986097242]}, "properties": {"CWP_NAME": "SANDERS UNIFIED SCHOOL DISTRICT # 18 - WWTP", "CWP_STREET": "HWY 40 & HWY 191", "CWP_CITY": "SANDERS", "CWP_STATE": "AZ", "CWP_ZIP": "86512", "CWP_COUNTY": "Apache", "NPDES_ID": "AZ0024422", "REGISTRY_ID": "110037952490", "CWP_FACILITY_TYPE_INDICATOR": "POTW", "CWP_MAJOR_MINOR_STATUS": "Minor", "CWP_PERMIT_STATUS_DESC": "Terminated", "STATE_WATER_BODY_NAME": "PUERCO RIVER", "CWP_CSO_FLAG": "N"}}, {"type": "Feature", "geometry": {"type": "Point", "coordinates": [-111.73792061648, 33.2704153112951]}, "properties": {"CWP_NAME": "CITY OF MESA - GREENFIELD WATER RECLAMATION PLANT", "CWP_STREET": "4400 S GREENFIELD RD", "CWP_CITY": "GILBERT", "CWP_STATE": "AZ", "CWP_ZIP": "85297", "CWP_COUNTY": null, "NPDES_ID": "AZ0025241", "REGISTRY_ID": "110022853429", "CWP_FACILITY_TYPE_INDICATOR": "POTW", "CWP_MAJOR_MINOR_STATUS": "Major", "CWP_PERMIT_STATUS_DESC": "Effective", "STATE_WATER_BODY_NAME": null, "CWP_CSO_FLAG": "N"}}, {"type": "Feature", "geometry": {"type": "Point", "coordinates": [-110.974860925337, 32.2231348930124]}, "properties": {"CWP_NAME": "CITY OF TUCSON - STORMWATER", "CWP_STREET": "255 W ALAMEDA ST", "CWP_CITY": "TUCSON", "CWP_STATE": "AZ", "CWP_ZIP": "85701", "CWP_COUNTY": "Pima", "NPDES_ID": "AZS000001", "REGISTRY_ID": "110055979838", "CWP_FACILITY_TYPE_INDICATOR": "POTW", "CWP_MAJOR_MINOR_STATUS": "Major", "CWP_PERMIT_STATUS_DESC": "Effective", "STATE_WATER_BODY_NAME": null, "CWP_CSO_FLAG": "N"}}, {"type": "Feature", "geometry": {"type": "Point", "coordinates": [-109.984627251387, 34.1564932580916]}, "properties": {"CWP_NAME": "UNKNOWN", "CWP_STREET": "UNKNOWN", "CWP_CITY": "UNKNOWN", "CWP_STATE": "AZ", "CWP_ZIP": "00000", "CWP_COUNTY": "Navajo", "NPDES_ID": "AZ0022926", "REGISTRY_ID": "110064630859", "CWP_FACILITY_TYPE_INDICATOR": "POTW", "CWP_MAJOR_MINOR_STATUS": "Other/Nonclassified", "CWP_PERMIT_STATUS_DESC": "Not Needed", "STATE_WATER_BODY_NAME": "SHOW LOW CREEK", "CWP_CSO_FLAG": "N"}}, {"type": "Feature", "geometry": {"type": "Point", "coordinates": [-110.069002392906, 31.7298603172586]}, "properties": {"CWP_NAME": "TOMBSTONE WWTP", "CWP_STREET": "RIDGE ROAD", "CWP_CITY": "TOMBSTONE", "CWP_STATE": "AZ", "CWP_ZIP": "85638", "CWP_COUNTY": "Cochise", "NPDES_ID": "AZ0022080", "REGISTRY_ID": "110055029945", "CWP_FACILITY_TYPE_INDICATOR": "POTW", "CWP_MAJOR_MINOR_STATUS": "Minor", "CWP_PERMIT_STATUS_DESC": "Terminated", "STATE_WATER_BODY_NAME": "WALNUT GULCH - SAN PEDRO RIVER", "CWP_CSO_FLAG": "N"}}, {"type": "Feature", "geometry": {"type": "Point", "coordinates": [-110.047024933627, 34.257804595497]}, "properties": {"CWP_NAME": "UNKNOWN", "CWP_STREET": "UNKNOWN", "CWP_CITY": "UNKNOWN", "CWP_STATE": "AZ", "CWP_ZIP": "00000", "CWP_COUNTY": "Apache", "NPDES_ID": "AZ0023710", "REGISTRY_ID": "110064595601", "CWP_FACILITY_TYPE_INDICATOR": "POTW", "CWP_MAJOR_MINOR_STATUS": "Other/Nonclassified", "CWP_PERMIT_STATUS_DESC": "Not Needed", "STATE_WATER_BODY_NAME": "UPPER SAN FRANCISCO RIVER", "CWP_CSO_FLAG": "N"}}, {"type": "Feature", "geometry": {"type": "Point", "coordinates": [-111.063335353899, 32.3349700979925]}, "properties": {"CWP_NAME": "PIMA COUNTY - TRES RIOS WWRF", "CWP_STREET": "7101 N CASA GRANDE HWY", "CWP_CITY": "TUCSON", "CWP_STATE": "AZ", "CWP_ZIP": "85743", "CWP_COUNTY": null, "NPDES_ID": "AZ0020001", "REGISTRY_ID": "110039276404", "CWP_FACILITY_TYPE_INDICATOR": "POTW", "CWP_MAJOR_MINOR_STATUS": "Major", "CWP_PERMIT_STATUS_DESC": "Effective", "STATE_WATER_BODY_NAME": null, "CWP_CSO_FLAG": "N"}}, {"type": "Feature", "geometry": {"type": "Point", "coordinates": [-112.330751161289, 33.726895025318]}, "properties": {"CWP_NAME": "JOMAX WRF", "CWP_STREET": "12483 W JOMAX RD", "CWP_CITY": "PEORIA", "CWP_STATE": "AZ", "CWP_ZIP": "85383", "CWP_COUNTY": null, "NPDES_ID": "AZ0024945", "REGISTRY_ID": "110015317423", "CWP_FACILITY_TYPE_INDICATOR": "POTW", "CWP_MAJOR_MINOR_STATUS": "Major", "CWP_PERMIT_STATUS_DESC": "Effective", "STATE_WATER_BODY_NAME": null, "CWP_CSO_FLAG": "N"}}, {"type": "Feature", "geometry": {"type": "Point", "coordinates": [-112.077071227426, 33.4482553534464]}, "properties": {"CWP_NAME": "PHOENIX, CITY OF MS4", "CWP_STREET": "200 W WASHINGTON", "CWP_CITY": "PHOENIX", "CWP_STATE": "AZ", "CWP_ZIP": "85003", "CWP_COUNTY": "Maricopa", "NPDES_ID": "AZS000003", "REGISTRY_ID": "110009066278", "CWP_FACILITY_TYPE_INDICATOR": "POTW", "CWP_MAJOR_MINOR_STATUS": "Major", "CWP_PERMIT_STATUS_DESC": "Effective", "STATE_WATER_BODY_NAME": null, "CWP_CSO_FLAG": "N"}}, {"type": "Feature", "geometry": {"type": "Point", "coordinates": [-110.772190619569, 32.9858851133588]}, "properties": {"CWP_NAME": "TOWN OF WINKELMAN - WWTP", "CWP_STREET": "425 W QUARELLI ST", "CWP_CITY": "WINKELMAN", "CWP_STATE": "AZ", "CWP_ZIP": "85192", "CWP_COUNTY": null, "NPDES_ID": "AZ0020176", "REGISTRY_ID": "110006785354", "CWP_FACILITY_TYPE_INDICATOR": "POTW", "CWP_MAJOR_MINOR_STATUS": "Minor", "CWP_PERMIT_STATUS_DESC": "Effective", "STATE_WATER_BODY_NAME": null, "CWP_CSO_FLAG": "N"}}, {"type": "Feature", "geometry": {"type": "Point", "coordinates": [-112.043387214665, 34.7297156986958]}, "properties": {"CWP_NAME": "CITY OF COTTONWOOD - WWTF", "CWP_STREET": "1480 W MINGUS AVE", "CWP_CITY": "COTTONWOOD", "CWP_STATE": "AZ", "CWP_ZIP": "86326", "CWP_COUNTY": null, "NPDES_ID": "AZ0024716", "REGISTRY_ID": "110055979455", "CWP_FACILITY_TYPE_INDICATOR": "POTW", "CWP_MAJOR_MINOR_STATUS": "Major", "CWP_PERMIT_STATUS_DESC": "Effective", "STATE_WATER_BODY_NAME": null, "CWP_CSO_FLAG": "N"}}, {"type": "Feature", "geometry": {"type": "Point", "coordinates": [-112.265683379106, 33.4502950062724]}, "properties": {"CWP_NAME": "CITY OF TOLLESON - WWTP", "CWP_STREET": "9501 W PIMA RD", "CWP_CITY": "TOLLESON", "CWP_STATE": "AZ", "CWP_ZIP": "85353", "CWP_COUNTY": null, "NPDES_ID": "AZ0020338", "REGISTRY_ID": "110000730335", "CWP_FACILITY_TYPE_INDICATOR": "POTW", "CWP_MAJOR_MINOR_STATUS": "Major", "CWP_PERMIT_STATUS_DESC": "Effective", "STATE_WATER_BODY_NAME": null, "CWP_CSO_FLAG": "N"}}, {"type": "Feature", "geometry": {"type": "Point", "coordinates": [-112.316941238025, 34.5915896912078]}, "properties": {"CWP_NAME": "TOWN OF PRESCOTT VALLEY - WWTP", "CWP_STREET": "1100 E TREATMENT PLANT DR", "CWP_CITY": "PRESCOTT VALLEY", "CWP_STATE": "AZ", "CWP_ZIP": "86314", "CWP_COUNTY": null, "NPDES_ID": "AZ0025381", "REGISTRY_ID": "110000914725", "CWP_FACILITY_TYPE_INDICATOR": "POTW", "CWP_MAJOR_MINOR_STATUS": "Major", "CWP_PERMIT_STATUS_DESC": "Effective", "STATE_WATER_BODY_NAME": null, "CWP_CSO_FLAG": "N"}}, {"type": "Feature", "geometry": {"type": "Point", "coordinates": [-111.557230600471, 33.3588852398211]}, "properties": {"CWP_NAME": "SUPERSTITION MOUNTAINS COMMUNITY FACILITIES DISTRICT NO 1", "CWP_STREET": "5661 S IRONWOOD DR", "CWP_CITY": "APACHE JUNCTION", "CWP_STATE": "AZ", "CWP_ZIP": "85120", "CWP_COUNTY": null, "NPDES_ID": "AZ0023931", "REGISTRY_ID": "110010062314", "CWP_FACILITY_TYPE_INDICATOR": "POTW", "CWP_MAJOR_MINOR_STATUS": "Major", "CWP_PERMIT_STATUS_DESC": "Effective", "STATE_WATER_BODY_NAME": null, "CWP_CSO_FLAG": "N"}}, {"type": "Feature", "geometry": {"type": "Point", "coordinates": [-112.181390953978, 35.2705554495834]}, "properties": {"CWP_NAME": "WILLIAMS, CITY OF", "CWP_STREET": "WILLIAMS WWTP", "CWP_CITY": "WILLIAMS", "CWP_STATE": "AZ", "CWP_ZIP": "86046", "CWP_COUNTY": "Coconino", "NPDES_ID": "AZ0024356", "REGISTRY_ID": "110037455232", "CWP_FACILITY_TYPE_INDICATOR": "POTW", "CWP_MAJOR_MINOR_STATUS": "Minor", "CWP_PERMIT_STATUS_DESC": "Terminated", "STATE_WATER_BODY_NAME": "CATARACK CREEK", "CWP_CSO_FLAG": "N"}}, {"type": "Feature", "geometry": {"type": "Point", "coordinates": [-112.484631466954, 33.4414546579133]}, "properties": {"CWP_NAME": "BLUE HORIZONS VILLAGES WRF", "CWP_STREET": "US HWY 85", "CWP_CITY": "UNKNOWN", "CWP_STATE": "AZ", "CWP_ZIP": "85326", "CWP_COUNTY": "Maricopa", "NPDES_ID": "AZ0024724", "REGISTRY_ID": "110055023594", "CWP_FACILITY_TYPE_INDICATOR": "POTW", "CWP_MAJOR_MINOR_STATUS": "Minor", "CWP_PERMIT_STATUS_DESC": "Terminated", "STATE_WATER_BODY_NAME": null, "CWP_CSO_FLAG": "N"}}, {"type": "Feature", "geometry": {"type": "Point", "coordinates": [-112.254321337959, 33.393595442124]}, "properties": {"CWP_NAME": "CITY OF PHOENIX - 91ST AVENUE WWTP", "CWP_STREET": "5615 S 91ST AVE", "CWP_CITY": "PHOENIX", "CWP_STATE": "AZ", "CWP_ZIP": "85353", "CWP_COUNTY": null, "NPDES_ID": "AZ0020524", "REGISTRY_ID": "110000510144", "CWP_FACILITY_TYPE_INDICATOR": "POTW", "CWP_MAJOR_MINOR_STATUS": "Major", "CWP_PERMIT_STATUS_DESC": "Expired", "STATE_WATER_BODY_NAME": null, "CWP_CSO_FLAG": "N"}}, {"type": "Feature", "geometry": {"type": "Point", "coordinates": [-111.359788973746, 34.2860612263104]}, "properties": {"CWP_NAME": "UNKNOWN", "CWP_STREET": "UNKNOWN", "CWP_CITY": "UNKNOWN", "CWP_STATE": "AZ", "CWP_ZIP": "00000", "CWP_COUNTY": "Gila", "NPDES_ID": "AZ0023299", "REGISTRY_ID": "110000508530", "CWP_FACILITY_TYPE_INDICATOR": "POTW", "CWP_MAJOR_MINOR_STATUS": "Other/Nonclassified", "CWP_PERMIT_STATUS_DESC": "Not Needed", "STATE_WATER_BODY_NAME": "EAST VERDE RIVER", "CWP_CSO_FLAG": "N"}}, {"type": "Feature", "geometry": {"type": "Point", "coordinates": [-109.71808243444, 32.8348655897612]}, "properties": {"CWP_NAME": "UNKNOWN", "CWP_STREET": "UNKNOWN", "CWP_CITY": "UNKNOWN", "CWP_STATE": "AZ", "CWP_ZIP": "00000", "CWP_COUNTY": "Graham", "NPDES_ID": "AZ0021938", "REGISTRY_ID": "110064631224", "CWP_FACILITY_TYPE_INDICATOR": "POTW", "CWP_MAJOR_MINOR_STATUS": "Other/Nonclassified", "CWP_PERMIT_STATUS_DESC": "Not Needed", "STATE_WATER_BODY_NAME": "ASH CREEK", "CWP_CSO_FLAG": "N"}}, {"type": "Feature", "geometry": {"type": "Point", "coordinates": [-110.080622018657, 36.6028114315693]}, "properties": {"CWP_NAME": "KAIBETO STP", "CWP_STREET": "15 M S OF STATE HWY 98", "CWP_CITY": "KAIBETO", "CWP_STATE": "AZ", "CWP_ZIP": "86053", "CWP_COUNTY": "Coconino", "NPDES_ID": "NN0022471", "REGISTRY_ID": "110030919380", "CWP_FACILITY_TYPE_INDICATOR": "POTW", "CWP_MAJOR_MINOR_STATUS": "Minor", "CWP_PERMIT_STATUS_DESC": "Terminated", "STATE_WATER_BODY_NAME": "KAIBETO WASH", "CWP_CSO_FLAG": "N"}}, {"type": "Feature", "geometry": {"type": "Point", "coordinates": [-112.417413419678, 33.3528588373923]}, "properties": {"CWP_NAME": "UNKNOWN", "CWP_STREET": "UNKNOWN", "CWP_CITY": "UNKNOWN", "CWP_STATE": "AZ", "CWP_ZIP": "00000", "CWP_COUNTY": "Maricopa", "NPDES_ID": "AZ0023043", "REGISTRY_ID": "110064613716", "CWP_FACILITY_TYPE_INDICATOR": "POTW", "CWP_MAJOR_MINOR_STATUS": "Other/Nonclassified", "CWP_PERMIT_STATUS_DESC": "Not Needed", "STATE_WATER_BODY_NAME": "GILA RIVER", "CWP_CSO_FLAG": "N"}}, {"type": "Feature", "geometry": {"type": "Point", "coordinates": [-112.772910143582, 33.9621972503007]}, "properties": {"CWP_NAME": "WICKENBURG WWTP", "CWP_STREET": "WASTWATER TREATMENT FACILITY", "CWP_CITY": "WICKENBURG", "CWP_STATE": "AZ", "CWP_ZIP": "85544", "CWP_COUNTY": "Maricopa", "NPDES_ID": "AZ0020044", "REGISTRY_ID": "110010062671", "CWP_FACILITY_TYPE_INDICATOR": "POTW", "CWP_MAJOR_MINOR_STATUS": "Minor", "CWP_PERMIT_STATUS_DESC": "Terminated", "STATE_WATER_BODY_NAME": "HASSAYAMPA RIVER", "CWP_CSO_FLAG": "N"}}, {"type": "Feature", "geometry": {"type": "Point", "coordinates": [-112.396511376012, 33.3986046591937]}, "properties": {"CWP_NAME": "CITY OF GOODYEAR - 157TH AVE WWTP", "CWP_STREET": "5424 S 157TH AVE", "CWP_CITY": "GOODYEAR", "CWP_STATE": "AZ", "CWP_ZIP": "85338", "CWP_COUNTY": null, "NPDES_ID": "AZ0022357", "REGISTRY_ID": "110000510894", "CWP_FACILITY_TYPE_INDICATOR": "POTW", "CWP_MAJOR_MINOR_STATUS": "Major", "CWP_PERMIT_STATUS_DESC": "Effective", "STATE_WATER_BODY_NAME": null, "CWP_CSO_FLAG": "N"}}, {"type": "Feature", "geometry": {"type": "Point", "coordinates": [-114.190802255355, 34.2229655255481]}, "properties": {"CWP_NAME": "UNKNOWN", "CWP_STREET": "UNKNOWN", "CWP_CITY": "UNKNOWN", "CWP_STATE": "AZ", "CWP_ZIP": "00000", "CWP_COUNTY": "La Paz", "NPDES_ID": "AZ0023132", "REGISTRY_ID": "110064612897", "CWP_FACILITY_TYPE_INDICATOR": "POTW", "CWP_MAJOR_MINOR_STATUS": "Other/Nonclassified", "CWP_PERMIT_STATUS_DESC": "Not Needed", "STATE_WATER_BODY_NAME": "COLORADO RIVER", "CWP_CSO_FLAG": "N"}}, {"type": "Feature", "geometry": {"type": "Point", "coordinates": [-110.191677129146, 31.5616717754824]}, "properties": {"CWP_NAME": "SIERRA VISTA, CITY OF", "CWP_STREET": "ENVIRONMENTAL OP PARK WWTP", "CWP_CITY": "SIERRA VISTA", "CWP_STATE": "AZ", "CWP_ZIP": "85635", "CWP_COUNTY": "Cochise", "NPDES_ID": "AZ0026000", "REGISTRY_ID": "110043671666", "CWP_FACILITY_TYPE_INDICATOR": "POTW", "CWP_MAJOR_MINOR_STATUS": "Minor", "CWP_PERMIT_STATUS_DESC": "Terminated", "STATE_WATER_BODY_NAME": "SAN PEDRO RIVER", "CWP_CSO_FLAG": "N"}}, {"type": "Feature", "geometry": {"type": "Point", "coordinates": [-110.970710532613, 31.901985145274]}, "properties": {"CWP_NAME": "PIMA COUNTY - WWMD - GREEN VALLEY BNRO - WWTP", "CWP_STREET": "2201 N NOGALES HWY", "CWP_CITY": "SAHUARITA", "CWP_STATE": "AZ", "CWP_ZIP": "85614", "CWP_COUNTY": null, "NPDES_ID": "AZ0024937", "REGISTRY_ID": "110064596842", "CWP_FACILITY_TYPE_INDICATOR": "POTW", "CWP_MAJOR_MINOR_STATUS": "Major", "CWP_PERMIT_STATUS_DESC": "Effective", "STATE_WATER_BODY_NAME": null, "CWP_CSO_FLAG": "N"}}, {"type": "Feature", "geometry": {"type": "Point", "coordinates": [-110.586781063088, 34.4424650854267]}, "properties": {"CWP_NAME": "BLACK CANYON WWTP", "CWP_STREET": "3527 BRENDA WAY", "CWP_CITY": "HEBER", "CWP_STATE": "AZ", "CWP_ZIP": "85928", "CWP_COUNTY": "Navajo", "NPDES_ID": "AZ0025739", "REGISTRY_ID": "110037455223", "CWP_FACILITY_TYPE_INDICATOR": "POTW", "CWP_MAJOR_MINOR_STATUS": "Minor", "CWP_PERMIT_STATUS_DESC": "Terminated", "STATE_WATER_BODY_NAME": "BLACK CANYON WASH TRIB TO COLORADO", "CWP_CSO_FLAG": "N"}}, {"type": "Feature", "geometry": {"type": "Point", "coordinates": [-112.74001110017, 33.4658046915216]}, "properties": {"CWP_NAME": "BUCKEYE, TOWN OF", "CWP_STREET": "TARTESSO WRF", "CWP_CITY": "BUCKEYE", "CWP_STATE": "AZ", "CWP_ZIP": "85326", "CWP_COUNTY": "Maricopa", "NPDES_ID": "AZ0025127", "REGISTRY_ID": "110020069977", "CWP_FACILITY_TYPE_INDICATOR": "POTW", "CWP_MAJOR_MINOR_STATUS": "Major", "CWP_PERMIT_STATUS_DESC": "Terminated", "STATE_WATER_BODY_NAME": "HASSAYAMPA RIVER IN MIDDLE GILA", "CWP_CSO_FLAG": "N"}}, {"type": "Feature", "geometry": {"type": "Point", "coordinates": [-112.181150834471, 35.2651451274656]}, "properties": {"CWP_NAME": "WILLIAMS WWTP", "CWP_STREET": "113 S FIRST ST", "CWP_CITY": "WILLIAMS", "CWP_STATE": "AZ", "CWP_ZIP": "86046", "CWP_COUNTY": "Coconino", "NPDES_ID": "AZ0023361", "REGISTRY_ID": "110039724778", "CWP_FACILITY_TYPE_INDICATOR": "POTW", "CWP_MAJOR_MINOR_STATUS": "Minor", "CWP_PERMIT_STATUS_DESC": "Terminated", "STATE_WATER_BODY_NAME": "CATARACT CREEK", "CWP_CSO_FLAG": "N"}}, {"type": "Feature", "geometry": {"type": "Point", "coordinates": [-110.237420253599, 31.5392750538573]}, "properties": {"CWP_NAME": "TRIBUTE WRP", "CWP_STREET": "SE CORNER OF AVENIDA DEL SOL & SNYDER BLVD", "CWP_CITY": "SIERRA VISTA", "CWP_STATE": "AZ", "CWP_ZIP": "85635", "CWP_COUNTY": "Cochise", "NPDES_ID": "AZ0025984", "REGISTRY_ID": "110043245663", "CWP_FACILITY_TYPE_INDICATOR": "POTW", "CWP_MAJOR_MINOR_STATUS": "Minor", "CWP_PERMIT_STATUS_DESC": "Terminated", "STATE_WATER_BODY_NAME": null, "CWP_CSO_FLAG": "N"}}, {"type": "Feature", "geometry": {"type": "Point", "coordinates": [-109.825110733829, 32.2488051994184]}, "properties": {"CWP_NAME": "WILLCOX WWTF", "CWP_STREET": "868 E MALEY ST", "CWP_CITY": "WILLCOX", "CWP_STATE": "AZ", "CWP_ZIP": "85643", "CWP_COUNTY": "Cochise", "NPDES_ID": "AZ0024830", "REGISTRY_ID": "110039713290", "CWP_FACILITY_TYPE_INDICATOR": "POTW", "CWP_MAJOR_MINOR_STATUS": "Minor", "CWP_PERMIT_STATUS_DESC": "Terminated", "STATE_WATER_BODY_NAME": "LAKE COCHISE", "CWP_CSO_FLAG": "N"}}, {"type": "Feature", "geometry": {"type": "Point", "coordinates": [-112.316941238025, 34.5915896912078]}, "properties": {"CWP_NAME": "PRESCOTT WWTF", "CWP_STREET": "8501 E YAVAPAI ROAD", "CWP_CITY": "PRESCOTT VALLEY", "CWP_STATE": "AZ", "CWP_ZIP": "863148622", "CWP_COUNTY": "Yavapai", "NPDES_ID": "AZ0023761", "REGISTRY_ID": "110000914725", "CWP_FACILITY_TYPE_INDICATOR": "POTW", "CWP_MAJOR_MINOR_STATUS": "Minor", "CWP_PERMIT_STATUS_DESC": "Terminated", "STATE_WATER_BODY_NAME": "AGUA FRIA RIVER", "CWP_CSO_FLAG": "N"}}, {"type": "Feature", "geometry": {"type": "Point", "coordinates": [-111.952230912029, 33.4236355162547]}, "properties": {"CWP_NAME": "TEMPE, CITY OF", "CWP_STREET": "615 S HARDY DRIVE", "CWP_CITY": "TEMPE", "CWP_STATE": "AZ", "CWP_ZIP": "85281", "CWP_COUNTY": "Maricopa", "NPDES_ID": "AZS000005", "REGISTRY_ID": "110056004746", "CWP_FACILITY_TYPE_INDICATOR": "POTW", "CWP_MAJOR_MINOR_STATUS": "Major", "CWP_PERMIT_STATUS_DESC": "Effective", "STATE_WATER_BODY_NAME": null, "CWP_CSO_FLAG": "N"}}, {"type": "Feature", "geometry": {"type": "Point", "coordinates": [-111.25889858308, 35.1672710510039]}, "properties": {"CWP_NAME": "TWIN ARROWS CASINO WATER AND WASTEWATER SYSTEMS", "CWP_STREET": "22181 RESORT BLVD, FLAGSTAFF", "CWP_CITY": "TWIN ARROWS", "CWP_STATE": "AZ", "CWP_ZIP": "86033", "CWP_COUNTY": "Coconino", "NPDES_ID": "NN0030344", "REGISTRY_ID": "110059716776", "CWP_FACILITY_TYPE_INDICATOR": "POTW", "CWP_MAJOR_MINOR_STATUS": "Minor", "CWP_PERMIT_STATUS_DESC": "Effective", "STATE_WATER_BODY_NAME": "TRIBUTARY TO PADRE CANYON", "CWP_CSO_FLAG": "N"}}, {"type": "Feature", "geometry": {"type": "Point", "coordinates": [-109.825110733829, 32.2488051994184]}, "properties": {"CWP_NAME": "CITY OF WILLCOX - WWTP", "CWP_STREET": "868 E MALEY ST", "CWP_CITY": "WILLCOX", "CWP_STATE": "AZ", "CWP_ZIP": "85643", "CWP_COUNTY": "Cochise", "NPDES_ID": "AZ0025771", "REGISTRY_ID": "110039713290", "CWP_FACILITY_TYPE_INDICATOR": "POTW", "CWP_MAJOR_MINOR_STATUS": "Minor", "CWP_PERMIT_STATUS_DESC": "Terminated", "STATE_WATER_BODY_NAME": null, "CWP_CSO_FLAG": "N"}}, {"type": "Feature", "geometry": {"type": "Point", "coordinates": [-111.509891258741, 34.4074553215644]}, "properties": {"CWP_NAME": "PORTALS IV WWTP", "CWP_STREET": "PORTAL PINE CREEK CANYON", "CWP_CITY": "PINE", "CWP_STATE": "AZ", "CWP_ZIP": "85544", "CWP_COUNTY": "Gila", "NPDES_ID": "AZ0024368", "REGISTRY_ID": "110054949678", "CWP_FACILITY_TYPE_INDICATOR": "POTW", "CWP_MAJOR_MINOR_STATUS": "Minor", "CWP_PERMIT_STATUS_DESC": "Terminated", "STATE_WATER_BODY_NAME": null, "CWP_CSO_FLAG": "N"}}, {"type": "Feature", "geometry": {"type": "Point", "coordinates": [-110.067204646711, 31.7126859616544]}, "properties": {"CWP_NAME": "CITY OF TOMBSTONE - WWTP", "CWP_STREET": "1581 N YELLOWJACKET WAY", "CWP_CITY": "TOMBSTONE", "CWP_STATE": "AZ", "CWP_ZIP": "85638", "CWP_COUNTY": null, "NPDES_ID": "AZ0025577", "REGISTRY_ID": "110028306642", "CWP_FACILITY_TYPE_INDICATOR": "POTW", "CWP_MAJOR_MINOR_STATUS": "Minor", "CWP_PERMIT_STATUS_DESC": "Effective", "STATE_WATER_BODY_NAME": null, "CWP_CSO_FLAG": "N"}}, {"type": "Feature", "geometry": {"type": "Point", "coordinates": [-111.289596130964, 36.0913866266733]}, "properties": {"CWP_NAME": "TUBA CITY WWTF", "CWP_STREET": "5 MILES SOUTHWEST OF TUBA CITY", "CWP_CITY": "TUBA CITY", "CWP_STATE": "AZ", "CWP_ZIP": "86045", "CWP_COUNTY": "Coconino", "NPDES_ID": "NN0020290", "REGISTRY_ID": "110024409344", "CWP_FACILITY_TYPE_INDICATOR": "POTW", "CWP_MAJOR_MINOR_STATUS": "Major", "CWP_PERMIT_STATUS_DESC": "Effective", "STATE_WATER_BODY_NAME": "KERLEY VALLEY-MOENKOPI WASH (LOCAL DRAINAGE)", "CWP_CSO_FLAG": "N"}}, {"type": "Feature", "geometry": {"type": "Point", "coordinates": [-111.375270709561, 33.0077053370092]}, "properties": {"CWP_NAME": "TOWN OF FLORENCE - NORTH FLORENCE WWTP", "CWP_STREET": "3200 N PINAL PKWY", "CWP_CITY": "FLORENCE", "CWP_STATE": "AZ", "CWP_ZIP": "85132", "CWP_COUNTY": null, "NPDES_ID": "AZ0025194", "REGISTRY_ID": "110017377097", "CWP_FACILITY_TYPE_INDICATOR": "POTW", "CWP_MAJOR_MINOR_STATUS": "Minor", "CWP_PERMIT_STATUS_DESC": "Effective", "STATE_WATER_BODY_NAME": null, "CWP_CSO_FLAG": "N"}}, {"type": "Feature", "geometry": {"type": "Point", "coordinates": [-109.572816940412, 35.720005346463]}, "properties": {"CWP_NAME": "GANADO WWTP", "CWP_STREET": "1MI W. OF HUBBELL TRADING POST, 0.5MI S. OF HWY264", "CWP_CITY": "GANADO", "CWP_STATE": "AZ", "CWP_ZIP": "86505", "CWP_COUNTY": "Apache", "NPDES_ID": "NN0022195", "REGISTRY_ID": "110010062591", "CWP_FACILITY_TYPE_INDICATOR": "POTW", "CWP_MAJOR_MINOR_STATUS": "Minor", "CWP_PERMIT_STATUS_DESC": "Effective", "STATE_WATER_BODY_NAME": "PUEBLO COLORADO WASH", "CWP_CSO_FLAG": "N"}}, {"type": "Feature", "geometry": {"type": "Point", "coordinates": [-112.029409866097, 33.6940365073151]}, "properties": {"CWP_NAME": "CAVE CREEK WRP", "CWP_STREET": "22841 N CAVE CREEK RD", "CWP_CITY": "PHOENIX", "CWP_STATE": "AZ", "CWP_ZIP": "850247597", "CWP_COUNTY": "Maricopa", "NPDES_ID": "AZ0024465", "REGISTRY_ID": "110032960712", "CWP_FACILITY_TYPE_INDICATOR": "POTW", "CWP_MAJOR_MINOR_STATUS": "Major", "CWP_PERMIT_STATUS_DESC": "Terminated", "STATE_WATER_BODY_NAME": "UNNAMED WASH", "CWP_CSO_FLAG": "N"}}, {"type": "Feature", "geometry": {"type": "Point", "coordinates": [-110.042058918617, 34.7824394733966]}, "properties": {"CWP_NAME": "SNOWFLAKE WWTP", "CWP_STREET": "WASTEWATER TREATMENT FACILITY", "CWP_CITY": "SNOWFLAKE", "CWP_STATE": "AZ", "CWP_ZIP": "85942", "CWP_COUNTY": "Navajo", "NPDES_ID": "AZ0024287", "REGISTRY_ID": "110054949641", "CWP_FACILITY_TYPE_INDICATOR": "POTW", "CWP_MAJOR_MINOR_STATUS": "Minor", "CWP_PERMIT_STATUS_DESC": "Terminated", "STATE_WATER_BODY_NAME": "COTTONWOOD WASH", "CWP_CSO_FLAG": "N"}}, {"type": "Feature", "geometry": {"type": "Point", "coordinates": [-112.106951311231, 34.7522257288591]}, "properties": {"CWP_NAME": "TOWN OF JEROME - WWTP", "CWP_STREET": "SEWER PLANT ROAD", "CWP_CITY": "JEROME", "CWP_STATE": "AZ", "CWP_ZIP": "86331", "CWP_COUNTY": null, "NPDES_ID": "AZ0021804", "REGISTRY_ID": "110055979712", "CWP_FACILITY_TYPE_INDICATOR": "POTW", "CWP_MAJOR_MINOR_STATUS": "Minor", "CWP_PERMIT_STATUS_DESC": "Effective", "STATE_WATER_BODY_NAME": null, "CWP_CSO_FLAG": "N"}}, {"type": "Feature", "geometry": {"type": "Point", "coordinates": [-111.179460324857, 32.1621248669499]}, "properties": {"CWP_NAME": "PIMA COUNTY - WWMD - AVRA VALLEY WWTF", "CWP_STREET": "10000 W SNYDER HILL RD", "CWP_CITY": "TUCSON", "CWP_STATE": "AZ", "CWP_ZIP": "85735", "CWP_COUNTY": null, "NPDES_ID": "AZ0024121", "REGISTRY_ID": "110001174489", "CWP_FACILITY_TYPE_INDICATOR": "POTW", "CWP_MAJOR_MINOR_STATUS": "Major", "CWP_PERMIT_STATUS_DESC": "Effective", "STATE_WATER_BODY_NAME": null, "CWP_CSO_FLAG": "N"}}, {"type": "Feature", "geometry": {"type": "Point", "coordinates": [-111.879205049068, 33.4346989813845]}, "properties": {"CWP_NAME": "UNKNOWN", "CWP_STREET": "UNKNOWN", "CWP_CITY": "UNKNOWN", "CWP_STATE": "AZ", "CWP_ZIP": "00000", "CWP_COUNTY": "Maricopa", "NPDES_ID": "AZ0022870", "REGISTRY_ID": "110064605654", "CWP_FACILITY_TYPE_INDICATOR": "POTW", "CWP_MAJOR_MINOR_STATUS": "Other/Nonclassified", "CWP_PERMIT_STATUS_DESC": "Not Needed", "STATE_WATER_BODY_NAME": "SALT RIVER", "CWP_CSO_FLAG": "N"}}, {"type": "Feature", "geometry": {"type": "Point", "coordinates": [-110.75901995062, 31.5376400629046]}, "properties": {"CWP_NAME": "COSTELLO DR WWTP", "CWP_STREET": "151 COSTELLO DRIVE", "CWP_CITY": "PATAGONIA", "CWP_STATE": "AZ", "CWP_ZIP": "85624", "CWP_COUNTY": "Santa Cruz", "NPDES_ID": "AZ0021679", "REGISTRY_ID": "110055029927", "CWP_FACILITY_TYPE_INDICATOR": "POTW", "CWP_MAJOR_MINOR_STATUS": "Minor", "CWP_PERMIT_STATUS_DESC": "Terminated", "STATE_WATER_BODY_NAME": "SONOITA CREET", "CWP_CSO_FLAG": "N"}}, {"type": "Feature", "geometry": {"type": "Point", "coordinates": [-110.193341115985, 34.9083355755599]}, "properties": {"CWP_NAME": "PAINTED MESA WATER RECLAMATION FACILITY", "CWP_STREET": "300 BROADCAST LN", "CWP_CITY": "HOLBROOK", "CWP_STATE": "AZ", "CWP_ZIP": "86025", "CWP_COUNTY": null, "NPDES_ID": "AZ0025542", "REGISTRY_ID": "110028271849", "CWP_FACILITY_TYPE_INDICATOR": "POTW", "CWP_MAJOR_MINOR_STATUS": "Major", "CWP_PERMIT_STATUS_DESC": "Effective", "STATE_WATER_BODY_NAME": null, "CWP_CSO_FLAG": "N"}}, {"type": "Feature", "geometry": {"type": "Point", "coordinates": [-111.359788973746, 34.2860612263104]}, "properties": {"CWP_NAME": "NORTHERN GILA COUNTY SANITARY DISTRICT - AMERICAN GULCH", "CWP_STREET": "2200 W DOLL BABY RD", "CWP_CITY": "PAYSON", "CWP_STATE": "AZ", "CWP_ZIP": "85541", "CWP_COUNTY": null, "NPDES_ID": "AZ0020117", "REGISTRY_ID": "110000508530", "CWP_FACILITY_TYPE_INDICATOR": "POTW", "CWP_MAJOR_MINOR_STATUS": "Major", "CWP_PERMIT_STATUS_DESC": "Effective", "STATE_WATER_BODY_NAME": null, "CWP_CSO_FLAG": "N"}}, {"type": "Feature", "geometry": {"type": "Point", "coordinates": [-110.697547032528, 35.0220350500276]}, "properties": {"CWP_NAME": "CITY OF WINSLOW - WWTP", "CWP_STREET": "600 NORTH RD", "CWP_CITY": "WINSLOW", "CWP_STATE": "AZ", "CWP_ZIP": "86047", "CWP_COUNTY": "Navajo", "NPDES_ID": "AZ0023833", "REGISTRY_ID": "110000730399", "CWP_FACILITY_TYPE_INDICATOR": "POTW", "CWP_MAJOR_MINOR_STATUS": "Major", "CWP_PERMIT_STATUS_DESC": "Terminated", "STATE_WATER_BODY_NAME": null, "CWP_CSO_FLAG": "N"}}, {"type": "Feature", "geometry": {"type": "Point", "coordinates": [-112.340471011447, 33.4025149149008]}, "properties": {"CWP_NAME": "CITY OF AVONDALE - WRF", "CWP_STREET": "4800 S DYSART RD", "CWP_CITY": "AVONDALE", "CWP_STATE": "AZ", "CWP_ZIP": "85323", "CWP_COUNTY": null, "NPDES_ID": "AZ0023281", "REGISTRY_ID": "110022421789", "CWP_FACILITY_TYPE_INDICATOR": "POTW", "CWP_MAJOR_MINOR_STATUS": "Major", "CWP_PERMIT_STATUS_DESC": "Effective", "STATE_WATER_BODY_NAME": null, "CWP_CSO_FLAG": "N"}}, {"type": "Feature", "geometry": {"type": "Point", "coordinates": [-112.728248826892, 32.9448309579123]}, "properties": {"CWP_NAME": "TOWN OF GILA BEND - WWTP", "CWP_STREET": "1901 W WATERMELON ROAD", "CWP_CITY": "GILA BEND", "CWP_STATE": "AZ", "CWP_ZIP": "85337", "CWP_COUNTY": null, "NPDES_ID": "AZ0020231", "REGISTRY_ID": "110010677829", "CWP_FACILITY_TYPE_INDICATOR": "POTW", "CWP_MAJOR_MINOR_STATUS": "Minor", "CWP_PERMIT_STATUS_DESC": "Effective", "STATE_WATER_BODY_NAME": null, "CWP_CSO_FLAG": "N"}}, {"type": "Feature", "geometry": {"type": "Point", "coordinates": [-111.28945105041, 32.4677747913675]}, "properties": {"CWP_NAME": "TOWN OF MARANA WATER RECLAMATION FACILITY", "CWP_STREET": "14393 N LUCKETT RD", "CWP_CITY": "MARANA", "CWP_STATE": "AZ", "CWP_ZIP": "85653", "CWP_COUNTY": null, "NPDES_ID": "AZ0024520", "REGISTRY_ID": "110006785087", "CWP_FACILITY_TYPE_INDICATOR": "POTW", "CWP_MAJOR_MINOR_STATUS": "Major", "CWP_PERMIT_STATUS_DESC": "Effective", "STATE_WATER_BODY_NAME": null, "CWP_CSO_FLAG": "N"}}, {"type": "Feature", "geometry": {"type": "Point", "coordinates": [-111.630671198224, 35.1884410731012]}, "properties": {"CWP_NAME": "CITY OF FLAGSTAFF - RIO DE FLAG WATER RECLAMATION FACILITY", "CWP_STREET": "600 S BABBITT DR", "CWP_CITY": "FLAGSTAFF", "CWP_STATE": "AZ", "CWP_ZIP": "86001", "CWP_COUNTY": null, "NPDES_ID": "AZ0023639", "REGISTRY_ID": "110064629442", "CWP_FACILITY_TYPE_INDICATOR": "POTW", "CWP_MAJOR_MINOR_STATUS": "Major", "CWP_PERMIT_STATUS_DESC": "Effective", "STATE_WATER_BODY_NAME": null, "CWP_CSO_FLAG": "N"}}, {"type": "Feature", "geometry": {"type": "Point", "coordinates": [-111.23362231717, 36.1083388528973]}, "properties": {"CWP_NAME": "UPPER VILLAGE OF MOENKOPI WWTF", "CWP_STREET": "MILE POST 321  HIGHWAY 160", "CWP_CITY": "TUBA CITY", "CWP_STATE": "AZ", "CWP_ZIP": "86045", "CWP_COUNTY": "Coconino", "NPDES_ID": "AZ0024619", "REGISTRY_ID": "110024463962", "CWP_FACILITY_TYPE_INDICATOR": "POTW", "CWP_MAJOR_MINOR_STATUS": "Minor", "CWP_PERMIT_STATUS_DESC": "Effective", "STATE_WATER_BODY_NAME": "MOENKOPI WASH, REUSE HOLDING TANK, REUSE MANHOLES", "CWP_CSO_FLAG": "N"}}, {"type": "Feature", "geometry": {"type": "Point", "coordinates": [-112.106281211405, 33.4242452486612]}, "properties": {"CWP_NAME": "CITY OF PHOENIX - 23RD AVENUE WWTP", "CWP_STREET": "2470 S 22ND AVE", "CWP_CITY": "PHOENIX", "CWP_STATE": "AZ", "CWP_ZIP": "85009", "CWP_COUNTY": null, "NPDES_ID": "AZ0020559", "REGISTRY_ID": "110000509851", "CWP_FACILITY_TYPE_INDICATOR": "POTW", "CWP_MAJOR_MINOR_STATUS": "Major", "CWP_PERMIT_STATUS_DESC": "Effective", "STATE_WATER_BODY_NAME": null, "CWP_CSO_FLAG": "N"}}, {"type": "Feature", "geometry": {"type": "Point", "coordinates": [-110.279210884906, 31.9697050364637]}, "properties": {"CWP_NAME": "BENSON WWTF", "CWP_STREET": "300 HARVEST WAY", "CWP_CITY": "BENSON", "CWP_STATE": "AZ", "CWP_ZIP": "85602", "CWP_COUNTY": "Cochise", "NPDES_ID": "AZ0024376", "REGISTRY_ID": "110000730406", "CWP_FACILITY_TYPE_INDICATOR": "POTW", "CWP_MAJOR_MINOR_STATUS": "Minor", "CWP_PERMIT_STATUS_DESC": "Terminated", "STATE_WATER_BODY_NAME": "TRIBUTARY WASH TO SAN PEDRO RIVER", "CWP_CSO_FLAG": "N"}}, {"type": "Feature", "geometry": {"type": "Point", "coordinates": [-110.279210884906, 31.9697050364637]}, "properties": {"CWP_NAME": "CITY OF BENSON - WWTF", "CWP_STREET": "300 E HARVEST WAY", "CWP_CITY": "BENSON", "CWP_STATE": "AZ", "CWP_ZIP": "85602", "CWP_COUNTY": null, "NPDES_ID": "AZ0026026", "REGISTRY_ID": "110000730406", "CWP_FACILITY_TYPE_INDICATOR": "POTW", "CWP_MAJOR_MINOR_STATUS": "Major", "CWP_PERMIT_STATUS_DESC": "Effective", "STATE_WATER_BODY_NAME": null, "CWP_CSO_FLAG": "N"}}, {"type": "Feature", "geometry": {"type": "Point", "coordinates": [-110.644339355307, 32.7091582904476]}, "properties": {"CWP_NAME": "TOWN OF MAMMOTH", "CWP_STREET": "CIELO WWTP", "CWP_CITY": "MAMMOTH", "CWP_STATE": "AZ", "CWP_ZIP": "85618", "CWP_COUNTY": "Pinal", "NPDES_ID": "AZ0025470", "REGISTRY_ID": "110037455170", "CWP_FACILITY_TYPE_INDICATOR": "POTW", "CWP_MAJOR_MINOR_STATUS": "Minor", "CWP_PERMIT_STATUS_DESC": "Terminated", "STATE_WATER_BODY_NAME": "CAMP GRANT WASH", "CWP_CSO_FLAG": "N"}}, {"type": "Feature", "geometry": {"type": "Point", "coordinates": [-114.726912385063, 32.5898090438486]}, "properties": {"CWP_NAME": "SOMERTON WWTP", "CWP_STREET": "110 STATE AVE", "CWP_CITY": "SOMERTON", "CWP_STATE": "AZ", "CWP_ZIP": "85350", "CWP_COUNTY": "Yuma", "NPDES_ID": "AZ0023051", "REGISTRY_ID": "110006785229", "CWP_FACILITY_TYPE_INDICATOR": "POTW", "CWP_MAJOR_MINOR_STATUS": "Minor", "CWP_PERMIT_STATUS_DESC": "Terminated", "STATE_WATER_BODY_NAME": "YUMA COUNTY WATER USERS MAIN DRAIN", "CWP_CSO_FLAG": "N"}}, {"type": "Feature", "geometry": {"type": "Point", "coordinates": [-110.930730281464, 32.1780347872727]}, "properties": {"CWP_NAME": "ED PASTOR KINO ENVIRONMENTAL RESTORATION PROJECT", "CWP_STREET": "2725 E AJO WAY", "CWP_CITY": "TUCSON", "CWP_STATE": "AZ", "CWP_ZIP": "85713", "CWP_COUNTY": "Pima", "NPDES_ID": "AZ0025291", "REGISTRY_ID": "110024815654", "CWP_FACILITY_TYPE_INDICATOR": "POTW", "CWP_MAJOR_MINOR_STATUS": "Major", "CWP_PERMIT_STATUS_DESC": "Terminated", "STATE_WATER_BODY_NAME": null, "CWP_CSO_FLAG": "N"}}, {"type": "Feature", "geometry": {"type": "Point", "coordinates": [-112.584231397551, 33.3705152208306]}, "properties": {"CWP_NAME": "FESTIVAL RANCH WATER RECLAMATION FACILITY", "CWP_STREET": "18940 N 287TH AVE", "CWP_CITY": "BUCKEYE", "CWP_STATE": "AZ", "CWP_ZIP": "85396", "CWP_COUNTY": null, "NPDES_ID": "AZ0025216", "REGISTRY_ID": "110022853492", "CWP_FACILITY_TYPE_INDICATOR": "POTW", "CWP_MAJOR_MINOR_STATUS": "Major", "CWP_PERMIT_STATUS_DESC": "Effective", "STATE_WATER_BODY_NAME": null, "CWP_CSO_FLAG": "N"}}, {"type": "Feature", "geometry": {"type": "Point", "coordinates": [-110.760230507127, 32.6075249863894]}, "properties": {"CWP_NAME": "ORACLE SANITARY DISTRICT WWTP", "CWP_STREET": "NORTH OF TUCSON ON HIGHWAY 77", "CWP_CITY": "ORACLE", "CWP_STATE": "AZ", "CWP_ZIP": "85623", "CWP_COUNTY": null, "NPDES_ID": "AZ0020681", "REGISTRY_ID": "110039403142", "CWP_FACILITY_TYPE_INDICATOR": "POTW", "CWP_MAJOR_MINOR_STATUS": "Minor", "CWP_PERMIT_STATUS_DESC": "Effective", "STATE_WATER_BODY_NAME": null, "CWP_CSO_FLAG": "N"}}, {"type": "Feature", "geometry": {"type": "Point", "coordinates": [-109.87795035925, 31.4117448891458]}, "properties": {"CWP_NAME": "MULE GULCH WWTP", "CWP_STREET": "118 ARIZONA ST", "CWP_CITY": "BISBEE", "CWP_STATE": "AZ", "CWP_ZIP": "85603", "CWP_COUNTY": "Cochise", "NPDES_ID": "AZ0021810", "REGISTRY_ID": "110006785309", "CWP_FACILITY_TYPE_INDICATOR": "POTW", "CWP_MAJOR_MINOR_STATUS": "Minor", "CWP_PERMIT_STATUS_DESC": "Terminated", "STATE_WATER_BODY_NAME": "MULE GULCH IN THE RIO YAQUI BASIN", "CWP_CSO_FLAG": "N"}}, {"type": "Feature", "geometry": {"type": "Point", "coordinates": [-111.12401089139, 33.2807053870843]}, "properties": {"CWP_NAME": "TOWN OF SUPERIOR WWTP", "CWP_STREET": "101 AIRPORT RD", "CWP_CITY": "SUPERIOR", "CWP_STATE": "AZ", "CWP_ZIP": "85173", "CWP_COUNTY": null, "NPDES_ID": "AZ0021199", "REGISTRY_ID": "110055977448", "CWP_FACILITY_TYPE_INDICATOR": "POTW", "CWP_MAJOR_MINOR_STATUS": "Minor", "CWP_PERMIT_STATUS_DESC": "Effective", "STATE_WATER_BODY_NAME": null, "CWP_CSO_FLAG": "N"}}, {"type": "Feature", "geometry": {"type": "Point", "coordinates": [-109.585816685047, 36.1791992452481]}, "properties": {"CWP_NAME": "CHINLE WWTF", "CWP_STREET": "1 M NO OF NTUA BRANCH OFFICE", "CWP_CITY": "CHINLE", "CWP_STATE": "AZ", "CWP_ZIP": "86503", "CWP_COUNTY": "Apache", "NPDES_ID": "NN0020265", "REGISTRY_ID": "110010062680", "CWP_FACILITY_TYPE_INDICATOR": "POTW", "CWP_MAJOR_MINOR_STATUS": "Minor", "CWP_PERMIT_STATUS_DESC": "Effective", "STATE_WATER_BODY_NAME": "CHINLE WASH", "CWP_CSO_FLAG": "N"}}, {"type": "Feature", "geometry": {"type": "Point", "coordinates": [-110.759341066112, 32.4390549632037]}, "properties": {"CWP_NAME": "PIMA COUNTY - WWMD - MOUNT LEMMON WWTP", "CWP_STREET": "12633 N SABINO CANYON PKWY", "CWP_CITY": "MOUNT LEMMON", "CWP_STATE": "AZ", "CWP_ZIP": "85619", "CWP_COUNTY": null, "NPDES_ID": "AZ0022250", "REGISTRY_ID": "110006656804", "CWP_FACILITY_TYPE_INDICATOR": "POTW", "CWP_MAJOR_MINOR_STATUS": "Minor", "CWP_PERMIT_STATUS_DESC": "Effective", "STATE_WATER_BODY_NAME": null, "CWP_CSO_FLAG": "N"}}, {"type": "Feature", "geometry": {"type": "Point", "coordinates": [-109.924571404957, 34.063688608922]}, "properties": {"CWP_NAME": "HON-DAH REGIONAL WWTF", "CWP_STREET": "HWY 73", "CWP_CITY": "WHITERIVER", "CWP_STATE": "AZ", "CWP_ZIP": "85941", "CWP_COUNTY": "Navajo", "NPDES_ID": "AZ0024589", "REGISTRY_ID": "110012810299", "CWP_FACILITY_TYPE_INDICATOR": "POTW", "CWP_MAJOR_MINOR_STATUS": "Minor", "CWP_PERMIT_STATUS_DESC": "Effective", "STATE_WATER_BODY_NAME": "BOOTLEG LAKE", "CWP_CSO_FLAG": "N"}}, {"type": "Feature", "geometry": {"type": "Point", "coordinates": [-110.226678107228, 35.0922271723654]}, "properties": {"CWP_NAME": "PINON WWTF", "CWP_STREET": "06 MILE SW OF BASHAS STORE", "CWP_CITY": "PINON", "CWP_STATE": "AZ", "CWP_ZIP": "86510", "CWP_COUNTY": "Navajo", "NPDES_ID": "NN0024228", "REGISTRY_ID": "110024409460", "CWP_FACILITY_TYPE_INDICATOR": "POTW", "CWP_MAJOR_MINOR_STATUS": "Minor", "CWP_PERMIT_STATUS_DESC": "Terminated", "STATE_WATER_BODY_NAME": "WEPO WASH", "CWP_CSO_FLAG": "N"}}, {"type": "Feature", "geometry": {"type": "Point", "coordinates": [-112.136053486452, 35.9748254291516]}, "properties": {"CWP_NAME": "TUSAYAN WWRF", "CWP_STREET": "#3 RECLAIM LANE", "CWP_CITY": "GRAND CANYON", "CWP_STATE": "AZ", "CWP_ZIP": "86023", "CWP_COUNTY": "Coconino", "NPDES_ID": "AZ0023477", "REGISTRY_ID": "110064180648", "CWP_FACILITY_TYPE_INDICATOR": "POTW", "CWP_MAJOR_MINOR_STATUS": "Minor", "CWP_PERMIT_STATUS_DESC": "Terminated", "STATE_WATER_BODY_NAME": "TRIB COLORADO RIV COCONINO COUNTY", "CWP_CSO_FLAG": "N"}}, {"type": "Feature", "geometry": {"type": "Point", "coordinates": [-111.401610960004, 33.0333054406421]}, "properties": {"CWP_NAME": "TOWN OF FLORENCE - WWRF-SOUTH PLANT", "CWP_STREET": "100 S PLANT RD", "CWP_CITY": "FLORENCE", "CWP_STATE": "AZ", "CWP_ZIP": "85132", "CWP_COUNTY": null, "NPDES_ID": "AZ0025208", "REGISTRY_ID": "110017377113", "CWP_FACILITY_TYPE_INDICATOR": "POTW", "CWP_MAJOR_MINOR_STATUS": "Major", "CWP_PERMIT_STATUS_DESC": "Effective", "STATE_WATER_BODY_NAME": null, "CWP_CSO_FLAG": "N"}}, {"type": "Feature", "geometry": {"type": "Point", "coordinates": [-111.787511016055, 32.9011050619986]}, "properties": {"CWP_NAME": "CITY OF CASA GRANDE - WRF", "CWP_STREET": "1194 W KORTSEN RD", "CWP_CITY": "CASA GRANDE", "CWP_STATE": "AZ", "CWP_ZIP": "85122", "CWP_COUNTY": null, "NPDES_ID": "AZ0025178", "REGISTRY_ID": "110022287210", "CWP_FACILITY_TYPE_INDICATOR": "POTW", "CWP_MAJOR_MINOR_STATUS": "Major", "CWP_PERMIT_STATUS_DESC": "Effective", "STATE_WATER_BODY_NAME": null, "CWP_CSO_FLAG": "N"}}, {"type": "Feature", "geometry": {"type": "Point", "coordinates": [-110.034831023783, 34.2612651878816]}, "properties": {"CWP_NAME": "CITY OF SHOW LOW - MAIN WWTP", "CWP_STREET": "1300 N 6TH ST", "CWP_CITY": "SHOW LOW", "CWP_STATE": "AZ", "CWP_ZIP": "85901", "CWP_COUNTY": "Navajo", "NPDES_ID": "AZ0023841", "REGISTRY_ID": "110006785149", "CWP_FACILITY_TYPE_INDICATOR": "POTW", "CWP_MAJOR_MINOR_STATUS": "Major", "CWP_PERMIT_STATUS_DESC": "Terminated", "STATE_WATER_BODY_NAME": "TELEPHONE LAKE", "CWP_CSO_FLAG": "N"}}, {"type": "Feature", "geometry": {"type": "Point", "coordinates": [-112.084558972758, 33.2924666730438]}, "properties": {"CWP_NAME": "FOOTHILLS WWTP", "CWP_STREET": "16950 S CENTRAL AVE", "CWP_CITY": "PHOENIX", "CWP_STATE": "AZ", "CWP_ZIP": "85044", "CWP_COUNTY": "Maricopa", "NPDES_ID": "AZ0023124", "REGISTRY_ID": "110002572840", "CWP_FACILITY_TYPE_INDICATOR": "POTW", "CWP_MAJOR_MINOR_STATUS": "Minor", "CWP_PERMIT_STATUS_DESC": "Terminated", "STATE_WATER_BODY_NAME": "GILA RIVER", "CWP_CSO_FLAG": "N"}}, {"type": "Feature", "geometry": {"type": "Point", "coordinates": [-110.788289416205, 33.3960983316533]}, "properties": {"CWP_NAME": "CITY OF GLOBE - PINAL CREEK WWTP", "CWP_STREET": "2005 N PINAL CREEK ROAD", "CWP_CITY": "GLOBE", "CWP_STATE": "AZ", "CWP_ZIP": "85501", "CWP_COUNTY": null, "NPDES_ID": "AZ0020249", "REGISTRY_ID": "110000730326", "CWP_FACILITY_TYPE_INDICATOR": "POTW", "CWP_MAJOR_MINOR_STATUS": "Major", "CWP_PERMIT_STATUS_DESC": "Effective", "STATE_WATER_BODY_NAME": null, "CWP_CSO_FLAG": "N"}}, {"type": "Feature", "geometry": {"type": "Point", "coordinates": [-111.877744549517, 33.4311583500793]}, "properties": {"CWP_NAME": "MESA NORTHWEST WRP", "CWP_STREET": "960 NORTH RIVERVIEW", "CWP_CITY": "MESA", "CWP_STATE": "AZ", "CWP_ZIP": "85201", "CWP_COUNTY": "Maricopa", "NPDES_ID": "AZ0024627", "REGISTRY_ID": "110000510000", "CWP_FACILITY_TYPE_INDICATOR": "POTW", "CWP_MAJOR_MINOR_STATUS": "Major", "CWP_PERMIT_STATUS_DESC": "Effective", "STATE_WATER_BODY_NAME": "SALT RIVER", "CWP_CSO_FLAG": "N"}}, {"type": "Feature", "geometry": {"type": "Point", "coordinates": [-112.382697792747, 33.4798494245504]}, "properties": {"CWP_NAME": "GOODYEAR, CITY OF", "CWP_STREET": "AMARANTH SECTION 23 WRF", "CWP_CITY": "GOODYEAR", "CWP_STATE": "AZ", "CWP_ZIP": "85239", "CWP_COUNTY": "Maricopa", "NPDES_ID": "AZ0025721", "REGISTRY_ID": "110037455214", "CWP_FACILITY_TYPE_INDICATOR": "POTW", "CWP_MAJOR_MINOR_STATUS": "Minor", "CWP_PERMIT_STATUS_DESC": "Terminated", "STATE_WATER_BODY_NAME": "WATERMAN WASH", "CWP_CSO_FLAG": "N"}}, {"type": "Feature", "geometry": {"type": "Point", "coordinates": [-112.449481447143, 33.2948651464071]}, "properties": {"CWP_NAME": "CITY OF GOODYEAR - RAINBOW VALLEY WRF", "CWP_STREET": "16699 S RAINBOW VALLEY RD", "CWP_CITY": "GOODYEAR", "CWP_STATE": "AZ", "CWP_ZIP": "85338", "CWP_COUNTY": null, "NPDES_ID": "AZ0025135", "REGISTRY_ID": "110020034620", "CWP_FACILITY_TYPE_INDICATOR": "POTW", "CWP_MAJOR_MINOR_STATUS": "Minor", "CWP_PERMIT_STATUS_DESC": "Effective", "STATE_WATER_BODY_NAME": null, "CWP_CSO_FLAG": "N"}}, {"type": "Feature", "geometry": {"type": "Point", "coordinates": [-114.707233426047, 32.7272272698293]}, "properties": {"CWP_NAME": "USDOI BR - YUMA DESALTING PLANT", "CWP_STREET": "7301 S CALLE AGUA SALADA", "CWP_CITY": "YUMA", "CWP_STATE": "AZ", "CWP_ZIP": "85364", "CWP_COUNTY": null, "NPDES_ID": "AZ0025348", "REGISTRY_ID": "110000471793", "CWP_FACILITY_TYPE_INDICATOR": "NON-POTW", "CWP_MAJOR_MINOR_STATUS": "Major", "CWP_PERMIT_STATUS_DESC": "Effective", "STATE_WATER_BODY_NAME": null, "CWP_CSO_FLAG": "N"}}, {"type": "Feature", "geometry": {"type": "Point", "coordinates": [-112.151621660448, 36.0496652197626]}, "properties": {"CWP_NAME": "USDOI NPS - GRAND CANYON NP - SOUTH RIM WWTP", "CWP_STREET": "BUILDING 467, ROWE WELL ROAD", "CWP_CITY": "GRAND CANYON", "CWP_STATE": "AZ", "CWP_ZIP": "86023", "CWP_COUNTY": null, "NPDES_ID": "AZ0022152", "REGISTRY_ID": "110007398805", "CWP_FACILITY_TYPE_INDICATOR": "NON-POTW", "CWP_MAJOR_MINOR_STATUS": "Minor", "CWP_PERMIT_STATUS_DESC": "Effective", "STATE_WATER_BODY_NAME": null, "CWP_CSO_FLAG": "N"}}, {"type": "Feature", "geometry": {"type": "Point", "coordinates": [-110.557260806988, 34.3931336686979]}, "properties": {"CWP_NAME": "USDA FS - APACHE SITGREAVES NF - BLACK MESA RANGER DISTRICT", "CWP_STREET": "2748 SR 260", "CWP_CITY": "OVERGAARD", "CWP_STATE": "AZ", "CWP_ZIP": "85933", "CWP_COUNTY": "Navajo", "NPDES_ID": "AZ0025224", "REGISTRY_ID": "110039463345", "CWP_FACILITY_TYPE_INDICATOR": "POTW", "CWP_MAJOR_MINOR_STATUS": "Minor", "CWP_PERMIT_STATUS_DESC": "Terminated", "STATE_WATER_BODY_NAME": null, "CWP_CSO_FLAG": "N"}}, {"type": "Feature", "geometry": {"type": "Point", "coordinates": [-112.546478751972, 33.395999315054]}, "properties": {"CWP_NAME": "TRILLIUM WEST WWTP", "CWP_STREET": "31181 W LAKESPUR ROAD", "CWP_CITY": "BUCKEYE", "CWP_STATE": "AZ", "CWP_ZIP": "85326", "CWP_COUNTY": "Maricopa", "NPDES_ID": "AZ0025518", "REGISTRY_ID": "110031268241", "CWP_FACILITY_TYPE_INDICATOR": "POTW", "CWP_MAJOR_MINOR_STATUS": "Major", "CWP_PERMIT_STATUS_DESC": "Terminated", "STATE_WATER_BODY_NAME": null, "CWP_CSO_FLAG": "N"}}]}