{"type": "FeatureCollection", "features": [{"type": "Feature", "geometry": {"type": "Point", "coordinates": [-71.3649775693506, 41.7738963061198]}, "properties": {"CWP_NAME": "EAST PROVIDENCE WPCF", "CWP_STREET": "1 CREST AVENUE", "CWP_CITY": "RIVERSIDE", "CWP_STATE": "RI", "CWP_ZIP": "02915", "CWP_COUNTY": "Providence", "NPDES_ID": "RI0100048", "REGISTRY_ID": "110000735722", "CWP_FACILITY_TYPE_INDICATOR": "POTW", "CWP_MAJOR_MINOR_STATUS": "Major", "CWP_PERMIT_STATUS_DESC": "Admin Continued", "STATE_WATER_BODY_NAME": "NARRAGANSETT BAY, PROVIDENCE RIVER", "CWP_CSO_FLAG": "N"}}, {"type": "Feature", "geometry": {"type": "Point", "coordinates": [-71.4425009524455, 41.7526084473779]}, "properties": {"CWP_NAME": "CRANSTON WATER POLLUTION CONTROL FACILITY", "CWP_STREET": "140 PETTACONSETT AVENUE", "CWP_CITY": "CRANSTON", "CWP_STATE": "RI", "CWP_ZIP": "02920", "CWP_COUNTY": "Providence", "NPDES_ID": "RI0100013", "REGISTRY_ID": "110000735713", "CWP_FACILITY_TYPE_INDICATOR": "POTW", "CWP_MAJOR_MINOR_STATUS": "Major", "CWP_PERMIT_STATUS_DESC": "Effective", "STATE_WATER_BODY_NAME": "PAWTUXET RIVER", "CWP_CSO_FLAG": "N"}}, {"type": "Feature", "geometry": {"type": "Point", "coordinates": [-71.3895002921041, 41.7948316272795]}, "properties": {"CWP_NAME": "NBC - FIELD'S POINT", "CWP_STREET": "2 ERNEST STREET", "CWP_CITY": "PROVIDENCE", "CWP_STATE": "RI", "CWP_ZIP": "02905", "CWP_COUNTY": "Providence", "NPDES_ID": "RI0100315", "REGISTRY_ID": "110000760757", "CWP_FACILITY_TYPE_INDICATOR": "POTW", "CWP_MAJOR_MINOR_STATUS": "Major", "CWP_PERMIT_STATUS_DESC": "Effective", "STATE_WATER_BODY_NAME": "MOSHASSUCK RIVER, PROVIDENCE RIVER, SEEKONK RIVER, WEST RIVER, WOONASQUATUCKET RIVER", "CWP_CSO_FLAG": "Y"}}, {"type": "Feature", "geometry": {"type": "Point", "coordinates": [-71.3603307557868, 41.5087212571453]}, "properties": {"CWP_NAME": "JAMESTOWN WWTF", "CWP_STREET": "TAYLOR POINT", "CWP_CITY": "JAMESTOWN", "CWP_STATE": "RI", "CWP_ZIP": "02835", "CWP_COUNTY": "Newport", "NPDES_ID": "RI0100366", "REGISTRY_ID": "110002051939", "CWP_FACILITY_TYPE_INDICATOR": "POTW", "CWP_MAJOR_MINOR_STATUS": "Major", "CWP_PERMIT_STATUS_DESC": "Admin Continued", "STATE_WATER_BODY_NAME": "DUTCH ISLAND HARBOR, NARRAGANSETT BAY", "CWP_CSO_FLAG": "N"}}, {"type": "Feature", "geometry": {"type": "Point", "coordinates": [-71.3681117121296, 41.8512191311096]}, "properties": {"CWP_NAME": "NBC - BUCKLIN POINT WWTF", "CWP_STREET": "102 CAMPBELL AVENUE", "CWP_CITY": "EAST PROVIDENCE", "CWP_STATE": "RI", "CWP_ZIP": "02914", "CWP_COUNTY": "Providence", "NPDES_ID": "RI0100072", "REGISTRY_ID": "110004911926", "CWP_FACILITY_TYPE_INDICATOR": "POTW", "CWP_MAJOR_MINOR_STATUS": "Major", "CWP_PERMIT_STATUS_DESC": "Effective", "STATE_WATER_BODY_NAME": "BLACKSTONE RIVER, MOSHASSUCK RIVER, SEEKONK RIVER, SEEKONK/MOSHASSUCK & BLACKSTONE RIV", "CWP_CSO_FLAG": "Y"}}, {"type": "Feature", "geometry": {"type": "Point", "coordinates": [-71.4783704030527, 41.3846336726699]}, "properties": {"CWP_NAME": "SCARBOROUGH WWTF", "CWP_STREET": "990 OCEAN ROAD", "CWP_CITY": "NARRAGANSETT", "CWP_STATE": "RI", "CWP_ZIP": "02882", "CWP_COUNTY": "Washington", "NPDES_ID": "RI0100188", "REGISTRY_ID": "110000915109", "CWP_FACILITY_TYPE_INDICATOR": "POTW", "CWP_MAJOR_MINOR_STATUS": "Major", "CWP_PERMIT_STATUS_DESC": "Admin Continued", "STATE_WATER_BODY_NAME": "RHODE ISLAND SOUND", "CWP_CSO_FLAG": "N"}}, {"type": "Feature", "geometry": {"type": "Point", "coordinates": [-71.2648937784526, 41.6616078362786]}, "properties": {"CWP_NAME": "BRISTOL WPCF", "CWP_STREET": "2 PLANT AVENUE", "CWP_CITY": "BRISTOL", "CWP_STATE": "RI", "CWP_ZIP": "02809", "CWP_COUNTY": "Bristol", "NPDES_ID": "RI0100005", "REGISTRY_ID": "110009444869", "CWP_FACILITY_TYPE_INDICATOR": "POTW", "CWP_MAJOR_MINOR_STATUS": "Major", "CWP_PERMIT_STATUS_DESC": "Admin Continued", "STATE_WATER_BODY_NAME": "BRISTOL HARBOR", "CWP_CSO_FLAG": "N"}}, {"type": "Feature", "geometry": {"type": "Point", "coordinates": [-71.83538608154, 41.360953607783]}, "properties": {"CWP_NAME": "WESTERLY WWTF", "CWP_STREET": "87 MARGIN ST", "CWP_CITY": "WESTERLY", "CWP_STATE": "RI", "CWP_ZIP": "02891", "CWP_COUNTY": "Washington", "NPDES_ID": "RI0100064", "REGISTRY_ID": "110009439722", "CWP_FACILITY_TYPE_INDICATOR": "POTW", "CWP_MAJOR_MINOR_STATUS": "Major", "CWP_PERMIT_STATUS_DESC": "Effective", "STATE_WATER_BODY_NAME": "PAWCATUCK RIVER", "CWP_CSO_FLAG": "N"}}, {"type": "Feature", "geometry": {"type": "Point", "coordinates": [-71.4480785442172, 41.6584790884298]}, "properties": {"CWP_NAME": "EAST GREENWICH WWTF", "CWP_STREET": "1 CROMPTON AVENUE", "CWP_CITY": "EAST GREENWICH", "CWP_STATE": "RI", "CWP_ZIP": "02818", "CWP_COUNTY": "Kent", "NPDES_ID": "RI0100030", "REGISTRY_ID": "110002051868", "CWP_FACILITY_TYPE_INDICATOR": "POTW", "CWP_MAJOR_MINOR_STATUS": "Major", "CWP_PERMIT_STATUS_DESC": "Effective", "STATE_WATER_BODY_NAME": "GREENWICH COVE", "CWP_CSO_FLAG": "N"}}, {"type": "Feature", "geometry": {"type": "Point", "coordinates": [-71.3173260611356, 41.5136396517367]}, "properties": {"CWP_NAME": "NEWPORT WPCF", "CWP_STREET": "250 J.T. CONNELL HIGHWAY", "CWP_CITY": "NEWPORT", "CWP_STATE": "RI", "CWP_ZIP": "02840", "CWP_COUNTY": "Newport", "NPDES_ID": "RI0100293", "REGISTRY_ID": "110000546516", "CWP_FACILITY_TYPE_INDICATOR": "POTW", "CWP_MAJOR_MINOR_STATUS": "Major", "CWP_PERMIT_STATUS_DESC": "Admin Continued", "STATE_WATER_BODY_NAME": "NARRAGANSETT BAY, NEWPORT HARBOR", "CWP_CSO_FLAG": "Y"}}, {"type": "Feature", "geometry": {"type": "Point", "coordinates": [-71.5564927239475, 41.1707955302992]}, "properties": {"CWP_NAME": "NEW SHOREHAM WPCF", "CWP_STREET": "20 SPRING STREET", "CWP_CITY": "NEW SHOREHAM", "CWP_STATE": "RI", "CWP_ZIP": "02807", "CWP_COUNTY": "Newport", "NPDES_ID": "RI0100196", "REGISTRY_ID": "110000762096", "CWP_FACILITY_TYPE_INDICATOR": "POTW", "CWP_MAJOR_MINOR_STATUS": "Major", "CWP_PERMIT_STATUS_DESC": "Admin Continued", "STATE_WATER_BODY_NAME": "RHODE ISLAND SOUND", "CWP_CSO_FLAG": "N"}}, {"type": "Feature", "geometry": {"type": "Point", "coordinates": [-71.6550432089477, 41.9608267152136]}, "properties": {"CWP_NAME": "BURRILLVILLE WWTF", "CWP_STREET": "141 CLEAR RIVER DRIVE", "CWP_CITY": "HARRISVILLE", "CWP_STATE": "RI", "CWP_ZIP": "02830", "CWP_COUNTY": "Providence", "NPDES_ID": "RI0100455", "REGISTRY_ID": "110007824612", "CWP_FACILITY_TYPE_INDICATOR": "POTW", "CWP_MAJOR_MINOR_STATUS": "Major", "CWP_PERMIT_STATUS_DESC": "Effective", "STATE_WATER_BODY_NAME": "CLEAR RIVER", "CWP_CSO_FLAG": "N"}}, {"type": "Feature", "geometry": {"type": "Point", "coordinates": [-71.412864674674, 41.5875513447034]}, "properties": {"CWP_NAME": "QUONSET WWTF", "CWP_STREET": "150 ZARBO AVENUE", "CWP_CITY": "NORTH KINGSTOWN", "CWP_STATE": "RI", "CWP_ZIP": "02852", "CWP_COUNTY": "Providence", "NPDES_ID": "RI0100404", "REGISTRY_ID": "110000562472", "CWP_FACILITY_TYPE_INDICATOR": "POTW", "CWP_MAJOR_MINOR_STATUS": "Major", "CWP_PERMIT_STATUS_DESC": "Effective", "STATE_WATER_BODY_NAME": "NARRAGANSETT BAY", "CWP_CSO_FLAG": "N"}}, {"type": "Feature", "geometry": {"type": "Point", "coordinates": [-71.4514447121886, 41.7364916935947]}, "properties": {"CWP_NAME": "WARWICK WASTEWATER TREATMENT FACILITY", "CWP_STREET": "125 ARTHUR W. DEVINE BLVD.", "CWP_CITY": "WARWICK", "CWP_STATE": "RI", "CWP_ZIP": "02886", "CWP_COUNTY": "Kent", "NPDES_ID": "RI0100234", "REGISTRY_ID": "110000760748", "CWP_FACILITY_TYPE_INDICATOR": "POTW", "CWP_MAJOR_MINOR_STATUS": "Major", "CWP_PERMIT_STATUS_DESC": "Effective", "STATE_WATER_BODY_NAME": "PAWTUXET RIVER", "CWP_CSO_FLAG": "N"}}, {"type": "Feature", "geometry": {"type": "Point", "coordinates": [-71.4870048162538, 41.7267763145141]}, "properties": {"CWP_NAME": "WEST WARWICK WASTEWATER TREATMENT FACILITY", "CWP_STREET": "1 PONTIAC AVENUE", "CWP_CITY": "WEST WARWICK", "CWP_STATE": "RI", "CWP_ZIP": "02893", "CWP_COUNTY": "Kent", "NPDES_ID": "RI0100153", "REGISTRY_ID": "110000735740", "CWP_FACILITY_TYPE_INDICATOR": "POTW", "CWP_MAJOR_MINOR_STATUS": "Major", "CWP_PERMIT_STATUS_DESC": "Effective", "STATE_WATER_BODY_NAME": "PAWTUXET RIVER", "CWP_CSO_FLAG": "N"}}, {"type": "Feature", "geometry": {"type": "Point", "coordinates": [-71.2847310342183, 41.7252088023582]}, "properties": {"CWP_NAME": "WARREN WWTF", "CWP_STREET": "427 WATER ST", "CWP_CITY": "WARREN", "CWP_STATE": "RI", "CWP_ZIP": "02885", "CWP_COUNTY": "Bristol", "NPDES_ID": "RI0100056", "REGISTRY_ID": "110000760739", "CWP_FACILITY_TYPE_INDICATOR": "POTW", "CWP_MAJOR_MINOR_STATUS": "Major", "CWP_PERMIT_STATUS_DESC": "Admin Continued", "STATE_WATER_BODY_NAME": "WARREN RIVER", "CWP_CSO_FLAG": "N"}}, {"type": "Feature", "geometry": {"type": "Point", "coordinates": [-71.4953388521868, 42.0006621980621]}, "properties": {"CWP_NAME": "WOONSOCKET WWTF", "CWP_STREET": "11 CUMBERLAND HILL ROAD", "CWP_CITY": "WOONSOCKET", "CWP_STATE": "RI", "CWP_ZIP": "02895", "CWP_COUNTY": "Providence", "NPDES_ID": "RI0100111", "REGISTRY_ID": "110000574977", "CWP_FACILITY_TYPE_INDICATOR": "POTW", "CWP_MAJOR_MINOR_STATUS": "Major", "CWP_PERMIT_STATUS_DESC": "Effective", "STATE_WATER_BODY_NAME": "BLACKSTONE RIVER", "CWP_CSO_FLAG": "N"}}, {"type": "Feature", "geometry": {"type": "Point", "coordinates": [-71.4662367481952, 41.4225535945072]}, "properties": {"CWP_NAME": "SOUTH KINGSTOWN WWTF", "CWP_STREET": "275 WESTMORELAND STREET", "CWP_CITY": "NARRAGANSETT", "CWP_STATE": "RI", "CWP_ZIP": "02882", "CWP_COUNTY": "Washington", "NPDES_ID": "RI0100374", "REGISTRY_ID": "110002051902", "CWP_FACILITY_TYPE_INDICATOR": "POTW", "CWP_MAJOR_MINOR_STATUS": "Major", "CWP_PERMIT_STATUS_DESC": "Admin Continued", "STATE_WATER_BODY_NAME": "RHODE ISLAND SOUND", "CWP_CSO_FLAG": "N"}}, {"type": "Feature", "geometry": {"type": "Point", "coordinates": [-71.4980637914728, 41.8729386578405]}, "properties": {"CWP_NAME": "SMITHFIELD WASTEWATER TREATMENT PLANT", "CWP_STREET": "20 ESMOND MILL DRIVE", "CWP_CITY": "SMITHFIELD", "CWP_STATE": "RI", "CWP_ZIP": "02917", "CWP_COUNTY": "Providence", "NPDES_ID": "RI0100251", "REGISTRY_ID": "110032958262", "CWP_FACILITY_TYPE_INDICATOR": "POTW", "CWP_MAJOR_MINOR_STATUS": "Major", "CWP_PERMIT_STATUS_DESC": "Effective", "STATE_WATER_BODY_NAME": "WOONASQUATUCKET RIVER", "CWP_CSO_FLAG": "N"}}]}