{"type": "FeatureCollection", "features": [{"type": "Feature", "geometry": {"type": "Point", "coordinates": [-158.186189140558, 21.4398231110807]}, "properties": {"CWP_NAME": "C&CH WAIANAE WWTP", "CWP_STREET": "86-100 FARRINGTON HIGHWAY", "CWP_CITY": "WAIANAE", "CWP_STATE": "HI", "CWP_ZIP": "96792", "CWP_COUNTY": "Honolulu", "NPDES_ID": "HI0020109", "REGISTRY_ID": "110013775548", "CWP_FACILITY_TYPE_INDICATOR": "POTW", "CWP_MAJOR_MINOR_STATUS": "Major", "CWP_PERMIT_STATUS_DESC": "Admin Continued", "STATE_WATER_BODY_NAME": "PACIFIC OCEAN", "CWP_CSO_FLAG": "N"}}, {"type": "Feature", "geometry": {"type": "Point", "coordinates": [-157.88207081336, 21.3045030269294]}, "properties": {"CWP_NAME": "C&CH SAND ISLAND WWTP", "CWP_STREET": "1350 SAND ISLAND PARKWAY", "CWP_CITY": "HONOLULU", "CWP_STATE": "HI", "CWP_ZIP": "96819", "CWP_COUNTY": "Honolulu", "NPDES_ID": "HI0020117", "REGISTRY_ID": "110005726802", "CWP_FACILITY_TYPE_INDICATOR": "POTW", "CWP_MAJOR_MINOR_STATUS": "Major", "CWP_PERMIT_STATUS_DESC": "Effective", "STATE_WATER_BODY_NAME": "PACIFIC OCEAN", "CWP_CSO_FLAG": "N"}}, {"type": "Feature", "geometry": {"type": "Point", "coordinates": [-155.019292329569, 19.7137534504432]}, "properties": {"CWP_NAME": "HAWAII COUNTY HILO WWTP", "CWP_STREET": "150 KEKUANAOA STREET", "CWP_CITY": "HILO", "CWP_STATE": "HI", "CWP_ZIP": "96720", "CWP_COUNTY": "Hawaii", "NPDES_ID": "HI0021377", "REGISTRY_ID": "110013786698", "CWP_FACILITY_TYPE_INDICATOR": "POTW", "CWP_MAJOR_MINOR_STATUS": "Major", "CWP_PERMIT_STATUS_DESC": "Effective", "STATE_WATER_BODY_NAME": "HILO BAY", "CWP_CSO_FLAG": "N"}}, {"type": "Feature", "geometry": {"type": "Point", "coordinates": [-155.094394709475, 19.8325134195782]}, "properties": {"CWP_NAME": "KULAIMANO WASTEWATER TREATMENT PLANT", "CWP_STREET": "28-1108 MAMALAHOA HIGHWAY", "CWP_CITY": "PEPEEKEO", "CWP_STATE": "HI", "CWP_ZIP": "96783", "CWP_COUNTY": "Hawaii", "NPDES_ID": "HI0020770", "REGISTRY_ID": "110013772239", "CWP_FACILITY_TYPE_INDICATOR": "POTW", "CWP_MAJOR_MINOR_STATUS": "Minor", "CWP_PERMIT_STATUS_DESC": "Admin Continued", "STATE_WATER_BODY_NAME": null, "CWP_CSO_FLAG": "N"}}, {"type": "Feature", "geometry": {"type": "Point", "coordinates": [-158.035614758219, 21.3297038295887]}, "properties": {"CWP_NAME": "C&CH HONOULIULI WWTP", "CWP_STREET": "91-1000 GEIGER ROAD", "CWP_CITY": "EWA BEACH", "CWP_STATE": "HI", "CWP_ZIP": "96706", "CWP_COUNTY": "Honolulu", "NPDES_ID": "HI0020877", "REGISTRY_ID": "110020728943", "CWP_FACILITY_TYPE_INDICATOR": "POTW", "CWP_MAJOR_MINOR_STATUS": "Major", "CWP_PERMIT_STATUS_DESC": "Effective", "STATE_WATER_BODY_NAME": "PACIFIC OCEAN", "CWP_CSO_FLAG": "N"}}, {"type": "Feature", "geometry": {"type": "Point", "coordinates": [-155.060652149783, 19.7058133372624]}, "properties": {"CWP_NAME": "COUNTY OF HAWAII PAPAIKOU-PAUKAA WWTP", "CWP_STREET": "108 RAILROAD AVENUE", "CWP_CITY": "HILO", "CWP_STATE": "HI", "CWP_ZIP": "96720", "CWP_COUNTY": "Hawaii", "NPDES_ID": "HI0021113", "REGISTRY_ID": "110010037423", "CWP_FACILITY_TYPE_INDICATOR": "POTW", "CWP_MAJOR_MINOR_STATUS": "Minor", "CWP_PERMIT_STATUS_DESC": "Effective", "STATE_WATER_BODY_NAME": "PACIFIC OCEAN", "CWP_CSO_FLAG": "N"}}, {"type": "Feature", "geometry": {"type": "Point", "coordinates": [-159.351402888607, 22.0790962641173]}, "properties": {"CWP_NAME": "COUNTY OF KAUAI WAILUA WWTP", "CWP_STREET": "4460 NALU ROAD", "CWP_CITY": "WAILUA", "CWP_STATE": "HI", "CWP_ZIP": "96746", "CWP_COUNTY": "Kauai", "NPDES_ID": "HI0020257", "REGISTRY_ID": "110010731262", "CWP_FACILITY_TYPE_INDICATOR": "POTW", "CWP_MAJOR_MINOR_STATUS": "Major", "CWP_PERMIT_STATUS_DESC": "Effective", "STATE_WATER_BODY_NAME": "PACIFIC OCEANOFFSHORE WAILUA", "CWP_CSO_FLAG": "N"}}, {"type": "Feature", "geometry": {"type": "Point", "coordinates": [-157.753254624519, 21.4264429936337]}, "properties": {"CWP_NAME": "C&CH KAILUA REGIONAL WWTP", "CWP_STREET": "95 KANEOHE BAY DRIVE", "CWP_CITY": "KAILUA", "CWP_STATE": "HI", "CWP_ZIP": "96734", "CWP_COUNTY": "Honolulu", "NPDES_ID": "HI0021296", "REGISTRY_ID": "110000867054", "CWP_FACILITY_TYPE_INDICATOR": "NON-POTW", "CWP_MAJOR_MINOR_STATUS": "Major", "CWP_PERMIT_STATUS_DESC": "Effective", "STATE_WATER_BODY_NAME": "PACIFIC OCEAN", "CWP_CSO_FLAG": "N"}}, {"type": "Feature", "geometry": {"type": "Point", "coordinates": [-158.037894537406, 21.4926933499213]}, "properties": {"CWP_NAME": "HONOLULU, CITY & COUNTY OF", "CWP_STREET": "WAHIAWA WWTP", "CWP_CITY": "WAHIAWA", "CWP_STATE": "HI", "CWP_ZIP": "96786", "CWP_COUNTY": "Honolulu", "NPDES_ID": "HI0020125", "REGISTRY_ID": "110013774111", "CWP_FACILITY_TYPE_INDICATOR": "POTW", "CWP_MAJOR_MINOR_STATUS": "Minor", "CWP_PERMIT_STATUS_DESC": "Terminated", "STATE_WATER_BODY_NAME": "SOUTH FORK KAUKONAHUA STREAM", "CWP_CSO_FLAG": "N"}}]}