{"type": "FeatureCollection", "features": [{"type": "Feature", "geometry": {"type": "Point", "coordinates": [-72.6488978353981, 42.2777064625352]}, "properties": {"CWP_NAME": "EASTHAMPTON W W T P", "CWP_STREET": "10 GOSSELIN DRIVE", "CWP_CITY": "EASTHAMPTON", "CWP_STATE": "MA", "CWP_ZIP": "01027", "CWP_COUNTY": "Hampshire", "NPDES_ID": "MA0101478", "REGISTRY_ID": "110000732716", "CWP_FACILITY_TYPE_INDICATOR": "POTW", "CWP_MAJOR_MINOR_STATUS": "Major", "CWP_PERMIT_STATUS_DESC": "Admin Continued", "STATE_WATER_BODY_NAME": "CONNECTICUT RIVER, MANHAN RIVER", "CWP_CSO_FLAG": "N"}}, {"type": "Feature", "geometry": {"type": "Point", "coordinates": [-72.0880669240429, 42.1047056653001]}, "properties": {"CWP_NAME": "STURBRIDGE WPCF", "CWP_STREET": "END OF OLD NEW BOSTON ROAD", "CWP_CITY": "STURBRIDGE", "CWP_STATE": "MA", "CWP_ZIP": "01566", "CWP_COUNTY": "Worcester", "NPDES_ID": "MA0100421", "REGISTRY_ID": "110002042986", "CWP_FACILITY_TYPE_INDICATOR": "POTW", "CWP_MAJOR_MINOR_STATUS": "Major", "CWP_PERMIT_STATUS_DESC": "Admin Continued", "STATE_WATER_BODY_NAME": "QUINEBAUG RIVER", "CWP_CSO_FLAG": "N"}}, {"type": "Feature", "geometry": {"type": "Point", "coordinates": [-72.731900780754, 42.1178087682054]}, "properties": {"CWP_NAME": "WESTFIELD MA POTW", "CWP_STREET": "149 NECK ROAD", "CWP_CITY": "WESTFIELD", "CWP_STATE": "MA", "CWP_ZIP": "01085", "CWP_COUNTY": "Hampden", "NPDES_ID": "MA0101800", "REGISTRY_ID": "110024373578", "CWP_FACILITY_TYPE_INDICATOR": "POTW", "CWP_MAJOR_MINOR_STATUS": "Minor", "CWP_PERMIT_STATUS_DESC": "Admin Continued", "STATE_WATER_BODY_NAME": "WESTFIELD RIVER", "CWP_CSO_FLAG": "N"}}, {"type": "Feature", "geometry": {"type": "Point", "coordinates": [-72.6125751000531, 42.19104957364]}, "properties": {"CWP_NAME": "HOLYOKE W P C F", "CWP_STREET": "ONE BERKSHIRE STREET", "CWP_CITY": "HOLYOKE", "CWP_STATE": "MA", "CWP_ZIP": "01040", "CWP_COUNTY": "Hampden", "NPDES_ID": "MA0101630", "REGISTRY_ID": "110000541735", "CWP_FACILITY_TYPE_INDICATOR": "POTW", "CWP_MAJOR_MINOR_STATUS": "Major", "CWP_PERMIT_STATUS_DESC": "Admin Continued", "STATE_WATER_BODY_NAME": "CONNECTICUT RIVER", "CWP_CSO_FLAG": "Y"}}, {"type": "Feature", "geometry": {"type": "Point", "coordinates": [-70.9537201756991, 42.0290484218676]}, "properties": {"CWP_NAME": "EAST BRIDGEWATER HIGH SCHOOL", "CWP_STREET": "11 PLYMOUTH STREET", "CWP_CITY": "EAST BRIDGEWATER", "CWP_STATE": "MA", "CWP_ZIP": "02333", "CWP_COUNTY": "Plymouth", "NPDES_ID": "MA0022446", "REGISTRY_ID": "110006744899", "CWP_FACILITY_TYPE_INDICATOR": "POTW", "CWP_MAJOR_MINOR_STATUS": "Minor", "CWP_PERMIT_STATUS_DESC": "Terminated", "STATE_WATER_BODY_NAME": "TRIBUTARY BROOK TO TAUNTON RIVER", "CWP_CSO_FLAG": "N"}}, {"type": "Feature", "geometry": {"type": "Point", "coordinates": [-71.1459161473395, 41.9519432267225]}, "properties": {"CWP_NAME": "MFN REGIONAL WASTEWATER DIST.", "CWP_STREET": "HILL AT CRANE ST.", "CWP_CITY": "NORTON", "CWP_STATE": "MA", "CWP_ZIP": "02766", "CWP_COUNTY": "Bristol", "NPDES_ID": "MA0101702", "REGISTRY_ID": "110006618856", "CWP_FACILITY_TYPE_INDICATOR": "POTW", "CWP_MAJOR_MINOR_STATUS": "Major", "CWP_PERMIT_STATUS_DESC": "Admin Continued", "STATE_WATER_BODY_NAME": "THREE MILE RIVER", "CWP_CSO_FLAG": "N"}}, {"type": "Feature", "geometry": {"type": "Point", "coordinates": [-71.6359011418443, 42.1125081997839]}, "properties": {"CWP_NAME": "NORTHBRIDGE WWTP", "CWP_STREET": "643 PROVIDENCE ROAD", "CWP_CITY": "NORTHBRIDGE", "CWP_STATE": "MA", "CWP_ZIP": "01588", "CWP_COUNTY": "Worcester", "NPDES_ID": "MA0100722", "REGISTRY_ID": "110001123613", "CWP_FACILITY_TYPE_INDICATOR": "POTW", "CWP_MAJOR_MINOR_STATUS": "Major", "CWP_PERMIT_STATUS_DESC": "Admin Continued", "STATE_WATER_BODY_NAME": "UNNAMED BROOK TO BLACKSTONE RIVER", "CWP_CSO_FLAG": "N"}}, {"type": "Feature", "geometry": {"type": "Point", "coordinates": [-72.0201006664598, 42.5698090375832]}, "properties": {"CWP_NAME": "GARDNER W W T F", "CWP_STREET": "OFF ROUTE 101, LOWER PARKER ST", "CWP_CITY": "EAST TEMPLETON", "CWP_STATE": "MA", "CWP_ZIP": "01441", "CWP_COUNTY": "Worcester", "NPDES_ID": "MA0100994", "REGISTRY_ID": "110043892008", "CWP_FACILITY_TYPE_INDICATOR": "POTW", "CWP_MAJOR_MINOR_STATUS": "Major", "CWP_PERMIT_STATUS_DESC": "Effective", "STATE_WATER_BODY_NAME": "OTTER RIVER", "CWP_CSO_FLAG": "N"}}, {"type": "Feature", "geometry": {"type": "Point", "coordinates": [-70.9569001978887, 42.350508450555]}, "properties": {"CWP_NAME": "MWRA DEER ISLAND TREATMENT PLANT", "CWP_STREET": "190 TAFTS AVE", "CWP_CITY": "BOSTON", "CWP_STATE": "MA", "CWP_ZIP": "02152", "CWP_COUNTY": "Suffolk", "NPDES_ID": "MA0103284", "REGISTRY_ID": "110025247720", "CWP_FACILITY_TYPE_INDICATOR": "POTW", "CWP_MAJOR_MINOR_STATUS": "Major", "CWP_PERMIT_STATUS_DESC": "Admin Continued", "STATE_WATER_BODY_NAME": "ATLANTIC OCEAN (BOSTON HARBOR)", "CWP_CSO_FLAG": "N"}}, {"type": "Feature", "geometry": {"type": "Point", "coordinates": [-70.6436482251412, 42.0898327210014]}, "properties": {"CWP_NAME": "MARSHFIELD WASTEWATER FACILITY", "CWP_STREET": "200 TOWN PIER ROAD", "CWP_CITY": "MARSHFIELD", "CWP_STATE": "MA", "CWP_ZIP": "02020", "CWP_COUNTY": "Plymouth", "NPDES_ID": "MA0101737", "REGISTRY_ID": "110045704608", "CWP_FACILITY_TYPE_INDICATOR": "POTW", "CWP_MAJOR_MINOR_STATUS": "Major", "CWP_PERMIT_STATUS_DESC": "Expired", "STATE_WATER_BODY_NAME": "MASSACHUSETTS BAY", "CWP_CSO_FLAG": "N"}}, {"type": "Feature", "geometry": {"type": "Point", "coordinates": [-71.6324810289045, 42.2801985185124]}, "properties": {"CWP_NAME": "WESTBOROUGH W W T P", "CWP_STREET": "238 TURNPIKE ROAD", "CWP_CITY": "WESTBOROUGH", "CWP_STATE": "MA", "CWP_ZIP": "01581", "CWP_COUNTY": "Worcester", "NPDES_ID": "MA0100412", "REGISTRY_ID": "110000732609", "CWP_FACILITY_TYPE_INDICATOR": "POTW", "CWP_MAJOR_MINOR_STATUS": "Major", "CWP_PERMIT_STATUS_DESC": "Effective", "STATE_WATER_BODY_NAME": "ASSABET RIVER", "CWP_CSO_FLAG": "N"}}, {"type": "Feature", "geometry": {"type": "Point", "coordinates": [-73.2412805613657, 42.2862949690691]}, "properties": {"CWP_NAME": "LEE WWTP, TOWN OF", "CWP_STREET": "379 PLEASANT STREET", "CWP_CITY": "LEE", "CWP_STATE": "MA", "CWP_ZIP": "01238", "CWP_COUNTY": "Berkshire", "NPDES_ID": "MA0100153", "REGISTRY_ID": "110000732583", "CWP_FACILITY_TYPE_INDICATOR": "POTW", "CWP_MAJOR_MINOR_STATUS": "Major", "CWP_PERMIT_STATUS_DESC": "Effective", "STATE_WATER_BODY_NAME": "HOUSATONIC RIVER", "CWP_CSO_FLAG": "N"}}, {"type": "Feature", "geometry": {"type": "Point", "coordinates": [-72.255141238598, 42.2519489883359]}, "properties": {"CWP_NAME": "WARE W W T P", "CWP_STREET": "30 ROBBINS RD", "CWP_CITY": "WARE", "CWP_STATE": "MA", "CWP_ZIP": "01082", "CWP_COUNTY": "Hampshire", "NPDES_ID": "MA0100889", "REGISTRY_ID": "110006618927", "CWP_FACILITY_TYPE_INDICATOR": "POTW", "CWP_MAJOR_MINOR_STATUS": "Major", "CWP_PERMIT_STATUS_DESC": "Admin Continued", "STATE_WATER_BODY_NAME": "WARE RIVER", "CWP_CSO_FLAG": "N"}}, {"type": "Feature", "geometry": {"type": "Point", "coordinates": [-72.4387514056326, 42.5983696982899]}, "properties": {"CWP_NAME": "ERVING POTW #3", "CWP_STREET": "BRIDGE STREET VILLAGE OF FARLEY", "CWP_CITY": "ERVING", "CWP_STATE": "MA", "CWP_ZIP": "01344", "CWP_COUNTY": "Franklin", "NPDES_ID": "MA0102776", "REGISTRY_ID": "110009917466", "CWP_FACILITY_TYPE_INDICATOR": "POTW", "CWP_MAJOR_MINOR_STATUS": "Minor", "CWP_PERMIT_STATUS_DESC": "Terminated", "STATE_WATER_BODY_NAME": "UNNAMED BROOK TO MILLERS RIVER", "CWP_CSO_FLAG": "N"}}, {"type": "Feature", "geometry": {"type": "Point", "coordinates": [-72.5373827714631, 42.3877043652595]}, "properties": {"CWP_NAME": "AMHERST W W T P", "CWP_STREET": "1 MULLIN WAY", "CWP_CITY": "HADLEY", "CWP_STATE": "MA", "CWP_ZIP": "01035", "CWP_COUNTY": "Hampshire", "NPDES_ID": "MA0100218", "REGISTRY_ID": "110009917661", "CWP_FACILITY_TYPE_INDICATOR": "POTW", "CWP_MAJOR_MINOR_STATUS": "Major", "CWP_PERMIT_STATUS_DESC": "Admin Continued", "STATE_WATER_BODY_NAME": "CONNECTICUT RIVER", "CWP_CSO_FLAG": "N"}}, {"type": "Feature", "geometry": {"type": "Point", "coordinates": [-71.2841573173926, 42.6004840433278]}, "properties": {"CWP_NAME": "BILLERICA W W T P", "CWP_STREET": "70 LETCHWORTH AVE", "CWP_CITY": "BILLERICA", "CWP_STATE": "MA", "CWP_ZIP": "01821", "CWP_COUNTY": "Middlesex", "NPDES_ID": "MA0101711", "REGISTRY_ID": "110000550984", "CWP_FACILITY_TYPE_INDICATOR": "POTW", "CWP_MAJOR_MINOR_STATUS": "Major", "CWP_PERMIT_STATUS_DESC": "Admin Continued", "STATE_WATER_BODY_NAME": "CONCORD RIVER", "CWP_CSO_FLAG": "N"}}, {"type": "Feature", "geometry": {"type": "Point", "coordinates": [-70.8756832564382, 41.6395052063205]}, "properties": {"CWP_NAME": "FAIRHAVEN W W T F", "CWP_STREET": "5  ARSENE STREET", "CWP_CITY": "FAIRHAVEN", "CWP_STATE": "MA", "CWP_ZIP": "02719", "CWP_COUNTY": "Bristol", "NPDES_ID": "MA0100765", "REGISTRY_ID": "110000759830", "CWP_FACILITY_TYPE_INDICATOR": "POTW", "CWP_MAJOR_MINOR_STATUS": "Major", "CWP_PERMIT_STATUS_DESC": "Effective", "STATE_WATER_BODY_NAME": "ACUSHNET RIVER-N.BEDFORD INNER HRBR", "CWP_CSO_FLAG": "N"}}, {"type": "Feature", "geometry": {"type": "Point", "coordinates": [-71.4408624272703, 42.4408156740279]}, "properties": {"CWP_NAME": "MAYNARD WASTEWATER TREATMENT FACILITY", "CWP_STREET": "18 PINE HILL ROAD", "CWP_CITY": "MAYNARD", "CWP_STATE": "MA", "CWP_ZIP": "01754", "CWP_COUNTY": "Middlesex", "NPDES_ID": "MA0101001", "REGISTRY_ID": "110006618865", "CWP_FACILITY_TYPE_INDICATOR": "POTW", "CWP_MAJOR_MINOR_STATUS": "Major", "CWP_PERMIT_STATUS_DESC": "Effective", "STATE_WATER_BODY_NAME": "ASSABET RIVER", "CWP_CSO_FLAG": "N"}}, {"type": "Feature", "geometry": {"type": "Point", "coordinates": [-71.0972304287194, 41.8743587004371]}, "properties": {"CWP_NAME": "TAUNTON W W T P", "CWP_STREET": "825 WEST WATER STREET", "CWP_CITY": "TAUNTON", "CWP_STATE": "MA", "CWP_ZIP": "02780", "CWP_COUNTY": "Bristol", "NPDES_ID": "MA0100897", "REGISTRY_ID": "110000732654", "CWP_FACILITY_TYPE_INDICATOR": "POTW", "CWP_MAJOR_MINOR_STATUS": "Major", "CWP_PERMIT_STATUS_DESC": "Admin Continued", "STATE_WATER_BODY_NAME": "TAUNTON RIVER", "CWP_CSO_FLAG": "Y"}}, {"type": "Feature", "geometry": {"type": "Point", "coordinates": [-72.0744754742242, 42.2488850036103]}, "properties": {"CWP_NAME": "NORTH BROOKFIELD WASTEWATER TREATMENT PLANT", "CWP_STREET": "59 EAST BROOKFIELD RD", "CWP_CITY": "NORTH BROOKFIELD", "CWP_STATE": "MA", "CWP_ZIP": "01535", "CWP_COUNTY": "Worcester", "NPDES_ID": "MA0101061", "REGISTRY_ID": "110006618892", "CWP_FACILITY_TYPE_INDICATOR": "POTW", "CWP_MAJOR_MINOR_STATUS": "Major", "CWP_PERMIT_STATUS_DESC": "Effective", "STATE_WATER_BODY_NAME": "DUNN BROOK", "CWP_CSO_FLAG": "N"}}, {"type": "Feature", "geometry": {"type": "Point", "coordinates": [-71.4948820169782, 42.3505713858019]}, "properties": {"CWP_NAME": "MARLBOROUGH EASTERLY W W T F", "CWP_STREET": "860 BOSTON POST RD", "CWP_CITY": "MARLBOROUGH", "CWP_STATE": "MA", "CWP_ZIP": "01752", "CWP_COUNTY": "Middlesex", "NPDES_ID": "MA0100498", "REGISTRY_ID": "110000736856", "CWP_FACILITY_TYPE_INDICATOR": "POTW", "CWP_MAJOR_MINOR_STATUS": "Major", "CWP_PERMIT_STATUS_DESC": "Effective", "STATE_WATER_BODY_NAME": "HOP BROOK TO SUDBURY RIVER, UNNAMED TRIBUTARY TO HAGER POND", "CWP_CSO_FLAG": "N"}}, {"type": "Feature", "geometry": {"type": "Point", "coordinates": [-72.0737569372347, 42.6014444933472]}, "properties": {"CWP_NAME": "TEMPLETON W W T F", "CWP_STREET": "RESERVIOR STREET", "CWP_CITY": "BALDWINSVILLE", "CWP_STATE": "MA", "CWP_ZIP": "01436", "CWP_COUNTY": "Worcester", "NPDES_ID": "MA0100340", "REGISTRY_ID": "110024377592", "CWP_FACILITY_TYPE_INDICATOR": "POTW", "CWP_MAJOR_MINOR_STATUS": "Major", "CWP_PERMIT_STATUS_DESC": "Effective", "STATE_WATER_BODY_NAME": "OTTER RIVER", "CWP_CSO_FLAG": "N"}}, {"type": "Feature", "geometry": {"type": "Point", "coordinates": [-71.168889323217, 41.717508809191]}, "properties": {"CWP_NAME": "SOMERSET W P C F", "CWP_STREET": "116 WALKER STREET", "CWP_CITY": "SOMERSET", "CWP_STATE": "MA", "CWP_ZIP": "02725", "CWP_COUNTY": "Bristol", "NPDES_ID": "MA0100676", "REGISTRY_ID": "110022329005", "CWP_FACILITY_TYPE_INDICATOR": "POTW", "CWP_MAJOR_MINOR_STATUS": "Major", "CWP_PERMIT_STATUS_DESC": "Admin Continued", "STATE_WATER_BODY_NAME": "TAUNTON RIVER", "CWP_CSO_FLAG": "N"}}, {"type": "Feature", "geometry": {"type": "Point", "coordinates": [-71.7392647794804, 42.5215307324461]}, "properties": {"CWP_NAME": "LEOMINSTER W W T P", "CWP_STREET": "436 MECHANIC ST", "CWP_CITY": "LEOMINSTER", "CWP_STATE": "MA", "CWP_ZIP": "01453", "CWP_COUNTY": "Worcester", "NPDES_ID": "MA0100617", "REGISTRY_ID": "110024373569", "CWP_FACILITY_TYPE_INDICATOR": "POTW", "CWP_MAJOR_MINOR_STATUS": "Major", "CWP_PERMIT_STATUS_DESC": "Admin Continued", "STATE_WATER_BODY_NAME": "NORTH NASHUA RIVER", "CWP_CSO_FLAG": "N"}}, {"type": "Feature", "geometry": {"type": "Point", "coordinates": [-70.6183206419792, 42.6521591190988]}, "properties": {"CWP_NAME": "ROCKPORT W W T F", "CWP_STREET": "PLEASANT ST (END OF)", "CWP_CITY": "ROCKPORT", "CWP_STATE": "MA", "CWP_ZIP": "01966", "CWP_COUNTY": "Essex", "NPDES_ID": "MA0100145", "REGISTRY_ID": "110001958748", "CWP_FACILITY_TYPE_INDICATOR": "POTW", "CWP_MAJOR_MINOR_STATUS": "Major", "CWP_PERMIT_STATUS_DESC": "Effective", "STATE_WATER_BODY_NAME": "SANDY BAY (ATLANTIC OCEAN)", "CWP_CSO_FLAG": "N"}}, {"type": "Feature", "geometry": {"type": "Point", "coordinates": [-72.1392383800562, 42.3500452609728]}, "properties": {"CWP_NAME": "HARDWICK W P C - WHEELWRIGHT", "CWP_STREET": "PINE STREET", "CWP_CITY": "WHEELWRIGHT", "CWP_STATE": "MA", "CWP_ZIP": "01094", "CWP_COUNTY": "Worcester", "NPDES_ID": "MA0102431", "REGISTRY_ID": "110009917448", "CWP_FACILITY_TYPE_INDICATOR": "POTW", "CWP_MAJOR_MINOR_STATUS": "Minor", "CWP_PERMIT_STATUS_DESC": "Terminated", "STATE_WATER_BODY_NAME": "WARE RIVER", "CWP_CSO_FLAG": "N"}}, {"type": "Feature", "geometry": {"type": "Point", "coordinates": [-72.6233337007798, 42.3130642156677]}, "properties": {"CWP_NAME": "NORTHAMPTON W W T F", "CWP_STREET": "33 HOCKANUM ROAD", "CWP_CITY": "NORTHAMPTON", "CWP_STATE": "MA", "CWP_ZIP": "01060", "CWP_COUNTY": "Hampshire", "NPDES_ID": "MA0101818", "REGISTRY_ID": "110002349771", "CWP_FACILITY_TYPE_INDICATOR": "POTW", "CWP_MAJOR_MINOR_STATUS": "Major", "CWP_PERMIT_STATUS_DESC": "Admin Continued", "STATE_WATER_BODY_NAME": "CONNECTICUT RIVER", "CWP_CSO_FLAG": "N"}}, {"type": "Feature", "geometry": {"type": "Point", "coordinates": [-71.7077318137394, 42.0777170181173]}, "properties": {"CWP_NAME": "DOUGLAS W W T P", "CWP_STREET": "CHARLES STREET", "CWP_CITY": "EAST DOUGLAS", "CWP_STATE": "MA", "CWP_ZIP": "01516", "CWP_COUNTY": "Worcester", "NPDES_ID": "MA0101095", "REGISTRY_ID": "110009917518", "CWP_FACILITY_TYPE_INDICATOR": "POTW", "CWP_MAJOR_MINOR_STATUS": "Minor", "CWP_PERMIT_STATUS_DESC": "Terminated", "STATE_WATER_BODY_NAME": "MUMFORD RIVER", "CWP_CSO_FLAG": "N"}}, {"type": "Feature", "geometry": {"type": "Point", "coordinates": [-70.7719203969768, 42.5745583988845]}, "properties": {"CWP_NAME": "MANCHESTER WASTEWATER TREATMENT FACILITY", "CWP_STREET": "12 CHURCH STREET", "CWP_CITY": "MANCHESTER", "CWP_STATE": "MA", "CWP_ZIP": "01944", "CWP_COUNTY": "Essex", "NPDES_ID": "MA0100871", "REGISTRY_ID": "110002040746", "CWP_FACILITY_TYPE_INDICATOR": "POTW", "CWP_MAJOR_MINOR_STATUS": "Major", "CWP_PERMIT_STATUS_DESC": "Effective", "STATE_WATER_BODY_NAME": "MANCHESTER BAY, MANCHESTER HARBOR", "CWP_CSO_FLAG": "N"}}, {"type": "Feature", "geometry": {"type": "Point", "coordinates": [-73.3589829635105, 42.1894361635971]}, "properties": {"CWP_NAME": "GREAT BARRINGTON W W T F, TOWN OF", "CWP_STREET": "100 BENTLEY ROAD", "CWP_CITY": "GREAT BARRINGTON", "CWP_STATE": "MA", "CWP_ZIP": "01230", "CWP_COUNTY": "Berkshire", "NPDES_ID": "MA0101524", "REGISTRY_ID": "110000732734", "CWP_FACILITY_TYPE_INDICATOR": "POTW", "CWP_MAJOR_MINOR_STATUS": "Major", "CWP_PERMIT_STATUS_DESC": "Effective", "STATE_WATER_BODY_NAME": "HOUSATONIC RIVER", "CWP_CSO_FLAG": "N"}}, {"type": "Feature", "geometry": {"type": "Point", "coordinates": [-72.5891414751345, 42.4682989224871]}, "properties": {"CWP_NAME": "SOUTH DEERFIELD W W T P", "CWP_STREET": "STATE HIGHWAY 116", "CWP_CITY": "SOUTH DEERFIELD", "CWP_STATE": "MA", "CWP_ZIP": "01373", "CWP_COUNTY": "Franklin", "NPDES_ID": "MA0101648", "REGISTRY_ID": "110006618918", "CWP_FACILITY_TYPE_INDICATOR": "POTW", "CWP_MAJOR_MINOR_STATUS": "Minor", "CWP_PERMIT_STATUS_DESC": "Terminated", "STATE_WATER_BODY_NAME": "CONNECTICUT RIVER", "CWP_CSO_FLAG": "N"}}, {"type": "Feature", "geometry": {"type": "Point", "coordinates": [-72.2429833204851, 42.5862423448972]}, "properties": {"CWP_NAME": "ATHOL W W T P", "CWP_STREET": "69 JONES STREET", "CWP_CITY": "ATHOL", "CWP_STATE": "MA", "CWP_ZIP": "01331", "CWP_COUNTY": "Worcester", "NPDES_ID": "MA0100005", "REGISTRY_ID": "110006618785", "CWP_FACILITY_TYPE_INDICATOR": "POTW", "CWP_MAJOR_MINOR_STATUS": "Major", "CWP_PERMIT_STATUS_DESC": "Effective", "STATE_WATER_BODY_NAME": "MILLERS RIVER", "CWP_CSO_FLAG": "N"}}, {"type": "Feature", "geometry": {"type": "Point", "coordinates": [-70.7982705223606, 42.2393612227201]}, "properties": {"CWP_NAME": "COHASSET W W T P", "CWP_STREET": "43 ELM ST", "CWP_CITY": "COHASSET", "CWP_STATE": "MA", "CWP_ZIP": "02025", "CWP_COUNTY": "Norfolk", "NPDES_ID": "MA0100285", "REGISTRY_ID": "110006744577", "CWP_FACILITY_TYPE_INDICATOR": "POTW", "CWP_MAJOR_MINOR_STATUS": "Minor", "CWP_PERMIT_STATUS_DESC": "Terminated", "STATE_WATER_BODY_NAME": "COHASSET HARBOR", "CWP_CSO_FLAG": "N"}}, {"type": "Feature", "geometry": {"type": "Point", "coordinates": [-71.3376840428187, 41.8988993974913]}, "properties": {"CWP_NAME": "ATTLEBORO WPCF", "CWP_STREET": "27 POND STREET NORTH FACILITY", "CWP_CITY": "ATTLEBORO", "CWP_STATE": "MA", "CWP_ZIP": "02703", "CWP_COUNTY": "Bristol", "NPDES_ID": "MA0100595", "REGISTRY_ID": "110000552651", "CWP_FACILITY_TYPE_INDICATOR": "POTW", "CWP_MAJOR_MINOR_STATUS": "Major", "CWP_PERMIT_STATUS_DESC": "Admin Continued", "STATE_WATER_BODY_NAME": "TEN MILE RIVER", "CWP_CSO_FLAG": "N"}}, {"type": "Feature", "geometry": {"type": "Point", "coordinates": [-71.1939345487563, 41.6767785050587]}, "properties": {"CWP_NAME": "FALL RIVER W W T P", "CWP_STREET": "1979 BAY STREET", "CWP_CITY": "FALL RIVER", "CWP_STATE": "MA", "CWP_ZIP": "02724", "CWP_COUNTY": "Bristol", "NPDES_ID": "MA0100382", "REGISTRY_ID": "110000732592", "CWP_FACILITY_TYPE_INDICATOR": "POTW", "CWP_MAJOR_MINOR_STATUS": "Major", "CWP_PERMIT_STATUS_DESC": "Admin Continued", "STATE_WATER_BODY_NAME": "MT HOPE BAY", "CWP_CSO_FLAG": "Y"}}, {"type": "Feature", "geometry": {"type": "Point", "coordinates": [-73.2115795704939, 42.7296023661114]}, "properties": {"CWP_NAME": "HOOSAC W P C F", "CWP_STREET": "667 SIMONDS ROAD", "CWP_CITY": "WILLIAMSTOWN", "CWP_STATE": "MA", "CWP_ZIP": "01267", "CWP_COUNTY": "Berkshire", "NPDES_ID": "MA0100510", "REGISTRY_ID": "110024325782", "CWP_FACILITY_TYPE_INDICATOR": "POTW", "CWP_MAJOR_MINOR_STATUS": "Major", "CWP_PERMIT_STATUS_DESC": "Admin Continued", "STATE_WATER_BODY_NAME": "HOOSIC RIVER", "CWP_CSO_FLAG": "N"}}, {"type": "Feature", "geometry": {"type": "Point", "coordinates": [-70.9264869435172, 42.8401417340436]}, "properties": {"CWP_NAME": "AMESBURY W W T P", "CWP_STREET": "19 MERRIMAC ST", "CWP_CITY": "AMESBURY", "CWP_STATE": "MA", "CWP_ZIP": "01913", "CWP_COUNTY": "Essex", "NPDES_ID": "MA0101745", "REGISTRY_ID": "110039709893", "CWP_FACILITY_TYPE_INDICATOR": "POTW", "CWP_MAJOR_MINOR_STATUS": "Major", "CWP_PERMIT_STATUS_DESC": "Admin Continued", "STATE_WATER_BODY_NAME": "MERRIMACK RIVER", "CWP_CSO_FLAG": "N"}}, {"type": "Feature", "geometry": {"type": "Point", "coordinates": [-71.5078007687759, 42.1192585165211]}, "properties": {"CWP_NAME": "MILFORD W W T F", "CWP_STREET": "ROUTE 140", "CWP_CITY": "HOPEDALE", "CWP_STATE": "MA", "CWP_ZIP": "01747", "CWP_COUNTY": "Worcester", "NPDES_ID": "MA0100579", "REGISTRY_ID": "110006618874", "CWP_FACILITY_TYPE_INDICATOR": "POTW", "CWP_MAJOR_MINOR_STATUS": "Major", "CWP_PERMIT_STATUS_DESC": "Effective", "STATE_WATER_BODY_NAME": "CHARLES RIVER", "CWP_CSO_FLAG": "N"}}, {"type": "Feature", "geometry": {"type": "Point", "coordinates": [-71.9953827659175, 42.1414438802906]}, "properties": {"CWP_NAME": "CHARLTON W W T P", "CWP_STREET": "7 WORCESTER RD", "CWP_CITY": "CHARLTON", "CWP_STATE": "MA", "CWP_ZIP": "01509", "CWP_COUNTY": "Worcester", "NPDES_ID": "MA0101141", "REGISTRY_ID": "110002040498", "CWP_FACILITY_TYPE_INDICATOR": "POTW", "CWP_MAJOR_MINOR_STATUS": "Major", "CWP_PERMIT_STATUS_DESC": "Admin Continued", "STATE_WATER_BODY_NAME": "CADY BROOK", "CWP_CSO_FLAG": "N"}}, {"type": "Feature", "geometry": {"type": "Point", "coordinates": [-71.2889489096831, 42.6484323064212]}, "properties": {"CWP_NAME": "LOWELL REGIONAL WW UTILITY", "CWP_STREET": "451 FIRST ST BLVD", "CWP_CITY": "LOWELL", "CWP_STATE": "MA", "CWP_ZIP": "01850", "CWP_COUNTY": "Middlesex", "NPDES_ID": "MA0100633", "REGISTRY_ID": "110024329289", "CWP_FACILITY_TYPE_INDICATOR": "POTW", "CWP_MAJOR_MINOR_STATUS": "Major", "CWP_PERMIT_STATUS_DESC": "Effective", "STATE_WATER_BODY_NAME": "MERRIMACK RIV/CONCORD RIV/BEAVER BR", "CWP_CSO_FLAG": "Y"}}, {"type": "Feature", "geometry": {"type": "Point", "coordinates": [-70.8363973100584, 42.5358398774693]}, "properties": {"CWP_NAME": "SOUTH ESSEX SEWERAGE DIST WWTP", "CWP_STREET": "50 FORT AVENUE", "CWP_CITY": "SALEM", "CWP_STATE": "MA", "CWP_ZIP": "01970", "CWP_COUNTY": "Essex", "NPDES_ID": "MA0100501", "REGISTRY_ID": "110000759812", "CWP_FACILITY_TYPE_INDICATOR": "POTW", "CWP_MAJOR_MINOR_STATUS": "Major", "CWP_PERMIT_STATUS_DESC": "Admin Continued", "STATE_WATER_BODY_NAME": "SALEM HARBOR", "CWP_CSO_FLAG": "N"}}, {"type": "Feature", "geometry": {"type": "Point", "coordinates": [-72.8725215518681, 42.6275185148956]}, "properties": {"CWP_NAME": "CHARLEMONT SEWER DISTRICT WWTP", "CWP_STREET": "20 FACTORY ROAD", "CWP_CITY": "CHARLEMONT", "CWP_STATE": "MA", "CWP_ZIP": "01339", "CWP_COUNTY": "Franklin", "NPDES_ID": "MA0103101", "REGISTRY_ID": "110009917322", "CWP_FACILITY_TYPE_INDICATOR": "POTW", "CWP_MAJOR_MINOR_STATUS": "Minor", "CWP_PERMIT_STATUS_DESC": "Terminated", "STATE_WATER_BODY_NAME": "DEERFIELD RIVER", "CWP_CSO_FLAG": "N"}}, {"type": "Feature", "geometry": {"type": "Point", "coordinates": [-72.6110714556187, 42.5512398123607]}, "properties": {"CWP_NAME": "OLD DEERFIELD W W T P", "CWP_STREET": "LITTLE MEADOW ROAD", "CWP_CITY": "DEERFIELD", "CWP_STATE": "MA", "CWP_ZIP": "01342", "CWP_COUNTY": "Franklin", "NPDES_ID": "MA0101940", "REGISTRY_ID": "110002047339", "CWP_FACILITY_TYPE_INDICATOR": "POTW", "CWP_MAJOR_MINOR_STATUS": "Minor", "CWP_PERMIT_STATUS_DESC": "Terminated", "STATE_WATER_BODY_NAME": "DEERFIELD RIVER", "CWP_CSO_FLAG": "N"}}, {"type": "Feature", "geometry": {"type": "Point", "coordinates": [-70.9174882704291, 41.9084340249866]}, "properties": {"CWP_NAME": "MIDDLEBOROUGH S T P", "CWP_STREET": "JOE CIAGLO WAY", "CWP_CITY": "MIDDLEBOROUGH", "CWP_STATE": "MA", "CWP_ZIP": "02346", "CWP_COUNTY": "Plymouth", "NPDES_ID": "MA0101591", "REGISTRY_ID": "110002045509", "CWP_FACILITY_TYPE_INDICATOR": "POTW", "CWP_MAJOR_MINOR_STATUS": "Major", "CWP_PERMIT_STATUS_DESC": "Admin Continued", "STATE_WATER_BODY_NAME": "NEMASKET RIVER", "CWP_CSO_FLAG": "N"}}, {"type": "Feature", "geometry": {"type": "Point", "coordinates": [-72.5723214564893, 42.5808086288063]}, "properties": {"CWP_NAME": "MONTAGUE W P C F", "CWP_STREET": "34 GREENFIELD ROAD", "CWP_CITY": "MONTAGUE", "CWP_STATE": "MA", "CWP_ZIP": "01351", "CWP_COUNTY": "Franklin", "NPDES_ID": "MA0100137", "REGISTRY_ID": "110000732574", "CWP_FACILITY_TYPE_INDICATOR": "POTW", "CWP_MAJOR_MINOR_STATUS": "Major", "CWP_PERMIT_STATUS_DESC": "Admin Continued", "STATE_WATER_BODY_NAME": "CONNECTICUT RIVER", "CWP_CSO_FLAG": "Y"}}, {"type": "Feature", "geometry": {"type": "Point", "coordinates": [-73.2427617530544, 42.4076863809995]}, "properties": {"CWP_NAME": "PITTSFIELD W W T P", "CWP_STREET": "901 HOLMES ROAD", "CWP_CITY": "PITTSFIELD", "CWP_STATE": "MA", "CWP_ZIP": "01201", "CWP_COUNTY": "Berkshire", "NPDES_ID": "MA0101681", "REGISTRY_ID": "110007369720", "CWP_FACILITY_TYPE_INDICATOR": "POTW", "CWP_MAJOR_MINOR_STATUS": "Major", "CWP_PERMIT_STATUS_DESC": "Effective", "STATE_WATER_BODY_NAME": "HOUSATONIC RIVER", "CWP_CSO_FLAG": "N"}}, {"type": "Feature", "geometry": {"type": "Point", "coordinates": [-71.3350589378021, 42.1909389994696]}, "properties": {"CWP_NAME": "MEDFIELD WASTEWATER TREATMENT FACILITY", "CWP_STREET": "197 WEST STREET", "CWP_CITY": "MEDFIELD", "CWP_STATE": "MA", "CWP_ZIP": "02052", "CWP_COUNTY": "Norfolk", "NPDES_ID": "MA0100978", "REGISTRY_ID": "110038211869", "CWP_FACILITY_TYPE_INDICATOR": "POTW", "CWP_MAJOR_MINOR_STATUS": "Major", "CWP_PERMIT_STATUS_DESC": "Admin Continued", "STATE_WATER_BODY_NAME": "CHARLES RIVER", "CWP_CSO_FLAG": "N"}}, {"type": "Feature", "geometry": {"type": "Point", "coordinates": [-72.0820208153154, 42.6836785164135]}, "properties": {"CWP_NAME": "WINCHENDON W P C F", "CWP_STREET": "637 RIVER ST", "CWP_CITY": "WINCHEDON", "CWP_STATE": "MA", "CWP_ZIP": "01475", "CWP_COUNTY": "Worcester", "NPDES_ID": "MA0100862", "REGISTRY_ID": "110000736865", "CWP_FACILITY_TYPE_INDICATOR": "POTW", "CWP_MAJOR_MINOR_STATUS": "Major", "CWP_PERMIT_STATUS_DESC": "Effective", "STATE_WATER_BODY_NAME": "MILLERS RIVER", "CWP_CSO_FLAG": "N"}}, {"type": "Feature", "geometry": {"type": "Point", "coordinates": [-70.9562877653, 42.4529385531062]}, "properties": {"CWP_NAME": "LYNN REGIONAL W P C F", "CWP_STREET": "TWO CIRCLE AVE", "CWP_CITY": "LYNN", "CWP_STATE": "MA", "CWP_ZIP": "01905", "CWP_COUNTY": "Essex", "NPDES_ID": "MA0100552", "REGISTRY_ID": "110000563328", "CWP_FACILITY_TYPE_INDICATOR": "POTW", "CWP_MAJOR_MINOR_STATUS": "Major", "CWP_PERMIT_STATUS_DESC": "Admin Continued", "STATE_WATER_BODY_NAME": "LYNN HARBOR (BROAD SOUND)", "CWP_CSO_FLAG": "Y"}}, {"type": "Feature", "geometry": {"type": "Point", "coordinates": [-71.6788078142187, 42.1721674356513]}, "properties": {"CWP_NAME": "GRAFTON WASTEWATER TREATMENT", "CWP_STREET": "BOARD OF SEWER COMMISSIONERS", "CWP_CITY": "SO. GRAFTON", "CWP_STATE": "MA", "CWP_ZIP": "01560", "CWP_COUNTY": "Worcester", "NPDES_ID": "MA0101311", "REGISTRY_ID": "110007298012", "CWP_FACILITY_TYPE_INDICATOR": "POTW", "CWP_MAJOR_MINOR_STATUS": "Major", "CWP_PERMIT_STATUS_DESC": "Admin Continued", "STATE_WATER_BODY_NAME": "BLACKSTONE RIVER", "CWP_CSO_FLAG": "N"}}, {"type": "Feature", "geometry": {"type": "Point", "coordinates": [-72.5846844326209, 42.4524141943473]}, "properties": {"CWP_NAME": "SUNDERLAND W W T F", "CWP_STREET": "113 RIVER RD", "CWP_CITY": "SUNDERLAND", "CWP_STATE": "MA", "CWP_ZIP": "01375", "CWP_COUNTY": "Franklin", "NPDES_ID": "MA0101079", "REGISTRY_ID": "110009917493", "CWP_FACILITY_TYPE_INDICATOR": "POTW", "CWP_MAJOR_MINOR_STATUS": "Minor", "CWP_PERMIT_STATUS_DESC": "Terminated", "STATE_WATER_BODY_NAME": "CONNECTICUT RIVER", "CWP_CSO_FLAG": "N"}}, {"type": "Feature", "geometry": {"type": "Point", "coordinates": [-71.1287939936455, 42.7145513802048]}, "properties": {"CWP_NAME": "GREATER LAWRENCE S D", "CWP_STREET": "240 CHARLES STREET", "CWP_CITY": "NO ANDOVER", "CWP_STATE": "MA", "CWP_ZIP": "018451649", "CWP_COUNTY": "Essex", "NPDES_ID": "MA0100447", "REGISTRY_ID": "110000736847", "CWP_FACILITY_TYPE_INDICATOR": "POTW", "CWP_MAJOR_MINOR_STATUS": "Major", "CWP_PERMIT_STATUS_DESC": "Effective", "STATE_WATER_BODY_NAME": "MERRIMACK RIVER, SPICKET RIVER", "CWP_CSO_FLAG": "Y"}}, {"type": "Feature", "geometry": {"type": "Point", "coordinates": [-72.5981221145136, 42.5713756372031]}, "properties": {"CWP_NAME": "GREENFIELD W P C P", "CWP_STREET": "384 DEERFIELD STREET (REAR)", "CWP_CITY": "GREENFIELD", "CWP_STATE": "MA", "CWP_ZIP": "01301", "CWP_COUNTY": "Franklin", "NPDES_ID": "MA0101214", "REGISTRY_ID": "110024348696", "CWP_FACILITY_TYPE_INDICATOR": "POTW", "CWP_MAJOR_MINOR_STATUS": "Major", "CWP_PERMIT_STATUS_DESC": "Admin Continued", "STATE_WATER_BODY_NAME": "GREEN RIVER TO DEERFIELD RIVER", "CWP_CSO_FLAG": "N"}}, {"type": "Feature", "geometry": {"type": "Point", "coordinates": [-72.4581390031789, 42.7019851066001]}, "properties": {"CWP_NAME": "NORTHFIELD WWTF", "CWP_STREET": "104 MEADOW STREET", "CWP_CITY": "NORTHFIELD", "CWP_STATE": "MA", "CWP_ZIP": "01360", "CWP_COUNTY": "Franklin", "NPDES_ID": "MA0100200", "REGISTRY_ID": "110009697667", "CWP_FACILITY_TYPE_INDICATOR": "POTW", "CWP_MAJOR_MINOR_STATUS": "Minor", "CWP_PERMIT_STATUS_DESC": "Terminated", "STATE_WATER_BODY_NAME": "CONNECTICUT RIVER", "CWP_CSO_FLAG": "N"}}, {"type": "Feature", "geometry": {"type": "Point", "coordinates": [-72.6216609513398, 42.1537681708305]}, "properties": {"CWP_NAME": "CHICOPEE W P C", "CWP_STREET": "80 MEDINA STREET", "CWP_CITY": "CHICOPEE", "CWP_STATE": "MA", "CWP_ZIP": "01013", "CWP_COUNTY": "Hampden", "NPDES_ID": "MA0101508", "REGISTRY_ID": "110000732725", "CWP_FACILITY_TYPE_INDICATOR": "POTW", "CWP_MAJOR_MINOR_STATUS": "Major", "CWP_PERMIT_STATUS_DESC": "Effective", "STATE_WATER_BODY_NAME": "CHICOPEE RIVER, CONNECTICUT & CHICOPEE RIVERS, CONNECTICUT RIVER, WILLLIMANSETT BROOK", "CWP_CSO_FLAG": "Y"}}, {"type": "Feature", "geometry": {"type": "Point", "coordinates": [-71.7473694737495, 42.5435137644201]}, "properties": {"CWP_NAME": "EAST FITCHBURG WWTF", "CWP_STREET": "24 LANIDES LANE", "CWP_CITY": "FITCHBURG", "CWP_STATE": "MA", "CWP_ZIP": "01420", "CWP_COUNTY": "Worcester", "NPDES_ID": "MA0100986", "REGISTRY_ID": "110006618810", "CWP_FACILITY_TYPE_INDICATOR": "POTW", "CWP_MAJOR_MINOR_STATUS": "Major", "CWP_PERMIT_STATUS_DESC": "Admin Continued", "STATE_WATER_BODY_NAME": "NASHUA RIVER, NORTH BRANCH", "CWP_CSO_FLAG": "Y"}}, {"type": "Feature", "geometry": {"type": "Point", "coordinates": [-71.8941136770363, 42.1836553705644]}, "properties": {"CWP_NAME": "OXFORD ROCHDALE SD WWTP", "CWP_STREET": "28 COMINS RD", "CWP_CITY": "OXFORD", "CWP_STATE": "MA", "CWP_ZIP": "01540", "CWP_COUNTY": "Worcester", "NPDES_ID": "MA0100170", "REGISTRY_ID": "110009917643", "CWP_FACILITY_TYPE_INDICATOR": "POTW", "CWP_MAJOR_MINOR_STATUS": "Minor", "CWP_PERMIT_STATUS_DESC": "Terminated", "STATE_WATER_BODY_NAME": "FRENCH RIVER", "CWP_CSO_FLAG": "N"}}, {"type": "Feature", "geometry": {"type": "Point", "coordinates": [-72.0133485337387, 42.2317825950521]}, "properties": {"CWP_NAME": "SPENCER W W T P", "CWP_STREET": "69 WEST MAIN STREET", "CWP_CITY": "SPENCER", "CWP_STATE": "MA", "CWP_ZIP": "01562", "CWP_COUNTY": "Worcester", "NPDES_ID": "MA0100919", "REGISTRY_ID": "110000732663", "CWP_FACILITY_TYPE_INDICATOR": "POTW", "CWP_MAJOR_MINOR_STATUS": "Major", "CWP_PERMIT_STATUS_DESC": "Effective", "STATE_WATER_BODY_NAME": "CRANBERRY BROOK (SEVEN MILE RIVER)", "CWP_CSO_FLAG": "N"}}, {"type": "Feature", "geometry": {"type": "Point", "coordinates": [-70.6828811439268, 41.7602733946029]}, "properties": {"CWP_NAME": "WAREHAM W P C F", "CWP_STREET": "6 TONY LANE", "CWP_CITY": "WAREHAM", "CWP_STATE": "MA", "CWP_ZIP": "02571", "CWP_COUNTY": "Plymouth", "NPDES_ID": "MA0101893", "REGISTRY_ID": "110000732798", "CWP_FACILITY_TYPE_INDICATOR": "POTW", "CWP_MAJOR_MINOR_STATUS": "Major", "CWP_PERMIT_STATUS_DESC": "Admin Continued", "STATE_WATER_BODY_NAME": "SUBSURFACE PERCOLATION/AGAWAM RIVER", "CWP_CSO_FLAG": "N"}}, {"type": "Feature", "geometry": {"type": "Point", "coordinates": [-72.3879010224784, 42.5975090486708]}, "properties": {"CWP_NAME": "ERVING CENTER W W T P #2", "CWP_STREET": "45 EAST MAIN STREET", "CWP_CITY": "ERVING", "CWP_STATE": "MA", "CWP_ZIP": "01344", "CWP_COUNTY": "Franklin", "NPDES_ID": "MA0101052", "REGISTRY_ID": "110022816309", "CWP_FACILITY_TYPE_INDICATOR": "POTW", "CWP_MAJOR_MINOR_STATUS": "Major", "CWP_PERMIT_STATUS_DESC": "Effective", "STATE_WATER_BODY_NAME": "MILLERS RIVER", "CWP_CSO_FLAG": "N"}}, {"type": "Feature", "geometry": {"type": "Point", "coordinates": [-70.7268661235247, 42.1762386978109]}, "properties": {"CWP_NAME": "SCITUATE W T P", "CWP_STREET": "161 DRIFTWAY", "CWP_CITY": "SCITUATE", "CWP_STATE": "MA", "CWP_ZIP": "02066", "CWP_COUNTY": "Plymouth", "NPDES_ID": "MA0102695", "REGISTRY_ID": "110028220985", "CWP_FACILITY_TYPE_INDICATOR": "POTW", "CWP_MAJOR_MINOR_STATUS": "Major", "CWP_PERMIT_STATUS_DESC": "Admin Continued", "STATE_WATER_BODY_NAME": "TIDAL DITCH FLOWS INTO HERRING RIVE", "CWP_CSO_FLAG": "N"}}, {"type": "Feature", "geometry": {"type": "Point", "coordinates": [-72.4256311722984, 42.2815879448538]}, "properties": {"CWP_NAME": "BELCHERTOWN W W T P", "CWP_STREET": "175 GEORGE HANNUM ROAD", "CWP_CITY": "BELCHERTOWN", "CWP_STATE": "MA", "CWP_ZIP": "01007", "CWP_COUNTY": "Hampshire", "NPDES_ID": "MA0102148", "REGISTRY_ID": "110002320701", "CWP_FACILITY_TYPE_INDICATOR": "POTW", "CWP_MAJOR_MINOR_STATUS": "Major", "CWP_PERMIT_STATUS_DESC": "Admin Continued", "STATE_WATER_BODY_NAME": "LAMPSON BROOK", "CWP_CSO_FLAG": "N"}}, {"type": "Feature", "geometry": {"type": "Point", "coordinates": [-72.7319439782154, 42.595270623821]}, "properties": {"CWP_NAME": "SHELBURNE FALLS W W T F", "CWP_STREET": "GARDNER FALLS ROAD", "CWP_CITY": "BUCKLAND", "CWP_STATE": "MA", "CWP_ZIP": "01370", "CWP_COUNTY": "Franklin", "NPDES_ID": "MA0101044", "REGISTRY_ID": "110009917484", "CWP_FACILITY_TYPE_INDICATOR": "POTW", "CWP_MAJOR_MINOR_STATUS": "Minor", "CWP_PERMIT_STATUS_DESC": "Terminated", "STATE_WATER_BODY_NAME": "DEERFIELD RIVER", "CWP_CSO_FLAG": "N"}}, {"type": "Feature", "geometry": {"type": "Point", "coordinates": [-72.1532408460732, 42.6289682470582]}, "properties": {"CWP_NAME": "ROYALSTON W W T P", "CWP_STREET": "15 BLOSSOM STREET", "CWP_CITY": "SOUTH ROYALSTON", "CWP_STATE": "MA", "CWP_ZIP": "01368", "CWP_COUNTY": "Worcester", "NPDES_ID": "MA0100161", "REGISTRY_ID": "110009023369", "CWP_FACILITY_TYPE_INDICATOR": "POTW", "CWP_MAJOR_MINOR_STATUS": "Minor", "CWP_PERMIT_STATUS_DESC": "Terminated", "STATE_WATER_BODY_NAME": "MILLERS RIVER", "CWP_CSO_FLAG": "N"}}, {"type": "Feature", "geometry": {"type": "Point", "coordinates": [-72.5928286920871, 42.3942343419663]}, "properties": {"CWP_NAME": "HATFIELD W W T F", "CWP_STREET": "260 MAIN STREET", "CWP_CITY": "HATFIELD", "CWP_STATE": "MA", "CWP_ZIP": "01038", "CWP_COUNTY": "Hampshire", "NPDES_ID": "MA0101290", "REGISTRY_ID": "110009917527", "CWP_FACILITY_TYPE_INDICATOR": "POTW", "CWP_MAJOR_MINOR_STATUS": "Minor", "CWP_PERMIT_STATUS_DESC": "Terminated", "STATE_WATER_BODY_NAME": "CONNECTICUT RIVER", "CWP_CSO_FLAG": "N"}}, {"type": "Feature", "geometry": {"type": "Point", "coordinates": [-71.6137805058051, 42.0369282619889]}, "properties": {"CWP_NAME": "UXBRIDGE W W T F", "CWP_STREET": "80 RIVER ROAD", "CWP_CITY": "UXBRIDGE", "CWP_STATE": "MA", "CWP_ZIP": "01569", "CWP_COUNTY": "Worcester", "NPDES_ID": "MA0102440", "REGISTRY_ID": "110000732805", "CWP_FACILITY_TYPE_INDICATOR": "POTW", "CWP_MAJOR_MINOR_STATUS": "Major", "CWP_PERMIT_STATUS_DESC": "Admin Continued", "STATE_WATER_BODY_NAME": "BLACKSTONE RIVER", "CWP_CSO_FLAG": "N"}}, {"type": "Feature", "geometry": {"type": "Point", "coordinates": [-70.6803810758402, 42.6113469756651]}, "properties": {"CWP_NAME": "GLOUCESTER W P C F", "CWP_STREET": "50 ESSEX AVENUE", "CWP_CITY": "GLOUCESTER", "CWP_STATE": "MA", "CWP_ZIP": "01930", "CWP_COUNTY": "Essex", "NPDES_ID": "MA0100625", "REGISTRY_ID": "110024340444", "CWP_FACILITY_TYPE_INDICATOR": "POTW", "CWP_MAJOR_MINOR_STATUS": "Major", "CWP_PERMIT_STATUS_DESC": "Effective", "STATE_WATER_BODY_NAME": "GLOUCESTER HARBOR, GLOUCESTER HARBOR (ATLANTIC OCEAN), GLOUCESTER INNER HARBOR, HARBOR COVE, MASSACHUSETTS BAY", "CWP_CSO_FLAG": "Y"}}, {"type": "Feature", "geometry": {"type": "Point", "coordinates": [-71.3956939640774, 42.4643563338329]}, "properties": {"CWP_NAME": "MCI - CONCORD", "CWP_STREET": "965 ELM STREET", "CWP_CITY": "CONCORD", "CWP_STATE": "MA", "CWP_ZIP": "01742", "CWP_COUNTY": "Middlesex", "NPDES_ID": "MA0102245", "REGISTRY_ID": "110009588650", "CWP_FACILITY_TYPE_INDICATOR": "POTW", "CWP_MAJOR_MINOR_STATUS": "Minor", "CWP_PERMIT_STATUS_DESC": "Terminated", "STATE_WATER_BODY_NAME": "ASSABET RIVER", "CWP_CSO_FLAG": "N"}}, {"type": "Feature", "geometry": {"type": "Point", "coordinates": [-71.3378234711568, 42.4715032493652]}, "properties": {"CWP_NAME": "CONCORD W W T F", "CWP_STREET": "509 BEDFORD ST", "CWP_CITY": "CONCORD", "CWP_STATE": "MA", "CWP_ZIP": "01742", "CWP_COUNTY": "Middlesex", "NPDES_ID": "MA0100668", "REGISTRY_ID": "110000732645", "CWP_FACILITY_TYPE_INDICATOR": "POTW", "CWP_MAJOR_MINOR_STATUS": "Major", "CWP_PERMIT_STATUS_DESC": "Expired", "STATE_WATER_BODY_NAME": "CONCORD RIVER", "CWP_CSO_FLAG": "N"}}, {"type": "Feature", "geometry": {"type": "Point", "coordinates": [-72.5881414123043, 42.2053793746774]}, "properties": {"CWP_NAME": "SOUTH HADLEY W W T P", "CWP_STREET": "2 JAMES STREET", "CWP_CITY": "CHICOPEE", "CWP_STATE": "MA", "CWP_ZIP": "01020", "CWP_COUNTY": "Hampden", "NPDES_ID": "MA0100455", "REGISTRY_ID": "110000732618", "CWP_FACILITY_TYPE_INDICATOR": "POTW", "CWP_MAJOR_MINOR_STATUS": "Major", "CWP_PERMIT_STATUS_DESC": "Admin Continued", "STATE_WATER_BODY_NAME": "BUTTERY + STONY BROOK, CT. RIVER", "CWP_CSO_FLAG": "Y"}}, {"type": "Feature", "geometry": {"type": "Point", "coordinates": [-72.4944509341857, 42.5887829215665]}, "properties": {"CWP_NAME": "ERVING P O T W #1", "CWP_STREET": "16 PUBLICWORKS BLVD.", "CWP_CITY": "ERVING", "CWP_STATE": "MA", "CWP_ZIP": "01344", "CWP_COUNTY": "Franklin", "NPDES_ID": "MA0101516", "REGISTRY_ID": "110000761756", "CWP_FACILITY_TYPE_INDICATOR": "POTW", "CWP_MAJOR_MINOR_STATUS": "Major", "CWP_PERMIT_STATUS_DESC": "Effective", "STATE_WATER_BODY_NAME": "MILLERS RIVER", "CWP_CSO_FLAG": "N"}}, {"type": "Feature", "geometry": {"type": "Point", "coordinates": [-72.9418763974486, 42.7211496461657]}, "properties": {"CWP_NAME": "MONROE W W T F", "CWP_STREET": "MILL STREET", "CWP_CITY": "MONROE BRIDGE", "CWP_STATE": "MA", "CWP_ZIP": "01350", "CWP_COUNTY": "Franklin", "NPDES_ID": "MA0100188", "REGISTRY_ID": "110009917652", "CWP_FACILITY_TYPE_INDICATOR": "POTW", "CWP_MAJOR_MINOR_STATUS": "Minor", "CWP_PERMIT_STATUS_DESC": "Terminated", "STATE_WATER_BODY_NAME": "DEERFIELD RIVER", "CWP_CSO_FLAG": "N"}}, {"type": "Feature", "geometry": {"type": "Point", "coordinates": [-72.3622289414423, 42.1853200003179]}, "properties": {"CWP_NAME": "PALMER W P C F", "CWP_STREET": "1 NORBELL STREET", "CWP_CITY": "PALMER, TOWN OF", "CWP_STATE": "MA", "CWP_ZIP": "01080", "CWP_COUNTY": "Hampden", "NPDES_ID": "MA0101168", "REGISTRY_ID": "110010402135", "CWP_FACILITY_TYPE_INDICATOR": "POTW", "CWP_MAJOR_MINOR_STATUS": "Major", "CWP_PERMIT_STATUS_DESC": "Admin Continued", "STATE_WATER_BODY_NAME": "CHICOPEE/QUABOAG/WARE/SWIFT", "CWP_CSO_FLAG": "Y"}}, {"type": "Feature", "geometry": {"type": "Point", "coordinates": [-71.6136474240853, 42.3413722149646]}, "properties": {"CWP_NAME": "MARLBOROUGH WESTERLY W W T F", "CWP_STREET": "303 BOUNDARY STREET", "CWP_CITY": "MARLBOROUGH", "CWP_STATE": "MA", "CWP_ZIP": "01752", "CWP_COUNTY": "Middlesex", "NPDES_ID": "MA0100480", "REGISTRY_ID": "110002082460", "CWP_FACILITY_TYPE_INDICATOR": "POTW", "CWP_MAJOR_MINOR_STATUS": "Major", "CWP_PERMIT_STATUS_DESC": "Effective", "STATE_WATER_BODY_NAME": "ASSABET RIVER", "CWP_CSO_FLAG": "N"}}, {"type": "Feature", "geometry": {"type": "Point", "coordinates": [-71.6032656600997, 42.5604219261568]}, "properties": {"CWP_NAME": "AYER W W T P", "CWP_STREET": "BROOK STREET", "CWP_CITY": "AYER", "CWP_STATE": "MA", "CWP_ZIP": "01432", "CWP_COUNTY": "Middlesex", "NPDES_ID": "MA0100013", "REGISTRY_ID": "110006618794", "CWP_FACILITY_TYPE_INDICATOR": "POTW", "CWP_MAJOR_MINOR_STATUS": "Major", "CWP_PERMIT_STATUS_DESC": "Admin Continued", "STATE_WATER_BODY_NAME": "NASHUA RIVER", "CWP_CSO_FLAG": "N"}}, {"type": "Feature", "geometry": {"type": "Point", "coordinates": [-72.3314613509379, 42.5960683364094]}, "properties": {"CWP_NAME": "ORANGE W W T P", "CWP_STREET": "295 WEST MAIN ST", "CWP_CITY": "ORANGE", "CWP_STATE": "MA", "CWP_ZIP": "01364", "CWP_COUNTY": "Franklin", "NPDES_ID": "MA0101257", "REGISTRY_ID": "110006618909", "CWP_FACILITY_TYPE_INDICATOR": "POTW", "CWP_MAJOR_MINOR_STATUS": "Major", "CWP_PERMIT_STATUS_DESC": "Effective", "STATE_WATER_BODY_NAME": "MILLERS RIVER", "CWP_CSO_FLAG": "N"}}, {"type": "Feature", "geometry": {"type": "Point", "coordinates": [-71.3031590717338, 42.1337861742387]}, "properties": {"CWP_NAME": "M C I NORFOLK-WALPOLE WPCF", "CWP_STREET": "10 OLD CAMPBELL RD", "CWP_CITY": "NORFOLK", "CWP_STATE": "MA", "CWP_ZIP": "02056", "CWP_COUNTY": "Norfolk", "NPDES_ID": "MA0102253", "REGISTRY_ID": "110000914912", "CWP_FACILITY_TYPE_INDICATOR": "POTW", "CWP_MAJOR_MINOR_STATUS": "Major", "CWP_PERMIT_STATUS_DESC": "Admin Continued", "STATE_WATER_BODY_NAME": "STOP RIVER TO CHARLES RIVER", "CWP_CSO_FLAG": "N"}}, {"type": "Feature", "geometry": {"type": "Point", "coordinates": [-70.8847763732613, 42.8402199764101]}, "properties": {"CWP_NAME": "SALISBURY W W T F", "CWP_STREET": "125 ELM ST", "CWP_CITY": "SALISBURY", "CWP_STATE": "MA", "CWP_ZIP": "01952", "CWP_COUNTY": "Essex", "NPDES_ID": "MA0102873", "REGISTRY_ID": "110024378662", "CWP_FACILITY_TYPE_INDICATOR": "POTW", "CWP_MAJOR_MINOR_STATUS": "Major", "CWP_PERMIT_STATUS_DESC": "Admin Continued", "STATE_WATER_BODY_NAME": "TIDAL CREEK TO MERRIMACK RIVER", "CWP_CSO_FLAG": "N"}}, {"type": "Feature", "geometry": {"type": "Point", "coordinates": [-70.6431571860805, 41.9274142289785]}, "properties": {"CWP_NAME": "PLYMOUTH W W T P", "CWP_STREET": "131 CAMELOT DRIVE", "CWP_CITY": "PLYMOUTH", "CWP_STATE": "MA", "CWP_ZIP": "02360", "CWP_COUNTY": "Plymouth", "NPDES_ID": "MA0100587", "REGISTRY_ID": "110025329151", "CWP_FACILITY_TYPE_INDICATOR": "POTW", "CWP_MAJOR_MINOR_STATUS": "Major", "CWP_PERMIT_STATUS_DESC": "Admin Continued", "STATE_WATER_BODY_NAME": "PLYMOUTH HARBOR", "CWP_CSO_FLAG": "N"}}, {"type": "Feature", "geometry": {"type": "Point", "coordinates": [-71.6221747879815, 42.1636598493267]}, "properties": {"CWP_NAME": "UPTON WWTP", "CWP_STREET": "43 MAPLE AVE", "CWP_CITY": "WEST UPTON", "CWP_STATE": "MA", "CWP_ZIP": "01568", "CWP_COUNTY": "Worcester", "NPDES_ID": "MA0100196", "REGISTRY_ID": "110009919375", "CWP_FACILITY_TYPE_INDICATOR": "POTW", "CWP_MAJOR_MINOR_STATUS": "Major", "CWP_PERMIT_STATUS_DESC": "Admin Continued", "STATE_WATER_BODY_NAME": "WEST RIVER", "CWP_CSO_FLAG": "N"}}, {"type": "Feature", "geometry": {"type": "Point", "coordinates": [-70.9664284977581, 41.9948957608931]}, "properties": {"CWP_NAME": "BRIDGEWATER W W T F", "CWP_STREET": "MORRIS AVE", "CWP_CITY": "BRIDGEWATER", "CWP_STATE": "MA", "CWP_ZIP": "02324", "CWP_COUNTY": "Plymouth", "NPDES_ID": "MA0100641", "REGISTRY_ID": "110006618801", "CWP_FACILITY_TYPE_INDICATOR": "POTW", "CWP_MAJOR_MINOR_STATUS": "Major", "CWP_PERMIT_STATUS_DESC": "Admin Continued", "STATE_WATER_BODY_NAME": "  TOWN RIVER", "CWP_CSO_FLAG": "N"}}, {"type": "Feature", "geometry": {"type": "Point", "coordinates": [-72.8516365614251, 42.1895027311985]}, "properties": {"CWP_NAME": "RUSSELL W W T F", "CWP_STREET": "RUSSELL VILLAGE", "CWP_CITY": "RUSSELL", "CWP_STATE": "MA", "CWP_ZIP": "01071", "CWP_COUNTY": "Hampden", "NPDES_ID": "MA0100960", "REGISTRY_ID": "110009917563", "CWP_FACILITY_TYPE_INDICATOR": "POTW", "CWP_MAJOR_MINOR_STATUS": "Minor", "CWP_PERMIT_STATUS_DESC": "Terminated", "STATE_WATER_BODY_NAME": "WESTFIELD RIVER", "CWP_CSO_FLAG": "N"}}, {"type": "Feature", "geometry": {"type": "Point", "coordinates": [-71.0028006935912, 42.0492885661667]}, "properties": {"CWP_NAME": "BROCKTON A W R F", "CWP_STREET": "303 OAK HILL WAY", "CWP_CITY": "BROCKTON", "CWP_STATE": "MA", "CWP_ZIP": "02301", "CWP_COUNTY": "Plymouth", "NPDES_ID": "MA0101010", "REGISTRY_ID": "110016496120", "CWP_FACILITY_TYPE_INDICATOR": "POTW", "CWP_MAJOR_MINOR_STATUS": "Major", "CWP_PERMIT_STATUS_DESC": "Admin Continued", "STATE_WATER_BODY_NAME": "SALISBURY PLAIN RIVER", "CWP_CSO_FLAG": "N"}}, {"type": "Feature", "geometry": {"type": "Point", "coordinates": [-73.3693710450314, 42.3324185030109]}, "properties": {"CWP_NAME": "WEST STOCKBRIDGE W W T F", "CWP_STREET": "MOSCOW ROAD", "CWP_CITY": "WEST STOCKBRIDGE", "CWP_STATE": "MA", "CWP_ZIP": "02156", "CWP_COUNTY": "Berkshire", "NPDES_ID": "MA0103110", "REGISTRY_ID": "110009917331", "CWP_FACILITY_TYPE_INDICATOR": "POTW", "CWP_MAJOR_MINOR_STATUS": "Minor", "CWP_PERMIT_STATUS_DESC": "Terminated", "STATE_WATER_BODY_NAME": "WILLIAMS RIVER", "CWP_CSO_FLAG": "N"}}, {"type": "Feature", "geometry": {"type": "Point", "coordinates": [-71.061607422753, 42.7594185676876]}, "properties": {"CWP_NAME": "HAVERHILL W W T F", "CWP_STREET": "40 SOUTH PORTER STREET", "CWP_CITY": "BRADFORD", "CWP_STATE": "MA", "CWP_ZIP": "01835", "CWP_COUNTY": "Essex", "NPDES_ID": "MA0101621", "REGISTRY_ID": "110000732752", "CWP_FACILITY_TYPE_INDICATOR": "POTW", "CWP_MAJOR_MINOR_STATUS": "Major", "CWP_PERMIT_STATUS_DESC": "Effective", "STATE_WATER_BODY_NAME": "MERRIMACK AND LITTLE RIVER", "CWP_CSO_FLAG": "Y"}}, {"type": "Feature", "geometry": {"type": "Point", "coordinates": [-73.3259040959473, 42.2937593404681]}, "properties": {"CWP_NAME": "STOCKBRIDGE W W T P", "CWP_STREET": "ONE WEST STOCKBRIDGE ROAD", "CWP_CITY": "STOCKBRIDGE", "CWP_STATE": "MA", "CWP_ZIP": "01262", "CWP_COUNTY": "Berkshire", "NPDES_ID": "MA0101087", "REGISTRY_ID": "110009917509", "CWP_FACILITY_TYPE_INDICATOR": "POTW", "CWP_MAJOR_MINOR_STATUS": "Minor", "CWP_PERMIT_STATUS_DESC": "Terminated", "STATE_WATER_BODY_NAME": "HOUSATONIC RIVER", "CWP_CSO_FLAG": "N"}}, {"type": "Feature", "geometry": {"type": "Point", "coordinates": [-72.0063005348239, 42.069698651379]}, "properties": {"CWP_NAME": "SOUTHBRIDGE W W T P", "CWP_STREET": "83 DRESSER HILL RD", "CWP_CITY": "SOUTHBRIDGE", "CWP_STATE": "MA", "CWP_ZIP": "01550", "CWP_COUNTY": "Worcester", "NPDES_ID": "MA0100901", "REGISTRY_ID": "110024322491", "CWP_FACILITY_TYPE_INDICATOR": "POTW", "CWP_MAJOR_MINOR_STATUS": "Major", "CWP_PERMIT_STATUS_DESC": "Admin Continued", "STATE_WATER_BODY_NAME": "QUINEBAUG RIVER", "CWP_CSO_FLAG": "N"}}, {"type": "Feature", "geometry": {"type": "Point", "coordinates": [-70.8997212695405, 42.1078227546434]}, "properties": {"CWP_NAME": "ROCKLAND WASTEWATER TREATMENT FACILITY", "CWP_STREET": "587 REAR SUMMER STREET", "CWP_CITY": "ROCKLAND", "CWP_STATE": "MA", "CWP_ZIP": "02370", "CWP_COUNTY": "Plymouth", "NPDES_ID": "MA0101923", "REGISTRY_ID": "110002040853", "CWP_FACILITY_TYPE_INDICATOR": "POTW", "CWP_MAJOR_MINOR_STATUS": "Major", "CWP_PERMIT_STATUS_DESC": "Effective", "STATE_WATER_BODY_NAME": "FRENCH STREAM", "CWP_CSO_FLAG": "N"}}, {"type": "Feature", "geometry": {"type": "Point", "coordinates": [-71.5380332881125, 42.1230608498758]}, "properties": {"CWP_NAME": "HOPEDALE W W T P", "CWP_STREET": "OFF MENDON ST", "CWP_CITY": "HOPEDALE", "CWP_STATE": "MA", "CWP_ZIP": "01747", "CWP_COUNTY": "Worcester", "NPDES_ID": "MA0102202", "REGISTRY_ID": "110006618838", "CWP_FACILITY_TYPE_INDICATOR": "POTW", "CWP_MAJOR_MINOR_STATUS": "Major", "CWP_PERMIT_STATUS_DESC": "Expired", "STATE_WATER_BODY_NAME": "MILL RIVER", "CWP_CSO_FLAG": "N"}}, {"type": "Feature", "geometry": {"type": "Point", "coordinates": [-71.306250931938, 41.9606486606832]}, "properties": {"CWP_NAME": "NORTH ATTLEBOROUGH W W T P", "CWP_STREET": "CEDAR ROAD", "CWP_CITY": "NORTH ATTLEBOROUGH", "CWP_STATE": "MA", "CWP_ZIP": "02760", "CWP_COUNTY": "Bristol", "NPDES_ID": "MA0101036", "REGISTRY_ID": "110000878596", "CWP_FACILITY_TYPE_INDICATOR": "POTW", "CWP_MAJOR_MINOR_STATUS": "Major", "CWP_PERMIT_STATUS_DESC": "Admin Continued", "STATE_WATER_BODY_NAME": "TEN MILE RIVER", "CWP_CSO_FLAG": "N"}}, {"type": "Feature", "geometry": {"type": "Point", "coordinates": [-73.1086296401018, 42.6446856683417]}, "properties": {"CWP_NAME": "ADAMS W W T P", "CWP_STREET": "273 COLUMBIA STREET", "CWP_CITY": "ADAMS", "CWP_STATE": "MA", "CWP_ZIP": "01220", "CWP_COUNTY": "Berkshire", "NPDES_ID": "MA0100315", "REGISTRY_ID": "110000761113", "CWP_FACILITY_TYPE_INDICATOR": "POTW", "CWP_MAJOR_MINOR_STATUS": "Major", "CWP_PERMIT_STATUS_DESC": "Admin Continued", "STATE_WATER_BODY_NAME": "HOOSIC RIVER", "CWP_CSO_FLAG": "N"}}, {"type": "Feature", "geometry": {"type": "Point", "coordinates": [-71.8463237106746, 42.5614219644132]}, "properties": {"CWP_NAME": "WEST FITCHBURG WWTF", "CWP_STREET": "101 PRINCETON RD", "CWP_CITY": "FITCHBURG", "CWP_STATE": "MA", "CWP_ZIP": "01420", "CWP_COUNTY": "Worcester", "NPDES_ID": "MA0101281", "REGISTRY_ID": "110001947163", "CWP_FACILITY_TYPE_INDICATOR": "POTW", "CWP_MAJOR_MINOR_STATUS": "Major", "CWP_PERMIT_STATUS_DESC": "Terminated", "STATE_WATER_BODY_NAME": "NASHUA RIVER, NORTH BRANCH", "CWP_CSO_FLAG": "N"}}, {"type": "Feature", "geometry": {"type": "Point", "coordinates": [-72.5864884654953, 42.3285982095722]}, "properties": {"CWP_NAME": "HADLEY WASTEWATER TREATMENT PLANT", "CWP_STREET": "266  MIDDLE STREET", "CWP_CITY": "HADLEY", "CWP_STATE": "MA", "CWP_ZIP": "01035", "CWP_COUNTY": "Hampshire", "NPDES_ID": "MA0100099", "REGISTRY_ID": "110009917625", "CWP_FACILITY_TYPE_INDICATOR": "POTW", "CWP_MAJOR_MINOR_STATUS": "Minor", "CWP_PERMIT_STATUS_DESC": "Terminated", "STATE_WATER_BODY_NAME": "CONNECTICUT RIVER", "CWP_CSO_FLAG": "N"}}, {"type": "Feature", "geometry": {"type": "Point", "coordinates": [-73.2454516223503, 42.3483185241737]}, "properties": {"CWP_NAME": "LENOX CENTER W W T P", "CWP_STREET": "239 CRYSTAL STREET", "CWP_CITY": "LENOX DALE", "CWP_STATE": "MA", "CWP_ZIP": "01242", "CWP_COUNTY": "Berkshire", "NPDES_ID": "MA0100935", "REGISTRY_ID": "110009023341", "CWP_FACILITY_TYPE_INDICATOR": "POTW", "CWP_MAJOR_MINOR_STATUS": "Major", "CWP_PERMIT_STATUS_DESC": "Effective", "STATE_WATER_BODY_NAME": "HOUSATONIC RIVER", "CWP_CSO_FLAG": "N"}}, {"type": "Feature", "geometry": {"type": "Point", "coordinates": [-70.9910403007871, 42.8317987197867]}, "properties": {"CWP_NAME": "MERRIMAC W W T P", "CWP_STREET": "50 FEDERAL WAY", "CWP_CITY": "MERRIMAC", "CWP_STATE": "MA", "CWP_ZIP": "01860", "CWP_COUNTY": "Essex", "NPDES_ID": "MA0101150", "REGISTRY_ID": "110009697685", "CWP_FACILITY_TYPE_INDICATOR": "POTW", "CWP_MAJOR_MINOR_STATUS": "Minor", "CWP_PERMIT_STATUS_DESC": "Terminated", "STATE_WATER_BODY_NAME": "MERRIMACK RIVER", "CWP_CSO_FLAG": "N"}}, {"type": "Feature", "geometry": {"type": "Point", "coordinates": [-70.8994056187167, 42.3060198816144]}, "properties": {"CWP_NAME": "HULL W P C F", "CWP_STREET": "1111 NANTASKET AVE", "CWP_CITY": "HULL", "CWP_STATE": "MA", "CWP_ZIP": "02045", "CWP_COUNTY": "Plymouth", "NPDES_ID": "MA0101231", "REGISTRY_ID": "110024318594", "CWP_FACILITY_TYPE_INDICATOR": "POTW", "CWP_MAJOR_MINOR_STATUS": "Major", "CWP_PERMIT_STATUS_DESC": "Admin Continued", "STATE_WATER_BODY_NAME": "ATLANTIC OCEAN/HINGHAM BAY", "CWP_CSO_FLAG": "N"}}, {"type": "Feature", "geometry": {"type": "Point", "coordinates": [-71.3003406201981, 42.5544387453517]}, "properties": {"CWP_NAME": "BILLERICA, TOWN OF", "CWP_STREET": "269 TREBLE COVE ROAD", "CWP_CITY": "NORTH BILLERICA", "CWP_STATE": "MA", "CWP_ZIP": "01862", "CWP_COUNTY": "Middlesex", "NPDES_ID": "MA0102563", "REGISTRY_ID": "110001956303", "CWP_FACILITY_TYPE_INDICATOR": "POTW", "CWP_MAJOR_MINOR_STATUS": "Minor", "CWP_PERMIT_STATUS_DESC": "Terminated", "STATE_WATER_BODY_NAME": "CONCORD RIVER", "CWP_CSO_FLAG": "N"}}, {"type": "Feature", "geometry": {"type": "Point", "coordinates": [-71.544591162895, 42.398438708481]}, "properties": {"CWP_NAME": "HUDSON W W T F", "CWP_STREET": "ONE MUNICIPAL DRIVE", "CWP_CITY": "HUDSON", "CWP_STATE": "MA", "CWP_ZIP": "01749", "CWP_COUNTY": "Middlesex", "NPDES_ID": "MA0101788", "REGISTRY_ID": "110013695260", "CWP_FACILITY_TYPE_INDICATOR": "POTW", "CWP_MAJOR_MINOR_STATUS": "Major", "CWP_PERMIT_STATUS_DESC": "Effective", "STATE_WATER_BODY_NAME": "ASSABET RIVER", "CWP_CSO_FLAG": "N"}}, {"type": "Feature", "geometry": {"type": "Point", "coordinates": [-71.9172235666286, 42.2406517139528]}, "properties": {"CWP_NAME": "LEICESTER WATER SUPPLY WWTF", "CWP_STREET": "124 PINE STREET", "CWP_CITY": "LEICESTER", "CWP_STATE": "MA", "CWP_ZIP": "01524", "CWP_COUNTY": "Worcester", "NPDES_ID": "MA0101796", "REGISTRY_ID": "110006744513", "CWP_FACILITY_TYPE_INDICATOR": "POTW", "CWP_MAJOR_MINOR_STATUS": "Minor", "CWP_PERMIT_STATUS_DESC": "Terminated", "STATE_WATER_BODY_NAME": "RAWSON BROOK (FRENCH RIVER TRIB.)", "CWP_CSO_FLAG": "N"}}, {"type": "Feature", "geometry": {"type": "Point", "coordinates": [-70.8615055064959, 42.8092796956691]}, "properties": {"CWP_NAME": "NEWBURYPORT W P C F", "CWP_STREET": "157 WATER ST", "CWP_CITY": "NEWBURYPORT", "CWP_STATE": "MA", "CWP_ZIP": "01950", "CWP_COUNTY": "Essex", "NPDES_ID": "MA0101427", "REGISTRY_ID": "110000545232", "CWP_FACILITY_TYPE_INDICATOR": "POTW", "CWP_MAJOR_MINOR_STATUS": "Major", "CWP_PERMIT_STATUS_DESC": "Effective", "STATE_WATER_BODY_NAME": "TIDAL CREEK,MERRIMACK RIVER ESTUARY", "CWP_CSO_FLAG": "N"}}, {"type": "Feature", "geometry": {"type": "Point", "coordinates": [-71.3889607186892, 42.1408782264839]}, "properties": {"CWP_NAME": "CHARLES RIVER PCD", "CWP_STREET": "66 VILLAGE STREET", "CWP_CITY": "MEDWAY", "CWP_STATE": "MA", "CWP_ZIP": "02053", "CWP_COUNTY": "Norfolk", "NPDES_ID": "MA0102598", "REGISTRY_ID": "110000732814", "CWP_FACILITY_TYPE_INDICATOR": "POTW", "CWP_MAJOR_MINOR_STATUS": "Major", "CWP_PERMIT_STATUS_DESC": "Expired", "STATE_WATER_BODY_NAME": "CHARLES RIVER", "CWP_CSO_FLAG": "N"}}, {"type": "Feature", "geometry": {"type": "Point", "coordinates": [-71.3784009045398, 42.6283783174263]}, "properties": {"CWP_NAME": "NORTH CHELMSFORD W T F", "CWP_STREET": "55 RICHARDSON ROAD", "CWP_CITY": "NORTH CHELMSFORD", "CWP_STATE": "MA", "CWP_ZIP": "01863", "CWP_COUNTY": "Middlesex", "NPDES_ID": "MA0040428", "REGISTRY_ID": "110052255064", "CWP_FACILITY_TYPE_INDICATOR": "POTW", "CWP_MAJOR_MINOR_STATUS": "Other/Nonclassified", "CWP_PERMIT_STATUS_DESC": "Not Needed", "STATE_WATER_BODY_NAME": "STONY BROOK TRIBUTARY TO MERRIMACK RIVER", "CWP_CSO_FLAG": "N"}}, {"type": "Feature", "geometry": {"type": "Point", "coordinates": [-72.8764407735516, 42.2324939295758]}, "properties": {"CWP_NAME": "HUNTINGTON W W T P", "CWP_STREET": "ROUTE 112", "CWP_CITY": "HUNTINGTON", "CWP_STATE": "MA", "CWP_ZIP": "01050", "CWP_COUNTY": "Hampshire", "NPDES_ID": "MA0101265", "REGISTRY_ID": "110010326398", "CWP_FACILITY_TYPE_INDICATOR": "POTW", "CWP_MAJOR_MINOR_STATUS": "Minor", "CWP_PERMIT_STATUS_DESC": "Terminated", "STATE_WATER_BODY_NAME": "WESTFIELD RIVER", "CWP_CSO_FLAG": "N"}}, {"type": "Feature", "geometry": {"type": "Point", "coordinates": [-72.5889993585625, 42.0878019880025]}, "properties": {"CWP_NAME": "SPRINGFIELD W W T P", "CWP_STREET": "190 M STREET EXTENSION", "CWP_CITY": "AGAWAM", "CWP_STATE": "MA", "CWP_ZIP": "01001", "CWP_COUNTY": "Hampden", "NPDES_ID": "MA0101613", "REGISTRY_ID": "110008405573", "CWP_FACILITY_TYPE_INDICATOR": "POTW", "CWP_MAJOR_MINOR_STATUS": "Major", "CWP_PERMIT_STATUS_DESC": "Effective", "STATE_WATER_BODY_NAME": "CONNECTICUT RIVER, CHICOPEE, MILL & TRIB.(34", "CWP_CSO_FLAG": "N"}}, {"type": "Feature", "geometry": {"type": "Point", "coordinates": [-71.7886537452031, 42.2122079551231]}, "properties": {"CWP_NAME": "UPPER BLACKSTONE WPAD", "CWP_STREET": "ROUTE 20", "CWP_CITY": "MILLBURY", "CWP_STATE": "MA", "CWP_ZIP": "01527", "CWP_COUNTY": "Worcester", "NPDES_ID": "MA0102369", "REGISTRY_ID": "110024373417", "CWP_FACILITY_TYPE_INDICATOR": "POTW", "CWP_MAJOR_MINOR_STATUS": "Major", "CWP_PERMIT_STATUS_DESC": "Admin Continued", "STATE_WATER_BODY_NAME": "BLACKSTONE RIVER", "CWP_CSO_FLAG": "N"}}, {"type": "Feature", "geometry": {"type": "Point", "coordinates": [-70.8388848446903, 42.6911825017179]}, "properties": {"CWP_NAME": "IPSWICH W W T F", "CWP_STREET": "20 FOWLERS LANE", "CWP_CITY": "IPSWICH", "CWP_STATE": "MA", "CWP_ZIP": "01938", "CWP_COUNTY": "Essex", "NPDES_ID": "MA0100609", "REGISTRY_ID": "110000732627", "CWP_FACILITY_TYPE_INDICATOR": "POTW", "CWP_MAJOR_MINOR_STATUS": "Major", "CWP_PERMIT_STATUS_DESC": "Admin Continued", "STATE_WATER_BODY_NAME": "GREENWOOD CREEK TO IPSWICH RIVER", "CWP_CSO_FLAG": "N"}}, {"type": "Feature", "geometry": {"type": "Point", "coordinates": [-70.9921293088818, 41.5901072317604]}, "properties": {"CWP_NAME": "DARTMOUTH WPCF", "CWP_STREET": "759 RUSSELL MILLS ROAD", "CWP_CITY": "SOUTH DARTMOUTH", "CWP_STATE": "MA", "CWP_ZIP": "02748", "CWP_COUNTY": "Bristol", "NPDES_ID": "MA0101605", "REGISTRY_ID": "110001942293", "CWP_FACILITY_TYPE_INDICATOR": "POTW", "CWP_MAJOR_MINOR_STATUS": "Major", "CWP_PERMIT_STATUS_DESC": "Admin Continued", "STATE_WATER_BODY_NAME": "BUZZARD'S BAY", "CWP_CSO_FLAG": "N"}}, {"type": "Feature", "geometry": {"type": "Point", "coordinates": [-70.7782201006928, 41.7031088740553]}, "properties": {"CWP_NAME": "MARION WATER POLLUTION CONTROL FACILITY", "CWP_STREET": "50 BENSON BROOK ROAD", "CWP_CITY": "MARION", "CWP_STATE": "MA", "CWP_ZIP": "02378", "CWP_COUNTY": "Plymouth", "NPDES_ID": "MA0100030", "REGISTRY_ID": "110002047311", "CWP_FACILITY_TYPE_INDICATOR": "POTW", "CWP_MAJOR_MINOR_STATUS": "Major", "CWP_PERMIT_STATUS_DESC": "Effective", "STATE_WATER_BODY_NAME": "BROOK TO AUCOOT COVE TO BUZZARDS", "CWP_CSO_FLAG": "N"}}, {"type": "Feature", "geometry": {"type": "Point", "coordinates": [-72.2141600218474, 42.3003172364936]}, "properties": {"CWP_NAME": "HARDWICK WPC - GILBERTVILLE", "CWP_STREET": "OLD MILL ROAD", "CWP_CITY": "GILBERTVILLE", "CWP_STATE": "MA", "CWP_ZIP": "01031", "CWP_COUNTY": "Worcester", "NPDES_ID": "MA0100102", "REGISTRY_ID": "110009917634", "CWP_FACILITY_TYPE_INDICATOR": "POTW", "CWP_MAJOR_MINOR_STATUS": "Minor", "CWP_PERMIT_STATUS_DESC": "Terminated", "STATE_WATER_BODY_NAME": "WARE RIVER", "CWP_CSO_FLAG": "N"}}, {"type": "Feature", "geometry": {"type": "Point", "coordinates": [-70.9055587421217, 41.5953952491217]}, "properties": {"CWP_NAME": "NEW BEDFORD WASTEWATER TREATMENT FACILITY", "CWP_STREET": "FERRY ROAD (FORT RODMAN)", "CWP_CITY": "NEW BEDFORD", "CWP_STATE": "MA", "CWP_ZIP": "02744", "CWP_COUNTY": "Bristol", "NPDES_ID": "MA0100781", "REGISTRY_ID": "110009023332", "CWP_FACILITY_TYPE_INDICATOR": "POTW", "CWP_MAJOR_MINOR_STATUS": "Major", "CWP_PERMIT_STATUS_DESC": "Admin Continued", "STATE_WATER_BODY_NAME": "NEW BEDFORD HARBOR, ACUSHNET RIVER, NEW BEFFORD HARBOR", "CWP_CSO_FLAG": "Y"}}, {"type": "Feature", "geometry": {"type": "Point", "coordinates": [-71.8880225581799, 42.0385848045243]}, "properties": {"CWP_NAME": "WEBSTER W W T F", "CWP_STREET": "38 HILL STREET", "CWP_CITY": "WEBSTER", "CWP_STATE": "MA", "CWP_ZIP": "01570", "CWP_COUNTY": "Worcester", "NPDES_ID": "MA0100439", "REGISTRY_ID": "110024328262", "CWP_FACILITY_TYPE_INDICATOR": "POTW", "CWP_MAJOR_MINOR_STATUS": "Major", "CWP_PERMIT_STATUS_DESC": "Effective", "STATE_WATER_BODY_NAME": "FRENCH RIVER", "CWP_CSO_FLAG": "N"}}, {"type": "Feature", "geometry": {"type": "Point", "coordinates": [-72.825328683442, 42.1638648543558]}, "properties": {"CWP_NAME": "WORONOCO VILLAGE W W T F", "CWP_STREET": "TEKOA AVENUE/BRIDGE ROAD", "CWP_CITY": "WORONOCO VILLAGE", "CWP_STATE": "MA", "CWP_ZIP": "01071", "CWP_COUNTY": "Hampden", "NPDES_ID": "MA0103233", "REGISTRY_ID": "110008993134", "CWP_FACILITY_TYPE_INDICATOR": "POTW", "CWP_MAJOR_MINOR_STATUS": "Minor", "CWP_PERMIT_STATUS_DESC": "Terminated", "STATE_WATER_BODY_NAME": "WESTFIELD RIVER", "CWP_CSO_FLAG": "N"}}]}