{"type": "FeatureCollection", "features": [{"type": "Feature", "geometry": {"type": "Point", "coordinates": [-66.7275591936518, 18.1664638288012]}, "properties": {"CWP_NAME": "PRASA ADJUNTAS WWTP", "CWP_STREET": "END OF CANAS STREET /FIN DE  CALLE CANAS  ", "CWP_CITY": "PONCE", "CWP_STATE": "PR", "CWP_ZIP": "00601", "CWP_COUNTY": "Adjuntas", "NPDES_ID": "PR0020214", "REGISTRY_ID": "110013695983", "CWP_FACILITY_TYPE_INDICATOR": "POTW", "CWP_MAJOR_MINOR_STATUS": "Minor", "CWP_PERMIT_STATUS_DESC": "Effective", "STATE_WATER_BODY_NAME": "CIDRA RIVER, RIO CIDRA", "CWP_CSO_FLAG": "N"}}, {"type": "Feature", "geometry": {"type": "Point", "coordinates": [-65.6429548882417, 18.2702546341372]}, "properties": {"CWP_NAME": "PRASA CIEBA", "CWP_STREET": "STATE ROAD 3, KM 53.2", "CWP_CITY": "CEIBA", "CWP_STATE": "PR", "CWP_ZIP": "00635", "CWP_COUNTY": "Ceiba", "NPDES_ID": "PR0020419", "REGISTRY_ID": "110006622663", "CWP_FACILITY_TYPE_INDICATOR": "POTW", "CWP_MAJOR_MINOR_STATUS": "Major", "CWP_PERMIT_STATUS_DESC": "Terminated", "STATE_WATER_BODY_NAME": "QUEBRADA AGUAS C", "CWP_CSO_FLAG": "N"}}, {"type": "Feature", "geometry": {"type": "Point", "coordinates": [-66.9978676068012, 18.2507734925866]}, "properties": {"CWP_NAME": "PRASA LAS MARIAS WWTP", "CWP_STREET": "STATE ROAD NO 119, KM 27.4", "CWP_CITY": "LAS MARIAS", "CWP_STATE": "PR", "CWP_ZIP": "00670", "CWP_COUNTY": "Las Marias", "NPDES_ID": "PR0020583", "REGISTRY_ID": "110009815398", "CWP_FACILITY_TYPE_INDICATOR": "POTW", "CWP_MAJOR_MINOR_STATUS": "Minor", "CWP_PERMIT_STATUS_DESC": "Effective", "STATE_WATER_BODY_NAME": "ARENAS RIVER", "CWP_CSO_FLAG": "N"}}, {"type": "Feature", "geometry": {"type": "Point", "coordinates": [-66.3826861705612, 18.2369248380292]}, "properties": {"CWP_NAME": "PRASA ALTURAS DE OROCOVIS WWTP", "CWP_STREET": "STATE ROAD 568, KM 1.0", "CWP_CITY": "OROCOVIS", "CWP_STATE": "PR", "CWP_ZIP": "00720", "CWP_COUNTY": "Orocovis", "NPDES_ID": "PR0023001", "REGISTRY_ID": "110013695545", "CWP_FACILITY_TYPE_INDICATOR": "POTW", "CWP_MAJOR_MINOR_STATUS": "Minor", "CWP_PERMIT_STATUS_DESC": "Terminated", "STATE_WATER_BODY_NAME": "OROCOVIS RIVER", "CWP_CSO_FLAG": "N"}}, {"type": "Feature", "geometry": {"type": "Point", "coordinates": [-65.7907351274399, 18.1294288516451]}, "properties": {"CWP_NAME": "PRASA HUMACAO WWTP", "CWP_STREET": "STATE ROAD # 3", "CWP_CITY": "BO. RIO ABAJO", "CWP_STATE": "PR", "CWP_ZIP": "00661", "CWP_COUNTY": "Humacao", "NPDES_ID": "PR0025399", "REGISTRY_ID": "110000577304", "CWP_FACILITY_TYPE_INDICATOR": "POTW", "CWP_MAJOR_MINOR_STATUS": "Major", "CWP_PERMIT_STATUS_DESC": "Effective", "STATE_WATER_BODY_NAME": "CARIBBEAN SEA", "CWP_CSO_FLAG": "N"}}, {"type": "Feature", "geometry": {"type": "Point", "coordinates": [-66.340462091443, 18.4274705519849]}, "properties": {"CWP_NAME": "PRASA VEGA ALTA WWTP", "CWP_STREET": "STATE ROAD 690, KM 2", "CWP_CITY": "VEGA ALTA", "CWP_STATE": "PR", "CWP_ZIP": "00762", "CWP_COUNTY": "Vega Alta", "NPDES_ID": "PR0020923", "REGISTRY_ID": "110007804894", "CWP_FACILITY_TYPE_INDICATOR": "POTW", "CWP_MAJOR_MINOR_STATUS": "Major", "CWP_PERMIT_STATUS_DESC": "Effective", "STATE_WATER_BODY_NAME": "RIO CIBUCO", "CWP_CSO_FLAG": "N"}}, {"type": "Feature", "geometry": {"type": "Point", "coordinates": [-65.9374155009637, 18.3005860729463]}, "properties": {"CWP_NAME": "VILLAS DEL GIGANTE, CAROLINA", "CWP_STREET": "INTERCEPT OF PR-852 & PR-853", "CWP_CITY": "CAROLINA", "CWP_STATE": "PR", "CWP_ZIP": "00985", "CWP_COUNTY": "Carolina", "NPDES_ID": "PR0026042", "REGISTRY_ID": "110009700804", "CWP_FACILITY_TYPE_INDICATOR": "POTW", "CWP_MAJOR_MINOR_STATUS": "Minor", "CWP_PERMIT_STATUS_DESC": "Admin Continued", "STATE_WATER_BODY_NAME": "MARACUTO CREEK, CAROLINA", "CWP_CSO_FLAG": "N"}}, {"type": "Feature", "geometry": {"type": "Point", "coordinates": [-66.7098956056307, 18.2680126064906]}, "properties": {"CWP_NAME": "PRASA UTUADO", "CWP_STREET": "RD 10 - KM 50.5", "CWP_CITY": "UTUADO", "CWP_STATE": "PR", "CWP_ZIP": "00761", "CWP_COUNTY": "Utuado", "NPDES_ID": "PR0020915", "REGISTRY_ID": "110010785506", "CWP_FACILITY_TYPE_INDICATOR": "POTW", "CWP_MAJOR_MINOR_STATUS": "Minor", "CWP_PERMIT_STATUS_DESC": "Terminated", "STATE_WATER_BODY_NAME": "RIO ARECIBO", "CWP_CSO_FLAG": "N"}}, {"type": "Feature", "geometry": {"type": "Point", "coordinates": [-67.0187894457828, 18.5082791474146]}, "properties": {"CWP_NAME": "PRASA ISABELA WWTP", "CWP_STREET": "STATE ROAD NO 466", "CWP_CITY": "ISABELA", "CWP_STATE": "PR", "CWP_ZIP": "00662", "CWP_COUNTY": "Isabela", "NPDES_ID": "PR0022250", "REGISTRY_ID": "110006622725", "CWP_FACILITY_TYPE_INDICATOR": "POTW", "CWP_MAJOR_MINOR_STATUS": "Major", "CWP_PERMIT_STATUS_DESC": "Effective", "STATE_WATER_BODY_NAME": "ATLANTIC OCEAN", "CWP_CSO_FLAG": "N"}}, {"type": "Feature", "geometry": {"type": "Point", "coordinates": [-67.1676947311801, 18.014714873072]}, "properties": {"CWP_NAME": "PRASA BOQUERON", "CWP_STREET": "BOQUERON COMMUNITY", "CWP_CITY": "CABO ROJO", "CWP_STATE": "PR", "CWP_ZIP": "00623", "CWP_COUNTY": "Cabo Rojo", "NPDES_ID": "PR0023442", "REGISTRY_ID": "110009814843", "CWP_FACILITY_TYPE_INDICATOR": "POTW", "CWP_MAJOR_MINOR_STATUS": "Minor", "CWP_PERMIT_STATUS_DESC": "Terminated", "STATE_WATER_BODY_NAME": "CANO BOQUERON", "CWP_CSO_FLAG": "N"}}, {"type": "Feature", "geometry": {"type": "Point", "coordinates": [-66.373459125187, 18.3327305433003]}, "properties": {"CWP_NAME": "PRASA UNIBON WWTP", "CWP_STREET": "STATE RD. #159, KM 15.9", "CWP_CITY": "MOROVIS", "CWP_STATE": "PR", "CWP_ZIP": "00717", "CWP_COUNTY": "Morovis", "NPDES_ID": "PR0024902", "REGISTRY_ID": "110009814665", "CWP_FACILITY_TYPE_INDICATOR": "POTW", "CWP_MAJOR_MINOR_STATUS": "Minor", "CWP_PERMIT_STATUS_DESC": "Effective", "STATE_WATER_BODY_NAME": "UNIBON RIVER", "CWP_CSO_FLAG": "N"}}, {"type": "Feature", "geometry": {"type": "Point", "coordinates": [-66.4195296092864, 18.3362082219411]}, "properties": {"CWP_NAME": "PRASA MOROVIS WWTP", "CWP_STREET": "STATE ROAD 155, KM 50", "CWP_CITY": "MOROVIS", "CWP_STATE": "PR", "CWP_ZIP": "00687", "CWP_COUNTY": "Morovis", "NPDES_ID": "PR0020711", "REGISTRY_ID": "110009700234", "CWP_FACILITY_TYPE_INDICATOR": "POTW", "CWP_MAJOR_MINOR_STATUS": "Major", "CWP_PERMIT_STATUS_DESC": "Effective", "STATE_WATER_BODY_NAME": "RIO MOROVIS", "CWP_CSO_FLAG": "N"}}, {"type": "Feature", "geometry": {"type": "Point", "coordinates": [-66.6047207582103, 18.2158357263056]}, "properties": {"CWP_NAME": "PRASA JAYUYA NUEVA WWTP", "CWP_STREET": "ROAD 144 KM.1.0 (INTERIOR)", "CWP_CITY": "JAYUYA", "CWP_STATE": "PR", "CWP_ZIP": "00664", "CWP_COUNTY": "Jayuya", "NPDES_ID": "PR0026531", "REGISTRY_ID": "110000757208", "CWP_FACILITY_TYPE_INDICATOR": "POTW", "CWP_MAJOR_MINOR_STATUS": "Major", "CWP_PERMIT_STATUS_DESC": "Effective", "STATE_WATER_BODY_NAME": "RIO GRANDE DE JAYUYA", "CWP_CSO_FLAG": "N"}}, {"type": "Feature", "geometry": {"type": "Point", "coordinates": [-66.3277762492943, 18.3455584774743]}, "properties": {"CWP_NAME": "PRASA COROZAL WWTP", "CWP_STREET": "STATE ROAD NO 818, KM 0.9", "CWP_CITY": "COROZAL", "CWP_STATE": "PR", "CWP_ZIP": "00643", "CWP_COUNTY": "Corozal", "NPDES_ID": "PR0020451", "REGISTRY_ID": "110006622690", "CWP_FACILITY_TYPE_INDICATOR": "POTW", "CWP_MAJOR_MINOR_STATUS": "Major", "CWP_PERMIT_STATUS_DESC": "Effective", "STATE_WATER_BODY_NAME": "RIO LOS NEGROS", "CWP_CSO_FLAG": "N"}}, {"type": "Feature", "geometry": {"type": "Point", "coordinates": [-65.8698143367016, 18.0498774966274]}, "properties": {"CWP_NAME": "PRASA YABUCOA WWTP", "CWP_STREET": "STATE ROAD 901, KM 0.1", "CWP_CITY": "YABUCOA", "CWP_STATE": "PR", "CWP_ZIP": "00767", "CWP_COUNTY": "Yabucoa", "NPDES_ID": "PR0021717", "REGISTRY_ID": "110007804983", "CWP_FACILITY_TYPE_INDICATOR": "POTW", "CWP_MAJOR_MINOR_STATUS": "Major", "CWP_PERMIT_STATUS_DESC": "Effective", "STATE_WATER_BODY_NAME": "CANO SANTIAGO", "CWP_CSO_FLAG": "N"}}, {"type": "Feature", "geometry": {"type": "Point", "coordinates": [-66.2451662999117, 18.385507275171]}, "properties": {"CWP_NAME": "PRASA TOA ALTA WWTP", "CWP_STREET": "STATE ROAD 676, KM 1.8", "CWP_CITY": "TOA ALTA", "CWP_STATE": "PR", "CWP_ZIP": "00758", "CWP_COUNTY": "Toa Alta", "NPDES_ID": "PR0020869", "REGISTRY_ID": "110007804858", "CWP_FACILITY_TYPE_INDICATOR": "POTW", "CWP_MAJOR_MINOR_STATUS": "Minor", "CWP_PERMIT_STATUS_DESC": "Effective", "STATE_WATER_BODY_NAME": "RIO LA PLATA", "CWP_CSO_FLAG": "N"}}, {"type": "Feature", "geometry": {"type": "Point", "coordinates": [-66.1018493927127, 18.2588665082754]}, "properties": {"CWP_NAME": "PRASA AGUAS BUENAS WWTP", "CWP_STREET": "STATE ROAD 173, KM 0.1", "CWP_CITY": "AGUAS BUENAS", "CWP_STATE": "PR", "CWP_ZIP": "00607", "CWP_COUNTY": "Aguas Buenas", "NPDES_ID": "PR0020273", "REGISTRY_ID": "110007803840", "CWP_FACILITY_TYPE_INDICATOR": "POTW", "CWP_MAJOR_MINOR_STATUS": "Minor", "CWP_PERMIT_STATUS_DESC": "Admin Continued", "STATE_WATER_BODY_NAME": "RIO BAIROA", "CWP_CSO_FLAG": "N"}}, {"type": "Feature", "geometry": {"type": "Point", "coordinates": [-66.7216245636113, 18.0488081888485]}, "properties": {"CWP_NAME": "PRASA PENUELAS WWTP", "CWP_STREET": "STATE ROAD 132, KM 12.4", "CWP_CITY": "PENUELAS", "CWP_STATE": "PR", "CWP_ZIP": "00724", "CWP_COUNTY": "Penuelas", "NPDES_ID": "PR0020761", "REGISTRY_ID": "110007804625", "CWP_FACILITY_TYPE_INDICATOR": "POTW", "CWP_MAJOR_MINOR_STATUS": "Minor", "CWP_PERMIT_STATUS_DESC": "Effective", "STATE_WATER_BODY_NAME": "RIO TALLABOA", "CWP_CSO_FLAG": "N"}}, {"type": "Feature", "geometry": {"type": "Point", "coordinates": [-67.1811917670283, 18.3916622222426]}, "properties": {"CWP_NAME": "PRASA AGUADILLA WWTP", "CWP_STREET": "STATE ROAD 115, KM 25", "CWP_CITY": "AGUADILLA", "CWP_STATE": "PR", "CWP_ZIP": "00603", "CWP_COUNTY": "Aguadilla", "NPDES_ID": "PR0023736", "REGISTRY_ID": "110010636776", "CWP_FACILITY_TYPE_INDICATOR": "POTW", "CWP_MAJOR_MINOR_STATUS": "Major", "CWP_PERMIT_STATUS_DESC": "Admin Continued", "STATE_WATER_BODY_NAME": "OCEANO ACLANTICO", "CWP_CSO_FLAG": "N"}}, {"type": "Feature", "geometry": {"type": "Point", "coordinates": [-66.1465726897854, 18.1374840758598]}, "properties": {"CWP_NAME": "PRASA EL TORITO", "CWP_STREET": "MUNICIPALITY OF CAYEY", "CWP_CITY": "CAYEY", "CWP_STATE": "PR", "CWP_ZIP": "00633", "CWP_COUNTY": "San Juan", "NPDES_ID": "PR0023779", "REGISTRY_ID": "110009814861", "CWP_FACILITY_TYPE_INDICATOR": "POTW", "CWP_MAJOR_MINOR_STATUS": "Minor", "CWP_PERMIT_STATUS_DESC": "Terminated", "STATE_WATER_BODY_NAME": "RIO LA PLATA", "CWP_CSO_FLAG": "N"}}, {"type": "Feature", "geometry": {"type": "Point", "coordinates": [-66.1583016511188, 18.1132059705469]}, "properties": {"CWP_NAME": "PRASA CAYEY WWTP", "CWP_STREET": "PR ROAD # 171", "CWP_CITY": "BO.RINCON OF CIDRA", "CWP_STATE": "PR", "CWP_ZIP": "00743", "CWP_COUNTY": "Cayey", "NPDES_ID": "PR0025356", "REGISTRY_ID": "110006622654", "CWP_FACILITY_TYPE_INDICATOR": "POTW", "CWP_MAJOR_MINOR_STATUS": "Major", "CWP_PERMIT_STATUS_DESC": "Admin Continued", "STATE_WATER_BODY_NAME": "LA PLATA RIVER", "CWP_CSO_FLAG": "N"}}, {"type": "Feature", "geometry": {"type": "Point", "coordinates": [-66.0841354439115, 18.4300902820011]}, "properties": {"CWP_NAME": "PRASA PUERTO NUEVO WWTP", "CWP_STREET": "J.F. KENNEDY AVE.", "CWP_CITY": "SAN JUAN", "CWP_STATE": "PR", "CWP_ZIP": "00926", "CWP_COUNTY": "San Juan", "NPDES_ID": "PR0021555", "REGISTRY_ID": "110006622823", "CWP_FACILITY_TYPE_INDICATOR": "POTW", "CWP_MAJOR_MINOR_STATUS": "Major", "CWP_PERMIT_STATUS_DESC": "Effective", "STATE_WATER_BODY_NAME": "BAHIA SAN JUAN, MARTIN PENA CHANNEL, PUERTO NUEVO RIVER, SAN JUAN BAY", "CWP_CSO_FLAG": "N"}}, {"type": "Feature", "geometry": {"type": "Point", "coordinates": [-66.1391649779587, 18.486947236238]}, "properties": {"CWP_NAME": "PRASA BAYAMON WWTP", "CWP_STREET": "SABANA SECA AVE.PD 869. KM 9.2", "CWP_CITY": "CATANO", "CWP_STATE": "PR", "CWP_ZIP": "00632", "CWP_COUNTY": "Catano", "NPDES_ID": "PR0023728", "REGISTRY_ID": "110063914457", "CWP_FACILITY_TYPE_INDICATOR": "POTW", "CWP_MAJOR_MINOR_STATUS": "Major", "CWP_PERMIT_STATUS_DESC": "Effective", "STATE_WATER_BODY_NAME": "ATLANTIC OCEAN", "CWP_CSO_FLAG": "N"}}, {"type": "Feature", "geometry": {"type": "Point", "coordinates": [-65.7958990407868, 18.3857141265667]}, "properties": {"CWP_NAME": "PRASA RIO GRANDE ESTATES WWTP", "CWP_STREET": "STATE ROAD 3, KM 280", "CWP_CITY": "RIO GRANDE", "CWP_STATE": "PR", "CWP_ZIP": "00745", "CWP_COUNTY": "Rio Grande", "NPDES_ID": "PR0023264", "REGISTRY_ID": "110009814834", "CWP_FACILITY_TYPE_INDICATOR": "POTW", "CWP_MAJOR_MINOR_STATUS": "Minor", "CWP_PERMIT_STATUS_DESC": "Effective", "STATE_WATER_BODY_NAME": "SUSPIRO CREEK", "CWP_CSO_FLAG": "N"}}, {"type": "Feature", "geometry": {"type": "Point", "coordinates": [-66.7850204916368, 18.0141321181608]}, "properties": {"CWP_NAME": "PRASA GUAYANILLA WWTP", "CWP_STREET": "MUNOZ RIVERA STREET", "CWP_CITY": "GUAYANILLA", "CWP_STATE": "PR", "CWP_ZIP": "00656", "CWP_COUNTY": "Guayanilla", "NPDES_ID": "PR0020494", "REGISTRY_ID": "110013696269", "CWP_FACILITY_TYPE_INDICATOR": "POTW", "CWP_MAJOR_MINOR_STATUS": "Minor", "CWP_PERMIT_STATUS_DESC": "Effective", "STATE_WATER_BODY_NAME": "RIO GUAYANILLA", "CWP_CSO_FLAG": "N"}}, {"type": "Feature", "geometry": {"type": "Point", "coordinates": [-65.9644761077926, 18.1919866081566]}, "properties": {"CWP_NAME": "PRASA SAN LORENZO WWTP", "CWP_STREET": "STATE ROAD 183, KM 9.7", "CWP_CITY": "SAN LORENZO", "CWP_STATE": "PR", "CWP_ZIP": "00754", "CWP_COUNTY": "San Lorenzo", "NPDES_ID": "PR0020834", "REGISTRY_ID": "110000561589", "CWP_FACILITY_TYPE_INDICATOR": "POTW", "CWP_MAJOR_MINOR_STATUS": "Major", "CWP_PERMIT_STATUS_DESC": "Terminated", "STATE_WATER_BODY_NAME": "RIO LOISA", "CWP_CSO_FLAG": "N"}}, {"type": "Feature", "geometry": {"type": "Point", "coordinates": [-65.9179586612176, 18.2299784799555]}, "properties": {"CWP_NAME": "PRASA JUNCOS", "CWP_STREET": "DELFAUS STREET", "CWP_CITY": "JUNCOS", "CWP_STATE": "PR", "CWP_ZIP": "00666", "CWP_COUNTY": "Juncos", "NPDES_ID": "PR0020567", "REGISTRY_ID": "110013696018", "CWP_FACILITY_TYPE_INDICATOR": "POTW", "CWP_MAJOR_MINOR_STATUS": "Major", "CWP_PERMIT_STATUS_DESC": "Terminated", "STATE_WATER_BODY_NAME": "RIO VALENCIANO", "CWP_CSO_FLAG": "N"}}, {"type": "Feature", "geometry": {"type": "Point", "coordinates": [-66.3965744092823, 18.4688582631428]}, "properties": {"CWP_NAME": "PRASA VEGA BAJA WWTP", "CWP_STREET": "STATE ROAD #686, LOS NARANJOS WARD ", "CWP_CITY": "VEGA BAJA", "CWP_STATE": "PR", "CWP_ZIP": "00693", "CWP_COUNTY": "Vega Baja", "NPDES_ID": "PR0021679", "REGISTRY_ID": "110000561623", "CWP_FACILITY_TYPE_INDICATOR": "POTW", "CWP_MAJOR_MINOR_STATUS": "Major", "CWP_PERMIT_STATUS_DESC": "Effective", "STATE_WATER_BODY_NAME": "CANO CABO CARIBE", "CWP_CSO_FLAG": "N"}}, {"type": "Feature", "geometry": {"type": "Point", "coordinates": [-65.6634891154482, 18.3018199476077]}, "properties": {"CWP_NAME": "PRASA FAJARDO NUEVA WWTP", "CWP_STREET": "BO. QUEBRADA VUELTAS", "CWP_CITY": "FAJARDO", "CWP_STATE": "PR", "CWP_ZIP": "00738", "CWP_COUNTY": "Fajardo", "NPDES_ID": "PR0026484", "REGISTRY_ID": "110017849293", "CWP_FACILITY_TYPE_INDICATOR": "POTW", "CWP_MAJOR_MINOR_STATUS": "Major", "CWP_PERMIT_STATUS_DESC": "Effective", "STATE_WATER_BODY_NAME": "RIO FAJARDO BASIN", "CWP_CSO_FLAG": "N"}}, {"type": "Feature", "geometry": {"type": "Point", "coordinates": [-66.8415797721338, 18.0252684254629]}, "properties": {"CWP_NAME": "PRASA YAUCO WWTP", "CWP_STREET": "STATE ROAD 335, KM 1.1", "CWP_CITY": "YAUCO", "CWP_STATE": "PR", "CWP_ZIP": "00768", "CWP_COUNTY": "Yauco", "NPDES_ID": "PR0021661", "REGISTRY_ID": "110006622994", "CWP_FACILITY_TYPE_INDICATOR": "POTW", "CWP_MAJOR_MINOR_STATUS": "Major", "CWP_PERMIT_STATUS_DESC": "Effective", "STATE_WATER_BODY_NAME": "RIO YAUCO", "CWP_CSO_FLAG": "N"}}, {"type": "Feature", "geometry": {"type": "Point", "coordinates": [-66.8758160816682, 18.4884490927283]}, "properties": {"CWP_NAME": "PRASA CAMUY-HATILLO WWTP", "CWP_STREET": "STATE ROAD 485", "CWP_CITY": "CAMUY", "CWP_STATE": "PR", "CWP_ZIP": "00627", "CWP_COUNTY": "Camuy", "NPDES_ID": "PR0023744", "REGISTRY_ID": "110007820117", "CWP_FACILITY_TYPE_INDICATOR": "POTW", "CWP_MAJOR_MINOR_STATUS": "Major", "CWP_PERMIT_STATUS_DESC": "Effective", "STATE_WATER_BODY_NAME": "ATLANTIC OCEAN", "CWP_CSO_FLAG": "N"}}, {"type": "Feature", "geometry": {"type": "Point", "coordinates": [-66.4212985698237, 17.9636045991089]}, "properties": {"CWP_NAME": "PRASA SANTA ISABEL WWTP", "CWP_STREET": "ROAD 538, KM. 0.5", "CWP_CITY": "SANTA ISABEL", "CWP_STATE": "PR", "CWP_ZIP": "00757", "CWP_COUNTY": "Santa Isabel", "NPDES_ID": "PR0023761", "REGISTRY_ID": "110007804821", "CWP_FACILITY_TYPE_INDICATOR": "POTW", "CWP_MAJOR_MINOR_STATUS": "Major", "CWP_PERMIT_STATUS_DESC": "Effective", "STATE_WATER_BODY_NAME": "CARIBBEAN SEA", "CWP_CSO_FLAG": "N"}}, {"type": "Feature", "geometry": {"type": "Point", "coordinates": [-66.2061096281632, 18.2425024378255]}, "properties": {"CWP_NAME": "PRASA COMERIO WWTP", "CWP_STREET": "STATE RD. #167, KM 0.6", "CWP_CITY": "COMERIO", "CWP_STATE": "PR", "CWP_ZIP": "00782", "CWP_COUNTY": "Coamo", "NPDES_ID": "PR0025658", "REGISTRY_ID": "110006622681", "CWP_FACILITY_TYPE_INDICATOR": "POTW", "CWP_MAJOR_MINOR_STATUS": "Major", "CWP_PERMIT_STATUS_DESC": "Effective", "STATE_WATER_BODY_NAME": "LA PLATA RIVER", "CWP_CSO_FLAG": "N"}}, {"type": "Feature", "geometry": {"type": "Point", "coordinates": [-66.3008361468366, 18.1797099538869]}, "properties": {"CWP_NAME": "PRASA BARRANQUITAS WWTP", "CWP_STREET": "ROAD 719 KM. 0.2", "CWP_CITY": "BARRANQUITAS", "CWP_STATE": "PR", "CWP_ZIP": "00794", "CWP_COUNTY": "Barranquitas", "NPDES_ID": "PR0025861", "REGISTRY_ID": "110009700528", "CWP_FACILITY_TYPE_INDICATOR": "POTW", "CWP_MAJOR_MINOR_STATUS": "Minor", "CWP_PERMIT_STATUS_DESC": "Effective", "STATE_WATER_BODY_NAME": "BARRANQUITAS RIVER", "CWP_CSO_FLAG": "N"}}, {"type": "Feature", "geometry": {"type": "Point", "coordinates": [-66.6235471697659, 18.100942804117]}, "properties": {"CWP_NAME": "PRASA PONCE WWTP", "CWP_STREET": "ROAD # 2 KM 258.5", "CWP_CITY": "PONCE", "CWP_STATE": "PR", "CWP_ZIP": "00731", "CWP_COUNTY": "Ponce", "NPDES_ID": "PR0021563", "REGISTRY_ID": "110006622814", "CWP_FACILITY_TYPE_INDICATOR": "POTW", "CWP_MAJOR_MINOR_STATUS": "Major", "CWP_PERMIT_STATUS_DESC": "Effective", "STATE_WATER_BODY_NAME": "CARIBBEAN SEA", "CWP_CSO_FLAG": "N"}}, {"type": "Feature", "geometry": {"type": "Point", "coordinates": [-66.2101844597946, 18.3663625023789]}, "properties": {"CWP_NAME": "PRASA TOA ALTA HEIGHTS", "CWP_STREET": "STREET 29TH", "CWP_CITY": "TOA ALTA", "CWP_STATE": "PR", "CWP_ZIP": "00758", "CWP_COUNTY": "Toa Alta", "NPDES_ID": "PR0022144", "REGISTRY_ID": "110013696777", "CWP_FACILITY_TYPE_INDICATOR": "POTW", "CWP_MAJOR_MINOR_STATUS": "Major", "CWP_PERMIT_STATUS_DESC": "Terminated", "STATE_WATER_BODY_NAME": "RIO MUCARABONES", "CWP_CSO_FLAG": "N"}}, {"type": "Feature", "geometry": {"type": "Point", "coordinates": [-65.7151794659079, 18.3688617270955]}, "properties": {"CWP_NAME": "PRASA BRISAS DEL MAR", "CWP_STREET": "STATE ROAD 991, KM 0.1", "CWP_CITY": "LUQUILLO", "CWP_STATE": "PR", "CWP_ZIP": "00673", "CWP_COUNTY": "Luquillo", "NPDES_ID": "PR0021695", "REGISTRY_ID": "110007803948", "CWP_FACILITY_TYPE_INDICATOR": "POTW", "CWP_MAJOR_MINOR_STATUS": "Major", "CWP_PERMIT_STATUS_DESC": "Terminated", "STATE_WATER_BODY_NAME": "RIO SABANA", "CWP_CSO_FLAG": "N"}}, {"type": "Feature", "geometry": {"type": "Point", "coordinates": [-66.9958747099727, 18.3348187598554]}, "properties": {"CWP_NAME": "PRASA SAN SEBASTIAN (OLD) WWTP", "CWP_STREET": "STATE ROAD 109, KM 29", "CWP_CITY": "SAN SEBASTIAN", "CWP_STATE": "PR", "CWP_ZIP": "00755", "CWP_COUNTY": "San Sebastian", "NPDES_ID": "PR0020851", "REGISTRY_ID": "110007804812", "CWP_FACILITY_TYPE_INDICATOR": "POTW", "CWP_MAJOR_MINOR_STATUS": "Minor", "CWP_PERMIT_STATUS_DESC": "Effective", "STATE_WATER_BODY_NAME": "RIO CULEBRINAS", "CWP_CSO_FLAG": "N"}}, {"type": "Feature", "geometry": {"type": "Point", "coordinates": [-66.9108033084308, 17.9676029784317]}, "properties": {"CWP_NAME": "PRASA GUANICA WWTP", "CWP_STREET": "YAGUER STREET", "CWP_CITY": "GUANICA", "CWP_STATE": "PR", "CWP_ZIP": "00653", "CWP_COUNTY": "Guanica", "NPDES_ID": "PR0020486", "REGISTRY_ID": "110013696250", "CWP_FACILITY_TYPE_INDICATOR": "POTW", "CWP_MAJOR_MINOR_STATUS": "Major", "CWP_PERMIT_STATUS_DESC": "Effective", "STATE_WATER_BODY_NAME": "BAHIA GUANICA", "CWP_CSO_FLAG": "N"}}, {"type": "Feature", "geometry": {"type": "Point", "coordinates": [-66.6776926755342, 18.480559341239]}, "properties": {"CWP_NAME": "PRASA ARECIBO WWTP", "CWP_STREET": "STATE ROAD 681 KM 2", "CWP_CITY": "ARECIBO", "CWP_STATE": "PR", "CWP_ZIP": "00612", "CWP_COUNTY": "Arecibo", "NPDES_ID": "PR0023710", "REGISTRY_ID": "110006622592", "CWP_FACILITY_TYPE_INDICATOR": "POTW", "CWP_MAJOR_MINOR_STATUS": "Major", "CWP_PERMIT_STATUS_DESC": "Admin Continued", "STATE_WATER_BODY_NAME": "ATLANTIC OCEAN", "CWP_CSO_FLAG": "N"}}, {"type": "Feature", "geometry": {"type": "Point", "coordinates": [-66.8797488150102, 18.3044495465652]}, "properties": {"CWP_NAME": "PRASA LARES WWTP", "CWP_STREET": "ROAD 452, KM 0.5", "CWP_CITY": "LARES", "CWP_STATE": "PR", "CWP_ZIP": "00751", "CWP_COUNTY": "Lares", "NPDES_ID": "PR0025879", "REGISTRY_ID": "110000577812", "CWP_FACILITY_TYPE_INDICATOR": "POTW", "CWP_MAJOR_MINOR_STATUS": "Major", "CWP_PERMIT_STATUS_DESC": "Effective", "STATE_WATER_BODY_NAME": "RIO GUAJATACA", "CWP_CSO_FLAG": "N"}}, {"type": "Feature", "geometry": {"type": "Point", "coordinates": [-67.1554522603427, 18.2484352521206]}, "properties": {"CWP_NAME": "PRASA MAYAGUEZ   WWTP", "CWP_STREET": "STATE ROAD # 2", "CWP_CITY": "MAYAGUEZ", "CWP_STATE": "PR", "CWP_ZIP": "00708", "CWP_COUNTY": "Mayaguez", "NPDES_ID": "PR0023795", "REGISTRY_ID": "110000906814", "CWP_FACILITY_TYPE_INDICATOR": "POTW", "CWP_MAJOR_MINOR_STATUS": "Major", "CWP_PERMIT_STATUS_DESC": "Admin Continued", "STATE_WATER_BODY_NAME": "MONA PASSAGE", "CWP_CSO_FLAG": "N"}}, {"type": "Feature", "geometry": {"type": "Point", "coordinates": [-67.0176383103992, 18.345350723095]}, "properties": {"CWP_NAME": "PRASA SAN SEBASTIAN (NEW) WWTP", "CWP_STREET": "STATE RD. #125, KM 18.4", "CWP_CITY": "SAN SEBASTIAN", "CWP_STATE": "PR", "CWP_ZIP": "00685", "CWP_COUNTY": "San Sebastian", "NPDES_ID": "PR0025551", "REGISTRY_ID": "110039985255", "CWP_FACILITY_TYPE_INDICATOR": "POTW", "CWP_MAJOR_MINOR_STATUS": "Major", "CWP_PERMIT_STATUS_DESC": "Effective", "STATE_WATER_BODY_NAME": "CULEBRINAS RIVER", "CWP_CSO_FLAG": "N"}}, {"type": "Feature", "geometry": {"type": "Point", "coordinates": [-66.5451703364472, 18.4793929223125]}, "properties": {"CWP_NAME": "PRASA BARCELONETA WWTP", "CWP_STREET": "STATE ROAD 684, KM 3.7", "CWP_CITY": "BARCELONETA", "CWP_STATE": "PR", "CWP_ZIP": "00617", "CWP_COUNTY": "Barceloneta", "NPDES_ID": "PR0021237", "REGISTRY_ID": "110006622609", "CWP_FACILITY_TYPE_INDICATOR": "POTW", "CWP_MAJOR_MINOR_STATUS": "Major", "CWP_PERMIT_STATUS_DESC": "Effective", "STATE_WATER_BODY_NAME": "ATLANTIC OCEAN", "CWP_CSO_FLAG": "N"}}, {"type": "Feature", "geometry": {"type": "Point", "coordinates": [-65.9027214391178, 18.0060130503286]}, "properties": {"CWP_NAME": "PRASA MAUNABO WWTP", "CWP_STREET": "STATE ROAD 3", "CWP_CITY": "MAUNABO", "CWP_STATE": "PR", "CWP_ZIP": "00707", "CWP_COUNTY": "Maunabo", "NPDES_ID": "PR0020656", "REGISTRY_ID": "110009815414", "CWP_FACILITY_TYPE_INDICATOR": "POTW", "CWP_MAJOR_MINOR_STATUS": "Major", "CWP_PERMIT_STATUS_DESC": "Effective", "STATE_WATER_BODY_NAME": "RIO MAUNABO", "CWP_CSO_FLAG": "N"}}, {"type": "Feature", "geometry": {"type": "Point", "coordinates": [-66.4680984109105, 18.3459029156782]}, "properties": {"CWP_NAME": "PRASA CIALES WWTP", "CWP_STREET": "STATE ROAD 149, KM 12.1", "CWP_CITY": "CIALES", "CWP_STATE": "PR", "CWP_ZIP": "00638", "CWP_COUNTY": "Cidra", "NPDES_ID": "PR0020427", "REGISTRY_ID": "110000557424", "CWP_FACILITY_TYPE_INDICATOR": "POTW", "CWP_MAJOR_MINOR_STATUS": "Major", "CWP_PERMIT_STATUS_DESC": "Admin Continued", "STATE_WATER_BODY_NAME": "QB AGUAS CLARAS", "CWP_CSO_FLAG": "N"}}, {"type": "Feature", "geometry": {"type": "Point", "coordinates": [-66.3883896726847, 18.2335631711388]}, "properties": {"CWP_NAME": "PRASA OROCOVIS WWTP", "CWP_STREET": "PLANT", "CWP_CITY": "OROCOVIS", "CWP_STATE": "PR", "CWP_ZIP": "00927", "CWP_COUNTY": "Orocovis", "NPDES_ID": "PR0020745", "REGISTRY_ID": "110000561222", "CWP_FACILITY_TYPE_INDICATOR": "POTW", "CWP_MAJOR_MINOR_STATUS": "Minor", "CWP_PERMIT_STATUS_DESC": "Effective", "STATE_WATER_BODY_NAME": "RIO OROCOVIS", "CWP_CSO_FLAG": "N"}}, {"type": "Feature", "geometry": {"type": "Point", "coordinates": [-67.038232787303, 18.0924621882292]}, "properties": {"CWP_NAME": "PRASA SAN GERMAN WWTP", "CWP_STREET": "PR ROAD # 360 KM. 1.4", "CWP_CITY": "SAN GERMAN", "CWP_STATE": "PR", "CWP_ZIP": "00683", "CWP_COUNTY": "San German", "NPDES_ID": "PR0020818", "REGISTRY_ID": "110007804796", "CWP_FACILITY_TYPE_INDICATOR": "POTW", "CWP_MAJOR_MINOR_STATUS": "Major", "CWP_PERMIT_STATUS_DESC": "Effective", "STATE_WATER_BODY_NAME": "RIO GUANAJIBO", "CWP_CSO_FLAG": "N"}}, {"type": "Feature", "geometry": {"type": "Point", "coordinates": [-66.0114549040188, 18.0000523402974]}, "properties": {"CWP_NAME": "PRASA PATILLAS WWTP", "CWP_STREET": "STATE ROAD 3, KM 126.5", "CWP_CITY": "PATILLAS", "CWP_STATE": "PR", "CWP_ZIP": "00723", "CWP_COUNTY": "Patillas", "NPDES_ID": "PR0020753", "REGISTRY_ID": "110006622805", "CWP_FACILITY_TYPE_INDICATOR": "POTW", "CWP_MAJOR_MINOR_STATUS": "Major", "CWP_PERMIT_STATUS_DESC": "Effective", "STATE_WATER_BODY_NAME": "RIO PATILLAS", "CWP_CSO_FLAG": "N"}}, {"type": "Feature", "geometry": {"type": "Point", "coordinates": [-66.6876985327357, 18.309303192105]}, "properties": {"CWP_NAME": "PRASA UTUADO NEW WWTP", "CWP_STREET": "ROAD 123, KM 62.5 INT., SABANA GRANDE WARD", "CWP_CITY": "UTUADO", "CWP_STATE": "PR", "CWP_ZIP": "00641", "CWP_COUNTY": "Utuado", "NPDES_ID": "PR0026603", "REGISTRY_ID": "110041198708", "CWP_FACILITY_TYPE_INDICATOR": "POTW", "CWP_MAJOR_MINOR_STATUS": "Major", "CWP_PERMIT_STATUS_DESC": "Effective", "STATE_WATER_BODY_NAME": "RIO GRANDE DE ARECIBO", "CWP_CSO_FLAG": "N"}}, {"type": "Feature", "geometry": {"type": "Point", "coordinates": [-66.9643588539585, 18.0727670307576]}, "properties": {"CWP_NAME": "PRASA SABANA GRANDE WWTP", "CWP_STREET": "GUANAJIBO RIV", "CWP_CITY": "SABANA GRANDE", "CWP_STATE": "PR", "CWP_ZIP": "00747", "CWP_COUNTY": "Sabana Grande", "NPDES_ID": "PR0025542", "REGISTRY_ID": "110013696223", "CWP_FACILITY_TYPE_INDICATOR": "POTW", "CWP_MAJOR_MINOR_STATUS": "Major", "CWP_PERMIT_STATUS_DESC": "Terminated", "STATE_WATER_BODY_NAME": "GUANAJIBO RIVER", "CWP_CSO_FLAG": "N"}}, {"type": "Feature", "geometry": {"type": "Point", "coordinates": [-65.466379242721, 18.1423925880491]}, "properties": {"CWP_NAME": "PRASA VIEQUES WWTP", "CWP_STREET": "ROAD NO. 993, KM 2.5", "CWP_CITY": "VIEQUES", "CWP_STATE": "PR", "CWP_ZIP": "00765", "CWP_COUNTY": "Vieques", "NPDES_ID": "PR0025453", "REGISTRY_ID": "110009814399", "CWP_FACILITY_TYPE_INDICATOR": "POTW", "CWP_MAJOR_MINOR_STATUS": "Minor", "CWP_PERMIT_STATUS_DESC": "Admin Continued", "STATE_WATER_BODY_NAME": null, "CWP_CSO_FLAG": "N"}}, {"type": "Feature", "geometry": {"type": "Point", "coordinates": [-66.0129981489389, 18.4427032785601]}, "properties": {"CWP_NAME": "PRASA CAROLINA WWTP", "CWP_STREET": "ROAD 187, BARRIO TORRECILLA", "CWP_CITY": "SAN JUAN", "CWP_STATE": "PR", "CWP_ZIP": "00672", "CWP_COUNTY": "Loiza", "NPDES_ID": "PR0023752", "REGISTRY_ID": "110007817041", "CWP_FACILITY_TYPE_INDICATOR": "POTW", "CWP_MAJOR_MINOR_STATUS": "Major", "CWP_PERMIT_STATUS_DESC": "Effective", "STATE_WATER_BODY_NAME": "ATLANTIC OCEAN", "CWP_CSO_FLAG": "N"}}, {"type": "Feature", "geometry": {"type": "Point", "coordinates": [-65.2807977889117, 18.3200024523774]}, "properties": {"CWP_NAME": "PRASA CULEBRA WWTP", "CWP_STREET": "SAN ISIDRO WARD, INTERIOR", "CWP_CITY": "CULEBRA", "CWP_STATE": "PR", "CWP_ZIP": "00775", "CWP_COUNTY": "Culebra", "NPDES_ID": "PR0026549", "REGISTRY_ID": "110024411297", "CWP_FACILITY_TYPE_INDICATOR": "POTW", "CWP_MAJOR_MINOR_STATUS": "Minor", "CWP_PERMIT_STATUS_DESC": "Expired", "STATE_WATER_BODY_NAME": null, "CWP_CSO_FLAG": "N"}}, {"type": "Feature", "geometry": {"type": "Point", "coordinates": [-66.2783899603929, 18.1485637246313]}, "properties": {"CWP_NAME": "PRASA AIBONITO WWTP", "CWP_STREET": "ANTIOQUIA STREET", "CWP_CITY": "AIBONITO", "CWP_STATE": "PR", "CWP_ZIP": "00609", "CWP_COUNTY": "Aibonito", "NPDES_ID": "PR0025461", "REGISTRY_ID": "110006622583", "CWP_FACILITY_TYPE_INDICATOR": "POTW", "CWP_MAJOR_MINOR_STATUS": "Major", "CWP_PERMIT_STATUS_DESC": "Effective", "STATE_WATER_BODY_NAME": "AIBONITO RIVER", "CWP_CSO_FLAG": "N"}}, {"type": "Feature", "geometry": {"type": "Point", "coordinates": [-66.2373862610106, 18.301881092243]}, "properties": {"CWP_NAME": "PRASA NARANJITO WWTP", "CWP_STREET": "STATE ROAD 164, KM 5.3", "CWP_CITY": "NARANJITO", "CWP_STATE": "PR", "CWP_ZIP": "00719", "CWP_COUNTY": "Naranjito", "NPDES_ID": "PR0020737", "REGISTRY_ID": "110009815423", "CWP_FACILITY_TYPE_INDICATOR": "POTW", "CWP_MAJOR_MINOR_STATUS": "Minor", "CWP_PERMIT_STATUS_DESC": "Admin Continued", "STATE_WATER_BODY_NAME": "RIO GUARDIANA", "CWP_CSO_FLAG": "N"}}, {"type": "Feature", "geometry": {"type": "Point", "coordinates": [-66.0479601990969, 18.186371238299]}, "properties": {"CWP_NAME": "PRASA PARCELAS BORINQUEN WWTP", "CWP_STREET": "PR ROAD 765 KM 2.9", "CWP_CITY": "CAGUAS", "CWP_STATE": "PR", "CWP_ZIP": "00625", "CWP_COUNTY": "Caguas", "NPDES_ID": "PR0025101", "REGISTRY_ID": "110009814674", "CWP_FACILITY_TYPE_INDICATOR": "POTW", "CWP_MAJOR_MINOR_STATUS": "Minor", "CWP_PERMIT_STATUS_DESC": "Effective", "STATE_WATER_BODY_NAME": "TURABO PARK", "CWP_CSO_FLAG": "N"}}, {"type": "Feature", "geometry": {"type": "Point", "coordinates": [-66.9942496320061, 18.1873703703911]}, "properties": {"CWP_NAME": "PRASA MARICAO WWTP", "CWP_STREET": "STATE ROAD 357, KM 2", "CWP_CITY": "MARICAO", "CWP_STATE": "PR", "CWP_ZIP": "00706", "CWP_COUNTY": "Maricao", "NPDES_ID": "PR0020648", "REGISTRY_ID": "110007804386", "CWP_FACILITY_TYPE_INDICATOR": "POTW", "CWP_MAJOR_MINOR_STATUS": "Minor", "CWP_PERMIT_STATUS_DESC": "Effective", "STATE_WATER_BODY_NAME": "RIO MARICAO", "CWP_CSO_FLAG": "N"}}, {"type": "Feature", "geometry": {"type": "Point", "coordinates": [-66.2591876355204, 18.4562272834957]}, "properties": {"CWP_NAME": "PRASA DORADO WWTP", "CWP_STREET": "STATE ROAD 693, KM 5.6", "CWP_CITY": "DORADO", "CWP_STATE": "PR", "CWP_ZIP": "00618", "CWP_COUNTY": "Dorado", "NPDES_ID": "PR0020460", "REGISTRY_ID": "110000561419", "CWP_FACILITY_TYPE_INDICATOR": "POTW", "CWP_MAJOR_MINOR_STATUS": "Major", "CWP_PERMIT_STATUS_DESC": "Effective", "STATE_WATER_BODY_NAME": "RIO LA PLATA", "CWP_CSO_FLAG": "N"}}, {"type": "Feature", "geometry": {"type": "Point", "coordinates": [-66.4321300148584, 18.3638632821222]}, "properties": {"CWP_NAME": "PRASA BARRIO BARRAHONA STP", "CWP_STREET": "PR ROAD 155, KM 55.55", "CWP_CITY": "MOROVIS", "CWP_STATE": "PR", "CWP_ZIP": "00687", "CWP_COUNTY": "Morovis", "NPDES_ID": "PR0025828", "REGISTRY_ID": "110064623527", "CWP_FACILITY_TYPE_INDICATOR": "POTW", "CWP_MAJOR_MINOR_STATUS": "Other/Nonclassified", "CWP_PERMIT_STATUS_DESC": "Not Needed", "STATE_WATER_BODY_NAME": "QUEBRADA GRANDE DE MOROVIS", "CWP_CSO_FLAG": "N"}}, {"type": "Feature", "geometry": {"type": "Point", "coordinates": [-67.061288712977, 18.0480194778828]}, "properties": {"CWP_NAME": "PRASA LAJAS WWTP", "CWP_STREET": "PR ROAD #101, KM 2.4", "CWP_CITY": "LAJAS", "CWP_STATE": "PR", "CWP_ZIP": "00667", "CWP_COUNTY": "Lajas", "NPDES_ID": "PR0020575", "REGISTRY_ID": "110009700225", "CWP_FACILITY_TYPE_INDICATOR": "POTW", "CWP_MAJOR_MINOR_STATUS": "Major", "CWP_PERMIT_STATUS_DESC": "Effective", "STATE_WATER_BODY_NAME": "MONDONGO GREEK", "CWP_CSO_FLAG": "N"}}, {"type": "Feature", "geometry": {"type": "Point", "coordinates": [-66.1412235173261, 17.9501651309244]}, "properties": {"CWP_NAME": "PRASA GUAYAMA WWTP", "CWP_STREET": "PR 710, KM 1.0.", "CWP_CITY": "GUAYAMA", "CWP_STATE": "PR", "CWP_ZIP": "00784", "CWP_COUNTY": "Guayama", "NPDES_ID": "PR0025445", "REGISTRY_ID": "110009700476", "CWP_FACILITY_TYPE_INDICATOR": "POTW", "CWP_MAJOR_MINOR_STATUS": "Major", "CWP_PERMIT_STATUS_DESC": "Effective", "STATE_WATER_BODY_NAME": "CARIBBEAN SEA", "CWP_CSO_FLAG": "N"}}, {"type": "Feature", "geometry": {"type": "Point", "coordinates": [-66.0271651703081, 18.2615024231724]}, "properties": {"CWP_NAME": "PRASA CAGUAS  WWTP", "CWP_STREET": "ROAD 796, KM. 6.6", "CWP_CITY": "CAGUAS", "CWP_STATE": "PR", "CWP_ZIP": "00725", "CWP_COUNTY": "Caguas", "NPDES_ID": "PR0025976", "REGISTRY_ID": "110007823007", "CWP_FACILITY_TYPE_INDICATOR": "POTW", "CWP_MAJOR_MINOR_STATUS": "Major", "CWP_PERMIT_STATUS_DESC": "Admin Continued", "STATE_WATER_BODY_NAME": "BAIROA RIVER", "CWP_CSO_FLAG": "N"}}]}