{"type": "FeatureCollection", "features": [{"type": "Feature", "geometry": {"type": "Point", "coordinates": [-74.9186829684548, 40.3299021581155]}, "properties": {"CWP_NAME": "MERCER COUNTY CORRECTION CTR WTP", "CWP_STREET": "HWY 29", "CWP_CITY": "HOPEWELL TWP", "CWP_STATE": "NJ", "CWP_ZIP": "08560", "CWP_COUNTY": "Mercer", "NPDES_ID": "NJ0027715", "REGISTRY_ID": "110009838765", "CWP_FACILITY_TYPE_INDICATOR": "POTW", "CWP_MAJOR_MINOR_STATUS": "Minor", "CWP_PERMIT_STATUS_DESC": "Effective", "STATE_WATER_BODY_NAME": "MOORES CREEK", "CWP_CSO_FLAG": "N"}}, {"type": "Feature", "geometry": {"type": "Point", "coordinates": [-75.1278167544906, 39.9228428316542]}, "properties": {"CWP_NAME": "DELAWARE #1 WATER POLLUTION CONTROL FACILITY", "CWP_STREET": "2ND & JACKSON STS", "CWP_CITY": "CAMDEN CITY", "CWP_STATE": "NJ", "CWP_ZIP": "081041357", "CWP_COUNTY": "Camden", "NPDES_ID": "NJ0026182", "REGISTRY_ID": "110006705743", "CWP_FACILITY_TYPE_INDICATOR": "POTW", "CWP_MAJOR_MINOR_STATUS": "Major", "CWP_PERMIT_STATUS_DESC": "Admin Continued", "STATE_WATER_BODY_NAME": "DELAWARE RIVER, DELAWARE RIVER (ZONE 3)", "CWP_CSO_FLAG": "Y"}}, {"type": "Feature", "geometry": {"type": "Point", "coordinates": [-74.871944272283, 40.0796189862642]}, "properties": {"CWP_NAME": "BURLINGTON CITY WWTP", "CWP_STREET": "900 W BROAD ST", "CWP_CITY": "BURLINGTON CITY", "CWP_STATE": "NJ", "CWP_ZIP": "08016", "CWP_COUNTY": "Burlington", "NPDES_ID": "NJ0024660", "REGISTRY_ID": "110015007428", "CWP_FACILITY_TYPE_INDICATOR": "POTW", "CWP_MAJOR_MINOR_STATUS": "Major", "CWP_PERMIT_STATUS_DESC": "Admin Continued", "STATE_WATER_BODY_NAME": "DELAWARE RIVER", "CWP_CSO_FLAG": "N"}}, {"type": "Feature", "geometry": {"type": "Point", "coordinates": [-75.2845209670397, 39.8304536552036]}, "properties": {"CWP_NAME": "GREENWICH TOWNSHIP STP", "CWP_STREET": "NORTH SCHOOL ST", "CWP_CITY": "GREENWICH TWP", "CWP_STATE": "NJ", "CWP_ZIP": "08027", "CWP_COUNTY": "Gloucester", "NPDES_ID": "NJ0030333", "REGISTRY_ID": "110009838676", "CWP_FACILITY_TYPE_INDICATOR": "POTW", "CWP_MAJOR_MINOR_STATUS": "Major", "CWP_PERMIT_STATUS_DESC": "Effective", "STATE_WATER_BODY_NAME": "DELAWARE RIVER (ZONE 4)", "CWP_CSO_FLAG": "N"}}, {"type": "Feature", "geometry": {"type": "Point", "coordinates": [-74.6422996636246, 40.8415238823402]}, "properties": {"CWP_NAME": "ROXBURY TOWNSHIP", "CWP_STREET": "1 AJAX TER", "CWP_CITY": "ROXBURY TWP", "CWP_STATE": "NJ", "CWP_ZIP": "07876", "CWP_COUNTY": "Morris", "NPDES_ID": "NJ0022675", "REGISTRY_ID": "110002342885", "CWP_FACILITY_TYPE_INDICATOR": "POTW", "CWP_MAJOR_MINOR_STATUS": "Major", "CWP_PERMIT_STATUS_DESC": "Effective", "STATE_WATER_BODY_NAME": "LAMINGTON RIVER", "CWP_CSO_FLAG": "N"}}, {"type": "Feature", "geometry": {"type": "Point", "coordinates": [-75.0636456461041, 40.5173056156104]}, "properties": {"CWP_NAME": "FRENCHTOWN WASTEWATER TREATMENT PLANT", "CWP_STREET": "FOOT OF RIVER RD", "CWP_CITY": "FRENCHTOWN BORO", "CWP_STATE": "NJ", "CWP_ZIP": "08825", "CWP_COUNTY": "Hunterdon", "NPDES_ID": "NJ0029831", "REGISTRY_ID": "110009838658", "CWP_FACILITY_TYPE_INDICATOR": "POTW", "CWP_MAJOR_MINOR_STATUS": "Minor", "CWP_PERMIT_STATUS_DESC": "Admin Continued", "STATE_WATER_BODY_NAME": "DELAWARE RIVER (ZONE 1E)", "CWP_CSO_FLAG": "N"}}, {"type": "Feature", "geometry": {"type": "Point", "coordinates": [-74.0322002864949, 40.7569921118602]}, "properties": {"CWP_NAME": "ADAMS STREET WTP", "CWP_STREET": "1600 ADAMS ST", "CWP_CITY": "HOBOKEN CITY", "CWP_STATE": "NJ", "CWP_ZIP": "07030", "CWP_COUNTY": "Hudson", "NPDES_ID": "NJ0026085", "REGISTRY_ID": "110000734536", "CWP_FACILITY_TYPE_INDICATOR": "POTW", "CWP_MAJOR_MINOR_STATUS": "Major", "CWP_PERMIT_STATUS_DESC": "Admin Continued", "STATE_WATER_BODY_NAME": "HUDSON RIVER", "CWP_CSO_FLAG": "Y"}}, {"type": "Feature", "geometry": {"type": "Point", "coordinates": [-75.3054122200065, 39.7516496451416]}, "properties": {"CWP_NAME": "SWEDESBORO WTP", "CWP_STREET": "1101 KINGS HWY", "CWP_CITY": "SWEDESBORO BORO", "CWP_STATE": "NJ", "CWP_ZIP": "08085", "CWP_COUNTY": "Gloucester", "NPDES_ID": "NJ0022021", "REGISTRY_ID": "110009839327", "CWP_FACILITY_TYPE_INDICATOR": "POTW", "CWP_MAJOR_MINOR_STATUS": "Minor", "CWP_PERMIT_STATUS_DESC": "Admin Continued", "STATE_WATER_BODY_NAME": "RACCOON CREEK", "CWP_CSO_FLAG": "N"}}, {"type": "Feature", "geometry": {"type": "Point", "coordinates": [-74.2267677914019, 41.0366687253084]}, "properties": {"CWP_NAME": "CHAPEL HILL ESTATES STP", "CWP_STREET": "HIAWATHA BLVD & MOUNTAIN LKS RD", "CWP_CITY": "OAKLAND BORO", "CWP_STATE": "NJ", "CWP_ZIP": "07436", "CWP_COUNTY": "Bergen", "NPDES_ID": "NJ0053112", "REGISTRY_ID": "110009838220", "CWP_FACILITY_TYPE_INDICATOR": "POTW", "CWP_MAJOR_MINOR_STATUS": "Minor", "CWP_PERMIT_STATUS_DESC": "Expired", "STATE_WATER_BODY_NAME": "POND BROOK VIA UNAMED TRIB", "CWP_CSO_FLAG": "N"}}, {"type": "Feature", "geometry": {"type": "Point", "coordinates": [-74.8069718214884, 39.9193876471158]}, "properties": {"CWP_NAME": "MEDFORD TWP WASTEWATER TREATMENT PLANT", "CWP_STREET": "10 FOSTERTOWN RD", "CWP_CITY": "MEDFORD TWP", "CWP_STATE": "NJ", "CWP_ZIP": "08055", "CWP_COUNTY": "Burlington", "NPDES_ID": "NJ0026832", "REGISTRY_ID": "110000737338", "CWP_FACILITY_TYPE_INDICATOR": "POTW", "CWP_MAJOR_MINOR_STATUS": "Major", "CWP_PERMIT_STATUS_DESC": "Effective", "STATE_WATER_BODY_NAME": "SOUTHWEST BR RANCOCAS CREEK", "CWP_CSO_FLAG": "N"}}, {"type": "Feature", "geometry": {"type": "Point", "coordinates": [-74.987426245774, 39.9626180600431]}, "properties": {"CWP_NAME": "MOORESTOWN TWP WWTP", "CWP_STREET": "250 PINE ST", "CWP_CITY": "MOORESTOWN TWP", "CWP_STATE": "NJ", "CWP_ZIP": "08057", "CWP_COUNTY": "Burlington", "NPDES_ID": "NJ0024996", "REGISTRY_ID": "110029590930", "CWP_FACILITY_TYPE_INDICATOR": "POTW", "CWP_MAJOR_MINOR_STATUS": "Major", "CWP_PERMIT_STATUS_DESC": "Effective", "STATE_WATER_BODY_NAME": "PENNSAUKEN CREEK", "CWP_CSO_FLAG": "N"}}, {"type": "Feature", "geometry": {"type": "Point", "coordinates": [-74.7110132842468, 40.8162574220502]}, "properties": {"CWP_NAME": "CLOVERHILL STP", "CWP_STREET": "363 RT 206", "CWP_CITY": "MOUNT OLIVE TWP", "CWP_STATE": "NJ", "CWP_ZIP": "07828", "CWP_COUNTY": "Morris", "NPDES_ID": "NJ0021954", "REGISTRY_ID": "110015104607", "CWP_FACILITY_TYPE_INDICATOR": "POTW", "CWP_MAJOR_MINOR_STATUS": "Minor", "CWP_PERMIT_STATUS_DESC": "Expired", "STATE_WATER_BODY_NAME": "DRAKES BROOK", "CWP_CSO_FLAG": "N"}}, {"type": "Feature", "geometry": {"type": "Point", "coordinates": [-74.658991933809, 39.9975180692977]}, "properties": {"CWP_NAME": "HELEN A  FORT MIDDLE SCHOOL", "CWP_STREET": "301 FORT DIX RD", "CWP_CITY": "PEMBERTON TWP", "CWP_STATE": "NJ", "CWP_ZIP": "08015", "CWP_COUNTY": "Burlington", "NPDES_ID": "NJG022438", "REGISTRY_ID": "110070222031", "CWP_FACILITY_TYPE_INDICATOR": "POTW", "CWP_MAJOR_MINOR_STATUS": "Minor", "CWP_PERMIT_STATUS_DESC": "Expired", "STATE_WATER_BODY_NAME": "INDIAN RUN", "CWP_CSO_FLAG": "N"}}, {"type": "Feature", "geometry": {"type": "Point", "coordinates": [-74.0020315896897, 40.2597784394396]}, "properties": {"CWP_NAME": "TOWNSHIP OF OCEAN  SEWERAGE AUTHORITY", "CWP_STREET": "224 ROOSEVELT AVE", "CWP_CITY": "OCEAN TWP", "CWP_STATE": "NJ", "CWP_ZIP": "07755", "CWP_COUNTY": "Monmouth", "NPDES_ID": "NJ0024520", "REGISTRY_ID": "110002360427", "CWP_FACILITY_TYPE_INDICATOR": "POTW", "CWP_MAJOR_MINOR_STATUS": "Major", "CWP_PERMIT_STATUS_DESC": "Effective", "STATE_WATER_BODY_NAME": "ATLANTIC OCEAN", "CWP_CSO_FLAG": "N"}}, {"type": "Feature", "geometry": {"type": "Point", "coordinates": [-74.8814186216518, 39.8904087844114]}, "properties": {"CWP_NAME": "ELMWOOD WTP", "CWP_STREET": "260 N ELMWOOD RD", "CWP_CITY": "EVESHAM TWP", "CWP_STATE": "NJ", "CWP_ZIP": "08053", "CWP_COUNTY": "Burlington", "NPDES_ID": "NJ0024031", "REGISTRY_ID": "110006620111", "CWP_FACILITY_TYPE_INDICATOR": "POTW", "CWP_MAJOR_MINOR_STATUS": "Major", "CWP_PERMIT_STATUS_DESC": "Effective", "STATE_WATER_BODY_NAME": "SW BRANCH OF RANCOCAS CREEK", "CWP_CSO_FLAG": "N"}}, {"type": "Feature", "geometry": {"type": "Point", "coordinates": [-74.2176711454511, 41.0280280377364]}, "properties": {"CWP_NAME": "SKYVIEW / HIBROOK WTP", "CWP_STREET": "LAKESIDE BLVD", "CWP_CITY": "OAKLAND BORO", "CWP_STATE": "NJ", "CWP_ZIP": "07436", "CWP_COUNTY": "Bergen", "NPDES_ID": "NJ0021342", "REGISTRY_ID": "110009839283", "CWP_FACILITY_TYPE_INDICATOR": "POTW", "CWP_MAJOR_MINOR_STATUS": "Minor", "CWP_PERMIT_STATUS_DESC": "Expired", "STATE_WATER_BODY_NAME": "S.S.TO UNNAMED TRIB TO POND BR", "CWP_CSO_FLAG": "N"}}, {"type": "Feature", "geometry": {"type": "Point", "coordinates": [-74.7934441676989, 39.1102890237873]}, "properties": {"CWP_NAME": "CAPE MAY COUNTY MUA", "CWP_STREET": "SEVEN MILE/MIDDLE REGIONAL WTP", "CWP_CITY": "MIDDLE TWP", "CWP_STATE": "NJ", "CWP_ZIP": "08210", "CWP_COUNTY": "Cape May", "NPDES_ID": "NJ0052990", "REGISTRY_ID": "110006620068", "CWP_FACILITY_TYPE_INDICATOR": "POTW", "CWP_MAJOR_MINOR_STATUS": "Major", "CWP_PERMIT_STATUS_DESC": "Effective", "STATE_WATER_BODY_NAME": "ATLANTIC OCEAN", "CWP_CSO_FLAG": "N"}}, {"type": "Feature", "geometry": {"type": "Point", "coordinates": [-74.2853019843783, 41.0398082570886]}, "properties": {"CWP_NAME": "WANAQUE VALLEY REGIONAL SEWERAGE AUTHORITY", "CWP_STREET": "101 WARREN HAGSTROM BLVD", "CWP_CITY": "WANAQUE BORO", "CWP_STATE": "NJ", "CWP_ZIP": "07465", "CWP_COUNTY": "Passaic", "NPDES_ID": "NJ0053759", "REGISTRY_ID": "110000734563", "CWP_FACILITY_TYPE_INDICATOR": "POTW", "CWP_MAJOR_MINOR_STATUS": "Major", "CWP_PERMIT_STATUS_DESC": "Effective", "STATE_WATER_BODY_NAME": "WANAQUE RIVER", "CWP_CSO_FLAG": "N"}}, {"type": "Feature", "geometry": {"type": "Point", "coordinates": [-74.4572173265306, 40.8061643378975]}, "properties": {"CWP_NAME": "MORRISTOWN  SEWER UTILITY", "CWP_STREET": "80 EAST HANOVER AVE", "CWP_CITY": "HANOVER TWP", "CWP_STATE": "NJ", "CWP_ZIP": "07927", "CWP_COUNTY": "Morris", "NPDES_ID": "NJ0025496", "REGISTRY_ID": "110007953223", "CWP_FACILITY_TYPE_INDICATOR": "POTW", "CWP_MAJOR_MINOR_STATUS": "Major", "CWP_PERMIT_STATUS_DESC": "Effective", "STATE_WATER_BODY_NAME": "WHIPPANY RIVER", "CWP_CSO_FLAG": "N"}}, {"type": "Feature", "geometry": {"type": "Point", "coordinates": [-74.8635041838945, 40.9139948561619]}, "properties": {"CWP_NAME": "ALLAMUCHY SEWERAGE TREATMENT PLANT", "CWP_STREET": "96 ALPHANO RD", "CWP_CITY": "ALLAMUCHY TWP", "CWP_STATE": "NJ", "CWP_ZIP": "07820", "CWP_COUNTY": "Warren", "NPDES_ID": "NJ0020605", "REGISTRY_ID": "110006674884", "CWP_FACILITY_TYPE_INDICATOR": "POTW", "CWP_MAJOR_MINOR_STATUS": "Minor", "CWP_PERMIT_STATUS_DESC": "Effective", "STATE_WATER_BODY_NAME": "PEQUEST RIVER", "CWP_CSO_FLAG": "N"}}, {"type": "Feature", "geometry": {"type": "Point", "coordinates": [-74.4972893572846, 41.2230856213049]}, "properties": {"CWP_NAME": "LOUNSBERRY HOLLOW MIDDLE SCH STP", "CWP_STREET": "SAMMIS RD", "CWP_CITY": "VERNON TWP", "CWP_STATE": "NJ", "CWP_ZIP": "07462", "CWP_COUNTY": "Sussex", "NPDES_ID": "NJG023841", "REGISTRY_ID": "110070213462", "CWP_FACILITY_TYPE_INDICATOR": "POTW", "CWP_MAJOR_MINOR_STATUS": "Minor", "CWP_PERMIT_STATUS_DESC": "Expired", "STATE_WATER_BODY_NAME": "LOUNSBERRY HOLLOW BROOK", "CWP_CSO_FLAG": "N"}}, {"type": "Feature", "geometry": {"type": "Point", "coordinates": [-74.7106966837857, 40.1830707254304]}, "properties": {"CWP_NAME": "HAMILTON TWP WPCF", "CWP_STREET": "300 HOBSON AVE", "CWP_CITY": "HAMILTON TWP", "CWP_STATE": "NJ", "CWP_ZIP": "08610", "CWP_COUNTY": "Mercer", "NPDES_ID": "NJ0026301", "REGISTRY_ID": "110056977080", "CWP_FACILITY_TYPE_INDICATOR": "POTW", "CWP_MAJOR_MINOR_STATUS": "Major", "CWP_PERMIT_STATUS_DESC": "Admin Continued", "STATE_WATER_BODY_NAME": "CROSSWICKS CREEK", "CWP_CSO_FLAG": "N"}}, {"type": "Feature", "geometry": {"type": "Point", "coordinates": [-74.4634613196003, 40.775636844862]}, "properties": {"CWP_NAME": "WOODLAND WATER POLLUTION CONTROL UTILITY(WPCU", "CWP_STREET": "35 FLORENCE AVE", "CWP_CITY": "MORRIS TWP", "CWP_STATE": "NJ", "CWP_ZIP": "079617603", "CWP_COUNTY": "Morris", "NPDES_ID": "NJ0024929", "REGISTRY_ID": "110063640412", "CWP_FACILITY_TYPE_INDICATOR": "POTW", "CWP_MAJOR_MINOR_STATUS": "Major", "CWP_PERMIT_STATUS_DESC": "Effective", "STATE_WATER_BODY_NAME": "LOANTAKA BROOK", "CWP_CSO_FLAG": "N"}}, {"type": "Feature", "geometry": {"type": "Point", "coordinates": [-74.9470017316472, 40.3669182597987]}, "properties": {"CWP_NAME": "LAMBERTVILLE MUNICIPAL UTILITY AUTH", "CWP_STREET": "LAMBERT LN EXT", "CWP_CITY": "LAMBERTVILLE CITY", "CWP_STATE": "NJ", "CWP_ZIP": "08530", "CWP_COUNTY": "Hunterdon", "NPDES_ID": "NJ0020915", "REGISTRY_ID": "110006620530", "CWP_FACILITY_TYPE_INDICATOR": "POTW", "CWP_MAJOR_MINOR_STATUS": "Major", "CWP_PERMIT_STATUS_DESC": "Effective", "STATE_WATER_BODY_NAME": "DELAWARE RIVER (ZONE 1E)", "CWP_CSO_FLAG": "N"}}, {"type": "Feature", "geometry": {"type": "Point", "coordinates": [-74.0629993451444, 40.2011588160929]}, "properties": {"CWP_NAME": "TNSA SEWERAGE TREATMENT PLANT", "CWP_STREET": "634 OLD CORLIES AVE", "CWP_CITY": "NEPTUNE TWP", "CWP_STATE": "NJ", "CWP_ZIP": "07753", "CWP_COUNTY": "Monmouth", "NPDES_ID": "NJ0024872", "REGISTRY_ID": "110000761300", "CWP_FACILITY_TYPE_INDICATOR": "POTW", "CWP_MAJOR_MINOR_STATUS": "Major", "CWP_PERMIT_STATUS_DESC": "Effective", "STATE_WATER_BODY_NAME": "ATLANTIC OCEAN", "CWP_CSO_FLAG": "N"}}, {"type": "Feature", "geometry": {"type": "Point", "coordinates": [-75.0855018958748, 40.8205085045349]}, "properties": {"CWP_NAME": "BELVIDERE  WWTF", "CWP_STREET": "199 FOUL RIFT RD", "CWP_CITY": "WHITE TWP", "CWP_STATE": "NJ", "CWP_ZIP": "078230000", "CWP_COUNTY": "Warren", "NPDES_ID": "NJ0035114", "REGISTRY_ID": "110006706190", "CWP_FACILITY_TYPE_INDICATOR": "POTW", "CWP_MAJOR_MINOR_STATUS": "Minor", "CWP_PERMIT_STATUS_DESC": "Effective", "STATE_WATER_BODY_NAME": "DELAWARE RIVER (ZONE 1D)", "CWP_CSO_FLAG": "N"}}, {"type": "Feature", "geometry": {"type": "Point", "coordinates": [-75.3776206107399, 39.7879013214409]}, "properties": {"CWP_NAME": "LOGAN TOWNSHIP MUA", "CWP_STREET": "69 JEFFERSON LN", "CWP_CITY": "LOGAN TWP", "CWP_STATE": "NJ", "CWP_ZIP": "08085", "CWP_COUNTY": "Gloucester", "NPDES_ID": "NJ0027545", "REGISTRY_ID": "110015262188", "CWP_FACILITY_TYPE_INDICATOR": "POTW", "CWP_MAJOR_MINOR_STATUS": "Major", "CWP_PERMIT_STATUS_DESC": "Admin Continued", "STATE_WATER_BODY_NAME": "DELAWARE RIVER ZONE 4", "CWP_CSO_FLAG": "N"}}, {"type": "Feature", "geometry": {"type": "Point", "coordinates": [-74.0837395302988, 40.4284732993554]}, "properties": {"CWP_NAME": "MONMOUTH CNTY BAYSHORE OUTFALL AUTHORITY", "CWP_STREET": "200 HARBOR WAY", "CWP_CITY": "MIDDLETOWN TWP", "CWP_STATE": "NJ", "CWP_ZIP": "07718", "CWP_COUNTY": "Monmouth", "NPDES_ID": "NJ0024694", "REGISTRY_ID": "110002342910", "CWP_FACILITY_TYPE_INDICATOR": "POTW", "CWP_MAJOR_MINOR_STATUS": "Major", "CWP_PERMIT_STATUS_DESC": "Effective", "STATE_WATER_BODY_NAME": "ATLANTIC OCEAN", "CWP_CSO_FLAG": "N"}}, {"type": "Feature", "geometry": {"type": "Point", "coordinates": [-73.9922217797508, 40.2270655938675]}, "properties": {"CWP_NAME": "ASBURY PARK WTP", "CWP_STREET": "1701 OCEAN AVE", "CWP_CITY": "ASBURY PARK CITY", "CWP_STATE": "NJ", "CWP_ZIP": "077120000", "CWP_COUNTY": "Monmouth", "NPDES_ID": "NJ0025241", "REGISTRY_ID": "110002342965", "CWP_FACILITY_TYPE_INDICATOR": "POTW", "CWP_MAJOR_MINOR_STATUS": "Major", "CWP_PERMIT_STATUS_DESC": "Effective", "STATE_WATER_BODY_NAME": "ATLANTIC OCEAN", "CWP_CSO_FLAG": "N"}}, {"type": "Feature", "geometry": {"type": "Point", "coordinates": [-74.7746817061464, 40.7842982059654]}, "properties": {"CWP_NAME": "LONG VALLEY VILLAGE WTP", "CWP_STREET": "46 EAST MILL RD", "CWP_CITY": "WASHINGTON TWP", "CWP_STATE": "NJ", "CWP_ZIP": "07853", "CWP_COUNTY": "Morris", "NPDES_ID": "NJ0109061", "REGISTRY_ID": "110009836927", "CWP_FACILITY_TYPE_INDICATOR": "POTW", "CWP_MAJOR_MINOR_STATUS": "Minor", "CWP_PERMIT_STATUS_DESC": "Effective", "STATE_WATER_BODY_NAME": "SOUTH BRANCH RARITAN RIVER", "CWP_CSO_FLAG": "N"}}, {"type": "Feature", "geometry": {"type": "Point", "coordinates": [-74.3778215725436, 41.1095183163636]}, "properties": {"CWP_NAME": "SUEZ WATER NJ OLDE MILFORD ESTATES WWTP", "CWP_STREET": "60 CAMELOT DR", "CWP_CITY": "WEST MILFORD TWP", "CWP_STATE": "NJ", "CWP_ZIP": "07480", "CWP_COUNTY": "Passaic", "NPDES_ID": "NJ0027677", "REGISTRY_ID": "110009838747", "CWP_FACILITY_TYPE_INDICATOR": "POTW", "CWP_MAJOR_MINOR_STATUS": "Minor", "CWP_PERMIT_STATUS_DESC": "Effective", "STATE_WATER_BODY_NAME": "BELCHER CREEK", "CWP_CSO_FLAG": "N"}}, {"type": "Feature", "geometry": {"type": "Point", "coordinates": [-74.0821917964791, 40.4270667594519]}, "properties": {"CWP_NAME": "MIDDLETOWN SA (TOMSA)", "CWP_STREET": "CENTER AVE", "CWP_CITY": "MIDDLETOWN TWP", "CWP_STATE": "NJ", "CWP_ZIP": "077180205", "CWP_COUNTY": "Monmouth", "NPDES_ID": "NJ0025356", "REGISTRY_ID": "110022413486", "CWP_FACILITY_TYPE_INDICATOR": "POTW", "CWP_MAJOR_MINOR_STATUS": "Major", "CWP_PERMIT_STATUS_DESC": "Effective", "STATE_WATER_BODY_NAME": "ATLANTIC OCEAN VIA MCBOA", "CWP_CSO_FLAG": "N"}}, {"type": "Feature", "geometry": {"type": "Point", "coordinates": [-74.3520694790724, 41.1345752329894]}, "properties": {"CWP_NAME": "SUEZ WATER NJ BIRCH HILL PARK WWTP", "CWP_STREET": "MARSHALL HILL RD", "CWP_CITY": "WEST MILFORD TWP", "CWP_STATE": "NJ", "CWP_ZIP": "074800000", "CWP_COUNTY": "Passaic", "NPDES_ID": "NJ0028541", "REGISTRY_ID": "110009838818", "CWP_FACILITY_TYPE_INDICATOR": "POTW", "CWP_MAJOR_MINOR_STATUS": "Minor", "CWP_PERMIT_STATUS_DESC": "Effective", "STATE_WATER_BODY_NAME": "MORESTOWN BROOK", "CWP_CSO_FLAG": "N"}}, {"type": "Feature", "geometry": {"type": "Point", "coordinates": [-74.5616519999516, 40.2867778716189]}, "properties": {"CWP_NAME": "EAST WINDSOR WATER POLLUTION CONTROL PLANT", "CWP_STREET": "MILLSTONE RD", "CWP_CITY": "EAST WINDSOR TWP", "CWP_STATE": "NJ", "CWP_ZIP": "08520", "CWP_COUNTY": "Mercer", "NPDES_ID": "NJ0023787", "REGISTRY_ID": "110002342894", "CWP_FACILITY_TYPE_INDICATOR": "POTW", "CWP_MAJOR_MINOR_STATUS": "Major", "CWP_PERMIT_STATUS_DESC": "Effective", "STATE_WATER_BODY_NAME": "MILLSTONE RIVER", "CWP_CSO_FLAG": "N"}}, {"type": "Feature", "geometry": {"type": "Point", "coordinates": [-74.2204185494393, 40.6093953420983]}, "properties": {"CWP_NAME": "LINDEN ROSELLE SA", "CWP_STREET": "5005 S WOOD AVE", "CWP_CITY": "LINDEN CITY", "CWP_STATE": "NJ", "CWP_ZIP": "070360000", "CWP_COUNTY": "Union", "NPDES_ID": "NJ0024953", "REGISTRY_ID": "110000570766", "CWP_FACILITY_TYPE_INDICATOR": "POTW", "CWP_MAJOR_MINOR_STATUS": "Major", "CWP_PERMIT_STATUS_DESC": "Effective", "STATE_WATER_BODY_NAME": "ARTHUR KILL", "CWP_CSO_FLAG": "N"}}, {"type": "Feature", "geometry": {"type": "Point", "coordinates": [-73.9917190650647, 40.336964568329]}, "properties": {"CWP_NAME": "TWO RIVERS WATER RECLAMATION AUTHORITY", "CWP_STREET": "1 HIGHLAND AVE", "CWP_CITY": "MONMOUTH BEACH BORO", "CWP_STATE": "NJ", "CWP_ZIP": "07750", "CWP_COUNTY": "Monmouth", "NPDES_ID": "NJ0026735", "REGISTRY_ID": "110001545748", "CWP_FACILITY_TYPE_INDICATOR": "POTW", "CWP_MAJOR_MINOR_STATUS": "Major", "CWP_PERMIT_STATUS_DESC": "Effective", "STATE_WATER_BODY_NAME": "ATLANTIC OCEAN", "CWP_CSO_FLAG": "N"}}, {"type": "Feature", "geometry": {"type": "Point", "coordinates": [-74.9612873825215, 38.9440088344448]}, "properties": {"CWP_NAME": "CAPE MAY REG WTF", "CWP_STREET": "545 SUNSET BLVD", "CWP_CITY": "LOWER TWP", "CWP_STATE": "NJ", "CWP_ZIP": "08212", "CWP_COUNTY": "Cape May", "NPDES_ID": "NJ0020371", "REGISTRY_ID": "110009722130", "CWP_FACILITY_TYPE_INDICATOR": "POTW", "CWP_MAJOR_MINOR_STATUS": "Major", "CWP_PERMIT_STATUS_DESC": "Effective", "STATE_WATER_BODY_NAME": "ATLANTIC OCEAN", "CWP_CSO_FLAG": "N"}}, {"type": "Feature", "geometry": {"type": "Point", "coordinates": [-74.1589264698658, 40.3486233758118]}, "properties": {"CWP_NAME": "HOLMDEL BD OF ED VILLAGE SCHOOL STP", "CWP_STREET": "67 MCCAMPBELL RD", "CWP_CITY": "HOLMDEL TWP", "CWP_STATE": "NJ", "CWP_ZIP": "07733", "CWP_COUNTY": "Monmouth", "NPDES_ID": "NJ0027031", "REGISTRY_ID": "110029589194", "CWP_FACILITY_TYPE_INDICATOR": "POTW", "CWP_MAJOR_MINOR_STATUS": "Minor", "CWP_PERMIT_STATUS_DESC": "Effective", "STATE_WATER_BODY_NAME": "RAMANESSIN (HOP) BROOK", "CWP_CSO_FLAG": "N"}}, {"type": "Feature", "geometry": {"type": "Point", "coordinates": [-74.949920037226, 40.4415008502808]}, "properties": {"CWP_NAME": "DELAWARE TOWNSHIP MUA", "CWP_STREET": "782 COUNTY RD 523 - FLEMINGTON RD", "CWP_CITY": "DELAWARE TWP", "CWP_STATE": "NJ", "CWP_ZIP": "08557", "CWP_COUNTY": "Hunterdon", "NPDES_ID": "NJ0027561", "REGISTRY_ID": "110009838710", "CWP_FACILITY_TYPE_INDICATOR": "POTW", "CWP_MAJOR_MINOR_STATUS": "Minor", "CWP_PERMIT_STATUS_DESC": "Effective", "STATE_WATER_BODY_NAME": "WICKECHEOKE CREEK", "CWP_CSO_FLAG": "N"}}, {"type": "Feature", "geometry": {"type": "Point", "coordinates": [-74.5906381003177, 40.9713221610343]}, "properties": {"CWP_NAME": "ARTHUR STANLICK SCHOOL", "CWP_STREET": "EAST SHAWNEE TRAIL", "CWP_CITY": "JEFFERSON TWP", "CWP_STATE": "NJ", "CWP_ZIP": "07885", "CWP_COUNTY": "Morris", "NPDES_ID": "NJG021105", "REGISTRY_ID": "110070218306", "CWP_FACILITY_TYPE_INDICATOR": "POTW", "CWP_MAJOR_MINOR_STATUS": "Minor", "CWP_PERMIT_STATUS_DESC": "Expired", "STATE_WATER_BODY_NAME": "UNNAMED TRIB. TO LAKE SHAWNEE", "CWP_CSO_FLAG": "N"}}, {"type": "Feature", "geometry": {"type": "Point", "coordinates": [-74.2739956955375, 40.9038190464978]}, "properties": {"CWP_NAME": "TWO BRIDGES WASTEWATER TREATMENT PLANT", "CWP_STREET": "END OF LINCOLN BLVD", "CWP_CITY": "LINCOLN PARK BORO", "CWP_STATE": "NJ", "CWP_ZIP": "07035", "CWP_COUNTY": "Morris", "NPDES_ID": "NJ0029386", "REGISTRY_ID": "110012472920", "CWP_FACILITY_TYPE_INDICATOR": "POTW", "CWP_MAJOR_MINOR_STATUS": "Major", "CWP_PERMIT_STATUS_DESC": "Effective", "STATE_WATER_BODY_NAME": "POMPTON RIVER", "CWP_CSO_FLAG": "N"}}, {"type": "Feature", "geometry": {"type": "Point", "coordinates": [-74.9955121017942, 40.7547482683799]}, "properties": {"CWP_NAME": "WASHINGTON BORO WWTP", "CWP_STREET": "313 W WASHINGTON AVE", "CWP_CITY": "WASHINGTON BORO", "CWP_STATE": "NJ", "CWP_ZIP": "07882", "CWP_COUNTY": "Warren", "NPDES_ID": "NJ0021113", "REGISTRY_ID": "110009839489", "CWP_FACILITY_TYPE_INDICATOR": "POTW", "CWP_MAJOR_MINOR_STATUS": "Major", "CWP_PERMIT_STATUS_DESC": "Effective", "STATE_WATER_BODY_NAME": "POHATCONG CREEK", "CWP_CSO_FLAG": "N"}}, {"type": "Feature", "geometry": {"type": "Point", "coordinates": [-74.8077119605045, 39.8647682110616]}, "properties": {"CWP_NAME": "MEDFORD LAKES BOROUGH STP", "CWP_STREET": "14 STOKES RD", "CWP_CITY": "MEDFORD LAKES BORO", "CWP_STATE": "NJ", "CWP_ZIP": "08055", "CWP_COUNTY": "Burlington", "NPDES_ID": "NJ0021326", "REGISTRY_ID": "110006706528", "CWP_FACILITY_TYPE_INDICATOR": "POTW", "CWP_MAJOR_MINOR_STATUS": "Minor", "CWP_PERMIT_STATUS_DESC": "Effective", "STATE_WATER_BODY_NAME": "UNNAMED TRIB OF HAYNES CREEK", "CWP_CSO_FLAG": "N"}}, {"type": "Feature", "geometry": {"type": "Point", "coordinates": [-75.4743094488286, 39.7287888680789]}, "properties": {"CWP_NAME": "PENNS GROVE SEWERAGE AUTHORITY", "CWP_STREET": "81 BEACH AVE", "CWP_CITY": "PENNS GROVE BORO", "CWP_STATE": "NJ", "CWP_ZIP": "08069", "CWP_COUNTY": "Salem", "NPDES_ID": "NJ0024023", "REGISTRY_ID": "110002041683", "CWP_FACILITY_TYPE_INDICATOR": "POTW", "CWP_MAJOR_MINOR_STATUS": "Minor", "CWP_PERMIT_STATUS_DESC": "Effective", "STATE_WATER_BODY_NAME": "DELAWARE RIVER ZONE 5", "CWP_CSO_FLAG": "N"}}, {"type": "Feature", "geometry": {"type": "Point", "coordinates": [-74.1801981149796, 39.9079518876558]}, "properties": {"CWP_NAME": "OCEAN CNTY UA", "CWP_STREET": "501 HICKORY LN", "CWP_CITY": "BERKELEY TWP", "CWP_STATE": "NJ", "CWP_ZIP": "08721", "CWP_COUNTY": "Ocean", "NPDES_ID": "NJ0029408", "REGISTRY_ID": "110001535937", "CWP_FACILITY_TYPE_INDICATOR": "POTW", "CWP_MAJOR_MINOR_STATUS": "Major", "CWP_PERMIT_STATUS_DESC": "Effective", "STATE_WATER_BODY_NAME": "ATLANTIC OCEAN", "CWP_CSO_FLAG": "N"}}, {"type": "Feature", "geometry": {"type": "Point", "coordinates": [-74.8814186216518, 39.8904087844114]}, "properties": {"CWP_NAME": "WOODSTREAM STP", "CWP_STREET": "BRANDYWINE DR", "CWP_CITY": "EVESHAM TWP", "CWP_STATE": "NJ", "CWP_ZIP": "08053", "CWP_COUNTY": "Burlington", "NPDES_ID": "NJ0024040", "REGISTRY_ID": "110006620111", "CWP_FACILITY_TYPE_INDICATOR": "POTW", "CWP_MAJOR_MINOR_STATUS": "Major", "CWP_PERMIT_STATUS_DESC": "Effective", "STATE_WATER_BODY_NAME": "SOUTH BRANCH PENNSAUKEN CREEK", "CWP_CSO_FLAG": "N"}}, {"type": "Feature", "geometry": {"type": "Point", "coordinates": [-74.8309514073568, 40.8184382740855]}, "properties": {"CWP_NAME": "HACKETTSTOWN MUA", "CWP_STREET": "ESNA DR", "CWP_CITY": "WASHINGTON TWP", "CWP_STATE": "NJ", "CWP_ZIP": "07840", "CWP_COUNTY": "Morris", "NPDES_ID": "NJ0021369", "REGISTRY_ID": "110039701604", "CWP_FACILITY_TYPE_INDICATOR": "POTW", "CWP_MAJOR_MINOR_STATUS": "Major", "CWP_PERMIT_STATUS_DESC": "Effective", "STATE_WATER_BODY_NAME": "MUSCONETCONG RIVER", "CWP_CSO_FLAG": "N"}}, {"type": "Feature", "geometry": {"type": "Point", "coordinates": [-74.9903715897283, 40.9810456183089]}, "properties": {"CWP_NAME": "NORTH WARREN REG SCH DIST WTF", "CWP_STREET": "NORTH WARREN REG HIGH SCHOOL", "CWP_CITY": "BLAIRSTOWN TWP", "CWP_STATE": "NJ", "CWP_ZIP": "07825", "CWP_COUNTY": "Warren", "NPDES_ID": "NJG031046", "REGISTRY_ID": "110070217691", "CWP_FACILITY_TYPE_INDICATOR": "POTW", "CWP_MAJOR_MINOR_STATUS": "Minor", "CWP_PERMIT_STATUS_DESC": "Expired", "STATE_WATER_BODY_NAME": "PAULINS KILL", "CWP_CSO_FLAG": "N"}}, {"type": "Feature", "geometry": {"type": "Point", "coordinates": [-75.4757537595217, 39.7128160059815]}, "properties": {"CWP_NAME": "CARNEYS POINT STP", "CWP_STREET": "CLEVELAND & E STS", "CWP_CITY": "CARNEYS POINT TWP", "CWP_STATE": "NJ", "CWP_ZIP": "08069", "CWP_COUNTY": "Salem", "NPDES_ID": "NJ0021601", "REGISTRY_ID": "110029591430", "CWP_FACILITY_TYPE_INDICATOR": "POTW", "CWP_MAJOR_MINOR_STATUS": "Major", "CWP_PERMIT_STATUS_DESC": "Effective", "STATE_WATER_BODY_NAME": "MAINSTEM DELAWARE-ZONE 5", "CWP_CSO_FLAG": "N"}}, {"type": "Feature", "geometry": {"type": "Point", "coordinates": [-74.7346016259822, 41.0733781406986]}, "properties": {"CWP_NAME": "HAMPTON COMMONS WASTEWATER FACILITY", "CWP_STREET": "EAGLE DR", "CWP_CITY": "HAMPTON TWP", "CWP_STATE": "NJ", "CWP_ZIP": "07860", "CWP_COUNTY": "Sussex", "NPDES_ID": "NJ0050580", "REGISTRY_ID": "110015101138", "CWP_FACILITY_TYPE_INDICATOR": "POTW", "CWP_MAJOR_MINOR_STATUS": "Minor", "CWP_PERMIT_STATUS_DESC": "Effective", "STATE_WATER_BODY_NAME": "UNNAMED TRIB OF PAULINS KILL", "CWP_CSO_FLAG": "N"}}, {"type": "Feature", "geometry": {"type": "Point", "coordinates": [-75.0235061956883, 40.5691110736802]}, "properties": {"CWP_NAME": "LESTER D. WILSON ELEM SCHOOL", "CWP_STREET": "525 COUNTY RD 513", "CWP_CITY": "ALEXANDRIA TWP", "CWP_STATE": "NJ", "CWP_ZIP": "08867", "CWP_COUNTY": "Hunterdon", "NPDES_ID": "NJG027553", "REGISTRY_ID": "110022017066", "CWP_FACILITY_TYPE_INDICATOR": "POTW", "CWP_MAJOR_MINOR_STATUS": "Minor", "CWP_PERMIT_STATUS_DESC": "Admin Continued", "STATE_WATER_BODY_NAME": "NISHISAKAWICK CREEK VIA TRIB", "CWP_CSO_FLAG": "N"}}, {"type": "Feature", "geometry": {"type": "Point", "coordinates": [-75.2340509731849, 39.417816740727]}, "properties": {"CWP_NAME": "CUMBERLAND COUNTY UTILITIES AUTHORITY", "CWP_STREET": "333 WATER ST", "CWP_CITY": "BRIDGETON CITY", "CWP_STATE": "NJ", "CWP_ZIP": "083020000", "CWP_COUNTY": "Cumberland", "NPDES_ID": "NJ0024651", "REGISTRY_ID": "110000734448", "CWP_FACILITY_TYPE_INDICATOR": "POTW", "CWP_MAJOR_MINOR_STATUS": "Major", "CWP_PERMIT_STATUS_DESC": "Effective", "STATE_WATER_BODY_NAME": "COHANSEY RIVER", "CWP_CSO_FLAG": "N"}}, {"type": "Feature", "geometry": {"type": "Point", "coordinates": [-74.7015415736311, 40.0366979398379]}, "properties": {"CWP_NAME": "SPRINGFIELD TWP ELEM SCH STP", "CWP_STREET": "2146 JACKSONVILLE RD", "CWP_CITY": "SPRINGFIELD TWP", "CWP_STATE": "NJ", "CWP_ZIP": "08041", "CWP_COUNTY": "Burlington", "NPDES_ID": "NJG021571", "REGISTRY_ID": "110029618233", "CWP_FACILITY_TYPE_INDICATOR": "POTW", "CWP_MAJOR_MINOR_STATUS": "Minor", "CWP_PERMIT_STATUS_DESC": "Expired", "STATE_WATER_BODY_NAME": "BARKERS BROOK", "CWP_CSO_FLAG": "N"}}, {"type": "Feature", "geometry": {"type": "Point", "coordinates": [-74.9220886536185, 39.5229852916187]}, "properties": {"CWP_NAME": "BUENA BOROUGH MUA", "CWP_STREET": "412 PLYMOUTH RD", "CWP_CITY": "BUENA BORO", "CWP_STATE": "NJ", "CWP_ZIP": "08326", "CWP_COUNTY": "Atlantic", "NPDES_ID": "NJ0021717", "REGISTRY_ID": "110039701105", "CWP_FACILITY_TYPE_INDICATOR": "POTW", "CWP_MAJOR_MINOR_STATUS": "Major", "CWP_PERMIT_STATUS_DESC": "Effective", "STATE_WATER_BODY_NAME": "DEEP RUN", "CWP_CSO_FLAG": "N"}}, {"type": "Feature", "geometry": {"type": "Point", "coordinates": [-74.7975352368285, 39.9955152737938]}, "properties": {"CWP_NAME": "MOUNT HOLLY WPCF", "CWP_STREET": "300 RANCOCAS RD", "CWP_CITY": "MOUNT HOLLY TWP", "CWP_STATE": "NJ", "CWP_ZIP": "08060", "CWP_COUNTY": "Burlington", "NPDES_ID": "NJ0024015", "REGISTRY_ID": "110001539354", "CWP_FACILITY_TYPE_INDICATOR": "POTW", "CWP_MAJOR_MINOR_STATUS": "Major", "CWP_PERMIT_STATUS_DESC": "Admin Continued", "STATE_WATER_BODY_NAME": "NORTH BRANCH RANCOCAS CREEK", "CWP_CSO_FLAG": "N"}}, {"type": "Feature", "geometry": {"type": "Point", "coordinates": [-74.3705037643116, 40.749756153285]}, "properties": {"CWP_NAME": "MOLITOR WATER POLLUTION CONTROL FACILITY", "CWP_STREET": "N PASSAIC AVENUE", "CWP_CITY": "CHATHAM BORO", "CWP_STATE": "NJ", "CWP_ZIP": "07928", "CWP_COUNTY": "Morris", "NPDES_ID": "NJ0024937", "REGISTRY_ID": "110070215153", "CWP_FACILITY_TYPE_INDICATOR": "POTW", "CWP_MAJOR_MINOR_STATUS": "Major", "CWP_PERMIT_STATUS_DESC": "Admin Continued", "STATE_WATER_BODY_NAME": "PASSAIC RIVER", "CWP_CSO_FLAG": "N"}}, {"type": "Feature", "geometry": {"type": "Point", "coordinates": [-74.2647416803985, 41.0915084936381]}, "properties": {"CWP_NAME": "ROBERT ERSKINE SCHOOL STP", "CWP_STREET": "ERSKINE RD", "CWP_CITY": "RINGWOOD BORO", "CWP_STATE": "NJ", "CWP_ZIP": "07456", "CWP_COUNTY": "Passaic", "NPDES_ID": "NJG029432", "REGISTRY_ID": "110070214834", "CWP_FACILITY_TYPE_INDICATOR": "POTW", "CWP_MAJOR_MINOR_STATUS": "Minor", "CWP_PERMIT_STATUS_DESC": "Expired", "STATE_WATER_BODY_NAME": "ERSKINE BROOK VIA STORM SEWER", "CWP_CSO_FLAG": "N"}}, {"type": "Feature", "geometry": {"type": "Point", "coordinates": [-74.5368414833757, 40.0859394347487]}, "properties": {"CWP_NAME": "PLUMSTED MUA WWTP", "CWP_STREET": "933 RT 537", "CWP_CITY": "PLUMSTED TWP", "CWP_STATE": "NJ", "CWP_ZIP": "08533", "CWP_COUNTY": "Ocean", "NPDES_ID": "NJ0226271", "REGISTRY_ID": "110070214056", "CWP_FACILITY_TYPE_INDICATOR": "POTW", "CWP_MAJOR_MINOR_STATUS": "Minor", "CWP_PERMIT_STATUS_DESC": "Effective", "STATE_WATER_BODY_NAME": "CROSSWICKS CREEK", "CWP_CSO_FLAG": "N"}}, {"type": "Feature", "geometry": {"type": "Point", "coordinates": [-74.2397674533729, 40.3431833728484]}, "properties": {"CWP_NAME": "MARLBORO PSYCHIATRIC HOSPITAL", "CWP_STREET": "540 NEWMAN SPRINGS RD - RT 520", "CWP_CITY": "MARLBORO TWP", "CWP_STATE": "NJ", "CWP_ZIP": "07746", "CWP_COUNTY": "Monmouth", "NPDES_ID": "NJ0022586", "REGISTRY_ID": "110001542108", "CWP_FACILITY_TYPE_INDICATOR": "POTW", "CWP_MAJOR_MINOR_STATUS": "Major", "CWP_PERMIT_STATUS_DESC": "Terminated", "STATE_WATER_BODY_NAME": "BIG BROOK", "CWP_CSO_FLAG": "N"}}, {"type": "Feature", "geometry": {"type": "Point", "coordinates": [-74.6086920064691, 41.1340689053009]}, "properties": {"CWP_NAME": "SUSSEX CNTY MUA UPPER WALLKILL FACILITY", "CWP_STREET": "100-106 RT 94", "CWP_CITY": "VERNON TWP", "CWP_STATE": "NJ", "CWP_ZIP": "07462", "CWP_COUNTY": "Sussex", "NPDES_ID": "NJ0053350", "REGISTRY_ID": "110000915662", "CWP_FACILITY_TYPE_INDICATOR": "POTW", "CWP_MAJOR_MINOR_STATUS": "Major", "CWP_PERMIT_STATUS_DESC": "Effective", "STATE_WATER_BODY_NAME": "WALLKILL RIVER", "CWP_CSO_FLAG": "N"}}, {"type": "Feature", "geometry": {"type": "Point", "coordinates": [-75.4636164929614, 39.5070645709709]}, "properties": {"CWP_NAME": "HANCOCKS BRIDGE STP", "CWP_STREET": "POPLAR ST", "CWP_CITY": "LOWER ALLOWAYS CREEK TWP", "CWP_STATE": "NJ", "CWP_ZIP": "08038", "CWP_COUNTY": "Salem", "NPDES_ID": "NJ0050423", "REGISTRY_ID": "110009838168", "CWP_FACILITY_TYPE_INDICATOR": "POTW", "CWP_MAJOR_MINOR_STATUS": "Minor", "CWP_PERMIT_STATUS_DESC": "Effective", "STATE_WATER_BODY_NAME": "ALLOWAYS CREEK", "CWP_CSO_FLAG": "N"}}, {"type": "Feature", "geometry": {"type": "Point", "coordinates": [-74.517491722147, 41.0326379526767]}, "properties": {"CWP_NAME": "WHITE ROCK STP", "CWP_STREET": "7A MIRROR PALCE", "CWP_CITY": "JEFFERSON TWP", "CWP_STATE": "NJ", "CWP_ZIP": "07438", "CWP_COUNTY": "Morris", "NPDES_ID": "NJ0026867", "REGISTRY_ID": "110064237222", "CWP_FACILITY_TYPE_INDICATOR": "POTW", "CWP_MAJOR_MINOR_STATUS": "Minor", "CWP_PERMIT_STATUS_DESC": "Effective", "STATE_WATER_BODY_NAME": "RUSSIA BROOK VIA UNNAMED TRIB.", "CWP_CSO_FLAG": "N"}}, {"type": "Feature", "geometry": {"type": "Point", "coordinates": [-74.4949906644786, 40.8269413778255]}, "properties": {"CWP_NAME": "GREYSTONE PARK PSYCH HOSPITAL", "CWP_STREET": "PLANT RD", "CWP_CITY": "PARSIPPANY-TROY HILLS", "CWP_STATE": "NJ", "CWP_ZIP": "07950", "CWP_COUNTY": "Morris", "NPDES_ID": "NJ0026689", "REGISTRY_ID": "110009838881", "CWP_FACILITY_TYPE_INDICATOR": "POTW", "CWP_MAJOR_MINOR_STATUS": "Minor", "CWP_PERMIT_STATUS_DESC": "Expired", "STATE_WATER_BODY_NAME": "WATNONG BROOK", "CWP_CSO_FLAG": "N"}}, {"type": "Feature", "geometry": {"type": "Point", "coordinates": [-75.0062220856361, 40.0145377300441]}, "properties": {"CWP_NAME": "CINNAMINSON SA", "CWP_STREET": "400 N RANDOLPH AVE", "CWP_CITY": "CINNAMINSON TWP", "CWP_STATE": "NJ", "CWP_ZIP": "08077", "CWP_COUNTY": "Burlington", "NPDES_ID": "NJ0024007", "REGISTRY_ID": "110015096581", "CWP_FACILITY_TYPE_INDICATOR": "POTW", "CWP_MAJOR_MINOR_STATUS": "Major", "CWP_PERMIT_STATUS_DESC": "Admin Continued", "STATE_WATER_BODY_NAME": "DELAWARE RIVER ZONE 2", "CWP_CSO_FLAG": "N"}}, {"type": "Feature", "geometry": {"type": "Point", "coordinates": [-74.1361997172709, 40.7147950102122]}, "properties": {"CWP_NAME": "PASSAIC VALLEY SEWERAGE COMM", "CWP_STREET": "600 WILSON AVE", "CWP_CITY": "NEWARK CITY", "CWP_STATE": "NJ", "CWP_ZIP": "07105", "CWP_COUNTY": "Essex", "NPDES_ID": "NJ0021016", "REGISTRY_ID": "110000761293", "CWP_FACILITY_TYPE_INDICATOR": "POTW", "CWP_MAJOR_MINOR_STATUS": "Major", "CWP_PERMIT_STATUS_DESC": "Admin Continued", "STATE_WATER_BODY_NAME": "UPPER NEW YORK BAY, UPPER NEWARK BAY", "CWP_CSO_FLAG": "Y"}}, {"type": "Feature", "geometry": {"type": "Point", "coordinates": [-73.9860317492063, 40.3129481685336]}, "properties": {"CWP_NAME": "LONG BRANCH SEWERAGE AUTHORITY", "CWP_STREET": "150 JOLINE AVE", "CWP_CITY": "LONG BRANCH CITY", "CWP_STATE": "NJ", "CWP_ZIP": "07740", "CWP_COUNTY": "Monmouth", "NPDES_ID": "NJ0024783", "REGISTRY_ID": "110000914967", "CWP_FACILITY_TYPE_INDICATOR": "POTW", "CWP_MAJOR_MINOR_STATUS": "Major", "CWP_PERMIT_STATUS_DESC": "Effective", "STATE_WATER_BODY_NAME": "ATLANTIC OCEAN", "CWP_CSO_FLAG": "N"}}, {"type": "Feature", "geometry": {"type": "Point", "coordinates": [-74.2602873360671, 41.0785771395897]}, "properties": {"CWP_NAME": "RINGWOOD ACRES TREATMENT PLANT", "CWP_STREET": "JAMES DR", "CWP_CITY": "RINGWOOD BORO", "CWP_STATE": "NJ", "CWP_ZIP": "07456", "CWP_COUNTY": "Passaic", "NPDES_ID": "NJ0027006", "REGISTRY_ID": "110009838925", "CWP_FACILITY_TYPE_INDICATOR": "POTW", "CWP_MAJOR_MINOR_STATUS": "Minor", "CWP_PERMIT_STATUS_DESC": "Effective", "STATE_WATER_BODY_NAME": "HIGH MOUNTAIN BROOK", "CWP_CSO_FLAG": "N"}}, {"type": "Feature", "geometry": {"type": "Point", "coordinates": [-74.7671911805288, 39.6331810481364]}, "properties": {"CWP_NAME": "HAMMONTON WWTP", "CWP_STREET": "100 PLEASANT MILLS RD RT 542", "CWP_CITY": "HAMMONTON TOWN", "CWP_STATE": "NJ", "CWP_ZIP": "08037", "CWP_COUNTY": "Atlantic", "NPDES_ID": "NJ0025160", "REGISTRY_ID": "110006620184", "CWP_FACILITY_TYPE_INDICATOR": "POTW", "CWP_MAJOR_MINOR_STATUS": "Major", "CWP_PERMIT_STATUS_DESC": "Effective", "STATE_WATER_BODY_NAME": "HAMMONTON CREEK", "CWP_CSO_FLAG": "N"}}, {"type": "Feature", "geometry": {"type": "Point", "coordinates": [-74.0571933551791, 40.7848675025743]}, "properties": {"CWP_NAME": "HUDSON CNTY MEADOWVIEW HOSPITAL STP", "CWP_STREET": "595 COUNTY AVE", "CWP_CITY": "SECAUCUS TOWN", "CWP_STATE": "NJ", "CWP_ZIP": "07094", "CWP_COUNTY": "Hudson", "NPDES_ID": "NJ0023566", "REGISTRY_ID": "110001546239", "CWP_FACILITY_TYPE_INDICATOR": "POTW", "CWP_MAJOR_MINOR_STATUS": "Minor", "CWP_PERMIT_STATUS_DESC": "Expired", "STATE_WATER_BODY_NAME": "UNNAMED TRIB.- HACKENSACK R.", "CWP_CSO_FLAG": "N"}}, {"type": "Feature", "geometry": {"type": "Point", "coordinates": [-74.5787724253568, 40.7137796596719]}, "properties": {"CWP_NAME": "BERNARDSVILLE STP", "CWP_STREET": "166 MINE BROOK RD", "CWP_CITY": "BERNARDSVILLE BORO", "CWP_STATE": "NJ", "CWP_ZIP": "07924", "CWP_COUNTY": "Somerset", "NPDES_ID": "NJ0026387", "REGISTRY_ID": "110032367409", "CWP_FACILITY_TYPE_INDICATOR": "POTW", "CWP_MAJOR_MINOR_STATUS": "Minor", "CWP_PERMIT_STATUS_DESC": "Effective", "STATE_WATER_BODY_NAME": "MINE BROOK", "CWP_CSO_FLAG": "N"}}, {"type": "Feature", "geometry": {"type": "Point", "coordinates": [-74.1910583630008, 40.4403083760571]}, "properties": {"CWP_NAME": "BAYSHORE REGIONAL SEW AUTH", "CWP_STREET": "100 OAK ST", "CWP_CITY": "UNION BEACH BORO", "CWP_STATE": "NJ", "CWP_ZIP": "07735", "CWP_COUNTY": "Monmouth", "NPDES_ID": "NJ0024708", "REGISTRY_ID": "110015093414", "CWP_FACILITY_TYPE_INDICATOR": "POTW", "CWP_MAJOR_MINOR_STATUS": "Major", "CWP_PERMIT_STATUS_DESC": "Effective", "STATE_WATER_BODY_NAME": "ATLANTIC OCEAN", "CWP_CSO_FLAG": "N"}}, {"type": "Feature", "geometry": {"type": "Point", "coordinates": [-73.9830613176712, 40.8147681704167]}, "properties": {"CWP_NAME": "BERGEN COUNTY UTILITIES AUTHORITY", "CWP_STREET": "520 RIVER RD", "CWP_CITY": "EDGEWATER BORO", "CWP_STATE": "NJ", "CWP_ZIP": "07020", "CWP_COUNTY": "Bergen", "NPDES_ID": "NJ0020591", "REGISTRY_ID": "110006620102", "CWP_FACILITY_TYPE_INDICATOR": "POTW", "CWP_MAJOR_MINOR_STATUS": "Major", "CWP_PERMIT_STATUS_DESC": "Expired", "STATE_WATER_BODY_NAME": "HUDSON RIVER", "CWP_CSO_FLAG": "Y"}}, {"type": "Feature", "geometry": {"type": "Point", "coordinates": [-74.983825412267, 40.8209275924172]}, "properties": {"CWP_NAME": "OXFORD AREA WTF", "CWP_STREET": "148 PEQUEST RD", "CWP_CITY": "OXFORD TWP", "CWP_STATE": "NJ", "CWP_ZIP": "078630000", "CWP_COUNTY": "Warren", "NPDES_ID": "NJ0035483", "REGISTRY_ID": "110039998731", "CWP_FACILITY_TYPE_INDICATOR": "POTW", "CWP_MAJOR_MINOR_STATUS": "Minor", "CWP_PERMIT_STATUS_DESC": "Effective", "STATE_WATER_BODY_NAME": "PEQUEST RIVER", "CWP_CSO_FLAG": "N"}}, {"type": "Feature", "geometry": {"type": "Point", "coordinates": [-74.4182379933291, 40.7204985017379]}, "properties": {"CWP_NAME": "CHATHAM TWP MAIN STP", "CWP_STREET": "TANGLEWOOD LN", "CWP_CITY": "CHATHAM TWP", "CWP_STATE": "NJ", "CWP_ZIP": "07928", "CWP_COUNTY": "Morris", "NPDES_ID": "NJ0020290", "REGISTRY_ID": "110015082989", "CWP_FACILITY_TYPE_INDICATOR": "POTW", "CWP_MAJOR_MINOR_STATUS": "Major", "CWP_PERMIT_STATUS_DESC": "Effective", "STATE_WATER_BODY_NAME": "PASSAIC RIVER", "CWP_CSO_FLAG": "N"}}, {"type": "Feature", "geometry": {"type": "Point", "coordinates": [-74.6474644475303, 40.4499742751413]}, "properties": {"CWP_NAME": "PIKE BROOK STP", "CWP_STREET": "50 ESTATES BLVD", "CWP_CITY": "MONTGOMERY TWP", "CWP_STATE": "NJ", "CWP_ZIP": "08502", "CWP_COUNTY": "Somerset", "NPDES_ID": "NJ0060038", "REGISTRY_ID": "110029914582", "CWP_FACILITY_TYPE_INDICATOR": "POTW", "CWP_MAJOR_MINOR_STATUS": "Minor", "CWP_PERMIT_STATUS_DESC": "Effective", "STATE_WATER_BODY_NAME": "PIKE RUN", "CWP_CSO_FLAG": "N"}}, {"type": "Feature", "geometry": {"type": "Point", "coordinates": [-74.105699215487, 40.9623559358576]}, "properties": {"CWP_NAME": "RIDGEWOOD VILLAGE WPC FACILITY", "CWP_STREET": "561 PROSPECT ST", "CWP_CITY": "GLEN ROCK BORO", "CWP_STATE": "NJ", "CWP_ZIP": "07452", "CWP_COUNTY": "Bergen", "NPDES_ID": "NJ0024791", "REGISTRY_ID": "110014981788", "CWP_FACILITY_TYPE_INDICATOR": "POTW", "CWP_MAJOR_MINOR_STATUS": "Major", "CWP_PERMIT_STATUS_DESC": "Effective", "STATE_WATER_BODY_NAME": "HOHOKUS BROOK", "CWP_CSO_FLAG": "N"}}, {"type": "Feature", "geometry": {"type": "Point", "coordinates": [-74.8740117517068, 39.0133789569377]}, "properties": {"CWP_NAME": "WILDWOOD/LOWER REGION WTF", "CWP_STREET": "2701 RT 47 S", "CWP_CITY": "MIDDLE TWP", "CWP_STATE": "NJ", "CWP_ZIP": "08242", "CWP_COUNTY": "Cape May", "NPDES_ID": "NJ0053007", "REGISTRY_ID": "110000533147", "CWP_FACILITY_TYPE_INDICATOR": "POTW", "CWP_MAJOR_MINOR_STATUS": "Major", "CWP_PERMIT_STATUS_DESC": "Effective", "STATE_WATER_BODY_NAME": "ATLANTIC OCEAN", "CWP_CSO_FLAG": "N"}}, {"type": "Feature", "geometry": {"type": "Point", "coordinates": [-74.3922808636961, 40.8962962118914]}, "properties": {"CWP_NAME": "ROCKAWAY VALLEY REG SA", "CWP_STREET": "99 GREEN BANK RD", "CWP_CITY": "PARSIPPANY-TROY HILLS", "CWP_STATE": "NJ", "CWP_ZIP": "070050000", "CWP_COUNTY": "Morris", "NPDES_ID": "NJ0022349", "REGISTRY_ID": "110007701754", "CWP_FACILITY_TYPE_INDICATOR": "POTW", "CWP_MAJOR_MINOR_STATUS": "Major", "CWP_PERMIT_STATUS_DESC": "Effective", "STATE_WATER_BODY_NAME": "ROCKAWAY RIVER", "CWP_CSO_FLAG": "N"}}, {"type": "Feature", "geometry": {"type": "Point", "coordinates": [-74.251163700698, 40.9131746963788]}, "properties": {"CWP_NAME": "MOUNTAIN VIEW STP", "CWP_STREET": "205 DEY RD", "CWP_CITY": "WAYNE TWP", "CWP_STATE": "NJ", "CWP_ZIP": "07470", "CWP_COUNTY": "Passaic", "NPDES_ID": "NJ0028002", "REGISTRY_ID": "110045603922", "CWP_FACILITY_TYPE_INDICATOR": "POTW", "CWP_MAJOR_MINOR_STATUS": "Major", "CWP_PERMIT_STATUS_DESC": "Effective", "STATE_WATER_BODY_NAME": "PREAKNESS BROOK", "CWP_CSO_FLAG": "N"}}, {"type": "Feature", "geometry": {"type": "Point", "coordinates": [-74.91935204584, 40.0276363613527]}, "properties": {"CWP_NAME": "WILLINGBORO WATER POLLUTION CONTROL PLANT", "CWP_STREET": "IRONSIDE CT", "CWP_CITY": "WILLINGBORO TWP", "CWP_STATE": "NJ", "CWP_ZIP": "08046", "CWP_COUNTY": "Burlington", "NPDES_ID": "NJ0023361", "REGISTRY_ID": "110006620683", "CWP_FACILITY_TYPE_INDICATOR": "POTW", "CWP_MAJOR_MINOR_STATUS": "Major", "CWP_PERMIT_STATUS_DESC": "Effective", "STATE_WATER_BODY_NAME": "RANCOCAS CREEK", "CWP_CSO_FLAG": "N"}}, {"type": "Feature", "geometry": {"type": "Point", "coordinates": [-74.047586794832, 40.7984139935414]}, "properties": {"CWP_NAME": "SECAUCUS MUA", "CWP_STREET": "1100 KOELLE BLVD", "CWP_CITY": "SECAUCUS TOWN", "CWP_STATE": "NJ", "CWP_ZIP": "07094", "CWP_COUNTY": "Hudson", "NPDES_ID": "NJ0025038", "REGISTRY_ID": "110039855118", "CWP_FACILITY_TYPE_INDICATOR": "POTW", "CWP_MAJOR_MINOR_STATUS": "Major", "CWP_PERMIT_STATUS_DESC": "Effective", "STATE_WATER_BODY_NAME": "MILL CREEK", "CWP_CSO_FLAG": "N"}}, {"type": "Feature", "geometry": {"type": "Point", "coordinates": [-73.998568331276, 40.7916951589461]}, "properties": {"CWP_NAME": "WOODCLIFF STP", "CWP_STREET": "7109 RIVER RD", "CWP_CITY": "NORTH BERGEN TWP", "CWP_STATE": "NJ", "CWP_ZIP": "07047", "CWP_COUNTY": "Hudson", "NPDES_ID": "NJ0029084", "REGISTRY_ID": "110015103485", "CWP_FACILITY_TYPE_INDICATOR": "POTW", "CWP_MAJOR_MINOR_STATUS": "Major", "CWP_PERMIT_STATUS_DESC": "Admin Continued", "STATE_WATER_BODY_NAME": "HUDSON RIVER", "CWP_CSO_FLAG": "Y"}}, {"type": "Feature", "geometry": {"type": "Point", "coordinates": [-74.3476987545844, 40.8470879995022]}, "properties": {"CWP_NAME": "PARSIPPANY TROY HILLS", "CWP_STREET": "1139 EDWARDS RD", "CWP_CITY": "PARSIPPANY-TROY HILLS", "CWP_STATE": "NJ", "CWP_ZIP": "07054", "CWP_COUNTY": "Morris", "NPDES_ID": "NJ0024970", "REGISTRY_ID": "110028199330", "CWP_FACILITY_TYPE_INDICATOR": "POTW", "CWP_MAJOR_MINOR_STATUS": "Major", "CWP_PERMIT_STATUS_DESC": "Effective", "STATE_WATER_BODY_NAME": "WHIPPANY RIVER", "CWP_CSO_FLAG": "N"}}, {"type": "Feature", "geometry": {"type": "Point", "coordinates": [-74.6276325198077, 39.2391511129972]}, "properties": {"CWP_NAME": "OCEAN CITY REG WTF", "CWP_STREET": "45TH STREET & SIMPSON AVE", "CWP_CITY": "OCEAN CITY", "CWP_STATE": "NJ", "CWP_ZIP": "08226", "CWP_COUNTY": "Cape May", "NPDES_ID": "NJ0035343", "REGISTRY_ID": "110029979129", "CWP_FACILITY_TYPE_INDICATOR": "POTW", "CWP_MAJOR_MINOR_STATUS": "Major", "CWP_PERMIT_STATUS_DESC": "Effective", "STATE_WATER_BODY_NAME": "ATLANTIC OCEAN", "CWP_CSO_FLAG": "N"}}, {"type": "Feature", "geometry": {"type": "Point", "coordinates": [-74.5749817777565, 40.6497083474257]}, "properties": {"CWP_NAME": "WARREN STAGE V STP", "CWP_STREET": "LIBERTY CORNER RD", "CWP_CITY": "WARREN TWP", "CWP_STATE": "NJ", "CWP_ZIP": "07920", "CWP_COUNTY": "Somerset", "NPDES_ID": "NJ0050369", "REGISTRY_ID": "110009838159", "CWP_FACILITY_TYPE_INDICATOR": "POTW", "CWP_MAJOR_MINOR_STATUS": "Minor", "CWP_PERMIT_STATUS_DESC": "Effective", "STATE_WATER_BODY_NAME": "DEAD RIVER", "CWP_CSO_FLAG": "N"}}, {"type": "Feature", "geometry": {"type": "Point", "coordinates": [-74.7643566069124, 41.1077322484171]}, "properties": {"CWP_NAME": "KITTATINNY REG HS/MARION MCKEOWN SCHOOL", "CWP_STREET": "77 HALSEY RD", "CWP_CITY": "HAMPTON TWP", "CWP_STATE": "NJ", "CWP_ZIP": "07860", "CWP_COUNTY": "Sussex", "NPDES_ID": "NJG028894", "REGISTRY_ID": "110070215195", "CWP_FACILITY_TYPE_INDICATOR": "POTW", "CWP_MAJOR_MINOR_STATUS": "Minor", "CWP_PERMIT_STATUS_DESC": "Expired", "STATE_WATER_BODY_NAME": "PAULINS KILL", "CWP_CSO_FLAG": "N"}}, {"type": "Feature", "geometry": {"type": "Point", "coordinates": [-74.9179473449462, 40.6866084251304]}, "properties": {"CWP_NAME": "HAGEDORN PSYCHIATRIC HOSPITAL", "CWP_STREET": "200 SANITORIUM RD", "CWP_CITY": "LEBANON TWP", "CWP_STATE": "NJ", "CWP_ZIP": "08826", "CWP_COUNTY": "Hunterdon", "NPDES_ID": "NJ0022144", "REGISTRY_ID": "110009721300", "CWP_FACILITY_TYPE_INDICATOR": "POTW", "CWP_MAJOR_MINOR_STATUS": "Minor", "CWP_PERMIT_STATUS_DESC": "Admin Continued", "STATE_WATER_BODY_NAME": "UNNAMED TRIB. TO ROCKY RUN", "CWP_CSO_FLAG": "N"}}, {"type": "Feature", "geometry": {"type": "Point", "coordinates": [-75.0135740799683, 40.5710068452858]}, "properties": {"CWP_NAME": "ALEXANDRIA MIDDLE SCHOOL", "CWP_STREET": "557 COUNTY RD 513", "CWP_CITY": "ALEXANDRIA TWP", "CWP_STATE": "NJ", "CWP_ZIP": "08867", "CWP_COUNTY": "Hunterdon", "NPDES_ID": "NJG035670", "REGISTRY_ID": "110070213403", "CWP_FACILITY_TYPE_INDICATOR": "POTW", "CWP_MAJOR_MINOR_STATUS": "Minor", "CWP_PERMIT_STATUS_DESC": "Expired", "STATE_WATER_BODY_NAME": "NISHISAKAWICK CREEK", "CWP_CSO_FLAG": "N"}}, {"type": "Feature", "geometry": {"type": "Point", "coordinates": [-74.8161116791896, 40.6533478957742]}, "properties": {"CWP_NAME": "CLINTON TOWN  WWTP", "CWP_STREET": "2 RAMSEY RD", "CWP_CITY": "CLINTON TOWN", "CWP_STATE": "NJ", "CWP_ZIP": "08809", "CWP_COUNTY": "Hunterdon", "NPDES_ID": "NJ0020389", "REGISTRY_ID": "110022415634", "CWP_FACILITY_TYPE_INDICATOR": "POTW", "CWP_MAJOR_MINOR_STATUS": "Major", "CWP_PERMIT_STATUS_DESC": "Effective", "STATE_WATER_BODY_NAME": "RARITAN RIVER SOUTH BRANCH", "CWP_CSO_FLAG": "N"}}, {"type": "Feature", "geometry": {"type": "Point", "coordinates": [-74.7268718991909, 40.2480881243534]}, "properties": {"CWP_NAME": "EWING-LAWRENCE SA WTP", "CWP_STREET": "600 WHITEHEAD RD", "CWP_CITY": "LAWRENCE TWP", "CWP_STATE": "NJ", "CWP_ZIP": "08648", "CWP_COUNTY": "Mercer", "NPDES_ID": "NJ0024759", "REGISTRY_ID": "110000914716", "CWP_FACILITY_TYPE_INDICATOR": "POTW", "CWP_MAJOR_MINOR_STATUS": "Major", "CWP_PERMIT_STATUS_DESC": "Effective", "STATE_WATER_BODY_NAME": "ASSUNPINK CREEK", "CWP_CSO_FLAG": "N"}}, {"type": "Feature", "geometry": {"type": "Point", "coordinates": [-74.2354570316885, 40.8411947449823]}, "properties": {"CWP_NAME": "VERONA TWP WTP", "CWP_STREET": "10 COMMERCE CT", "CWP_CITY": "VERONA TWP", "CWP_STATE": "NJ", "CWP_ZIP": "07044", "CWP_COUNTY": "Essex", "NPDES_ID": "NJ0024490", "REGISTRY_ID": "110000734420", "CWP_FACILITY_TYPE_INDICATOR": "POTW", "CWP_MAJOR_MINOR_STATUS": "Major", "CWP_PERMIT_STATUS_DESC": "Effective", "STATE_WATER_BODY_NAME": "PECKMAN RIVER", "CWP_CSO_FLAG": "N"}}, {"type": "Feature", "geometry": {"type": "Point", "coordinates": [-75.2252115600253, 39.8528989414318]}, "properties": {"CWP_NAME": "GLOUCESTER CNTY UTIL AUTH STP", "CWP_STREET": "PARADISE RD", "CWP_CITY": "WEST DEPTFORD TWP", "CWP_STATE": "NJ", "CWP_ZIP": "08066", "CWP_COUNTY": "Gloucester", "NPDES_ID": "NJ0024686", "REGISTRY_ID": "110064625730", "CWP_FACILITY_TYPE_INDICATOR": "POTW", "CWP_MAJOR_MINOR_STATUS": "Major", "CWP_PERMIT_STATUS_DESC": "Effective", "STATE_WATER_BODY_NAME": "DELAWARE RIVER, DELAWARE RIVER ZONE 4", "CWP_CSO_FLAG": "N"}}, {"type": "Feature", "geometry": {"type": "Point", "coordinates": [-74.6136013394972, 40.0379084306633]}, "properties": {"CWP_NAME": "WRIGHTSTOWN BOROUGH STP", "CWP_STREET": "MARTHA AVE", "CWP_CITY": "WRIGHTSTOWN BORO", "CWP_STATE": "NJ", "CWP_ZIP": "085620000", "CWP_COUNTY": "Burlington", "NPDES_ID": "NJ0022985", "REGISTRY_ID": "110009839185", "CWP_FACILITY_TYPE_INDICATOR": "POTW", "CWP_MAJOR_MINOR_STATUS": "Minor", "CWP_PERMIT_STATUS_DESC": "Effective", "STATE_WATER_BODY_NAME": "NORTH RUN (CROSSWICKS CREEK)", "CWP_CSO_FLAG": "N"}}, {"type": "Feature", "geometry": {"type": "Point", "coordinates": [-74.7042413452697, 40.1364282778262]}, "properties": {"CWP_NAME": "BORDENTOWN SA BLACK'S CREEK STP", "CWP_STREET": "954 FARNSWORTH AVE", "CWP_CITY": "BORDENTOWN TWP", "CWP_STATE": "NJ", "CWP_ZIP": "08505", "CWP_COUNTY": "Burlington", "NPDES_ID": "NJ0024678", "REGISTRY_ID": "110015006232", "CWP_FACILITY_TYPE_INDICATOR": "POTW", "CWP_MAJOR_MINOR_STATUS": "Major", "CWP_PERMIT_STATUS_DESC": "Effective", "STATE_WATER_BODY_NAME": "BLACKS CREEK", "CWP_CSO_FLAG": "N"}}, {"type": "Feature", "geometry": {"type": "Point", "coordinates": [-74.7106625224251, 40.3948359280645]}, "properties": {"CWP_NAME": "CHERRY VALLEY STP", "CWP_STREET": "192 INVERNESS DRIVE", "CWP_CITY": "MONTGOMERY TWP", "CWP_STATE": "NJ", "CWP_ZIP": "08558", "CWP_COUNTY": "Somerset", "NPDES_ID": "NJ0069523", "REGISTRY_ID": "110006706118", "CWP_FACILITY_TYPE_INDICATOR": "POTW", "CWP_MAJOR_MINOR_STATUS": "Minor", "CWP_PERMIT_STATUS_DESC": "Effective", "STATE_WATER_BODY_NAME": "BEDEN BROOK", "CWP_CSO_FLAG": "N"}}, {"type": "Feature", "geometry": {"type": "Point", "coordinates": [-74.5499824385891, 41.0192785199174]}, "properties": {"CWP_NAME": "JEFFERSON TWP HIGH-MIDDLE SCHOOL", "CWP_STREET": "1010 WELDON RD", "CWP_CITY": "JEFFERSON TWP", "CWP_STATE": "NJ", "CWP_ZIP": "07438", "CWP_COUNTY": "Morris", "NPDES_ID": "NJG021091", "REGISTRY_ID": "110070217541", "CWP_FACILITY_TYPE_INDICATOR": "POTW", "CWP_MAJOR_MINOR_STATUS": "Minor", "CWP_PERMIT_STATUS_DESC": "Expired", "STATE_WATER_BODY_NAME": "RUSSIA BROOK", "CWP_CSO_FLAG": "N"}}, {"type": "Feature", "geometry": {"type": "Point", "coordinates": [-74.3870423223831, 41.0768270540013]}, "properties": {"CWP_NAME": "SUEZ WATER NJ HIGHVIEW ACRES WWTP", "CWP_STREET": "1260 MACOPIN RD", "CWP_CITY": "WEST MILFORD TWP", "CWP_STATE": "NJ", "CWP_ZIP": "07480", "CWP_COUNTY": "Passaic", "NPDES_ID": "NJ0027685", "REGISTRY_ID": "110009838756", "CWP_FACILITY_TYPE_INDICATOR": "POTW", "CWP_MAJOR_MINOR_STATUS": "Minor", "CWP_PERMIT_STATUS_DESC": "Effective", "STATE_WATER_BODY_NAME": "VREELAND POND", "CWP_CSO_FLAG": "N"}}, {"type": "Feature", "geometry": {"type": "Point", "coordinates": [-74.3329310020076, 41.1589927312759]}, "properties": {"CWP_NAME": "SUEZ WATER NJ AWOSTING WWTP", "CWP_STREET": "AWOSTING RD", "CWP_CITY": "WEST MILFORD TWP", "CWP_STATE": "NJ", "CWP_ZIP": "07421", "CWP_COUNTY": "Passaic", "NPDES_ID": "NJ0027669", "REGISTRY_ID": "110009838738", "CWP_FACILITY_TYPE_INDICATOR": "POTW", "CWP_MAJOR_MINOR_STATUS": "Minor", "CWP_PERMIT_STATUS_DESC": "Effective", "STATE_WATER_BODY_NAME": "WANAQUE RIVER", "CWP_CSO_FLAG": "N"}}, {"type": "Feature", "geometry": {"type": "Point", "coordinates": [-74.8330980796804, 40.657651151991]}, "properties": {"CWP_NAME": "ROUND VALLEY MIDDLE SCHOOL", "CWP_STREET": "128 COKESBURY RD", "CWP_CITY": "CLINTON TWP", "CWP_STATE": "NJ", "CWP_ZIP": "08833", "CWP_COUNTY": "Hunterdon", "NPDES_ID": "NJG023175", "REGISTRY_ID": "110023995408", "CWP_FACILITY_TYPE_INDICATOR": "POTW", "CWP_MAJOR_MINOR_STATUS": "Minor", "CWP_PERMIT_STATUS_DESC": "Expired", "STATE_WATER_BODY_NAME": "ROCKAWAY CK SB", "CWP_CSO_FLAG": "N"}}, {"type": "Feature", "geometry": {"type": "Point", "coordinates": [-74.3101214696565, 40.838538144483]}, "properties": {"CWP_NAME": "CALDWELL WASTEWATER TREATMENT PLANT", "CWP_STREET": "25 PINE TREE PL", "CWP_CITY": "WEST CALDWELL TWP", "CWP_STATE": "NJ", "CWP_ZIP": "07006", "CWP_COUNTY": "Essex", "NPDES_ID": "NJ0020427", "REGISTRY_ID": "110006620059", "CWP_FACILITY_TYPE_INDICATOR": "POTW", "CWP_MAJOR_MINOR_STATUS": "Major", "CWP_PERMIT_STATUS_DESC": "Effective", "STATE_WATER_BODY_NAME": "PASSAIC RIVER", "CWP_CSO_FLAG": "N"}}, {"type": "Feature", "geometry": {"type": "Point", "coordinates": [-74.2003582673002, 40.6395451203168]}, "properties": {"CWP_NAME": "JOINT MEETING OF ESSEX AND UNION COUNTIES", "CWP_STREET": "500 S FIRST ST", "CWP_CITY": "ELIZABETH CITY", "CWP_STATE": "NJ", "CWP_ZIP": "07202", "CWP_COUNTY": "Union", "NPDES_ID": "NJ0024741", "REGISTRY_ID": "110013994106", "CWP_FACILITY_TYPE_INDICATOR": "POTW", "CWP_MAJOR_MINOR_STATUS": "Major", "CWP_PERMIT_STATUS_DESC": "Admin Continued", "STATE_WATER_BODY_NAME": "ARTHUR KILL", "CWP_CSO_FLAG": "Y"}}, {"type": "Feature", "geometry": {"type": "Point", "coordinates": [-74.8459170115927, 40.519140240837]}, "properties": {"CWP_NAME": "RARITAN TWP MUA-FLEMINGTON", "CWP_STREET": "30 FLEMINGTON JUNCTION RD", "CWP_CITY": "RARITAN TWP", "CWP_STATE": "NJ", "CWP_ZIP": "08822", "CWP_COUNTY": "Hunterdon", "NPDES_ID": "NJ0028436", "REGISTRY_ID": "110000762345", "CWP_FACILITY_TYPE_INDICATOR": "POTW", "CWP_MAJOR_MINOR_STATUS": "Major", "CWP_PERMIT_STATUS_DESC": "Admin Continued", "STATE_WATER_BODY_NAME": "BUSHKILL BROOK", "CWP_CSO_FLAG": "N"}}, {"type": "Feature", "geometry": {"type": "Point", "coordinates": [-74.3982154578829, 40.3428955841604]}, "properties": {"CWP_NAME": "NJ TRAINING SCHOOL FOR BOYS", "CWP_STREET": "STATE HOME & GRACE HILL RDS", "CWP_CITY": "MONROE TWP", "CWP_STATE": "NJ", "CWP_ZIP": "08831", "CWP_COUNTY": "Middlesex", "NPDES_ID": "NJ0028479", "REGISTRY_ID": "110007941736", "CWP_FACILITY_TYPE_INDICATOR": "POTW", "CWP_MAJOR_MINOR_STATUS": "Minor", "CWP_PERMIT_STATUS_DESC": "Expired", "STATE_WATER_BODY_NAME": "MATCHAPONIX BROOK", "CWP_CSO_FLAG": "N"}}, {"type": "Feature", "geometry": {"type": "Point", "coordinates": [-74.6071037605506, 40.4497521439942]}, "properties": {"CWP_NAME": "RIVERSIDE FARMS STP", "CWP_STREET": "720 RIVER RD", "CWP_CITY": "MONTGOMERY TWP", "CWP_STATE": "NJ", "CWP_ZIP": "08502", "CWP_COUNTY": "Somerset", "NPDES_ID": "NJ0050130", "REGISTRY_ID": "110006706252", "CWP_FACILITY_TYPE_INDICATOR": "POTW", "CWP_MAJOR_MINOR_STATUS": "Minor", "CWP_PERMIT_STATUS_DESC": "Terminated", "STATE_WATER_BODY_NAME": "MILLSTONE RIVER (RARITAN R)", "CWP_CSO_FLAG": "N"}}, {"type": "Feature", "geometry": {"type": "Point", "coordinates": [-74.9654818861917, 40.0390181817763]}, "properties": {"CWP_NAME": "RIVERSIDE SEWERAGE AUTHORITY", "CWP_STREET": "300 MONROE ST", "CWP_CITY": "RIVERSIDE TWP", "CWP_STATE": "NJ", "CWP_ZIP": "080750000", "CWP_COUNTY": "Burlington", "NPDES_ID": "NJ0022519", "REGISTRY_ID": "110024895808", "CWP_FACILITY_TYPE_INDICATOR": "POTW", "CWP_MAJOR_MINOR_STATUS": "Major", "CWP_PERMIT_STATUS_DESC": "Effective", "STATE_WATER_BODY_NAME": "RANCOCAS CREEK", "CWP_CSO_FLAG": "N"}}, {"type": "Feature", "geometry": {"type": "Point", "coordinates": [-75.2316021375943, 39.7383990341226]}, "properties": {"CWP_NAME": "HARRISON TWP MULLICA HILL WWTP", "CWP_STREET": "40 WOODLAND AVE", "CWP_CITY": "HARRISON TWP", "CWP_STATE": "NJ", "CWP_ZIP": "08062", "CWP_COUNTY": "Gloucester", "NPDES_ID": "NJ0020532", "REGISTRY_ID": "110028271778", "CWP_FACILITY_TYPE_INDICATOR": "POTW", "CWP_MAJOR_MINOR_STATUS": "Minor", "CWP_PERMIT_STATUS_DESC": "Effective", "STATE_WATER_BODY_NAME": "RACCOON CREEK", "CWP_CSO_FLAG": "N"}}, {"type": "Feature", "geometry": {"type": "Point", "coordinates": [-74.6564720420481, 40.1543778517962]}, "properties": {"CWP_NAME": "ALBERT C  WAGNER YOUTH CORRECTIONAL FACILITY", "CWP_STREET": "500 WARD AVE", "CWP_CITY": "CHESTERFIELD TWP", "CWP_STATE": "NJ", "CWP_ZIP": "085052928", "CWP_COUNTY": "Burlington", "NPDES_ID": "NJ0026719", "REGISTRY_ID": "110009838890", "CWP_FACILITY_TYPE_INDICATOR": "POTW", "CWP_MAJOR_MINOR_STATUS": "Minor", "CWP_PERMIT_STATUS_DESC": "Effective", "STATE_WATER_BODY_NAME": "CROSSWICKS CREEK", "CWP_CSO_FLAG": "N"}}, {"type": "Feature", "geometry": {"type": "Point", "coordinates": [-74.6449922094192, 40.4333359147825]}, "properties": {"CWP_NAME": "OXBRIDGE WASTEWATER TREATMENT PLANT", "CWP_STREET": "31 CAROUSEL CHASE", "CWP_CITY": "MONTGOMERY TWP", "CWP_STATE": "NJ", "CWP_ZIP": "08502", "CWP_COUNTY": "Somerset", "NPDES_ID": "NJ0067733", "REGISTRY_ID": "110006706092", "CWP_FACILITY_TYPE_INDICATOR": "POTW", "CWP_MAJOR_MINOR_STATUS": "Minor", "CWP_PERMIT_STATUS_DESC": "Terminated", "STATE_WATER_BODY_NAME": "PIKE BROOK", "CWP_CSO_FLAG": "N"}}, {"type": "Feature", "geometry": {"type": "Point", "coordinates": [-75.0212570013029, 40.7403258369758]}, "properties": {"CWP_NAME": "WARREN CO TECHNICAL SCHOOL STP", "CWP_STREET": "RT 57 E", "CWP_CITY": "FRANKLIN TWP", "CWP_STATE": "NJ", "CWP_ZIP": "07882", "CWP_COUNTY": "Warren", "NPDES_ID": "NJG020711", "REGISTRY_ID": "110064182904", "CWP_FACILITY_TYPE_INDICATOR": "POTW", "CWP_MAJOR_MINOR_STATUS": "Minor", "CWP_PERMIT_STATUS_DESC": "Expired", "STATE_WATER_BODY_NAME": "POHATCONG CREEK", "CWP_CSO_FLAG": "N"}}, {"type": "Feature", "geometry": {"type": "Point", "coordinates": [-74.6913055098878, 40.4168144645671]}, "properties": {"CWP_NAME": "SKILLMAN VILLAGE WASTEWATER TREATMENT PLANT", "CWP_STREET": "BURNT HILL RD", "CWP_CITY": "MONTGOMERY TWP", "CWP_STATE": "NJ", "CWP_ZIP": "08558", "CWP_COUNTY": "Somerset", "NPDES_ID": "NJ0022390", "REGISTRY_ID": "110009839372", "CWP_FACILITY_TYPE_INDICATOR": "POTW", "CWP_MAJOR_MINOR_STATUS": "Minor", "CWP_PERMIT_STATUS_DESC": "Effective", "STATE_WATER_BODY_NAME": "ROCK BROOK TO BEDEN BROOK", "CWP_CSO_FLAG": "N"}}, {"type": "Feature", "geometry": {"type": "Point", "coordinates": [-74.4033479131607, 40.7157482822927]}, "properties": {"CWP_NAME": "NEW PROVIDENCE WWTP", "CWP_STREET": "10 PARK PL", "CWP_CITY": "NEW PROVIDENCE BORO", "CWP_STATE": "NJ", "CWP_ZIP": "07974", "CWP_COUNTY": "Union", "NPDES_ID": "NJ0021636", "REGISTRY_ID": "110029627713", "CWP_FACILITY_TYPE_INDICATOR": "POTW", "CWP_MAJOR_MINOR_STATUS": "Major", "CWP_PERMIT_STATUS_DESC": "Effective", "STATE_WATER_BODY_NAME": "PASSAIC RIVER", "CWP_CSO_FLAG": "N"}}, {"type": "Feature", "geometry": {"type": "Point", "coordinates": [-74.4297259026773, 40.1581217382272]}, "properties": {"CWP_NAME": "ROOSEVELT BORO WTP", "CWP_STREET": "85 PINE DR", "CWP_CITY": "ROOSEVELT BORO", "CWP_STATE": "NJ", "CWP_ZIP": "08555", "CWP_COUNTY": "Monmouth", "NPDES_ID": "NJ0022918", "REGISTRY_ID": "110015101888", "CWP_FACILITY_TYPE_INDICATOR": "POTW", "CWP_MAJOR_MINOR_STATUS": "Minor", "CWP_PERMIT_STATUS_DESC": "Effective", "STATE_WATER_BODY_NAME": "ASSUNPINK CREEK", "CWP_CSO_FLAG": "N"}}, {"type": "Feature", "geometry": {"type": "Point", "coordinates": [-74.7682119830395, 40.8122986035599]}, "properties": {"CWP_NAME": "SCHOOLEY'S MOUNTAIN WASTEWATER TREATMENT PLAN", "CWP_STREET": "SYLVAN CIRCLE", "CWP_CITY": "WASHINGTON TWP", "CWP_STATE": "NJ", "CWP_ZIP": "07853", "CWP_COUNTY": "Morris", "NPDES_ID": "NJ0023493", "REGISTRY_ID": "110009839238", "CWP_FACILITY_TYPE_INDICATOR": "POTW", "CWP_MAJOR_MINOR_STATUS": "Minor", "CWP_PERMIT_STATUS_DESC": "Effective", "STATE_WATER_BODY_NAME": "RARITAN RIVER SB", "CWP_CSO_FLAG": "N"}}, {"type": "Feature", "geometry": {"type": "Point", "coordinates": [-74.2830527756023, 40.9817552091744]}, "properties": {"CWP_NAME": "POMPTON LAKES BORO MUA", "CWP_STREET": "2000 LINCOLN AVE", "CWP_CITY": "POMPTON LAKES BORO", "CWP_STATE": "NJ", "CWP_ZIP": "07442", "CWP_COUNTY": "Passaic", "NPDES_ID": "NJ0023698", "REGISTRY_ID": "110023778955", "CWP_FACILITY_TYPE_INDICATOR": "POTW", "CWP_MAJOR_MINOR_STATUS": "Major", "CWP_PERMIT_STATUS_DESC": "Effective", "STATE_WATER_BODY_NAME": "RAMAPO RIVER", "CWP_CSO_FLAG": "N"}}, {"type": "Feature", "geometry": {"type": "Point", "coordinates": [-74.927521483427, 39.920297756922]}, "properties": {"CWP_NAME": "HARTFORD RD WATER POLLUTION CONTROL FACILITY", "CWP_STREET": "200 PIKE RD", "CWP_CITY": "MOUNT LAUREL TWP", "CWP_STATE": "NJ", "CWP_ZIP": "08054", "CWP_COUNTY": "Burlington", "NPDES_ID": "NJ0025178", "REGISTRY_ID": "110029618297", "CWP_FACILITY_TYPE_INDICATOR": "POTW", "CWP_MAJOR_MINOR_STATUS": "Major", "CWP_PERMIT_STATUS_DESC": "Effective", "STATE_WATER_BODY_NAME": "RANCOCAS CREEK", "CWP_CSO_FLAG": "N"}}, {"type": "Feature", "geometry": {"type": "Point", "coordinates": [-75.4793384499405, 39.5739273792773]}, "properties": {"CWP_NAME": "SALEM CITY  WASTEWATER TREATMENT FACILITY", "CWP_STREET": "19 S FRONT ST", "CWP_CITY": "SALEM CITY", "CWP_STATE": "NJ", "CWP_ZIP": "080790000", "CWP_COUNTY": "Salem", "NPDES_ID": "NJ0024856", "REGISTRY_ID": "110000734484", "CWP_FACILITY_TYPE_INDICATOR": "POTW", "CWP_MAJOR_MINOR_STATUS": "Major", "CWP_PERMIT_STATUS_DESC": "Admin Continued", "STATE_WATER_BODY_NAME": "SALEM RIVER", "CWP_CSO_FLAG": "N"}}, {"type": "Feature", "geometry": {"type": "Point", "coordinates": [-75.3315914868721, 39.6493076742467]}, "properties": {"CWP_NAME": "WOODSTOWN WASTEWATER TREATMENT PLANT", "CWP_STREET": "90 WEST AVE", "CWP_CITY": "WOODSTOWN BORO", "CWP_STATE": "NJ", "CWP_ZIP": "080980000", "CWP_COUNTY": "Salem", "NPDES_ID": "NJ0022250", "REGISTRY_ID": "110006706582", "CWP_FACILITY_TYPE_INDICATOR": "POTW", "CWP_MAJOR_MINOR_STATUS": "Minor", "CWP_PERMIT_STATUS_DESC": "Effective", "STATE_WATER_BODY_NAME": "SALEM RIVER", "CWP_CSO_FLAG": "N"}}, {"type": "Feature", "geometry": {"type": "Point", "coordinates": [-74.4691369359724, 40.664332229866]}, "properties": {"CWP_NAME": "WARREN TWP SEWERAGE AUTH  STAGE I-II STP", "CWP_STREET": "23 INDIAN ROCK RD", "CWP_CITY": "WARREN TWP", "CWP_STATE": "NJ", "CWP_ZIP": "07059", "CWP_COUNTY": "Somerset", "NPDES_ID": "NJ0022489", "REGISTRY_ID": "110000734402", "CWP_FACILITY_TYPE_INDICATOR": "POTW", "CWP_MAJOR_MINOR_STATUS": "Minor", "CWP_PERMIT_STATUS_DESC": "Effective", "STATE_WATER_BODY_NAME": "PASSAIC RIVER", "CWP_CSO_FLAG": "N"}}, {"type": "Feature", "geometry": {"type": "Point", "coordinates": [-74.8710018174817, 40.6487199816321]}, "properties": {"CWP_NAME": "MOUNTAINVIEW CORRECTIONAL INSTITUTION", "CWP_STREET": "31 PETTYCOAT LN", "CWP_CITY": "CLINTON TWP", "CWP_STATE": "NJ", "CWP_ZIP": "08801", "CWP_COUNTY": "Hunterdon", "NPDES_ID": "NJ0028487", "REGISTRY_ID": "110009838809", "CWP_FACILITY_TYPE_INDICATOR": "POTW", "CWP_MAJOR_MINOR_STATUS": "Minor", "CWP_PERMIT_STATUS_DESC": "Effective", "STATE_WATER_BODY_NAME": "BEAVER BROOK", "CWP_CSO_FLAG": "N"}}, {"type": "Feature", "geometry": {"type": "Point", "coordinates": [-74.2621434532609, 39.6794422010541]}, "properties": {"CWP_NAME": "OCEAN COUNTY UTILITIES AUTHORITY - SWPCF", "CWP_STREET": "150 CEDAR RUN DOCK RD", "CWP_CITY": "EAGLESWOOD TWP", "CWP_STATE": "NJ", "CWP_ZIP": "08092", "CWP_COUNTY": "Ocean", "NPDES_ID": "NJ0026018", "REGISTRY_ID": "110004126464", "CWP_FACILITY_TYPE_INDICATOR": "POTW", "CWP_MAJOR_MINOR_STATUS": "Major", "CWP_PERMIT_STATUS_DESC": "Effective", "STATE_WATER_BODY_NAME": "ATLANTIC OCEAN", "CWP_CSO_FLAG": "N"}}, {"type": "Feature", "geometry": {"type": "Point", "coordinates": [-74.7394012662519, 40.3846079353917]}, "properties": {"CWP_NAME": "STONY BROOK RGNL SEWERAGE AUTH", "CWP_STREET": "HOPEWELL STP", "CWP_CITY": "HOPEWELL TWP", "CWP_STATE": "NJ", "CWP_ZIP": "08534", "CWP_COUNTY": "Mercer", "NPDES_ID": "NJ0035301", "REGISTRY_ID": "110009838319", "CWP_FACILITY_TYPE_INDICATOR": "POTW", "CWP_MAJOR_MINOR_STATUS": "Minor", "CWP_PERMIT_STATUS_DESC": "Effective", "STATE_WATER_BODY_NAME": "BEDENS BROOK", "CWP_CSO_FLAG": "N"}}, {"type": "Feature", "geometry": {"type": "Point", "coordinates": [-75.5416749811537, 39.6390931648347]}, "properties": {"CWP_NAME": "PENNSVILLE SEWERAGE AUTHORITY", "CWP_STREET": "183 DELAWARE DR", "CWP_CITY": "PENNSVILLE TWP", "CWP_STATE": "NJ", "CWP_ZIP": "08070", "CWP_COUNTY": "Salem", "NPDES_ID": "NJ0021598", "REGISTRY_ID": "110000734377", "CWP_FACILITY_TYPE_INDICATOR": "POTW", "CWP_MAJOR_MINOR_STATUS": "Major", "CWP_PERMIT_STATUS_DESC": "Admin Continued", "STATE_WATER_BODY_NAME": "DELAWARE RIVER", "CWP_CSO_FLAG": "N"}}, {"type": "Feature", "geometry": {"type": "Point", "coordinates": [-74.0332012371238, 40.8369085824308]}, "properties": {"CWP_NAME": "BERGEN CNTY UTILITIES AUTHORITY (BCUA)", "CWP_STREET": "MEHRHOF RD", "CWP_CITY": "LITTLE FERRY BORO", "CWP_STATE": "NJ", "CWP_ZIP": "07643", "CWP_COUNTY": "Bergen", "NPDES_ID": "NJ0020028", "REGISTRY_ID": "110017411772", "CWP_FACILITY_TYPE_INDICATOR": "POTW", "CWP_MAJOR_MINOR_STATUS": "Major", "CWP_PERMIT_STATUS_DESC": "Admin Continued", "STATE_WATER_BODY_NAME": "HACKENSACK RIVER", "CWP_CSO_FLAG": "Y"}}, {"type": "Feature", "geometry": {"type": "Point", "coordinates": [-74.7626649511984, 40.6252215952131]}, "properties": {"CWP_NAME": "READINGTON-LEBANON SA", "CWP_STREET": "1A OLD RT 28", "CWP_CITY": "READINGTON TWP", "CWP_STATE": "NJ", "CWP_ZIP": "08888", "CWP_COUNTY": "Hunterdon", "NPDES_ID": "NJ0098922", "REGISTRY_ID": "110014716548", "CWP_FACILITY_TYPE_INDICATOR": "POTW", "CWP_MAJOR_MINOR_STATUS": "Major", "CWP_PERMIT_STATUS_DESC": "Effective", "STATE_WATER_BODY_NAME": "ROCKAWAY CREEK", "CWP_CSO_FLAG": "N"}}, {"type": "Feature", "geometry": {"type": "Point", "coordinates": [-74.6412744482966, 41.0342162586918]}, "properties": {"CWP_NAME": "SPARTA PLAZA WTP", "CWP_STREET": "ALDER DRIVE AT CHURCH LN", "CWP_CITY": "SPARTA TWP", "CWP_STATE": "NJ", "CWP_ZIP": "07871", "CWP_COUNTY": "Sussex", "NPDES_ID": "NJ0027057", "REGISTRY_ID": "110009721382", "CWP_FACILITY_TYPE_INDICATOR": "POTW", "CWP_MAJOR_MINOR_STATUS": "Minor", "CWP_PERMIT_STATUS_DESC": "Effective", "STATE_WATER_BODY_NAME": "WALLKILL RIVER", "CWP_CSO_FLAG": "N"}}, {"type": "Feature", "geometry": {"type": "Point", "coordinates": [-75.0187748239007, 39.9677352023803]}, "properties": {"CWP_NAME": "MAPLE SHADE TWP PARK AVE WWTP", "CWP_STREET": "432 W PARK AVE", "CWP_CITY": "MAPLE SHADE TWP", "CWP_STATE": "NJ", "CWP_ZIP": "08052", "CWP_COUNTY": "Burlington", "NPDES_ID": "NJ0069167", "REGISTRY_ID": "110029595267", "CWP_FACILITY_TYPE_INDICATOR": "POTW", "CWP_MAJOR_MINOR_STATUS": "Major", "CWP_PERMIT_STATUS_DESC": "Effective", "STATE_WATER_BODY_NAME": "SOUTH BRANCH PENNSAUKEN CREEK", "CWP_CSO_FLAG": "N"}}, {"type": "Feature", "geometry": {"type": "Point", "coordinates": [-75.0117313644733, 40.5063842484301]}, "properties": {"CWP_NAME": "KINGWOOD TWP SCHOOL", "CWP_STREET": "880 COUNTY RD 519", "CWP_CITY": "KINGWOOD TWP", "CWP_STATE": "NJ", "CWP_ZIP": "08825", "CWP_COUNTY": "Hunterdon", "NPDES_ID": "NJG023311", "REGISTRY_ID": "110070217098", "CWP_FACILITY_TYPE_INDICATOR": "POTW", "CWP_MAJOR_MINOR_STATUS": "Minor", "CWP_PERMIT_STATUS_DESC": "Expired", "STATE_WATER_BODY_NAME": "UNNAMED TRIB. TO COPPER CREEK", "CWP_CSO_FLAG": "N"}}, {"type": "Feature", "geometry": {"type": "Point", "coordinates": [-74.4908115038288, 40.669228139269]}, "properties": {"CWP_NAME": "LONG HILL TOWNSHIP STP", "CWP_STREET": "WARREN AVE-SOUTH OF VALLEY RD", "CWP_CITY": "LONG HILL TWP", "CWP_STATE": "NJ", "CWP_ZIP": "07980", "CWP_COUNTY": "Morris", "NPDES_ID": "NJ0024465", "REGISTRY_ID": "110009839121", "CWP_FACILITY_TYPE_INDICATOR": "POTW", "CWP_MAJOR_MINOR_STATUS": "Major", "CWP_PERMIT_STATUS_DESC": "Effective", "STATE_WATER_BODY_NAME": "PASSAIC RIVER", "CWP_CSO_FLAG": "N"}}, {"type": "Feature", "geometry": {"type": "Point", "coordinates": [-74.5671046077508, 40.5573470561528]}, "properties": {"CWP_NAME": "SOMERSET RARITAN VALLEY SA", "CWP_STREET": "50 POLHEMUS LN", "CWP_CITY": "BRIDGEWATER TWP", "CWP_STATE": "NJ", "CWP_ZIP": "088070000", "CWP_COUNTY": "Somerset", "NPDES_ID": "NJ0024864", "REGISTRY_ID": "110063986968", "CWP_FACILITY_TYPE_INDICATOR": "POTW", "CWP_MAJOR_MINOR_STATUS": "Major", "CWP_PERMIT_STATUS_DESC": "Effective", "STATE_WATER_BODY_NAME": "RARITAN RIVER", "CWP_CSO_FLAG": "N"}}, {"type": "Feature", "geometry": {"type": "Point", "coordinates": [-75.4022017683974, 39.4622081791629]}, "properties": {"CWP_NAME": "CANTON VILLAGE STP", "CWP_STREET": "MAIN ST", "CWP_CITY": "LOWER ALLOWAYS CREEK TWP", "CWP_STATE": "NJ", "CWP_ZIP": "08079", "CWP_COUNTY": "Salem", "NPDES_ID": "NJ0062201", "REGISTRY_ID": "110009838097", "CWP_FACILITY_TYPE_INDICATOR": "POTW", "CWP_MAJOR_MINOR_STATUS": "Minor", "CWP_PERMIT_STATUS_DESC": "Effective", "STATE_WATER_BODY_NAME": "STOW CREEK", "CWP_CSO_FLAG": "N"}}, {"type": "Feature", "geometry": {"type": "Point", "coordinates": [-74.7478936091502, 41.058830703981]}, "properties": {"CWP_NAME": "NEWTON WASTEWATER TREATMENT PLANT", "CWP_STREET": "37 TOWNSEND ST", "CWP_CITY": "NEWTON TOWN", "CWP_STATE": "NJ", "CWP_ZIP": "07860", "CWP_COUNTY": "Sussex", "NPDES_ID": "NJ0020184", "REGISTRY_ID": "110010602482", "CWP_FACILITY_TYPE_INDICATOR": "POTW", "CWP_MAJOR_MINOR_STATUS": "Major", "CWP_PERMIT_STATUS_DESC": "Effective", "STATE_WATER_BODY_NAME": "PAULINS KILL", "CWP_CSO_FLAG": "N"}}, {"type": "Feature", "geometry": {"type": "Point", "coordinates": [-74.7277622214057, 40.134259111785]}, "properties": {"CWP_NAME": "FIELDSBORO WWTP", "CWP_STREET": "4 DELAWARE ST", "CWP_CITY": "FIELDSBORO BORO", "CWP_STATE": "NJ", "CWP_ZIP": "08505", "CWP_COUNTY": "Burlington", "NPDES_ID": "NJ0031810", "REGISTRY_ID": "110031925718", "CWP_FACILITY_TYPE_INDICATOR": "POTW", "CWP_MAJOR_MINOR_STATUS": "Minor", "CWP_PERMIT_STATUS_DESC": "Effective", "STATE_WATER_BODY_NAME": "DELAWARE RIVER", "CWP_CSO_FLAG": "N"}}, {"type": "Feature", "geometry": {"type": "Point", "coordinates": [-74.1191440871185, 41.0065495286435]}, "properties": {"CWP_NAME": "NORTHWEST BERGEN CNTY UA", "CWP_STREET": "30 WYCKOFF AVE", "CWP_CITY": "WALDWICK BORO", "CWP_STATE": "NJ", "CWP_ZIP": "07463", "CWP_COUNTY": "Bergen", "NPDES_ID": "NJ0024813", "REGISTRY_ID": "110029585027", "CWP_FACILITY_TYPE_INDICATOR": "POTW", "CWP_MAJOR_MINOR_STATUS": "Major", "CWP_PERMIT_STATUS_DESC": "Effective", "STATE_WATER_BODY_NAME": "HOHOKUS BROOK", "CWP_CSO_FLAG": "N"}}, {"type": "Feature", "geometry": {"type": "Point", "coordinates": [-74.7184893565159, 40.9070979593286]}, "properties": {"CWP_NAME": "MUSCONETCONG SEWERAGE AUTHORITY", "CWP_STREET": "110 CONTINENTAL DR", "CWP_CITY": "MOUNT OLIVE TWP", "CWP_STATE": "NJ", "CWP_ZIP": "07828", "CWP_COUNTY": "Morris", "NPDES_ID": "NJ0027821", "REGISTRY_ID": "110029640048", "CWP_FACILITY_TYPE_INDICATOR": "POTW", "CWP_MAJOR_MINOR_STATUS": "Major", "CWP_PERMIT_STATUS_DESC": "Effective", "STATE_WATER_BODY_NAME": "MUSCONETCONG RIVER", "CWP_CSO_FLAG": "N"}}, {"type": "Feature", "geometry": {"type": "Point", "coordinates": [-74.2336817805411, 41.021118544543]}, "properties": {"CWP_NAME": "INDIAN HILLS HIGH SCHOOL", "CWP_STREET": "97 YAWPO AVE", "CWP_CITY": "OAKLAND BORO", "CWP_STATE": "NJ", "CWP_ZIP": "07436", "CWP_COUNTY": "Bergen", "NPDES_ID": "NJG021253", "REGISTRY_ID": "110004165858", "CWP_FACILITY_TYPE_INDICATOR": "POTW", "CWP_MAJOR_MINOR_STATUS": "Minor", "CWP_PERMIT_STATUS_DESC": "Expired", "STATE_WATER_BODY_NAME": "POND CREEK TO RAMAPO RIVER", "CWP_CSO_FLAG": "N"}}, {"type": "Feature", "geometry": {"type": "Point", "coordinates": [-74.3968215551411, 41.1037716466923]}, "properties": {"CWP_NAME": "SUEZ WATER NJ CRESCENT PARK WWTP", "CWP_STREET": "MORRIS AVE", "CWP_CITY": "WEST MILFORD TWP", "CWP_STATE": "NJ", "CWP_ZIP": "07480", "CWP_COUNTY": "Passaic", "NPDES_ID": "NJ0026174", "REGISTRY_ID": "110009839096", "CWP_FACILITY_TYPE_INDICATOR": "POTW", "CWP_MAJOR_MINOR_STATUS": "Minor", "CWP_PERMIT_STATUS_DESC": "Effective", "STATE_WATER_BODY_NAME": "BELCHER CREEK", "CWP_CSO_FLAG": "N"}}, {"type": "Feature", "geometry": {"type": "Point", "coordinates": [-74.596301983489, 40.1774076974469]}, "properties": {"CWP_NAME": "ALLENTOWN BORO WWTP", "CWP_STREET": "BREZA RD", "CWP_CITY": "ALLENTOWN BORO", "CWP_STATE": "NJ", "CWP_ZIP": "08501", "CWP_COUNTY": "Monmouth", "NPDES_ID": "NJ0020206", "REGISTRY_ID": "110039900925", "CWP_FACILITY_TYPE_INDICATOR": "POTW", "CWP_MAJOR_MINOR_STATUS": "Minor", "CWP_PERMIT_STATUS_DESC": "Effective", "STATE_WATER_BODY_NAME": "DOCTORS CREEK", "CWP_CSO_FLAG": "N"}}, {"type": "Feature", "geometry": {"type": "Point", "coordinates": [-74.6012312058403, 40.7757780335052]}, "properties": {"CWP_NAME": "MENDHAM BORO", "CWP_STREET": "35 IRONIA RD", "CWP_CITY": "MENDHAM BORO", "CWP_STATE": "NJ", "CWP_ZIP": "07945", "CWP_COUNTY": "Morris", "NPDES_ID": "NJ0021334", "REGISTRY_ID": "110029590903", "CWP_FACILITY_TYPE_INDICATOR": "POTW", "CWP_MAJOR_MINOR_STATUS": "Minor", "CWP_PERMIT_STATUS_DESC": "Effective", "STATE_WATER_BODY_NAME": "INDIA BROOK", "CWP_CSO_FLAG": "N"}}, {"type": "Feature", "geometry": {"type": "Point", "coordinates": [-74.9756424298823, 40.0388805851121]}, "properties": {"CWP_NAME": "DELRAN TWP SEWER UTILITY DEPT", "CWP_STREET": "33 RIVER DR", "CWP_CITY": "DELRAN TWP", "CWP_STATE": "NJ", "CWP_ZIP": "08075", "CWP_COUNTY": "Burlington", "NPDES_ID": "NJ0023507", "REGISTRY_ID": "110006620095", "CWP_FACILITY_TYPE_INDICATOR": "POTW", "CWP_MAJOR_MINOR_STATUS": "Major", "CWP_PERMIT_STATUS_DESC": "Effective", "STATE_WATER_BODY_NAME": "RANCOCAS CREEK", "CWP_CSO_FLAG": "N"}}, {"type": "Feature", "geometry": {"type": "Point", "coordinates": [-74.2403070883316, 41.0235754926136]}, "properties": {"CWP_NAME": "OAKWOOD KNOLLS WWTP", "CWP_STREET": "101 EAST OAK ST", "CWP_CITY": "OAKLAND BORO", "CWP_STATE": "NJ", "CWP_ZIP": "074360000", "CWP_COUNTY": "Bergen", "NPDES_ID": "NJ0027774", "REGISTRY_ID": "110015103797", "CWP_FACILITY_TYPE_INDICATOR": "POTW", "CWP_MAJOR_MINOR_STATUS": "Minor", "CWP_PERMIT_STATUS_DESC": "Admin Continued", "STATE_WATER_BODY_NAME": "RAMAPO RIVER", "CWP_CSO_FLAG": "N"}}, {"type": "Feature", "geometry": {"type": "Point", "coordinates": [-74.7555216655057, 41.1265388750024]}, "properties": {"CWP_NAME": "SUSSEX COUNTY  HOMESTEAD WTP", "CWP_STREET": "HOMESTEAD RD", "CWP_CITY": "FRANKFORD TWP", "CWP_STATE": "NJ", "CWP_ZIP": "07822", "CWP_COUNTY": "Sussex", "NPDES_ID": "NJ0022063", "REGISTRY_ID": "110070212655", "CWP_FACILITY_TYPE_INDICATOR": "POTW", "CWP_MAJOR_MINOR_STATUS": "Minor", "CWP_PERMIT_STATUS_DESC": "Effective", "STATE_WATER_BODY_NAME": "PAULINS KILL", "CWP_CSO_FLAG": "N"}}, {"type": "Feature", "geometry": {"type": "Point", "coordinates": [-74.6727579238457, 41.0229243677496]}, "properties": {"CWP_NAME": "SPARTA ALPINE SCHOOL", "CWP_STREET": "151 ANDOVER RD", "CWP_CITY": "SPARTA TWP", "CWP_STATE": "NJ", "CWP_ZIP": "07871", "CWP_COUNTY": "Sussex", "NPDES_ID": "NJG027065", "REGISTRY_ID": "110006706449", "CWP_FACILITY_TYPE_INDICATOR": "POTW", "CWP_MAJOR_MINOR_STATUS": "Minor", "CWP_PERMIT_STATUS_DESC": "Expired", "STATE_WATER_BODY_NAME": "PAULINS KILL VIA UNAMED TRIB.", "CWP_CSO_FLAG": "N"}}, {"type": "Feature", "geometry": {"type": "Point", "coordinates": [-74.4534212018267, 39.3777483655378]}, "properties": {"CWP_NAME": "ATLANTIC COUNTY UTILITIES AUTH WWTF", "CWP_STREET": "1801 ABSECON BLVD", "CWP_CITY": "ATLANTIC CITY", "CWP_STATE": "NJ", "CWP_ZIP": "08401", "CWP_COUNTY": "Atlantic", "NPDES_ID": "NJ0024473", "REGISTRY_ID": "110000734411", "CWP_FACILITY_TYPE_INDICATOR": "POTW", "CWP_MAJOR_MINOR_STATUS": "Major", "CWP_PERMIT_STATUS_DESC": "Effective", "STATE_WATER_BODY_NAME": "ATLANTIC OCEAN", "CWP_CSO_FLAG": "N"}}, {"type": "Feature", "geometry": {"type": "Point", "coordinates": [-74.3418738414111, 40.807997160707]}, "properties": {"CWP_NAME": "LIVINGSTON WATER POLLUTION CONTROL  FACILITY", "CWP_STREET": "81 NAYLON AVE", "CWP_CITY": "LIVINGSTON TWP", "CWP_STATE": "NJ", "CWP_ZIP": "07039", "CWP_COUNTY": "Essex", "NPDES_ID": "NJ0024511", "REGISTRY_ID": "110000734439", "CWP_FACILITY_TYPE_INDICATOR": "POTW", "CWP_MAJOR_MINOR_STATUS": "Major", "CWP_PERMIT_STATUS_DESC": "Effective", "STATE_WATER_BODY_NAME": "PASSAIC RIVER", "CWP_CSO_FLAG": "N"}}, {"type": "Feature", "geometry": {"type": "Point", "coordinates": [-74.3042012094795, 40.4911083864956]}, "properties": {"CWP_NAME": "MIDDLESEX CNTY UA", "CWP_STREET": "WATER RECLAMATION CTR", "CWP_CITY": "SAYREVILLE BORO", "CWP_STATE": "NJ", "CWP_ZIP": "088720159", "CWP_COUNTY": "Middlesex", "NPDES_ID": "NJ0020141", "REGISTRY_ID": "110000715888", "CWP_FACILITY_TYPE_INDICATOR": "POTW", "CWP_MAJOR_MINOR_STATUS": "Major", "CWP_PERMIT_STATUS_DESC": "Admin Continued", "STATE_WATER_BODY_NAME": "NORTH CHANNEL RARITAN RIVER, RARITAN BAY", "CWP_CSO_FLAG": "Y"}}, {"type": "Feature", "geometry": {"type": "Point", "coordinates": [-74.3899462183249, 40.8222936843472]}, "properties": {"CWP_NAME": "HANOVER SEWERAGE AUTHORITY WTP", "CWP_STREET": "40 TROY RD", "CWP_CITY": "HANOVER TWP", "CWP_STATE": "NJ", "CWP_ZIP": "07981", "CWP_COUNTY": "Morris", "NPDES_ID": "NJ0024902", "REGISTRY_ID": "110015108097", "CWP_FACILITY_TYPE_INDICATOR": "POTW", "CWP_MAJOR_MINOR_STATUS": "Major", "CWP_PERMIT_STATUS_DESC": "Effective", "STATE_WATER_BODY_NAME": "WHIPPANY RIVER", "CWP_CSO_FLAG": "N"}}, {"type": "Feature", "geometry": {"type": "Point", "coordinates": [-74.574401715247, 40.6561079243789]}, "properties": {"CWP_NAME": "HARRISON BROOK STP", "CWP_STREET": "726 MARTINSVILLE RD", "CWP_CITY": "BERNARDS TWP", "CWP_STATE": "NJ", "CWP_ZIP": "07920", "CWP_COUNTY": "Somerset", "NPDES_ID": "NJ0022845", "REGISTRY_ID": "110022413388", "CWP_FACILITY_TYPE_INDICATOR": "POTW", "CWP_MAJOR_MINOR_STATUS": "Major", "CWP_PERMIT_STATUS_DESC": "Effective", "STATE_WATER_BODY_NAME": "DEAD RIVER", "CWP_CSO_FLAG": "N"}}, {"type": "Feature", "geometry": {"type": "Point", "coordinates": [-74.6222240628724, 40.383340794567]}, "properties": {"CWP_NAME": "STONY BROOK RSA- RIVER ROAD STP", "CWP_STREET": "290 RIVER RD", "CWP_CITY": "PRINCETON", "CWP_STATE": "NJ", "CWP_ZIP": "08540", "CWP_COUNTY": "Mercer", "NPDES_ID": "NJ0031119", "REGISTRY_ID": "110029617298", "CWP_FACILITY_TYPE_INDICATOR": "POTW", "CWP_MAJOR_MINOR_STATUS": "Major", "CWP_PERMIT_STATUS_DESC": "Effective", "STATE_WATER_BODY_NAME": "MILLSTONE RIVER", "CWP_CSO_FLAG": "N"}}, {"type": "Feature", "geometry": {"type": "Point", "coordinates": [-74.9692320968333, 40.6315186419267]}, "properties": {"CWP_NAME": "UNION TWP SCHOOL", "CWP_STREET": "165 PERRYVILLE RD", "CWP_CITY": "UNION TWP", "CWP_STATE": "NJ", "CWP_ZIP": "08827", "CWP_COUNTY": "Hunterdon", "NPDES_ID": "NJG024091", "REGISTRY_ID": "110070222010", "CWP_FACILITY_TYPE_INDICATOR": "POTW", "CWP_MAJOR_MINOR_STATUS": "Minor", "CWP_PERMIT_STATUS_DESC": "Expired", "STATE_WATER_BODY_NAME": "MULHOCKAWAY CREEK", "CWP_CSO_FLAG": "N"}}, {"type": "Feature", "geometry": {"type": "Point", "coordinates": [-74.6301596840374, 40.3981418394336]}, "properties": {"CWP_NAME": "STAGE II TREATMENT PLANT", "CWP_STREET": "525 COUNTY RT 605", "CWP_CITY": "MONTGOMERY TWP", "CWP_STATE": "NJ", "CWP_ZIP": "08540", "CWP_COUNTY": "Somerset", "NPDES_ID": "NJ0026905", "REGISTRY_ID": "110006674946", "CWP_FACILITY_TYPE_INDICATOR": "POTW", "CWP_MAJOR_MINOR_STATUS": "Minor", "CWP_PERMIT_STATUS_DESC": "Effective", "STATE_WATER_BODY_NAME": "MILLSTONE RIVER", "CWP_CSO_FLAG": "N"}}, {"type": "Feature", "geometry": {"type": "Point", "coordinates": [-74.7077019279923, 39.9764082769892]}, "properties": {"CWP_NAME": "FRANCIS S. DOYLE JR TREATMENT FACILITY", "CWP_STREET": "199 BIRMINGHAM RD", "CWP_CITY": "PEMBERTON TWP", "CWP_STATE": "NJ", "CWP_ZIP": "08068", "CWP_COUNTY": "Burlington", "NPDES_ID": "NJ0024821", "REGISTRY_ID": "110006620601", "CWP_FACILITY_TYPE_INDICATOR": "POTW", "CWP_MAJOR_MINOR_STATUS": "Major", "CWP_PERMIT_STATUS_DESC": "Effective", "STATE_WATER_BODY_NAME": "NORTH BRANCH RANCOCAS CREEK", "CWP_CSO_FLAG": "N"}}, {"type": "Feature", "geometry": {"type": "Point", "coordinates": [-73.999612444271, 40.7878316706438]}, "properties": {"CWP_NAME": "NORTH HUDSON SEWERAGE AUTHORITY", "CWP_STREET": "6400 RIVER RD", "CWP_CITY": "WEST NEW YORK TOWN", "CWP_STATE": "NJ", "CWP_ZIP": "07093", "CWP_COUNTY": "Hudson", "NPDES_ID": "NJ0025321", "REGISTRY_ID": "110000734509", "CWP_FACILITY_TYPE_INDICATOR": "POTW", "CWP_MAJOR_MINOR_STATUS": "Major", "CWP_PERMIT_STATUS_DESC": "Admin Continued", "STATE_WATER_BODY_NAME": "HUDSON RIVER", "CWP_CSO_FLAG": "Y"}}, {"type": "Feature", "geometry": {"type": "Point", "coordinates": [-74.9312868924021, 39.0047319717182]}, "properties": {"CWP_NAME": "LOWER TOWNSHIP MUA", "CWP_STREET": "2900 BAYSHORE RD", "CWP_CITY": "LOWER TWP", "CWP_STATE": "NJ", "CWP_ZIP": "08251", "CWP_COUNTY": "Cape May", "NPDES_ID": "NJ0023809", "REGISTRY_ID": "110000914681", "CWP_FACILITY_TYPE_INDICATOR": "POTW", "CWP_MAJOR_MINOR_STATUS": "Major", "CWP_PERMIT_STATUS_DESC": "Effective", "STATE_WATER_BODY_NAME": "ATLANTIC OCEAN", "CWP_CSO_FLAG": "N"}}, {"type": "Feature", "geometry": {"type": "Point", "coordinates": [-74.0779532677139, 40.0450463698847]}, "properties": {"CWP_NAME": "NORTHERN WATER POLLUTION CONTROL FACILITY", "CWP_STREET": "255 MANTOLOKING RD", "CWP_CITY": "BRICK TWP", "CWP_STATE": "NJ", "CWP_ZIP": "08723", "CWP_COUNTY": "Ocean", "NPDES_ID": "NJ0028142", "REGISTRY_ID": "110002375545", "CWP_FACILITY_TYPE_INDICATOR": "POTW", "CWP_MAJOR_MINOR_STATUS": "Major", "CWP_PERMIT_STATUS_DESC": "Effective", "STATE_WATER_BODY_NAME": "ATLANTIC OCEAN", "CWP_CSO_FLAG": "N"}}, {"type": "Feature", "geometry": {"type": "Point", "coordinates": [-74.923671493429, 40.0678081856429]}, "properties": {"CWP_NAME": "BEVERLY SEWERAGE AUTHORITY", "CWP_STREET": "PENN AND MAGNOLIA STS", "CWP_CITY": "BEVERLY CITY", "CWP_STATE": "NJ", "CWP_ZIP": "08010", "CWP_COUNTY": "Burlington", "NPDES_ID": "NJ0027481", "REGISTRY_ID": "110029593731", "CWP_FACILITY_TYPE_INDICATOR": "POTW", "CWP_MAJOR_MINOR_STATUS": "Major", "CWP_PERMIT_STATUS_DESC": "Admin Continued", "STATE_WATER_BODY_NAME": "DELAWARE RIVER (ZONE 2)", "CWP_CSO_FLAG": "N"}}, {"type": "Feature", "geometry": {"type": "Point", "coordinates": [-74.5234020446143, 40.6489682070836]}, "properties": {"CWP_NAME": "WARREN STAGE IV STP", "CWP_STREET": "299 KING GEORGE RD", "CWP_CITY": "WARREN TWP", "CWP_STATE": "NJ", "CWP_ZIP": "07059", "CWP_COUNTY": "Somerset", "NPDES_ID": "NJ0022497", "REGISTRY_ID": "110006620665", "CWP_FACILITY_TYPE_INDICATOR": "POTW", "CWP_MAJOR_MINOR_STATUS": "Minor", "CWP_PERMIT_STATUS_DESC": "Effective", "STATE_WATER_BODY_NAME": "DEAD RIVER", "CWP_CSO_FLAG": "N"}}, {"type": "Feature", "geometry": {"type": "Point", "coordinates": [-74.7266434669316, 40.175734953481]}, "properties": {"CWP_NAME": "TRENTON SEWER UTILITY", "CWP_STREET": "1502 LAMBERTON RD", "CWP_CITY": "TRENTON CITY", "CWP_STATE": "NJ", "CWP_ZIP": "08611", "CWP_COUNTY": "Mercer", "NPDES_ID": "NJ0020923", "REGISTRY_ID": "110000760329", "CWP_FACILITY_TYPE_INDICATOR": "POTW", "CWP_MAJOR_MINOR_STATUS": "Major", "CWP_PERMIT_STATUS_DESC": "Effective", "STATE_WATER_BODY_NAME": "DELAWARE RIVER", "CWP_CSO_FLAG": "Y"}}, {"type": "Feature", "geometry": {"type": "Point", "coordinates": [-74.351886906405, 40.9712016604499]}, "properties": {"CWP_NAME": "STONYBROOK SCHOOL", "CWP_STREET": "118 BOONTON AVE", "CWP_CITY": "KINNELON BORO", "CWP_STATE": "NJ", "CWP_ZIP": "07405", "CWP_COUNTY": "Morris", "NPDES_ID": "NJG022276", "REGISTRY_ID": "110015105660", "CWP_FACILITY_TYPE_INDICATOR": "POTW", "CWP_MAJOR_MINOR_STATUS": "Minor", "CWP_PERMIT_STATUS_DESC": "Expired", "STATE_WATER_BODY_NAME": "UNTERMEYER LK VIA UNNAMED TRIB", "CWP_CSO_FLAG": "N"}}, {"type": "Feature", "geometry": {"type": "Point", "coordinates": [-74.4410708861378, 40.6894152269644]}, "properties": {"CWP_NAME": "BERKELEY HEIGHTS WPCF", "CWP_STREET": "29 SNYDER AVE", "CWP_CITY": "BERKELEY HEIGHTS TWP", "CWP_STATE": "NJ", "CWP_ZIP": "07922", "CWP_COUNTY": "Union", "NPDES_ID": "NJ0027961", "REGISTRY_ID": "110014612106", "CWP_FACILITY_TYPE_INDICATOR": "POTW", "CWP_MAJOR_MINOR_STATUS": "Major", "CWP_PERMIT_STATUS_DESC": "Admin Continued", "STATE_WATER_BODY_NAME": "PASSAIC RIVER", "CWP_CSO_FLAG": "N"}}, {"type": "Feature", "geometry": {"type": "Point", "coordinates": [-74.2238602716566, 40.8649746235754]}, "properties": {"CWP_NAME": "CEDAR GROVE STP", "CWP_STREET": "340 LITTLE FALLS RD", "CWP_CITY": "CEDAR GROVE TWP", "CWP_STATE": "NJ", "CWP_ZIP": "07009", "CWP_COUNTY": "Essex", "NPDES_ID": "NJ0025330", "REGISTRY_ID": "110000734518", "CWP_FACILITY_TYPE_INDICATOR": "POTW", "CWP_MAJOR_MINOR_STATUS": "Major", "CWP_PERMIT_STATUS_DESC": "Effective", "STATE_WATER_BODY_NAME": "PECKMAN RIVER", "CWP_CSO_FLAG": "N"}}, {"type": "Feature", "geometry": {"type": "Point", "coordinates": [-75.0925921370016, 40.5650578259075]}, "properties": {"CWP_NAME": "MILFORD SEWER UTILITY", "CWP_STREET": "122 CARPENTER ST", "CWP_CITY": "MILFORD BORO", "CWP_STATE": "NJ", "CWP_ZIP": "088480507", "CWP_COUNTY": "Hunterdon", "NPDES_ID": "NJ0021890", "REGISTRY_ID": "110029580692", "CWP_FACILITY_TYPE_INDICATOR": "POTW", "CWP_MAJOR_MINOR_STATUS": "Minor", "CWP_PERMIT_STATUS_DESC": "Admin Continued", "STATE_WATER_BODY_NAME": "HAKIHOKAKE CREEK", "CWP_CSO_FLAG": "N"}}, {"type": "Feature", "geometry": {"type": "Point", "coordinates": [-74.6457422921545, 41.1993282208309]}, "properties": {"CWP_NAME": "HIGH POINT REGIONAL HS", "CWP_STREET": "299 PIDGEON HILL RD", "CWP_CITY": "WANTAGE TWP", "CWP_STATE": "NJ", "CWP_ZIP": "07461", "CWP_COUNTY": "Sussex", "NPDES_ID": "NJG031585", "REGISTRY_ID": "110014562936", "CWP_FACILITY_TYPE_INDICATOR": "POTW", "CWP_MAJOR_MINOR_STATUS": "Minor", "CWP_PERMIT_STATUS_DESC": "Expired", "STATE_WATER_BODY_NAME": "PAPAKATING CREEK WEST BRANCH", "CWP_CSO_FLAG": "N"}}, {"type": "Feature", "geometry": {"type": "Point", "coordinates": [-74.5330517504218, 40.274938295557]}, "properties": {"CWP_NAME": "HIGHTSTOWN BORO AWWTP", "CWP_STREET": "END OF OAK LN", "CWP_CITY": "HIGHTSTOWN BORO", "CWP_STATE": "NJ", "CWP_ZIP": "08520", "CWP_COUNTY": "Mercer", "NPDES_ID": "NJ0029475", "REGISTRY_ID": "110002344650", "CWP_FACILITY_TYPE_INDICATOR": "POTW", "CWP_MAJOR_MINOR_STATUS": "Major", "CWP_PERMIT_STATUS_DESC": "Effective", "STATE_WATER_BODY_NAME": "ROCKY BROOK", "CWP_CSO_FLAG": "N"}}, {"type": "Feature", "geometry": {"type": "Point", "coordinates": [-75.0348618666679, 39.3780181419384]}, "properties": {"CWP_NAME": "MILLVILLE (WTP) CITY OF", "CWP_STREET": "355 FOWSER RD", "CWP_CITY": "MILLVILLE CITY", "CWP_STATE": "NJ", "CWP_ZIP": "08332", "CWP_COUNTY": "Cumberland", "NPDES_ID": "NJ0029467", "REGISTRY_ID": "110001544598", "CWP_FACILITY_TYPE_INDICATOR": "POTW", "CWP_MAJOR_MINOR_STATUS": "Major", "CWP_PERMIT_STATUS_DESC": "Admin Continued", "STATE_WATER_BODY_NAME": "MAURICE RIVER", "CWP_CSO_FLAG": "N"}}, {"type": "Feature", "geometry": {"type": "Point", "coordinates": [-74.3506511974749, 40.3170877359842]}, "properties": {"CWP_NAME": "PINE BROOK STP", "CWP_STREET": "103 PENSION RD", "CWP_CITY": "MANALAPAN TWP", "CWP_STATE": "NJ", "CWP_ZIP": "077260390", "CWP_COUNTY": "Monmouth", "NPDES_ID": "NJ0023728", "REGISTRY_ID": "110006620610", "CWP_FACILITY_TYPE_INDICATOR": "POTW", "CWP_MAJOR_MINOR_STATUS": "Major", "CWP_PERMIT_STATUS_DESC": "Effective", "STATE_WATER_BODY_NAME": "PINE BROOK", "CWP_CSO_FLAG": "N"}}, {"type": "Feature", "geometry": {"type": "Point", "coordinates": [-74.494712772976, 40.8124416056593]}, "properties": {"CWP_NAME": "BUTTERWORTH WATER POLLUTION CONTROL UTILITY", "CWP_STREET": "48 LAKE VALLEY RD", "CWP_CITY": "MORRIS TWP", "CWP_STATE": "NJ", "CWP_ZIP": "07960", "CWP_COUNTY": "Morris", "NPDES_ID": "NJ0024911", "REGISTRY_ID": "110006620040", "CWP_FACILITY_TYPE_INDICATOR": "POTW", "CWP_MAJOR_MINOR_STATUS": "Major", "CWP_PERMIT_STATUS_DESC": "Effective", "STATE_WATER_BODY_NAME": "WHIPPANY RIVER", "CWP_CSO_FLAG": "N"}}, {"type": "Feature", "geometry": {"type": "Point", "coordinates": [-74.0449211657048, 40.1688380752901]}, "properties": {"CWP_NAME": "SOUTH MONMOUTH REGIONAL SA", "CWP_STREET": "1235 18TH AVE", "CWP_CITY": "WALL TWP", "CWP_STATE": "NJ", "CWP_ZIP": "07719", "CWP_COUNTY": "Monmouth", "NPDES_ID": "NJ0024562", "REGISTRY_ID": "110007701772", "CWP_FACILITY_TYPE_INDICATOR": "POTW", "CWP_MAJOR_MINOR_STATUS": "Major", "CWP_PERMIT_STATUS_DESC": "Effective", "STATE_WATER_BODY_NAME": "ATLANTIC OCEAN", "CWP_CSO_FLAG": "N"}}, {"type": "Feature", "geometry": {"type": "Point", "coordinates": [-74.8243035734485, 40.1185911165551]}, "properties": {"CWP_NAME": "FLORENCE TOWNSHIP STP", "CWP_STREET": "1500 FRONT ST", "CWP_CITY": "FLORENCE TWP", "CWP_STATE": "NJ", "CWP_ZIP": "08518", "CWP_COUNTY": "Burlington", "NPDES_ID": "NJ0023701", "REGISTRY_ID": "110001544455", "CWP_FACILITY_TYPE_INDICATOR": "POTW", "CWP_MAJOR_MINOR_STATUS": "Major", "CWP_PERMIT_STATUS_DESC": "Effective", "STATE_WATER_BODY_NAME": "DELAWARE RIVER", "CWP_CSO_FLAG": "N"}}, {"type": "Feature", "geometry": {"type": "Point", "coordinates": [-74.9706484453621, 39.2351500164699]}, "properties": {"CWP_NAME": "BAYSIDE STATE PRISON", "CWP_STREET": "4293 RT 47 - S DELSEA DR", "CWP_CITY": "MAURICE RIVER TWP", "CWP_STATE": "NJ", "CWP_ZIP": "08327", "CWP_COUNTY": "Cumberland", "NPDES_ID": "NJ0102849", "REGISTRY_ID": "110001542055", "CWP_FACILITY_TYPE_INDICATOR": "POTW", "CWP_MAJOR_MINOR_STATUS": "Minor", "CWP_PERMIT_STATUS_DESC": "Effective", "STATE_WATER_BODY_NAME": "RIGGINS DITCH", "CWP_CSO_FLAG": "N"}}, {"type": "Feature", "geometry": {"type": "Point", "coordinates": [-74.780401368398, 40.3359078368903]}, "properties": {"CWP_NAME": "STONY BROOK RSA", "CWP_STREET": "PENNINGTON STP", "CWP_CITY": "HOPEWELL TWP", "CWP_STATE": "NJ", "CWP_ZIP": "08534", "CWP_COUNTY": "Mercer", "NPDES_ID": "NJ0035319", "REGISTRY_ID": "110009721587", "CWP_FACILITY_TYPE_INDICATOR": "POTW", "CWP_MAJOR_MINOR_STATUS": "Minor", "CWP_PERMIT_STATUS_DESC": "Effective", "STATE_WATER_BODY_NAME": "STONY BROOK (PRINCETON)", "CWP_CSO_FLAG": "N"}}, {"type": "Feature", "geometry": {"type": "Point", "coordinates": [-74.3685693240635, 40.7836641984037]}, "properties": {"CWP_NAME": "FLORHAM PARK WATER POLLUTION CONTROL FACILITY", "CWP_STREET": "31 VREELAND RD", "CWP_CITY": "FLORHAM PARK BORO", "CWP_STATE": "NJ", "CWP_ZIP": "07932", "CWP_COUNTY": "Morris", "NPDES_ID": "NJ0025518", "REGISTRY_ID": "110015083416", "CWP_FACILITY_TYPE_INDICATOR": "POTW", "CWP_MAJOR_MINOR_STATUS": "Major", "CWP_PERMIT_STATUS_DESC": "Effective", "STATE_WATER_BODY_NAME": "PASSAIC RIVER", "CWP_CSO_FLAG": "N"}}, {"type": "Feature", "geometry": {"type": "Point", "coordinates": [-74.8051660186501, 40.5176950314954]}, "properties": {"CWP_NAME": "RARITAN TOWNSHIP MUA STP", "CWP_STREET": "365 OLD YORK RD", "CWP_CITY": "RARITAN TWP", "CWP_STATE": "NJ", "CWP_ZIP": "08822", "CWP_COUNTY": "Hunterdon", "NPDES_ID": "NJ0022047", "REGISTRY_ID": "110006620638", "CWP_FACILITY_TYPE_INDICATOR": "POTW", "CWP_MAJOR_MINOR_STATUS": "Major", "CWP_PERMIT_STATUS_DESC": "Effective", "STATE_WATER_BODY_NAME": "RARITAN RIVER S B", "CWP_CSO_FLAG": "N"}}, {"type": "Feature", "geometry": {"type": "Point", "coordinates": [-74.1613015751643, 40.2650349722995]}, "properties": {"CWP_NAME": "NAVAL WEAPONS STATION EARLE", "CWP_STREET": "201 RT 34 SOUTH- BLDG C15", "CWP_CITY": "COLTS NECK TWP", "CWP_STATE": "NJ", "CWP_ZIP": "077225017", "CWP_COUNTY": "Monmouth", "NPDES_ID": "NJ0023540", "REGISTRY_ID": "110000836604", "CWP_FACILITY_TYPE_INDICATOR": "NON-POTW", "CWP_MAJOR_MINOR_STATUS": "Minor", "CWP_PERMIT_STATUS_DESC": "Effective", "STATE_WATER_BODY_NAME": "HOCKHOCKSON BROOK", "CWP_CSO_FLAG": "N"}}, {"type": "Feature", "geometry": {"type": "Point", "coordinates": [-74.5567974813396, 40.6684772028522]}, "properties": {"CWP_NAME": "VETERANS AFFAIRS NJ HEALTH CARE SYSTEM-LYONS", "CWP_STREET": "151 KNOLLCROFT RD", "CWP_CITY": "BERNARDS TWP", "CWP_STATE": "NJ", "CWP_ZIP": "07939", "CWP_COUNTY": "Somerset", "NPDES_ID": "NJ0021083", "REGISTRY_ID": "110028253164", "CWP_FACILITY_TYPE_INDICATOR": "NON-POTW", "CWP_MAJOR_MINOR_STATUS": "Minor", "CWP_PERMIT_STATUS_DESC": "Admin Continued", "STATE_WATER_BODY_NAME": "UNNAMED TRIB OF HARRISONS BRK.", "CWP_CSO_FLAG": "N"}}, {"type": "Feature", "geometry": {"type": "Point", "coordinates": [-75.0214557059569, 40.003863674015]}, "properties": {"CWP_NAME": "PALMYRA STP", "CWP_STREET": "FIRTH LN & TEMPLE BLVD", "CWP_CITY": "PALMYRA BORO", "CWP_STATE": "NJ", "CWP_ZIP": "08065", "CWP_COUNTY": "Burlington", "NPDES_ID": "NJ0024449", "REGISTRY_ID": "110014986275", "CWP_FACILITY_TYPE_INDICATOR": "POTW", "CWP_MAJOR_MINOR_STATUS": "Minor", "CWP_PERMIT_STATUS_DESC": "Effective", "STATE_WATER_BODY_NAME": "DELAWARE RIVER", "CWP_CSO_FLAG": "N"}}, {"type": "Feature", "geometry": {"type": "Point", "coordinates": [-75.0105703090601, 40.0137562188752]}, "properties": {"CWP_NAME": "RIVERTON STP", "CWP_STREET": "THIRD ST & MARTHAS LN", "CWP_CITY": "RIVERTON BORO", "CWP_STATE": "NJ", "CWP_ZIP": "080770000", "CWP_COUNTY": "Burlington", "NPDES_ID": "NJ0021610", "REGISTRY_ID": "110009839292", "CWP_FACILITY_TYPE_INDICATOR": "POTW", "CWP_MAJOR_MINOR_STATUS": "Minor", "CWP_PERMIT_STATUS_DESC": "Effective", "STATE_WATER_BODY_NAME": "DELAWARE RIVER", "CWP_CSO_FLAG": "N"}}, {"type": "Feature", "geometry": {"type": "Point", "coordinates": [-75.1770106322998, 40.6806072384789]}, "properties": {"CWP_NAME": "PHILLIPSBURG TOWN STP", "CWP_STREET": "900 S MAIN ST", "CWP_CITY": "PHILLIPSBURG TOWN", "CWP_STATE": "NJ", "CWP_ZIP": "08865", "CWP_COUNTY": "Warren", "NPDES_ID": "NJ0024716", "REGISTRY_ID": "110035790864", "CWP_FACILITY_TYPE_INDICATOR": "POTW", "CWP_MAJOR_MINOR_STATUS": "Major", "CWP_PERMIT_STATUS_DESC": "Effective", "STATE_WATER_BODY_NAME": "LOPATCONG CREEK", "CWP_CSO_FLAG": "N"}}, {"type": "Feature", "geometry": {"type": "Point", "coordinates": [-74.7094430810428, 41.0316891607751]}, "properties": {"CWP_NAME": "LONG POND SCHOOL WTP", "CWP_STREET": "707 LIMECREST RD", "CWP_CITY": "ANDOVER TWP", "CWP_STATE": "NJ", "CWP_ZIP": "07860", "CWP_COUNTY": "Sussex", "NPDES_ID": "NJG020419", "REGISTRY_ID": "110006706608", "CWP_FACILITY_TYPE_INDICATOR": "POTW", "CWP_MAJOR_MINOR_STATUS": "Minor", "CWP_PERMIT_STATUS_DESC": "Expired", "STATE_WATER_BODY_NAME": "LAKE ILIFF", "CWP_CSO_FLAG": "N"}}, {"type": "Feature", "geometry": {"type": "Point", "coordinates": [-74.8763617431114, 40.0719522641436]}, "properties": {"CWP_NAME": "CENTRAL AVE WASTEWATER TREATMENT PLANT", "CWP_STREET": "27 CENTRAL & DEVLIN AVES", "CWP_CITY": "BURLINGTON TWP", "CWP_STATE": "NJ", "CWP_ZIP": "08016", "CWP_COUNTY": "Burlington", "NPDES_ID": "NJ0021709", "REGISTRY_ID": "110000734386", "CWP_FACILITY_TYPE_INDICATOR": "POTW", "CWP_MAJOR_MINOR_STATUS": "Major", "CWP_PERMIT_STATUS_DESC": "Effective", "STATE_WATER_BODY_NAME": "DELAWARE RIVER", "CWP_CSO_FLAG": "N"}}, {"type": "Feature", "geometry": {"type": "Point", "coordinates": [-74.259034550562, 40.6002762133972]}, "properties": {"CWP_NAME": "RAHWAY VALLEY SEWERAGE AUTH", "CWP_STREET": "1050 EAST HAZELWOOD AVE", "CWP_CITY": "RAHWAY CITY", "CWP_STATE": "NJ", "CWP_ZIP": "07065", "CWP_COUNTY": "Union", "NPDES_ID": "NJ0024643", "REGISTRY_ID": "110000558806", "CWP_FACILITY_TYPE_INDICATOR": "POTW", "CWP_MAJOR_MINOR_STATUS": "Major", "CWP_PERMIT_STATUS_DESC": "Effective", "STATE_WATER_BODY_NAME": "ARTHUR KILL, RAHWAY RIVER", "CWP_CSO_FLAG": "Y"}}]}