{"type": "FeatureCollection", "features": [{"type": "Feature", "geometry": {"type": "Point", "coordinates": [-81.3097030183253, 29.8763052148723]}, "properties": {"CWP_NAME": "ST AUGUSTINE WWTF NO 1", "CWP_STREET": "501 RIBERIA ST", "CWP_CITY": "SAINT AUGUSTINE", "CWP_STATE": "FL", "CWP_ZIP": "32084-5163", "CWP_COUNTY": "St. Johns", "NPDES_ID": "FL0021938", "REGISTRY_ID": "110064643818", "CWP_FACILITY_TYPE_INDICATOR": "POTW", "CWP_MAJOR_MINOR_STATUS": "Major", "CWP_PERMIT_STATUS_DESC": "Effective", "STATE_WATER_BODY_NAME": "MATANZAS R WBID 2363G1 CLASS III MARINE", "CWP_CSO_FLAG": "N"}}, {"type": "Feature", "geometry": {"type": "Point", "coordinates": [-81.7915922950301, 30.0967344822524]}, "properties": {"CWP_NAME": "RIDAUGHT LANDING WWTF", "CWP_STREET": "2878-1 TUSCARORA TRL", "CWP_CITY": "MIDDLEBURG", "CWP_STATE": "FL", "CWP_ZIP": "32068-4269", "CWP_COUNTY": "Clay", "NPDES_ID": "FL0039721", "REGISTRY_ID": "110006366896", "CWP_FACILITY_TYPE_INDICATOR": "POTW", "CWP_MAJOR_MINOR_STATUS": "Major", "CWP_PERMIT_STATUS_DESC": "Admin Continued", "STATE_WATER_BODY_NAME": "LITTLE BLACK CR 2368, ST JOHNS R, CLASS III FRESH, LITTLE BLACK CR CLASS III FRESH WBID 2368", "CWP_CSO_FLAG": "N"}}, {"type": "Feature", "geometry": {"type": "Point", "coordinates": [-81.2987528386037, 29.0094251066921]}, "properties": {"CWP_NAME": "DELAND/WILEY M. NASH WATER RECLAMATION FACILITY", "CWP_STREET": "1101 S AMELIA AVE", "CWP_CITY": "DE LAND", "CWP_STATE": "FL", "CWP_ZIP": "32724-6815", "CWP_COUNTY": "Volusia", "NPDES_ID": "FL0020303", "REGISTRY_ID": "110027971924", "CWP_FACILITY_TYPE_INDICATOR": "POTW", "CWP_MAJOR_MINOR_STATUS": "Major", "CWP_PERMIT_STATUS_DESC": "Effective", "STATE_WATER_BODY_NAME": "ST JOHNS R CLASS III FRESH WBID 2893B, ST. JOHNS RIVER", "CWP_CSO_FLAG": "N"}}, {"type": "Feature", "geometry": {"type": "Point", "coordinates": [-81.3893506130558, 30.2398400473189]}, "properties": {"CWP_NAME": "PONTE VEDRA WRF", "CWP_STREET": "200 STATE ROAD A1A", "CWP_CITY": "PONTE VEDRA BEACH", "CWP_STATE": "FL", "CWP_ZIP": "32082", "CWP_COUNTY": "St. Johns", "NPDES_ID": "FL0117951", "REGISTRY_ID": "110027962854", "CWP_FACILITY_TYPE_INDICATOR": "POTW", "CWP_MAJOR_MINOR_STATUS": "Minor", "CWP_PERMIT_STATUS_DESC": "Effective", "STATE_WATER_BODY_NAME": "PONTE VEDRA LK SYS, CLASS III FRESH, WBID 2320B1, PONTE VEDRA LK SYSTEM CLASS III FRESH WBID 2320B1", "CWP_CSO_FLAG": "N"}}, {"type": "Feature", "geometry": {"type": "Point", "coordinates": [-81.8150798964545, 30.1152335403871]}, "properties": {"CWP_NAME": "MILLER STREET WWTF", "CWP_STREET": "1601 BARTLETT AVE", "CWP_CITY": "ORANGE PARK", "CWP_STATE": "FL", "CWP_ZIP": "32073", "CWP_COUNTY": "Clay", "NPDES_ID": "FL0025151", "REGISTRY_ID": "110037313010", "CWP_FACILITY_TYPE_INDICATOR": "POTW", "CWP_MAJOR_MINOR_STATUS": "Major", "CWP_PERMIT_STATUS_DESC": "Effective", "STATE_WATER_BODY_NAME": "ST JOHNS R CLASS III MARINE WBID 2213G", "CWP_CSO_FLAG": "N"}}, {"type": "Feature", "geometry": {"type": "Point", "coordinates": [-81.6960824638612, 30.0071143241564]}, "properties": {"CWP_NAME": "GREEN COVE SPRINGS - HARBOR ROAD WWTF", "CWP_STREET": "1277 HARBOR RD", "CWP_CITY": "GREEN COVE SPRINGS", "CWP_STATE": "FL", "CWP_ZIP": "32043-8729", "CWP_COUNTY": "Clay", "NPDES_ID": "FL0020915", "REGISTRY_ID": "110006778905", "CWP_FACILITY_TYPE_INDICATOR": "POTW", "CWP_MAJOR_MINOR_STATUS": "Minor", "CWP_PERMIT_STATUS_DESC": "Effective", "STATE_WATER_BODY_NAME": "ST JOHNS R CLASS III FRESH WBID 2213I", "CWP_CSO_FLAG": "N"}}, {"type": "Feature", "geometry": {"type": "Point", "coordinates": [-81.2004308133663, 28.5228773762783]}, "properties": {"CWP_NAME": "OCUD/EASTERN SUBREGIONAL WRF", "CWP_STREET": "1621 S ALAFAYA TRL", "CWP_CITY": "ORLANDO", "CWP_STATE": "FL", "CWP_ZIP": "32828-8702", "CWP_COUNTY": "Orange", "NPDES_ID": "FL0038849", "REGISTRY_ID": "110000521935", "CWP_FACILITY_TYPE_INDICATOR": "POTW", "CWP_MAJOR_MINOR_STATUS": "Major", "CWP_PERMIT_STATUS_DESC": "Effective", "STATE_WATER_BODY_NAME": "BIG ECONLOCKHATCHEE RIVER CLASS III FRESH TO 3037, WETLANDS TO ECONLOCKHATCHEE RV", "CWP_CSO_FLAG": "N"}}, {"type": "Feature", "geometry": {"type": "Point", "coordinates": [-80.1527247521318, 26.2615909139168]}, "properties": {"CWP_NAME": "BROWARD CO NORTH REGIONAL WWTP", "CWP_STREET": "2401 N POWERLINE RD", "CWP_CITY": "POMPANO BEACH", "CWP_STATE": "FL", "CWP_ZIP": "33069-1001", "CWP_COUNTY": "Broward", "NPDES_ID": "FL0031771", "REGISTRY_ID": "110064612879", "CWP_FACILITY_TYPE_INDICATOR": "POTW", "CWP_MAJOR_MINOR_STATUS": "Major", "CWP_PERMIT_STATUS_DESC": "Effective", "STATE_WATER_BODY_NAME": "ATLANTIC OCEAN CLASS III MARINE WBID 8095", "CWP_CSO_FLAG": "N"}}, {"type": "Feature", "geometry": {"type": "Point", "coordinates": [-80.6178174419435, 28.3926132593959]}, "properties": {"CWP_NAME": "CAPE CANAVERAL WRF", "CWP_STREET": "601 THURM BLVD", "CWP_CITY": "CAPE CANAVERAL", "CWP_STATE": "FL", "CWP_ZIP": "32920-4315", "CWP_COUNTY": "Brevard", "NPDES_ID": "FL0020541", "REGISTRY_ID": "110000527840", "CWP_FACILITY_TYPE_INDICATOR": "POTW", "CWP_MAJOR_MINOR_STATUS": "Minor", "CWP_PERMIT_STATUS_DESC": "Effective", "STATE_WATER_BODY_NAME": "BANANA R CLASS III MARINE WBID 3057B", "CWP_CSO_FLAG": "N"}}, {"type": "Feature", "geometry": {"type": "Point", "coordinates": [-81.3983528308754, 30.2789956387847]}, "properties": {"CWP_NAME": "JACKSONVILLE BEACH WWTF", "CWP_STREET": "910 10TH STREET SOUTH", "CWP_CITY": "JACKSONVILLE BEACH", "CWP_STATE": "FL", "CWP_ZIP": "32250-3316", "CWP_COUNTY": "Duval", "NPDES_ID": "FL0020231", "REGISTRY_ID": "110006396523", "CWP_FACILITY_TYPE_INDICATOR": "POTW", "CWP_MAJOR_MINOR_STATUS": "Major", "CWP_PERMIT_STATUS_DESC": "Effective", "STATE_WATER_BODY_NAME": "CRADLE CR TO PABLO CR ICWW CLASS III MARINE 2205C, ST JOHNS R CLASS III MARINE WBID 2213A", "CWP_CSO_FLAG": "N"}}, {"type": "Feature", "geometry": {"type": "Point", "coordinates": [-81.6008856126908, 30.3306068378354]}, "properties": {"CWP_NAME": "MONTEREY WRF", "CWP_STREET": "5802 HARRIS AVE", "CWP_CITY": "JACKSONVILLE", "CWP_STATE": "FL", "CWP_ZIP": "32211-5649", "CWP_COUNTY": "Duval", "NPDES_ID": "FL0023604", "REGISTRY_ID": "110000915608", "CWP_FACILITY_TYPE_INDICATOR": "POTW", "CWP_MAJOR_MINOR_STATUS": "Major", "CWP_PERMIT_STATUS_DESC": "Effective", "STATE_WATER_BODY_NAME": "ST JOHNS R CLASS III MARINE WBID 2213D", "CWP_CSO_FLAG": "N"}}, {"type": "Feature", "geometry": {"type": "Point", "coordinates": [-81.5060861073203, 25.9704218087524]}, "properties": {"CWP_NAME": "PORT OF THE ISLANDS - SOUTH WWTP", "CWP_STREET": "12600 UNION RD", "CWP_CITY": "NAPLES", "CWP_STATE": "FL", "CWP_ZIP": "34114", "CWP_COUNTY": "Collier", "NPDES_ID": "FL0141704", "REGISTRY_ID": "110061181484", "CWP_FACILITY_TYPE_INDICATOR": "POTW", "CWP_MAJOR_MINOR_STATUS": "Minor", "CWP_PERMIT_STATUS_DESC": "Terminated", "STATE_WATER_BODY_NAME": "FAKA UNION (SOUTH SEGMENT)", "CWP_CSO_FLAG": "N"}}, {"type": "Feature", "geometry": {"type": "Point", "coordinates": [-81.1162389793394, 29.1786586753973]}, "properties": {"CWP_NAME": "DAYTONA BEACH WESTSIDE REGIONAL WRF", "CWP_STREET": "3651 LPGA BLVD", "CWP_CITY": "DAYTONA BEACH", "CWP_STATE": "FL", "CWP_ZIP": "32124-2016", "CWP_COUNTY": "Volusia", "NPDES_ID": "FL0111392", "REGISTRY_ID": "110027963684", "CWP_FACILITY_TYPE_INDICATOR": "POTW", "CWP_MAJOR_MINOR_STATUS": "Major", "CWP_PERMIT_STATUS_DESC": "Effective", "STATE_WATER_BODY_NAME": "BENNETT SWAMP, TOMOKA R WBID 2634 CLASS III FRESH", "CWP_CSO_FLAG": "N"}}, {"type": "Feature", "geometry": {"type": "Point", "coordinates": [-81.9784399167352, 27.8925477775962]}, "properties": {"CWP_NAME": "MULBERRY CITY OF", "CWP_STREET": "2ND STREET SOUTH OF SR. 60", "CWP_CITY": "MULBERRY", "CWP_STATE": "FL", "CWP_ZIP": "33860", "CWP_COUNTY": "Polk", "NPDES_ID": "FL0020338", "REGISTRY_ID": "110039873009", "CWP_FACILITY_TYPE_INDICATOR": "POTW", "CWP_MAJOR_MINOR_STATUS": "Minor", "CWP_PERMIT_STATUS_DESC": "Effective", "STATE_WATER_BODY_NAME": "N PRONG ALAFIA R CLASS III FRESH WBID 1621E", "CWP_CSO_FLAG": "N"}}, {"type": "Feature", "geometry": {"type": "Point", "coordinates": [-85.8536746652448, 30.2161130938857]}, "properties": {"CWP_NAME": "PANAMA CITY BEACH WWTP #1", "CWP_STREET": "206 N GULF BLVD", "CWP_CITY": "PANAMA CITY", "CWP_STATE": "FL", "CWP_ZIP": "32413-2802", "CWP_COUNTY": "Bay", "NPDES_ID": "FL0021512", "REGISTRY_ID": "110000527715", "CWP_FACILITY_TYPE_INDICATOR": "POTW", "CWP_MAJOR_MINOR_STATUS": "Major", "CWP_PERMIT_STATUS_DESC": "Effective", "STATE_WATER_BODY_NAME": "INTRACOASTAL WTWY ESTUARY WBID 1008, WEST LAIRD DRAIN CLASS III FRESH WBID 1048", "CWP_CSO_FLAG": "N"}}, {"type": "Feature", "geometry": {"type": "Point", "coordinates": [-81.9783617609897, 30.2963498433912]}, "properties": {"CWP_NAME": "BALDWIN WWTF", "CWP_STREET": "800 MAIN ST S", "CWP_CITY": "BALDWIN", "CWP_STATE": "FL", "CWP_ZIP": "32234-2100", "CWP_COUNTY": "Duval", "NPDES_ID": "FL0027812", "REGISTRY_ID": "110027960794", "CWP_FACILITY_TYPE_INDICATOR": "POTW", "CWP_MAJOR_MINOR_STATUS": "Minor", "CWP_PERMIT_STATUS_DESC": "Effective", "STATE_WATER_BODY_NAME": "WBID 2298 TO DEEP CR WBID 2245 CLASS III FRESH", "CWP_CSO_FLAG": "N"}}, {"type": "Feature", "geometry": {"type": "Point", "coordinates": [-80.3155587816837, 27.4575051688757]}, "properties": {"CWP_NAME": "FORT PIERCE UTILITY AUTHORITY--WWTF", "CWP_STREET": "403 SEAWAY DRIVE/ A1A", "CWP_CITY": "FORT PIERCE", "CWP_STATE": "FL", "CWP_ZIP": "34948", "CWP_COUNTY": "St. Lucie", "NPDES_ID": "FL0027278", "REGISTRY_ID": "110000526654", "CWP_FACILITY_TYPE_INDICATOR": "POTW", "CWP_MAJOR_MINOR_STATUS": "Major", "CWP_PERMIT_STATUS_DESC": "Effective", "STATE_WATER_BODY_NAME": "INDIAN R AND ATLANTIC O CLASS III MARINE WBID5003A, ATLANTIC OCEAN", "CWP_CSO_FLAG": "N"}}, {"type": "Feature", "geometry": {"type": "Point", "coordinates": [-81.9042242020116, 26.541007606172]}, "properties": {"CWP_NAME": "LEE COUNTY UTILITIES - FIESTA VILLAGE", "CWP_STREET": "1366 SAN SOUCI DR", "CWP_CITY": "FORT MYERS", "CWP_STATE": "FL", "CWP_ZIP": "33919-6384", "CWP_COUNTY": "Lee", "NPDES_ID": "FL0039829", "REGISTRY_ID": "110000511704", "CWP_FACILITY_TYPE_INDICATOR": "POTW", "CWP_MAJOR_MINOR_STATUS": "Major", "CWP_PERMIT_STATUS_DESC": "Effective", "STATE_WATER_BODY_NAME": "CALOOSAHATCHEE R CLASS III MARINE WBID 3240A", "CWP_CSO_FLAG": "N"}}, {"type": "Feature", "geometry": {"type": "Point", "coordinates": [-80.0888917600088, 26.4827828255173]}, "properties": {"CWP_NAME": "SOUTH CENTRAL REGIONAL WWTP", "CWP_STREET": "1801 N CONGRESS AVE", "CWP_CITY": "DELRAY BEACH", "CWP_STATE": "FL", "CWP_ZIP": "33445-2523", "CWP_COUNTY": "Palm Beach", "NPDES_ID": "FL0035980", "REGISTRY_ID": "110000513141", "CWP_FACILITY_TYPE_INDICATOR": "POTW", "CWP_MAJOR_MINOR_STATUS": "Major", "CWP_PERMIT_STATUS_DESC": "Effective", "STATE_WATER_BODY_NAME": "INTRACOASTAL WATERWAY CLASS III, OCEAN", "CWP_CSO_FLAG": "N"}}, {"type": "Feature", "geometry": {"type": "Point", "coordinates": [-80.9455592183351, 26.7241716954699]}, "properties": {"CWP_NAME": "CITY OF CLEWISTON WWTP", "CWP_STREET": "115 W VENTURA AVE", "CWP_CITY": "CLEWISTON", "CWP_STATE": "FL", "CWP_ZIP": "33440-3709", "CWP_COUNTY": "Hendry", "NPDES_ID": "FL0040665", "REGISTRY_ID": "110006659188", "CWP_FACILITY_TYPE_INDICATOR": "POTW", "CWP_MAJOR_MINOR_STATUS": "Major", "CWP_PERMIT_STATUS_DESC": "Effective", "STATE_WATER_BODY_NAME": "SUGARLAND DRAINAGE DIST CL 3 CLASS III FRESH 3246", "CWP_CSO_FLAG": "N"}}, {"type": "Feature", "geometry": {"type": "Point", "coordinates": [-81.6224774387421, 30.2468475595604]}, "properties": {"CWP_NAME": "JACKSONVILLE, CITY OF - JEA/ SAN JOSE WWTF", "CWP_STREET": "7128 BALBOA ROAD", "CWP_CITY": "JACKSONVILLE", "CWP_STATE": "FL", "CWP_ZIP": "32217", "CWP_COUNTY": "Duval", "NPDES_ID": "FL0023663", "REGISTRY_ID": "110002043066", "CWP_FACILITY_TYPE_INDICATOR": "POTW", "CWP_MAJOR_MINOR_STATUS": "Major", "CWP_PERMIT_STATUS_DESC": "Terminated", "STATE_WATER_BODY_NAME": "SAINT JOHNS RIVER", "CWP_CSO_FLAG": "N"}}, {"type": "Feature", "geometry": {"type": "Point", "coordinates": [-85.5259247781433, 30.9557355063668]}, "properties": {"CWP_NAME": "GRACEVILLE, CITY OF - ADVANCED WASTEWATER TREATMENT FACILITY", "CWP_STREET": "865 6TH ST", "CWP_CITY": "GRACEVILLE", "CWP_STATE": "FL", "CWP_ZIP": "32440-0637", "CWP_COUNTY": "Jackson", "NPDES_ID": "FL0038555", "REGISTRY_ID": "110006645274", "CWP_FACILITY_TYPE_INDICATOR": "POTW", "CWP_MAJOR_MINOR_STATUS": "Major", "CWP_PERMIT_STATUS_DESC": "Effective", "STATE_WATER_BODY_NAME": "HOLMES CR CLASS III FRESH WBID 59C", "CWP_CSO_FLAG": "N"}}, {"type": "Feature", "geometry": {"type": "Point", "coordinates": [-82.2291700785351, 27.9586164813562]}, "properties": {"CWP_NAME": "VALRICO AWWTF", "CWP_STREET": "1167 N DOVER RD", "CWP_CITY": "DOVER", "CWP_STATE": "FL", "CWP_ZIP": "33527-5729", "CWP_COUNTY": "Hillsborough", "NPDES_ID": "FL0040983", "REGISTRY_ID": "110000509566", "CWP_FACILITY_TYPE_INDICATOR": "POTW", "CWP_MAJOR_MINOR_STATUS": "Major", "CWP_PERMIT_STATUS_DESC": "Effective", "STATE_WATER_BODY_NAME": "TURKEY CR TO ALAFIA R TO TAMPA BAY, TURKEY CREEK CLASS III FRESH WBID 1578B", "CWP_CSO_FLAG": "N"}}, {"type": "Feature", "geometry": {"type": "Point", "coordinates": [-81.7090713040377, 27.9523149434478]}, "properties": {"CWP_NAME": "WINTER HAVEN, CITY OF - WWTP#3", "CWP_STREET": "4400 POLLARD RD", "CWP_CITY": "WINTER HAVEN", "CWP_STATE": "FL", "CWP_ZIP": "33884-2870", "CWP_COUNTY": "Polk", "NPDES_ID": "FL0036048", "REGISTRY_ID": "110000514337", "CWP_FACILITY_TYPE_INDICATOR": "POTW", "CWP_MAJOR_MINOR_STATUS": "Major", "CWP_PERMIT_STATUS_DESC": "Effective", "STATE_WATER_BODY_NAME": "CLASS III FRESH WBID 1602 TO WBID 1539, WBID 1602 TO PEACE R", "CWP_CSO_FLAG": "N"}}, {"type": "Feature", "geometry": {"type": "Point", "coordinates": [-81.7190736419043, 30.0920454181067]}, "properties": {"CWP_NAME": "FLEMING ISLAND REGIONAL WWTF", "CWP_STREET": "1770 RADAR RD", "CWP_CITY": "ORANGE PARK", "CWP_STATE": "FL", "CWP_ZIP": "32003", "CWP_COUNTY": "Clay", "NPDES_ID": "FL0043834", "REGISTRY_ID": "110027970159", "CWP_FACILITY_TYPE_INDICATOR": "POTW", "CWP_MAJOR_MINOR_STATUS": "Major", "CWP_PERMIT_STATUS_DESC": "Effective", "STATE_WATER_BODY_NAME": "ST JOHNS R CLASS III MARINE WBID 2213H", "CWP_CSO_FLAG": "N"}}, {"type": "Feature", "geometry": {"type": "Point", "coordinates": [-84.839715770791, 30.7068921629564]}, "properties": {"CWP_NAME": "FLORIDA STATE HOSPITAL WWTP", "CWP_STREET": "PO BOX 1000", "CWP_CITY": "CHATTAHOOCHEE", "CWP_STATE": "FL", "CWP_ZIP": "32324-1000", "CWP_COUNTY": "Gadsden", "NPDES_ID": "FL0031402", "REGISTRY_ID": "110022100028", "CWP_FACILITY_TYPE_INDICATOR": "POTW", "CWP_MAJOR_MINOR_STATUS": "Major", "CWP_PERMIT_STATUS_DESC": "Admin Continued", "STATE_WATER_BODY_NAME": "N MOSQUITO CR CLASS III FRESH WBID 376A", "CWP_CSO_FLAG": "N"}}, {"type": "Feature", "geometry": {"type": "Point", "coordinates": [-80.1640022600845, 26.4874350179455]}, "properties": {"CWP_NAME": "PALM BEACH COUNTY SOUTHERN REGION WATER RECLAMATION FACILITY", "CWP_STREET": "12751 HAGEN RANCH RD", "CWP_CITY": "BOYNTON BEACH", "CWP_STATE": "FL", "CWP_ZIP": "33437-4129", "CWP_COUNTY": "Palm Beach", "NPDES_ID": "FL0041424", "REGISTRY_ID": "110039826221", "CWP_FACILITY_TYPE_INDICATOR": "POTW", "CWP_MAJOR_MINOR_STATUS": "Minor", "CWP_PERMIT_STATUS_DESC": "Effective", "STATE_WATER_BODY_NAME": "STORMWATER STORAGE", "CWP_CSO_FLAG": "N"}}, {"type": "Feature", "geometry": {"type": "Point", "coordinates": [-82.7646985299637, 28.1079021646045]}, "properties": {"CWP_NAME": "WILLIAM E DUNN WRF", "CWP_STREET": "4111 DUNN DRIVE", "CWP_CITY": "PALM HARBOR", "CWP_STATE": "FL", "CWP_ZIP": "34683", "CWP_COUNTY": "Pinellas", "NPDES_ID": "FL0128775", "REGISTRY_ID": "110009074759", "CWP_FACILITY_TYPE_INDICATOR": "POTW", "CWP_MAJOR_MINOR_STATUS": "Minor", "CWP_PERMIT_STATUS_DESC": "Effective", "STATE_WATER_BODY_NAME": "ST JOSEPH SOUND, BROOKER CR, LAKE TARPON CANAL", "CWP_CSO_FLAG": "N"}}, {"type": "Feature", "geometry": {"type": "Point", "coordinates": [-81.6960824638612, 30.0071143241564]}, "properties": {"CWP_NAME": "GREEN COVE AGGREGATE TN TP", "CWP_STREET": "1277 HARBOR RD. 925 SR 16 E", "CWP_CITY": "GREEN COVE SPRINGS", "CWP_STATE": "FL", "CWP_ZIP": "32043", "CWP_COUNTY": "Clay", "NPDES_ID": "FL0635618", "REGISTRY_ID": "110006778905", "CWP_FACILITY_TYPE_INDICATOR": "POTW", "CWP_MAJOR_MINOR_STATUS": "Minor", "CWP_PERMIT_STATUS_DESC": "Effective", "STATE_WATER_BODY_NAME": "BLACK CR CLASS III FRESH WBID 2213I, ST JOHNS R ABOVE BLACK CR WBID 2213I CLASS III", "CWP_CSO_FLAG": "N"}}, {"type": "Feature", "geometry": {"type": "Point", "coordinates": [-82.5962887184609, 27.5259093634161]}, "properties": {"CWP_NAME": "PALMETTO WWTP CITY OF", "CWP_STREET": "1310 28TH AVE W", "CWP_CITY": "PALMETTO", "CWP_STATE": "FL", "CWP_ZIP": "34221-3425", "CWP_COUNTY": "Manatee", "NPDES_ID": "FL0020401", "REGISTRY_ID": "110000915243", "CWP_FACILITY_TYPE_INDICATOR": "POTW", "CWP_MAJOR_MINOR_STATUS": "Major", "CWP_PERMIT_STATUS_DESC": "Effective", "STATE_WATER_BODY_NAME": "TAMPA BAY LOWER CLASS II MARINE WBID 1558A, TERRA CEIA BAY CLASS II WBID 1797A", "CWP_CSO_FLAG": "N"}}, {"type": "Feature", "geometry": {"type": "Point", "coordinates": [-81.2642170794677, 29.4643994337832]}, "properties": {"CWP_NAME": "BUNNELL, CITY OF WWTF", "CWP_STREET": "TOLMAN STREET AT DEEN ROAD", "CWP_CITY": "BUNNELL", "CWP_STATE": "FL", "CWP_ZIP": "32110", "CWP_COUNTY": "Flagler", "NPDES_ID": "FL0020907", "REGISTRY_ID": "110010043871", "CWP_FACILITY_TYPE_INDICATOR": "POTW", "CWP_MAJOR_MINOR_STATUS": "Minor", "CWP_PERMIT_STATUS_DESC": "Effective", "STATE_WATER_BODY_NAME": "BLACK BRANCH WBID 2622 D CLASS III FRESH, HAW CR & BLACK BR CLASS III FRESH WBID 2610", "CWP_CSO_FLAG": "N"}}, {"type": "Feature", "geometry": {"type": "Point", "coordinates": [-80.3775032083129, 27.6313945238164]}, "properties": {"CWP_NAME": "VERO BEACH, CITY OF (DW)", "CWP_STREET": "INDIAN RIVER BLVD & 17 STREET", "CWP_CITY": "VERO BEACH", "CWP_STATE": "FL", "CWP_ZIP": "32961", "CWP_COUNTY": "Indian River", "NPDES_ID": "FL0021661", "REGISTRY_ID": "110014393664", "CWP_FACILITY_TYPE_INDICATOR": "POTW", "CWP_MAJOR_MINOR_STATUS": "Major", "CWP_PERMIT_STATUS_DESC": "Terminated", "STATE_WATER_BODY_NAME": "INDIAN RV", "CWP_CSO_FLAG": "N"}}, {"type": "Feature", "geometry": {"type": "Point", "coordinates": [-85.6375144538616, 30.1526155538426]}, "properties": {"CWP_NAME": "MILLVILLE AWT FACILITY", "CWP_STREET": "1800 E 3RD ST", "CWP_CITY": "PANAMA CITY", "CWP_STATE": "FL", "CWP_ZIP": "32401-4800", "CWP_COUNTY": "Bay", "NPDES_ID": "FL0170909", "REGISTRY_ID": "110014393600", "CWP_FACILITY_TYPE_INDICATOR": "POTW", "CWP_MAJOR_MINOR_STATUS": "Major", "CWP_PERMIT_STATUS_DESC": "Admin Continued", "STATE_WATER_BODY_NAME": "ST ANDREW BAY CLASS III MARINE WBID 1061D, ST. ANDREW BAY CLASS III MARINE WBID 1061D", "CWP_CSO_FLAG": "N"}}, {"type": "Feature", "geometry": {"type": "Point", "coordinates": [-81.7868689286381, 26.2666855382697]}, "properties": {"CWP_NAME": "COLLIER COUNTY NORTH COUNTY WRF", "CWP_STREET": "10500 GOODLETTE-FRANK ROAD", "CWP_CITY": "NAPLES", "CWP_STATE": "FL", "CWP_ZIP": "34109", "CWP_COUNTY": "Collier", "NPDES_ID": "FL0141399", "REGISTRY_ID": "110010042729", "CWP_FACILITY_TYPE_INDICATOR": "POTW", "CWP_MAJOR_MINOR_STATUS": "Minor", "CWP_PERMIT_STATUS_DESC": "Effective", "STATE_WATER_BODY_NAME": null, "CWP_CSO_FLAG": "N"}}, {"type": "Feature", "geometry": {"type": "Point", "coordinates": [-81.9360934884364, 26.6065250313786]}, "properties": {"CWP_NAME": "EVEREST PARKWAY WRF", "CWP_STREET": "1740 EVEREST PARKWAY", "CWP_CITY": "CAPE CORAL", "CWP_STATE": "FL", "CWP_ZIP": "33904-3285", "CWP_COUNTY": "Lee", "NPDES_ID": "FL0030007", "REGISTRY_ID": "110000916064", "CWP_FACILITY_TYPE_INDICATOR": "POTW", "CWP_MAJOR_MINOR_STATUS": "Major", "CWP_PERMIT_STATUS_DESC": "Effective", "STATE_WATER_BODY_NAME": "TIDAL CALOOSAHATCHEE CLASS III MARINE WBID 3240A", "CWP_CSO_FLAG": "N"}}, {"type": "Feature", "geometry": {"type": "Point", "coordinates": [-85.6305375099408, 30.1156057455042]}, "properties": {"CWP_NAME": "MILITARY POINT INDUSTRIAL LAGOON", "CWP_STREET": "106 LAGOON RD", "CWP_CITY": "PANAMA CITY", "CWP_STATE": "FL", "CWP_ZIP": "32403", "CWP_COUNTY": "Bay", "NPDES_ID": "FL0002631", "REGISTRY_ID": "110064626748", "CWP_FACILITY_TYPE_INDICATOR": "POTW", "CWP_MAJOR_MINOR_STATUS": "Major", "CWP_PERMIT_STATUS_DESC": "Admin Continued", "STATE_WATER_BODY_NAME": "ST ANDREWS BAY CLASS III MARINE WBID 1061", "CWP_CSO_FLAG": "N"}}, {"type": "Feature", "geometry": {"type": "Point", "coordinates": [-82.7010462931941, 28.0270953630034]}, "properties": {"CWP_NAME": "CLEARWATER CITY OF NORTHEAST WRF", "CWP_STREET": "3290 SR 580", "CWP_CITY": "SAFETY HARBOR", "CWP_STATE": "FL", "CWP_ZIP": "34695", "CWP_COUNTY": "Pinellas", "NPDES_ID": "FL0128937", "REGISTRY_ID": "110010043032", "CWP_FACILITY_TYPE_INDICATOR": "POTW", "CWP_MAJOR_MINOR_STATUS": "Major", "CWP_PERMIT_STATUS_DESC": "Admin Continued", "STATE_WATER_BODY_NAME": "OLD TAMPA BAY CLASS II MARINE WBID 1558H", "CWP_CSO_FLAG": "N"}}, {"type": "Feature", "geometry": {"type": "Point", "coordinates": [-82.1667032151507, 29.7911051983989]}, "properties": {"CWP_NAME": "WALDO, CITY OF - WALDO WWTF", "CWP_STREET": "EAST NORTH STREET", "CWP_CITY": "ALACHUA COUNTY", "CWP_STATE": "FL", "CWP_ZIP": "32694", "CWP_COUNTY": "Alachua", "NPDES_ID": "FL0042242", "REGISTRY_ID": "110010043256", "CWP_FACILITY_TYPE_INDICATOR": "POTW", "CWP_MAJOR_MINOR_STATUS": "Minor", "CWP_PERMIT_STATUS_DESC": "Terminated", "STATE_WATER_BODY_NAME": "CONSTRUCTED WETLANDS", "CWP_CSO_FLAG": "N"}}, {"type": "Feature", "geometry": {"type": "Point", "coordinates": [-81.3986630377825, 28.6418397200065]}, "properties": {"CWP_NAME": "ALTAMONTE SPRINGS REGIONAL WRF", "CWP_STREET": "950 KELLER RD", "CWP_CITY": "ALTAMONTE SPRINGS", "CWP_STATE": "FL", "CWP_ZIP": "32714-1617", "CWP_COUNTY": "Seminole", "NPDES_ID": "FL0033251", "REGISTRY_ID": "110039823572", "CWP_FACILITY_TYPE_INDICATOR": "POTW", "CWP_MAJOR_MINOR_STATUS": "Major", "CWP_PERMIT_STATUS_DESC": "Effective", "STATE_WATER_BODY_NAME": "CRANE'S ROOST STORMWATER POND TO LITTLE WEKIVA R, LITTLE WEKIVA R CLASS III FRESH WBID 2987", "CWP_CSO_FLAG": "N"}}, {"type": "Feature", "geometry": {"type": "Point", "coordinates": [-81.3547248157941, 27.6565188660373]}, "properties": {"CWP_NAME": "AVON PARK CORRECTIONAL INSTITUTE", "CWP_STREET": "STATE ROAD 64", "CWP_CITY": "AVON PARK", "CWP_STATE": "FL", "CWP_ZIP": "00000", "CWP_COUNTY": "Polk", "NPDES_ID": "FL0040029", "REGISTRY_ID": "110009138156", "CWP_FACILITY_TYPE_INDICATOR": "POTW", "CWP_MAJOR_MINOR_STATUS": "Minor", "CWP_PERMIT_STATUS_DESC": "Effective", "STATE_WATER_BODY_NAME": "ARBUCKLE CR CLASS III FRESH WBID 1761B, ARBUCKLE CREEK CLASS III FRESH WBID 1761B", "CWP_CSO_FLAG": "N"}}, {"type": "Feature", "geometry": {"type": "Point", "coordinates": [-83.1330034432587, 29.6300617355077]}, "properties": {"CWP_NAME": "CITY OF CROSS CITY #1", "CWP_STREET": "HILL STREET", "CWP_CITY": "CROSS CITY", "CWP_STATE": "FL", "CWP_ZIP": "32628", "CWP_COUNTY": "Dixie", "NPDES_ID": "FL0027791", "REGISTRY_ID": "110010043791", "CWP_FACILITY_TYPE_INDICATOR": "POTW", "CWP_MAJOR_MINOR_STATUS": "Minor", "CWP_PERMIT_STATUS_DESC": "Terminated", "STATE_WATER_BODY_NAME": "UNNAMED CR NEAR HILL ST", "CWP_CSO_FLAG": "N"}}, {"type": "Feature", "geometry": {"type": "Point", "coordinates": [-87.2572182309359, 30.9649975691159]}, "properties": {"CWP_NAME": "CENTURY, TOWN OF - WWTF", "CWP_STREET": "7360 JEFFERSON AVE", "CWP_CITY": "CENTURY", "CWP_STATE": "FL", "CWP_ZIP": "32535-3022", "CWP_COUNTY": "Escambia", "NPDES_ID": "FL0032468", "REGISTRY_ID": "110009131652", "CWP_FACILITY_TYPE_INDICATOR": "POTW", "CWP_MAJOR_MINOR_STATUS": "Minor", "CWP_PERMIT_STATUS_DESC": "Effective", "STATE_WATER_BODY_NAME": "ESCAMBIA R, CLASS III FRESH, WBID 10C, ESCAMBIA RIVER CLASS III FRESH WBID 10C", "CWP_CSO_FLAG": "N"}}, {"type": "Feature", "geometry": {"type": "Point", "coordinates": [-80.3080826941828, 26.7355049693405]}, "properties": {"CWP_NAME": "SEMINOLE IMPROVEMENT DISTRICT", "CWP_STREET": "4001 SEMINOLE PRATT WHITNEY RD", "CWP_CITY": "LOXAHATCHEE", "CWP_STATE": "FL", "CWP_ZIP": "33470", "CWP_COUNTY": "Palm Beach", "NPDES_ID": "FL0170224", "REGISTRY_ID": "110025310483", "CWP_FACILITY_TYPE_INDICATOR": "POTW", "CWP_MAJOR_MINOR_STATUS": "Minor", "CWP_PERMIT_STATUS_DESC": "Terminated", "STATE_WATER_BODY_NAME": "C-51 CANAL", "CWP_CSO_FLAG": "N"}}, {"type": "Feature", "geometry": {"type": "Point", "coordinates": [-82.4363037895156, 27.9227047394566]}, "properties": {"CWP_NAME": "H. CURREN AWWTP", "CWP_STREET": "2700 MARITIME BLVD.", "CWP_CITY": "TAMPA", "CWP_STATE": "FL", "CWP_ZIP": "33605-6744", "CWP_COUNTY": "Hillsborough", "NPDES_ID": "FL0020940", "REGISTRY_ID": "110000516727", "CWP_FACILITY_TYPE_INDICATOR": "POTW", "CWP_MAJOR_MINOR_STATUS": "Major", "CWP_PERMIT_STATUS_DESC": "Effective", "STATE_WATER_BODY_NAME": "HILLSBOROUGH BAY CLASS III MARINE WBID 1558E, HILLSBOROUGH BAY UPPER WBID 1558E CLASS III MARINE", "CWP_CSO_FLAG": "N"}}, {"type": "Feature", "geometry": {"type": "Point", "coordinates": [-80.8593628286556, 28.5455654872186]}, "properties": {"CWP_NAME": "TITUSVILLE BLUE HERON WRF", "CWP_STREET": "4800 DEEP MARSH RD", "CWP_CITY": "TITUSVILLE", "CWP_STATE": "FL", "CWP_ZIP": "32780-2583", "CWP_COUNTY": "Brevard", "NPDES_ID": "FL0103349", "REGISTRY_ID": "110000519467", "CWP_FACILITY_TYPE_INDICATOR": "POTW", "CWP_MAJOR_MINOR_STATUS": "Major", "CWP_PERMIT_STATUS_DESC": "Effective", "STATE_WATER_BODY_NAME": "ADDISON CANAL AND BIRD LAKE DITCHES, TRIB OF ST JOHNS R CLASS III FRESH WBID 3029", "CWP_CSO_FLAG": "N"}}, {"type": "Feature", "geometry": {"type": "Point", "coordinates": [-82.65411425944, 28.0292555362855]}, "properties": {"CWP_NAME": "OLDSMAR CITY OF", "CWP_STREET": "351 LAFAYETTE BLVD", "CWP_CITY": "OLDSMAR", "CWP_STATE": "FL", "CWP_ZIP": "34677-3756", "CWP_COUNTY": "Pinellas", "NPDES_ID": "FL0027651", "REGISTRY_ID": "110000520286", "CWP_FACILITY_TYPE_INDICATOR": "POTW", "CWP_MAJOR_MINOR_STATUS": "Major", "CWP_PERMIT_STATUS_DESC": "Effective", "STATE_WATER_BODY_NAME": "MOBBLY BAYOU CLASS III MARINE WBID 1546", "CWP_CSO_FLAG": "N"}}, {"type": "Feature", "geometry": {"type": "Point", "coordinates": [-85.1860258785706, 30.1057662744304]}, "properties": {"CWP_NAME": "CITY OF WEWAHITCHKA \"RICKY MCMILLION\" WWTP", "CWP_STREET": "804 EAST SYCAMORE ST", "CWP_CITY": "WEWAHITCHKA", "CWP_STATE": "FL", "CWP_ZIP": "32465-9432", "CWP_COUNTY": "Gulf", "NPDES_ID": "FL0020125", "REGISTRY_ID": "110006659044", "CWP_FACILITY_TYPE_INDICATOR": "POTW", "CWP_MAJOR_MINOR_STATUS": "Minor", "CWP_PERMIT_STATUS_DESC": "Effective", "STATE_WATER_BODY_NAME": "CHIPOLA R CLASS III FRESH WBID 51", "CWP_CSO_FLAG": "N"}}, {"type": "Feature", "geometry": {"type": "Point", "coordinates": [-80.136082786482, 26.0263650798424]}, "properties": {"CWP_NAME": "HOLLYWOOD SOUTHERN REGIONAL WWTF", "CWP_STREET": "1621 N 14TH AVE", "CWP_CITY": "HOLLYWOOD", "CWP_STATE": "FL", "CWP_ZIP": "33020-3211", "CWP_COUNTY": "Broward", "NPDES_ID": "FL0026255", "REGISTRY_ID": "110039829004", "CWP_FACILITY_TYPE_INDICATOR": "POTW", "CWP_MAJOR_MINOR_STATUS": "Major", "CWP_PERMIT_STATUS_DESC": "Admin Continued", "STATE_WATER_BODY_NAME": "ATLANTIC OCEAN CLASS III MARINE WBID 8093", "CWP_CSO_FLAG": "N"}}, {"type": "Feature", "geometry": {"type": "Point", "coordinates": [-80.9119309305074, 28.985498648301]}, "properties": {"CWP_NAME": "EDGEWATER, CITY OF", "CWP_STREET": "500 W OCEAN AVE", "CWP_CITY": "EDGEWATER", "CWP_STATE": "FL", "CWP_ZIP": "32132-2164", "CWP_COUNTY": "Volusia", "NPDES_ID": "FL0021431", "REGISTRY_ID": "110027971595", "CWP_FACILITY_TYPE_INDICATOR": "POTW", "CWP_MAJOR_MINOR_STATUS": "Minor", "CWP_PERMIT_STATUS_DESC": "Effective", "STATE_WATER_BODY_NAME": "INDIAN R NORTH (MOSQUITO LAGOON), INDIAN R NORTH CLASS III MARINE WBID 2924B2", "CWP_CSO_FLAG": "N"}}, {"type": "Feature", "geometry": {"type": "Point", "coordinates": [-81.6259748977946, 30.1063419467149]}, "properties": {"CWP_NAME": "JULINGTON CREEK WRF", "CWP_STREET": "1638 DAVIS POND BOULEVARD", "CWP_CITY": "FRUIT COVE", "CWP_STATE": "FL", "CWP_ZIP": "32259", "CWP_COUNTY": "St. Johns", "NPDES_ID": "FL0043591", "REGISTRY_ID": "110009077523", "CWP_FACILITY_TYPE_INDICATOR": "POTW", "CWP_MAJOR_MINOR_STATUS": "Minor", "CWP_PERMIT_STATUS_DESC": "Effective", "STATE_WATER_BODY_NAME": "ST JOHNS R CLASS III MARINE WBID 2213H", "CWP_CSO_FLAG": "N"}}, {"type": "Feature", "geometry": {"type": "Point", "coordinates": [-81.2173227874648, 28.6177549752599]}, "properties": {"CWP_NAME": "ORLANDO/IRON BRIDGE REGIONAL WRF", "CWP_STREET": "601 IRON BRIDGE CIR", "CWP_CITY": "OVIEDO", "CWP_STATE": "FL", "CWP_ZIP": "32765-8283", "CWP_COUNTY": "Seminole", "NPDES_ID": "FL0037966", "REGISTRY_ID": "110000508914", "CWP_FACILITY_TYPE_INDICATOR": "POTW", "CWP_MAJOR_MINOR_STATUS": "Major", "CWP_PERMIT_STATUS_DESC": "Effective", "STATE_WATER_BODY_NAME": "LITTLE ECONLOCKHATCHEE R AND ST JOHNS R, LITTLE ECONLOCKHATCHEE R CLASS III FRESH WBID 3001, ST JOHNS R CLASS III FRESH WBID 28931", "CWP_CSO_FLAG": "N"}}, {"type": "Feature", "geometry": {"type": "Point", "coordinates": [-81.0068634007918, 29.1966154459492]}, "properties": {"CWP_NAME": "DAYTONA BEACH/BETHUNE POINT WRF", "CWP_STREET": "1 SHADY PL", "CWP_CITY": "DAYTONA BEACH", "CWP_STATE": "FL", "CWP_ZIP": "32114", "CWP_COUNTY": "Volusia", "NPDES_ID": "FL0025984", "REGISTRY_ID": "110000517334", "CWP_FACILITY_TYPE_INDICATOR": "POTW", "CWP_MAJOR_MINOR_STATUS": "Major", "CWP_PERMIT_STATUS_DESC": "Effective", "STATE_WATER_BODY_NAME": "HALIFAX R CLASS III MARINE WBID 2363A", "CWP_CSO_FLAG": "N"}}, {"type": "Feature", "geometry": {"type": "Point", "coordinates": [-80.1401639359694, 26.9240739675876]}, "properties": {"CWP_NAME": "LOXAHATCHEE ENV CONTROL DIST WWTP", "CWP_STREET": "2500 JUPITER PARK DR", "CWP_CITY": "JUPITER", "CWP_STATE": "FL", "CWP_ZIP": "33458-8962", "CWP_COUNTY": "Palm Beach", "NPDES_ID": "FL0034649", "REGISTRY_ID": "110000915305", "CWP_FACILITY_TYPE_INDICATOR": "POTW", "CWP_MAJOR_MINOR_STATUS": "Major", "CWP_PERMIT_STATUS_DESC": "Effective", "STATE_WATER_BODY_NAME": null, "CWP_CSO_FLAG": "N"}}, {"type": "Feature", "geometry": {"type": "Point", "coordinates": [-81.6289813417719, 30.3523245701698]}, "properties": {"CWP_NAME": "BUCKMAN WWTF", "CWP_STREET": "2221 BUCKMAN ST", "CWP_CITY": "JACKSONVILLE", "CWP_STATE": "FL", "CWP_ZIP": "32206-3357", "CWP_COUNTY": "Duval", "NPDES_ID": "FL0026000", "REGISTRY_ID": "110022318446", "CWP_FACILITY_TYPE_INDICATOR": "POTW", "CWP_MAJOR_MINOR_STATUS": "Major", "CWP_PERMIT_STATUS_DESC": "Effective", "STATE_WATER_BODY_NAME": "ST JOHNS R CLASS III MARINE WBID 2213D", "CWP_CSO_FLAG": "N"}}, {"type": "Feature", "geometry": {"type": "Point", "coordinates": [-82.5258367258461, 28.0725048465224]}, "properties": {"CWP_NAME": "HILLSBOROUGH COUNTY DALE MABRY AWWTF", "CWP_STREET": "13055 DELWOOD RD", "CWP_CITY": "TAMPA", "CWP_STATE": "FL", "CWP_ZIP": "33624-4345", "CWP_COUNTY": "Hillsborough", "NPDES_ID": "FL0036820", "REGISTRY_ID": "110035577275", "CWP_FACILITY_TYPE_INDICATOR": "POTW", "CWP_MAJOR_MINOR_STATUS": "Major", "CWP_PERMIT_STATUS_DESC": "Terminated", "STATE_WATER_BODY_NAME": "BRUSHY CR, BRUSHY CR CLASS III FRESH WBID 1498", "CWP_CSO_FLAG": "N"}}, {"type": "Feature", "geometry": {"type": "Point", "coordinates": [-81.6220034932689, 30.1790053865206]}, "properties": {"CWP_NAME": "MANDARIN WRF", "CWP_STREET": "10828 HAMPTON RD", "CWP_CITY": "JACKSONVILLE", "CWP_STATE": "FL", "CWP_ZIP": "32257-6908", "CWP_COUNTY": "Duval", "NPDES_ID": "FL0023493", "REGISTRY_ID": "110009073448", "CWP_FACILITY_TYPE_INDICATOR": "POTW", "CWP_MAJOR_MINOR_STATUS": "Major", "CWP_PERMIT_STATUS_DESC": "Effective", "STATE_WATER_BODY_NAME": "ST JOHNS R CLASS III MARINE WBID 2213G", "CWP_CSO_FLAG": "N"}}, {"type": "Feature", "geometry": {"type": "Point", "coordinates": [-80.124164986137, 26.7155616028585]}, "properties": {"CWP_NAME": "CENTRAL REGION RECLAIMED WATER FACILITY", "CWP_STREET": "2969 NORTHAMPTON STREET", "CWP_CITY": "WEST PALM BEACH", "CWP_STATE": "FL", "CWP_ZIP": "33417", "CWP_COUNTY": "Palm Beach", "NPDES_ID": "FL0471275", "REGISTRY_ID": "110025201430", "CWP_FACILITY_TYPE_INDICATOR": "POTW", "CWP_MAJOR_MINOR_STATUS": "Minor", "CWP_PERMIT_STATUS_DESC": "Admin Continued", "STATE_WATER_BODY_NAME": null, "CWP_CSO_FLAG": "N"}}, {"type": "Feature", "geometry": {"type": "Point", "coordinates": [-83.5977822222797, 30.1127558550491]}, "properties": {"CWP_NAME": "PERRY WWTF", "CWP_STREET": "507 GOFF ST", "CWP_CITY": "PERRY", "CWP_STATE": "FL", "CWP_ZIP": "32347-3900", "CWP_COUNTY": "Taylor", "NPDES_ID": "FL0026387", "REGISTRY_ID": "110000508503", "CWP_FACILITY_TYPE_INDICATOR": "POTW", "CWP_MAJOR_MINOR_STATUS": "Major", "CWP_PERMIT_STATUS_DESC": "Admin Continued", "STATE_WATER_BODY_NAME": "FENHOLLOWAY R CLASS III FRESH WBID 3473A, 3473B, SPRING CR CLASS III FRESH WBID 3518", "CWP_CSO_FLAG": "N"}}, {"type": "Feature", "geometry": {"type": "Point", "coordinates": [-82.3413920123089, 27.953061364876]}, "properties": {"CWP_NAME": "FALKENBURG ROAD AWTP", "CWP_STREET": "102 N FALKENBURG RD", "CWP_CITY": "TAMPA", "CWP_STATE": "FL", "CWP_ZIP": "33619-0908", "CWP_COUNTY": "Hillsborough", "NPDES_ID": "FL0040614", "REGISTRY_ID": "110000509307", "CWP_FACILITY_TYPE_INDICATOR": "POTW", "CWP_MAJOR_MINOR_STATUS": "Major", "CWP_PERMIT_STATUS_DESC": "Effective", "STATE_WATER_BODY_NAME": "PALM R/HILLSBOROUGH R BYPASS CANAL, TAMPA BAY CLASS III MARINE WBID 1536E", "CWP_CSO_FLAG": "N"}}, {"type": "Feature", "geometry": {"type": "Point", "coordinates": [-81.6171831351718, 30.4229960113375]}, "properties": {"CWP_NAME": "DISTRICT II WWTF", "CWP_STREET": "1840 CEDAR BAY RD", "CWP_CITY": "JACKSONVILLE", "CWP_STATE": "FL", "CWP_ZIP": "32218-4975", "CWP_COUNTY": "Duval", "NPDES_ID": "FL0026450", "REGISTRY_ID": "110000525780", "CWP_FACILITY_TYPE_INDICATOR": "POTW", "CWP_MAJOR_MINOR_STATUS": "Major", "CWP_PERMIT_STATUS_DESC": "Effective", "STATE_WATER_BODY_NAME": "ST JOHNS R CLASS III MARINE WBID 2213C, ST JOHNS R CLASS III MARINE WID 2213C", "CWP_CSO_FLAG": "N"}}, {"type": "Feature", "geometry": {"type": "Point", "coordinates": [-85.6603995124409, 30.2498044093377]}, "properties": {"CWP_NAME": "LYNN HAVEN AWTF", "CWP_STREET": "5TH STREET AND MONTANA AVENUE", "CWP_CITY": "LYNN HAVEN", "CWP_STATE": "FL", "CWP_ZIP": "32444-2351", "CWP_COUNTY": "Bay", "NPDES_ID": "FL0169978", "REGISTRY_ID": "110000914887", "CWP_FACILITY_TYPE_INDICATOR": "POTW", "CWP_MAJOR_MINOR_STATUS": "Major", "CWP_PERMIT_STATUS_DESC": "Effective", "STATE_WATER_BODY_NAME": "ST ANDREWS BAY EAST BAY WBID1061D CLASS III MARINE", "CWP_CSO_FLAG": "N"}}, {"type": "Feature", "geometry": {"type": "Point", "coordinates": [-85.6722481066107, 30.7903915091652]}, "properties": {"CWP_NAME": "BONIFAY, CITY OF - WWTF", "CWP_STREET": "611 MARTIN LUTHER KING JR AVE", "CWP_CITY": "BONIFAY", "CWP_STATE": "FL", "CWP_ZIP": "32425", "CWP_COUNTY": "Holmes", "NPDES_ID": "FL0027731", "REGISTRY_ID": "110006645194", "CWP_FACILITY_TYPE_INDICATOR": "POTW", "CWP_MAJOR_MINOR_STATUS": "Major", "CWP_PERMIT_STATUS_DESC": "Effective", "STATE_WATER_BODY_NAME": "CAMP BR CLASS III FRESH WBID 251, CAMP BRANCH CLASS III FRESH WBID 251", "CWP_CSO_FLAG": "N"}}, {"type": "Feature", "geometry": {"type": "Point", "coordinates": [-81.3837064535412, 29.9054243681599]}, "properties": {"CWP_NAME": "STATE ROAD 16 WWTF", "CWP_STREET": "3000 INDUSTRY CENTER RD", "CWP_CITY": "SAINT AUGUSTINE", "CWP_STATE": "FL", "CWP_ZIP": "32084-0533", "CWP_COUNTY": "St. Johns", "NPDES_ID": "FL0043109", "REGISTRY_ID": "110012677781", "CWP_FACILITY_TYPE_INDICATOR": "POTW", "CWP_MAJOR_MINOR_STATUS": "Minor", "CWP_PERMIT_STATUS_DESC": "Effective", "STATE_WATER_BODY_NAME": "COWAN SWAMP CLASS III FRESH WBID 2493, MOULTRIE CR", "CWP_CSO_FLAG": "N"}}, {"type": "Feature", "geometry": {"type": "Point", "coordinates": [-82.4493430451675, 27.3355552191332]}, "properties": {"CWP_NAME": "SARASOTA COUNTY NORTH MASTER REUSE SYSTEM", "CWP_STREET": "100 CATTLEMEN RD", "CWP_CITY": "SARASOTA", "CWP_STATE": "FL", "CWP_ZIP": "342326307", "CWP_COUNTY": "Sarasota", "NPDES_ID": "FL0177008", "REGISTRY_ID": "110035550061", "CWP_FACILITY_TYPE_INDICATOR": "POTW", "CWP_MAJOR_MINOR_STATUS": "Minor", "CWP_PERMIT_STATUS_DESC": "Terminated", "STATE_WATER_BODY_NAME": "LK SARASOTA, LITTLE SARASOTA BAY,", "CWP_CSO_FLAG": "N"}}, {"type": "Feature", "geometry": {"type": "Point", "coordinates": [-87.2224450105109, 30.4079258954274]}, "properties": {"CWP_NAME": "MAIN STREET A.W.W.T. STP", "CWP_STREET": "401 W. GOVERNMENT ST.", "CWP_CITY": "PENSACOLA", "CWP_STATE": "FL", "CWP_ZIP": "32501", "CWP_COUNTY": "Escambia", "NPDES_ID": "FL0021440", "REGISTRY_ID": "110002395042", "CWP_FACILITY_TYPE_INDICATOR": "POTW", "CWP_MAJOR_MINOR_STATUS": "Major", "CWP_PERMIT_STATUS_DESC": "Terminated", "STATE_WATER_BODY_NAME": "PENSACOLA BAY", "CWP_CSO_FLAG": "N"}}, {"type": "Feature", "geometry": {"type": "Point", "coordinates": [-84.5539318222357, 30.5839728068434]}, "properties": {"CWP_NAME": "QUINCY WWTP", "CWP_STREET": "300 N G.F.& A DRIVE", "CWP_CITY": "QUINCY", "CWP_STATE": "FL", "CWP_ZIP": "32351", "CWP_COUNTY": "Gadsden", "NPDES_ID": "FL0029033", "REGISTRY_ID": "110002040327", "CWP_FACILITY_TYPE_INDICATOR": "POTW", "CWP_MAJOR_MINOR_STATUS": "Major", "CWP_PERMIT_STATUS_DESC": "Admin Continued", "STATE_WATER_BODY_NAME": "QUINCY CR", "CWP_CSO_FLAG": "N"}}, {"type": "Feature", "geometry": {"type": "Point", "coordinates": [-81.8504834020689, 26.6506952465819]}, "properties": {"CWP_NAME": "FORT MYERS CENTRAL AWWTF", "CWP_STREET": "1501 RALEIGH ST", "CWP_CITY": "FORT MYERS", "CWP_STATE": "FL", "CWP_ZIP": "33916-1952", "CWP_COUNTY": "Lee", "NPDES_ID": "FL0021261", "REGISTRY_ID": "110020172908", "CWP_FACILITY_TYPE_INDICATOR": "POTW", "CWP_MAJOR_MINOR_STATUS": "Major", "CWP_PERMIT_STATUS_DESC": "Effective", "STATE_WATER_BODY_NAME": "CALOOSAHATCHEE R ESTUARY CLASS III MARINE 3240B", "CWP_CSO_FLAG": "N"}}, {"type": "Feature", "geometry": {"type": "Point", "coordinates": [-81.8708854449814, 27.2324119624593]}, "properties": {"CWP_NAME": "WILLIAM TYSON WWTP", "CWP_STREET": "223 S PARKER AVE", "CWP_CITY": "ARCADIA", "CWP_STATE": "FL", "CWP_ZIP": "34266-3354", "CWP_COUNTY": "DeSoto", "NPDES_ID": "FL0027511", "REGISTRY_ID": "110018936552", "CWP_FACILITY_TYPE_INDICATOR": "POTW", "CWP_MAJOR_MINOR_STATUS": "Major", "CWP_PERMIT_STATUS_DESC": "Admin Continued", "STATE_WATER_BODY_NAME": "PEACE R CLASS III FRESH WBID 1623C", "CWP_CSO_FLAG": "N"}}, {"type": "Feature", "geometry": {"type": "Point", "coordinates": [-80.7238223590364, 28.3282244805054]}, "properties": {"CWP_NAME": "ROCKLEDGE, CITY OF", "CWP_STREET": "1700 JACK OATES BLVD", "CWP_CITY": "ROCKLEDGE", "CWP_STATE": "FL", "CWP_ZIP": "32955-3237", "CWP_COUNTY": "Brevard", "NPDES_ID": "FL0021571", "REGISTRY_ID": "110027969786", "CWP_FACILITY_TYPE_INDICATOR": "POTW", "CWP_MAJOR_MINOR_STATUS": "Minor", "CWP_PERMIT_STATUS_DESC": "Effective", "STATE_WATER_BODY_NAME": "INDIAN R CLASS III MARINE WBID 2963C1", "CWP_CSO_FLAG": "N"}}, {"type": "Feature", "geometry": {"type": "Point", "coordinates": [-81.5633532714128, 29.6963858973949]}, "properties": {"CWP_NAME": "PORT BUENA VISTA WWTF", "CWP_STREET": "121 MARGARITA RD", "CWP_CITY": "EAST PALATKA", "CWP_STATE": "FL", "CWP_ZIP": "32131-4347", "CWP_COUNTY": "Putnam", "NPDES_ID": "FL0042617", "REGISTRY_ID": "110010043283", "CWP_FACILITY_TYPE_INDICATOR": "POTW", "CWP_MAJOR_MINOR_STATUS": "Minor", "CWP_PERMIT_STATUS_DESC": "Effective", "STATE_WATER_BODY_NAME": "ST JOHNS R CLASS III FRESH WBID 2213L", "CWP_CSO_FLAG": "N"}}, {"type": "Feature", "geometry": {"type": "Point", "coordinates": [-81.2882128020023, 29.5937660408099]}, "properties": {"CWP_NAME": "PALM COAST WWTF #2", "CWP_STREET": "PEAVY GRADE, WEST OF US HIGHWAY 1", "CWP_CITY": "PALM COAST", "CWP_STATE": "FL", "CWP_ZIP": "32137", "CWP_COUNTY": "Flagler", "NPDES_ID": "FL0710008", "REGISTRY_ID": "110070381390", "CWP_FACILITY_TYPE_INDICATOR": "POTW", "CWP_MAJOR_MINOR_STATUS": "Minor", "CWP_PERMIT_STATUS_DESC": "Effective", "STATE_WATER_BODY_NAME": "HULETT SWAMP CLASS III FRESH WBID 2597", "CWP_CSO_FLAG": "N"}}, {"type": "Feature", "geometry": {"type": "Point", "coordinates": [-81.8150798964545, 30.1152335403871]}, "properties": {"CWP_NAME": "CCUA - TMDL AGGREGATE TN", "CWP_STREET": "3176 OLD JENNINGS RD", "CWP_CITY": "MIDDLEBURG", "CWP_STATE": "FL", "CWP_ZIP": "32068-3907", "CWP_COUNTY": "Clay", "NPDES_ID": "FL0629006", "REGISTRY_ID": "110037313010", "CWP_FACILITY_TYPE_INDICATOR": "POTW", "CWP_MAJOR_MINOR_STATUS": "Minor", "CWP_PERMIT_STATUS_DESC": "Effective", "STATE_WATER_BODY_NAME": "ST JOHNS R CLASS III MARINE WBID 2213, ST JOHNS R CLASS III MARINE WBID 2213G, ST JOHNS R CLASS III MARINE WBID 2213H", "CWP_CSO_FLAG": "N"}}, {"type": "Feature", "geometry": {"type": "Point", "coordinates": [-81.1410135207544, 29.4719159726369]}, "properties": {"CWP_NAME": "FLAGLER BEACH WWTF", "CWP_STREET": "2000 AVENUE A", "CWP_CITY": "FLAGLER BEACH", "CWP_STATE": "FL", "CWP_ZIP": "32136", "CWP_COUNTY": "Flagler", "NPDES_ID": "FL0026611", "REGISTRY_ID": "110000511919", "CWP_FACILITY_TYPE_INDICATOR": "POTW", "CWP_MAJOR_MINOR_STATUS": "Major", "CWP_PERMIT_STATUS_DESC": "Effective", "STATE_WATER_BODY_NAME": "INTRACOASTAL WATERWAY CLASS III MARINE WBID 2363J, INTRACOASTAL WTWY CLASS III MARINE WBID 2363J", "CWP_CSO_FLAG": "N"}}, {"type": "Feature", "geometry": {"type": "Point", "coordinates": [-81.5856241034143, 30.0787138688281]}, "properties": {"CWP_NAME": "BLACKS FORD WRF", "CWP_STREET": "1310 - 100 ROBERTS ROAD", "CWP_CITY": "JACKSONVILLE", "CWP_STATE": "FL", "CWP_ZIP": "32259", "CWP_COUNTY": "St. Johns", "NPDES_ID": "FL0174441", "REGISTRY_ID": "110010042569", "CWP_FACILITY_TYPE_INDICATOR": "POTW", "CWP_MAJOR_MINOR_STATUS": "Minor", "CWP_PERMIT_STATUS_DESC": "Effective", "STATE_WATER_BODY_NAME": "BLACKS FORD SWAMP CLASS III FRESH WBID 2411, BLACKS FORD WETLANDS CLASS III FRESH WBID 2411", "CWP_CSO_FLAG": "N"}}, {"type": "Feature", "geometry": {"type": "Point", "coordinates": [-82.6093450971793, 28.0727899295277]}, "properties": {"CWP_NAME": "NORTHWEST REGIONAL WRF", "CWP_STREET": "10890 S MOBLEY RD", "CWP_CITY": "TAMPA", "CWP_STATE": "FL", "CWP_ZIP": "33626-1500", "CWP_COUNTY": "Hillsborough", "NPDES_ID": "FL0041670", "REGISTRY_ID": "110000509487", "CWP_FACILITY_TYPE_INDICATOR": "POTW", "CWP_MAJOR_MINOR_STATUS": "Major", "CWP_PERMIT_STATUS_DESC": "Effective", "STATE_WATER_BODY_NAME": "BRUSHY CREEK, DOUBLE BRANCH, OLD TAMPA BAY WBID 1558I CLASS II MARINE, ROCKY CR WBID 1507 CLASS III FRESH", "CWP_CSO_FLAG": "N"}}, {"type": "Feature", "geometry": {"type": "Point", "coordinates": [-82.5814562117163, 28.0285019060971]}, "properties": {"CWP_NAME": "RIVER OAKS WASTEWATER TREATMENT PLANT", "CWP_STREET": "8425 SHELDON RD", "CWP_CITY": "TAMPA", "CWP_STATE": "FL", "CWP_ZIP": "33615-1605", "CWP_COUNTY": "Hillsborough", "NPDES_ID": "FL0027821", "REGISTRY_ID": "110039849876", "CWP_FACILITY_TYPE_INDICATOR": "POTW", "CWP_MAJOR_MINOR_STATUS": "Major", "CWP_PERMIT_STATUS_DESC": "Terminated", "STATE_WATER_BODY_NAME": "OLD TAMPA BAY WBID 1558I CLASS II MARINE, ROCKY CR WBID 1507 CLASS III FRESH", "CWP_CSO_FLAG": "N"}}, {"type": "Feature", "geometry": {"type": "Point", "coordinates": [-80.5022032392524, 27.6172149065884]}, "properties": {"CWP_NAME": "IRCUD/WEST REGIONAL WWTF", "CWP_STREET": "8405 8TH ST", "CWP_CITY": "VERO BEACH", "CWP_STATE": "FL", "CWP_ZIP": "32968-9622", "CWP_COUNTY": "Indian River", "NPDES_ID": "FL0041637", "REGISTRY_ID": "110035503602", "CWP_FACILITY_TYPE_INDICATOR": "POTW", "CWP_MAJOR_MINOR_STATUS": "Major", "CWP_PERMIT_STATUS_DESC": "Admin Continued", "STATE_WATER_BODY_NAME": "INDIAN R LAGOON CLASS III MARINE, LATERAL D CANAL CLASS III FRESH WBID 3153", "CWP_CSO_FLAG": "N"}}, {"type": "Feature", "geometry": {"type": "Point", "coordinates": [-81.7251628232157, 26.0948943015506]}, "properties": {"CWP_NAME": "COLLIER COUNTY SOUTH COUNTY WRF", "CWP_STREET": "5600 WARREN ST.", "CWP_CITY": "NAPLES", "CWP_STATE": "FL", "CWP_ZIP": "34113", "CWP_COUNTY": "Collier", "NPDES_ID": "FL0141356", "REGISTRY_ID": "110027966592", "CWP_FACILITY_TYPE_INDICATOR": "POTW", "CWP_MAJOR_MINOR_STATUS": "Minor", "CWP_PERMIT_STATUS_DESC": "Effective", "STATE_WATER_BODY_NAME": null, "CWP_CSO_FLAG": "N"}}, {"type": "Feature", "geometry": {"type": "Point", "coordinates": [-82.7354624657924, 28.2482126260357]}, "properties": {"CWP_NAME": "NEW PORT RICHEY CITY OF WWTF", "CWP_STREET": "4730 MAIN ST", "CWP_CITY": "NEW PORT RICHEY", "CWP_STATE": "FL", "CWP_ZIP": "34652-2168", "CWP_COUNTY": "Pasco", "NPDES_ID": "FL0127434", "REGISTRY_ID": "110027951401", "CWP_FACILITY_TYPE_INDICATOR": "POTW", "CWP_MAJOR_MINOR_STATUS": "Minor", "CWP_PERMIT_STATUS_DESC": "Admin Continued", "STATE_WATER_BODY_NAME": "CROSS BAYOU WBID 1450, GULF OF MEXICO CLASS III WBID 8044E", "CWP_CSO_FLAG": "N"}}, {"type": "Feature", "geometry": {"type": "Point", "coordinates": [-80.633919805384, 28.3160881288414]}, "properties": {"CWP_NAME": "COCOA BEACH WRF", "CWP_STREET": "1600 MINUTEMEN CSWY", "CWP_CITY": "COCOA BEACH", "CWP_STATE": "FL", "CWP_ZIP": "32931-2010", "CWP_COUNTY": "Brevard", "NPDES_ID": "FL0021105", "REGISTRY_ID": "110000513347", "CWP_FACILITY_TYPE_INDICATOR": "POTW", "CWP_MAJOR_MINOR_STATUS": "Major", "CWP_PERMIT_STATUS_DESC": "Effective", "STATE_WATER_BODY_NAME": "CLASS III MARINE WBID 3057A", "CWP_CSO_FLAG": "N"}}, {"type": "Feature", "geometry": {"type": "Point", "coordinates": [-82.7858361985214, 28.0194493229452]}, "properties": {"CWP_NAME": "DUNEDIN CITY OF MAINLAND", "CWP_STREET": "1140 MARTIN LUTHER KING JR. AVE", "CWP_CITY": "DUNEDIN", "CWP_STATE": "FL", "CWP_ZIP": "34697", "CWP_COUNTY": "Pinellas", "NPDES_ID": "FL0021326", "REGISTRY_ID": "110000508255", "CWP_FACILITY_TYPE_INDICATOR": "POTW", "CWP_MAJOR_MINOR_STATUS": "Major", "CWP_PERMIT_STATUS_DESC": "Effective", "STATE_WATER_BODY_NAME": "CLEARWATER HARBOR N CLASS III MARINE WBID 1528C, CLEARWATER HARBOR NORTH CLASS III MARINE WBID1528C", "CWP_CSO_FLAG": "N"}}, {"type": "Feature", "geometry": {"type": "Point", "coordinates": [-82.1153249372984, 29.9378278274381]}, "properties": {"CWP_NAME": "STARKE WWTF", "CWP_STREET": "602 EDWARDS RD", "CWP_CITY": "STARKE", "CWP_STATE": "FL", "CWP_ZIP": "32091-3802", "CWP_COUNTY": "Bradford", "NPDES_ID": "FL0028126", "REGISTRY_ID": "110000509726", "CWP_FACILITY_TYPE_INDICATOR": "POTW", "CWP_MAJOR_MINOR_STATUS": "Major", "CWP_PERMIT_STATUS_DESC": "Effective", "STATE_WATER_BODY_NAME": "ALLIGATOR CR CLASS III FRESH WBID 3598C", "CWP_CSO_FLAG": "N"}}, {"type": "Feature", "geometry": {"type": "Point", "coordinates": [-81.5819961832902, 28.5778250572172]}, "properties": {"CWP_NAME": "WINTER GARDEN WWTF", "CWP_STREET": "101 E CREST AVE", "CWP_CITY": "WINTER GARDEN", "CWP_STATE": "FL", "CWP_ZIP": "34787-2306", "CWP_COUNTY": "Orange", "NPDES_ID": "FL0020109", "REGISTRY_ID": "110000508987", "CWP_FACILITY_TYPE_INDICATOR": "POTW", "CWP_MAJOR_MINOR_STATUS": "Major", "CWP_PERMIT_STATUS_DESC": "Effective", "STATE_WATER_BODY_NAME": "LAKE APOPKA CLASS III FRESH WBID 2861", "CWP_CSO_FLAG": "N"}}, {"type": "Feature", "geometry": {"type": "Point", "coordinates": [-80.9943358389497, 29.1373878808141]}, "properties": {"CWP_NAME": "PORT ORANGE WWTF", "CWP_STREET": "817 OAK ST", "CWP_CITY": "PORT ORANGE", "CWP_STATE": "FL", "CWP_ZIP": "32127-4331", "CWP_COUNTY": "Volusia", "NPDES_ID": "FL0020559", "REGISTRY_ID": "110000513052", "CWP_FACILITY_TYPE_INDICATOR": "POTW", "CWP_MAJOR_MINOR_STATUS": "Minor", "CWP_PERMIT_STATUS_DESC": "Effective", "STATE_WATER_BODY_NAME": "HALIFAX R CLASS III MARINE WBID 2363A, SPRUCE CR CIRCLE DRAINAGE DITCH AND SANDY CR 2675", "CWP_CSO_FLAG": "N"}}, {"type": "Feature", "geometry": {"type": "Point", "coordinates": [-81.3968733926754, 28.8260550935817]}, "properties": {"CWP_NAME": "SCES/NORTHWEST REGIONAL STP", "CWP_STREET": "501 YANKEE LAKE ROAD (STATE RO", "CWP_CITY": "SANFORD", "CWP_STATE": "FL", "CWP_ZIP": "32771", "CWP_COUNTY": "Seminole", "NPDES_ID": "FL0042625", "REGISTRY_ID": "110000517780", "CWP_FACILITY_TYPE_INDICATOR": "POTW", "CWP_MAJOR_MINOR_STATUS": "Major", "CWP_PERMIT_STATUS_DESC": "Terminated", "STATE_WATER_BODY_NAME": "ST. JOHNS RIVERS", "CWP_CSO_FLAG": "N"}}, {"type": "Feature", "geometry": {"type": "Point", "coordinates": [-81.9282532391168, 28.0076250557791]}, "properties": {"CWP_NAME": "LAKELAND, CITY OF - GLENDALE WRF", "CWP_STREET": "1825 GLENDALE ST", "CWP_CITY": "LAKELAND", "CWP_STATE": "FL", "CWP_ZIP": "33803-4300", "CWP_COUNTY": "Polk", "NPDES_ID": "FL0039772", "REGISTRY_ID": "110035505361", "CWP_FACILITY_TYPE_INDICATOR": "POTW", "CWP_MAJOR_MINOR_STATUS": "Major", "CWP_PERMIT_STATUS_DESC": "Effective", "STATE_WATER_BODY_NAME": "CARTER ROAD PARK LAKES CLASS III FRESH WBID 1610, N PRONG ALAFIA R WBID 1621E", "CWP_CSO_FLAG": "N"}}, {"type": "Feature", "geometry": {"type": "Point", "coordinates": [-82.5712030208749, 27.4873050565056]}, "properties": {"CWP_NAME": "BRADENTON WWTP CITY OF", "CWP_STREET": "1810 1ST ST", "CWP_CITY": "BRADENTON", "CWP_STATE": "FL", "CWP_ZIP": "34208-3504", "CWP_COUNTY": "Manatee", "NPDES_ID": "FL0021369", "REGISTRY_ID": "110069346498", "CWP_FACILITY_TYPE_INDICATOR": "POTW", "CWP_MAJOR_MINOR_STATUS": "Major", "CWP_PERMIT_STATUS_DESC": "Effective", "STATE_WATER_BODY_NAME": "MANATEE R CLASS III MARINE WBID 1848A, ROBINSONS DITCH", "CWP_CSO_FLAG": "N"}}, {"type": "Feature", "geometry": {"type": "Point", "coordinates": [-87.2622157482967, 30.5891788968203]}, "properties": {"CWP_NAME": "ECUA - CENTRAL WATER RECLAMATION FACILITY", "CWP_STREET": "2980 OLD CHEMSTRAND ROAD", "CWP_CITY": "CANTONMENT", "CWP_STATE": "FL", "CWP_ZIP": "32533", "CWP_COUNTY": "Escambia", "NPDES_ID": "FL0559351", "REGISTRY_ID": "110035526428", "CWP_FACILITY_TYPE_INDICATOR": "POTW", "CWP_MAJOR_MINOR_STATUS": "Major", "CWP_PERMIT_STATUS_DESC": "Effective", "STATE_WATER_BODY_NAME": "INTERNATIONAL PAPER?S RAINWATER TRACT WETLAND, RAINWATER TRACT WETLAND CLASS III FRESH WBID 489", "CWP_CSO_FLAG": "N"}}, {"type": "Feature", "geometry": {"type": "Point", "coordinates": [-81.5214205962656, 30.3837837651568]}, "properties": {"CWP_NAME": "BEACON HILLS WWTF", "CWP_STREET": "4894 ASHLEY MANOR WAY, WEST", "CWP_CITY": "JACKSONVILLE", "CWP_STATE": "FL", "CWP_ZIP": "32211", "CWP_COUNTY": "Duval", "NPDES_ID": "FL0026778", "REGISTRY_ID": "110006778772", "CWP_FACILITY_TYPE_INDICATOR": "POTW", "CWP_MAJOR_MINOR_STATUS": "Major", "CWP_PERMIT_STATUS_DESC": "Terminated", "STATE_WATER_BODY_NAME": "SAINT JOHNS RIVER", "CWP_CSO_FLAG": "N"}}, {"type": "Feature", "geometry": {"type": "Point", "coordinates": [-82.7037433569361, 27.9086051581978]}, "properties": {"CWP_NAME": "LARGO, CITY OF", "CWP_STREET": "5100 150TH AVE N", "CWP_CITY": "CLEARWATER", "CWP_STATE": "FL", "CWP_ZIP": "33760-3502", "CWP_COUNTY": "Pinellas", "NPDES_ID": "FL0026603", "REGISTRY_ID": "110027962514", "CWP_FACILITY_TYPE_INDICATOR": "POTW", "CWP_MAJOR_MINOR_STATUS": "Major", "CWP_PERMIT_STATUS_DESC": "Effective", "STATE_WATER_BODY_NAME": "OLD TAMPA BAY CLASS II MARINE WBID 1558H, ROOSEVELT BASIN WBID 1624A CLASS III FRESH", "CWP_CSO_FLAG": "N"}}, {"type": "Feature", "geometry": {"type": "Point", "coordinates": [-85.6470041099168, 30.3256055841913]}, "properties": {"CWP_NAME": "SOUTHPORT WWTP", "CWP_STREET": "600 FEET EAST OF S.R. 71 ON ED", "CWP_CITY": "SOUTHPORT", "CWP_STATE": "FL", "CWP_ZIP": "32409", "CWP_COUNTY": "Bay", "NPDES_ID": "FL0428523", "REGISTRY_ID": "110025201350", "CWP_FACILITY_TYPE_INDICATOR": "POTW", "CWP_MAJOR_MINOR_STATUS": "Major", "CWP_PERMIT_STATUS_DESC": "Terminated", "STATE_WATER_BODY_NAME": "DAM BRANCH, FANNING BAYOU", "CWP_CSO_FLAG": "N"}}, {"type": "Feature", "geometry": {"type": "Point", "coordinates": [-80.8164525666514, 28.6244252589775]}, "properties": {"CWP_NAME": "TITUSVILLE NORTH - OSPREY", "CWP_STREET": "1105 BUFFALO RD", "CWP_CITY": "TITUSVILLE", "CWP_STATE": "FL", "CWP_ZIP": "32796-2138", "CWP_COUNTY": "Brevard", "NPDES_ID": "FL0103268", "REGISTRY_ID": "110000519813", "CWP_FACILITY_TYPE_INDICATOR": "POTW", "CWP_MAJOR_MINOR_STATUS": "Minor", "CWP_PERMIT_STATUS_DESC": "Effective", "STATE_WATER_BODY_NAME": null, "CWP_CSO_FLAG": "N"}}, {"type": "Feature", "geometry": {"type": "Point", "coordinates": [-85.3036509292375, 29.8295574278144]}, "properties": {"CWP_NAME": "PORT ST JOE,CITY OF", "CWP_STREET": "SR 382, NE, US 98", "CWP_CITY": "PORT SAINT JOE", "CWP_STATE": "FL", "CWP_ZIP": "32456", "CWP_COUNTY": "Gulf", "NPDES_ID": "FL0020206", "REGISTRY_ID": "110043724235", "CWP_FACILITY_TYPE_INDICATOR": "POTW", "CWP_MAJOR_MINOR_STATUS": "Major", "CWP_PERMIT_STATUS_DESC": "Terminated", "STATE_WATER_BODY_NAME": "ST JOSEPH BAY", "CWP_CSO_FLAG": "N"}}, {"type": "Feature", "geometry": {"type": "Point", "coordinates": [-80.7293361052303, 28.3623942298046]}, "properties": {"CWP_NAME": "COCOA WATER RECLAMATION FACILITY", "CWP_STREET": "375 N COCOA BLVD", "CWP_CITY": "COCOA", "CWP_STATE": "FL", "CWP_ZIP": "32922-4717", "CWP_COUNTY": "Brevard", "NPDES_ID": "FL0021521", "REGISTRY_ID": "110000914841", "CWP_FACILITY_TYPE_INDICATOR": "POTW", "CWP_MAJOR_MINOR_STATUS": "Minor", "CWP_PERMIT_STATUS_DESC": "Effective", "STATE_WATER_BODY_NAME": "INDIAN R LAGOON CLASS III MARINE WBID 2963D1", "CWP_CSO_FLAG": "N"}}, {"type": "Feature", "geometry": {"type": "Point", "coordinates": [-81.657818110714, 30.3299116600638]}, "properties": {"CWP_NAME": "JEA AGGREGATE TN", "CWP_STREET": "21 WEST CHURCH STREET", "CWP_CITY": "JACKSONVILLE", "CWP_STATE": "FL", "CWP_ZIP": "32202-3139", "CWP_COUNTY": "Duval", "NPDES_ID": "FL0620564", "REGISTRY_ID": "110039139410", "CWP_FACILITY_TYPE_INDICATOR": "POTW", "CWP_MAJOR_MINOR_STATUS": "Minor", "CWP_PERMIT_STATUS_DESC": "Effective", "STATE_WATER_BODY_NAME": "LOWER ST JOHNS R BASIN CLASS III MARINE, ST JOHNS R CLASS III MARINE WBID 2213B, ST JOHNS R CLASS III MARINE WBID 2213C, ST JOHNS R CLASS III MARINE WBID 2213D, ST JOHNS R CLASS III MARINE WBID 2213F, ST JOHNS R CLASS III MARINE WBID 2213G, ST JOHNS R CLASS III MARINE WBID 2213H", "CWP_CSO_FLAG": "N"}}, {"type": "Feature", "geometry": {"type": "Point", "coordinates": [-81.8722533654355, 28.8162272871938]}, "properties": {"CWP_NAME": "LEESBURG, CITY OF - CANAL STREET WWTF", "CWP_STREET": "628 N CANAL ST", "CWP_CITY": "LEESBURG", "CWP_STATE": "FL", "CWP_ZIP": "34748-4406", "CWP_COUNTY": "Lake", "NPDES_ID": "FL0105066", "REGISTRY_ID": "110000513310", "CWP_FACILITY_TYPE_INDICATOR": "POTW", "CWP_MAJOR_MINOR_STATUS": "Minor", "CWP_PERMIT_STATUS_DESC": "Terminated", "STATE_WATER_BODY_NAME": "LAKE DENHAM CLASS III FRESH WBID 2832A, OKAHUMPKA SWAMP", "CWP_CSO_FLAG": "N"}}, {"type": "Feature", "geometry": {"type": "Point", "coordinates": [-81.29177772532, 29.8562170541007]}, "properties": {"CWP_NAME": "ANASTASIA ISLAND WWTF", "CWP_STREET": "860 W 16TH ST", "CWP_CITY": "ST AUGUSTINE", "CWP_STATE": "FL", "CWP_ZIP": "32080-9145", "CWP_COUNTY": "St. Johns", "NPDES_ID": "FL0038831", "REGISTRY_ID": "110067189900", "CWP_FACILITY_TYPE_INDICATOR": "POTW", "CWP_MAJOR_MINOR_STATUS": "Major", "CWP_PERMIT_STATUS_DESC": "Effective", "STATE_WATER_BODY_NAME": "MATANZAS R CLASS III MARINE WBID 2363G1, MATANZAS RIVER", "CWP_CSO_FLAG": "N"}}, {"type": "Feature", "geometry": {"type": "Point", "coordinates": [-81.7087431300385, 30.1828355974899]}, "properties": {"CWP_NAME": "ORANGE PARK WWTF", "CWP_STREET": "700 ASH ST", "CWP_CITY": "ORANGE PARK", "CWP_STATE": "FL", "CWP_ZIP": "32073-2910", "CWP_COUNTY": "Clay", "NPDES_ID": "FL0023922", "REGISTRY_ID": "110014413107", "CWP_FACILITY_TYPE_INDICATOR": "POTW", "CWP_MAJOR_MINOR_STATUS": "Major", "CWP_PERMIT_STATUS_DESC": "Effective", "STATE_WATER_BODY_NAME": "ST JOHNS R CLASS III MARINE BRACKISH WBID 2213G", "CWP_CSO_FLAG": "N"}}, {"type": "Feature", "geometry": {"type": "Point", "coordinates": [-83.86231609733, 30.5549633904725]}, "properties": {"CWP_NAME": "MONTICELLO, CITY OF - WWTP", "CWP_STREET": "245 S MULBERRY ST", "CWP_CITY": "MONTICELLO", "CWP_STATE": "FL", "CWP_ZIP": "32344-1307", "CWP_COUNTY": "Jefferson", "NPDES_ID": "FL0027839", "REGISTRY_ID": "110002042165", "CWP_FACILITY_TYPE_INDICATOR": "POTW", "CWP_MAJOR_MINOR_STATUS": "Minor", "CWP_PERMIT_STATUS_DESC": "Effective", "STATE_WATER_BODY_NAME": "AUCILLA R WBID 3310, DRIFTON BRANCH, WOLF CR SWAMP TO WOLF CR 3337 TO RAYSOR CR 3377", "CWP_CSO_FLAG": "N"}}, {"type": "Feature", "geometry": {"type": "Point", "coordinates": [-81.9860770347024, 29.9758565721147]}, "properties": {"CWP_NAME": "FANG - CAMP BLANDING WWTF", "CWP_STREET": "RR 1 BOX 465", "CWP_CITY": "STARKE", "CWP_STATE": "FL", "CWP_ZIP": "32091-9703", "CWP_COUNTY": "Clay", "NPDES_ID": "FL0022853", "REGISTRY_ID": "110000788185", "CWP_FACILITY_TYPE_INDICATOR": "POTW", "CWP_MAJOR_MINOR_STATUS": "Minor", "CWP_PERMIT_STATUS_DESC": "Effective", "STATE_WATER_BODY_NAME": "S FORK BLACK CREEK, CLASS III, WBID 2415E", "CWP_CSO_FLAG": "N"}}, {"type": "Feature", "geometry": {"type": "Point", "coordinates": [-81.4640753201035, 30.659083396356]}, "properties": {"CWP_NAME": "FERNANDINA BEACH WWTF", "CWP_STREET": "1007 S 5TH ST", "CWP_CITY": "FERNANDINA BEACH", "CWP_STATE": "FL", "CWP_ZIP": "32034-4011", "CWP_COUNTY": "Nassau", "NPDES_ID": "FL0027260", "REGISTRY_ID": "110000914556", "CWP_FACILITY_TYPE_INDICATOR": "POTW", "CWP_MAJOR_MINOR_STATUS": "Major", "CWP_PERMIT_STATUS_DESC": "Effective", "STATE_WATER_BODY_NAME": "AMELIA R CLASS III MARINE WBID 2124", "CWP_CSO_FLAG": "N"}}, {"type": "Feature", "geometry": {"type": "Point", "coordinates": [-85.0489008247699, 30.4336888488109]}, "properties": {"CWP_NAME": "BLOUNTSTOWN WWTP", "CWP_STREET": "16140 SE JOHNSON ST", "CWP_CITY": "BLOUNTSTOWN", "CWP_STATE": "FL", "CWP_ZIP": "32424-2480", "CWP_COUNTY": "Calhoun", "NPDES_ID": "FL0026867", "REGISTRY_ID": "110044246964", "CWP_FACILITY_TYPE_INDICATOR": "POTW", "CWP_MAJOR_MINOR_STATUS": "Major", "CWP_PERMIT_STATUS_DESC": "Effective", "STATE_WATER_BODY_NAME": "SUTTON CR CLASS III FRESH WBID 822, SUTTON CREEK CLASS III FRESH WBID 822", "CWP_CSO_FLAG": "N"}}, {"type": "Feature", "geometry": {"type": "Point", "coordinates": [-82.5331571864385, 27.3477158527576]}, "properties": {"CWP_NAME": "CITY OF SARASOTA AWWTF", "CWP_STREET": "1850 12TH ST", "CWP_CITY": "SARASOTA", "CWP_STATE": "FL", "CWP_ZIP": "34236-2618", "CWP_COUNTY": "Sarasota", "NPDES_ID": "FL0040771", "REGISTRY_ID": "110000527886", "CWP_FACILITY_TYPE_INDICATOR": "POTW", "CWP_MAJOR_MINOR_STATUS": "Major", "CWP_PERMIT_STATUS_DESC": "Effective", "STATE_WATER_BODY_NAME": "SARASOTA BAY CLASS III WBID 1936, WHITAKER BAYOU CLASS III MARINE", "CWP_CSO_FLAG": "N"}}, {"type": "Feature", "geometry": {"type": "Point", "coordinates": [-80.6098296508649, 28.0735049416327]}, "properties": {"CWP_NAME": "MELBOURNE/GRANT STREET", "CWP_STREET": "2300 GRANT ST", "CWP_CITY": "MELBOURNE", "CWP_STATE": "FL", "CWP_ZIP": "32901-5562", "CWP_COUNTY": "Brevard", "NPDES_ID": "FL0041122", "REGISTRY_ID": "110000522970", "CWP_FACILITY_TYPE_INDICATOR": "POTW", "CWP_MAJOR_MINOR_STATUS": "Minor", "CWP_PERMIT_STATUS_DESC": "Effective", "STATE_WATER_BODY_NAME": "CRANE CR CLASS III MARINE WBID 3085A, CRANE CR CLASS III MARINE WBID 3085A INDIAN R L", "CWP_CSO_FLAG": "N"}}, {"type": "Feature", "geometry": {"type": "Point", "coordinates": [-80.9918060410223, 29.0148696119113]}, "properties": {"CWP_NAME": "NEW SMYRNA BEACH WATER RECLAMATION FACILITY", "CWP_STREET": "3119 STATE ROAD 44", "CWP_CITY": "NEW SMYRNA BEACH", "CWP_STATE": "FL", "CWP_ZIP": "32168-8880", "CWP_COUNTY": "Volusia", "NPDES_ID": "FL0172090", "REGISTRY_ID": "110009076631", "CWP_FACILITY_TYPE_INDICATOR": "POTW", "CWP_MAJOR_MINOR_STATUS": "Minor", "CWP_PERMIT_STATUS_DESC": "Effective", "STATE_WATER_BODY_NAME": "INDIAN R NORTH (MOSQUITO LAGOON) CLASS III MARINE", "CWP_CSO_FLAG": "N"}}, {"type": "Feature", "geometry": {"type": "Point", "coordinates": [-85.7068018426905, 30.1895336293713]}, "properties": {"CWP_NAME": "ST ANDREWS WWTF", "CWP_STREET": "2226 MICHIGAN AVE", "CWP_CITY": "PANAMA CITY", "CWP_STATE": "FL", "CWP_ZIP": "32405-1844", "CWP_COUNTY": "Bay", "NPDES_ID": "FL0020451", "REGISTRY_ID": "110064606029", "CWP_FACILITY_TYPE_INDICATOR": "POTW", "CWP_MAJOR_MINOR_STATUS": "Major", "CWP_PERMIT_STATUS_DESC": "Admin Continued", "STATE_WATER_BODY_NAME": "ST ANDREW BAY CLASS III MARINE WBID 1061C, ST ANDREW BAY CLASS III WBID 1061C", "CWP_CSO_FLAG": "N"}}, {"type": "Feature", "geometry": {"type": "Point", "coordinates": [-81.5530884420871, 30.6216437089123]}, "properties": {"CWP_NAME": "NASSAU REGIONAL WWTF", "CWP_STREET": "STATE ROAD 200 (A1A) AT CHESTER ROAD", "CWP_CITY": "YULEE", "CWP_STATE": "FL", "CWP_ZIP": "32097", "CWP_COUNTY": "Nassau", "NPDES_ID": "FL0116793", "REGISTRY_ID": "110027951410", "CWP_FACILITY_TYPE_INDICATOR": "POTW", "CWP_MAJOR_MINOR_STATUS": "Minor", "CWP_PERMIT_STATUS_DESC": "Effective", "STATE_WATER_BODY_NAME": "LOFTON CR CLASS III FRESH WBID 2129, LOFTON CR CLASS III FRESH WBID 2129A, YULEE SWAMP CLASS III FRESH WBID 2147", "CWP_CSO_FLAG": "N"}}, {"type": "Feature", "geometry": {"type": "Point", "coordinates": [-81.2072072427625, 29.5493089464994]}, "properties": {"CWP_NAME": "PALM COAST WWTF", "CWP_STREET": "2 UTILITY DR", "CWP_CITY": "PALM COAST", "CWP_STATE": "FL", "CWP_ZIP": "32137-7366", "CWP_COUNTY": "Flagler", "NPDES_ID": "FL0116009", "REGISTRY_ID": "110010042970", "CWP_FACILITY_TYPE_INDICATOR": "POTW", "CWP_MAJOR_MINOR_STATUS": "Minor", "CWP_PERMIT_STATUS_DESC": "Effective", "STATE_WATER_BODY_NAME": "INTRACOASTAL WATERWAY AND ST JOE CANAL, INTRACOASTAL WTWY CLASS III MARINE WBID 2363D, ST JOE CANAL CLASS III FRESH WBID 2609", "CWP_CSO_FLAG": "N"}}, {"type": "Feature", "geometry": {"type": "Point", "coordinates": [-81.4053423660486, 30.3355755990169]}, "properties": {"CWP_NAME": "ATLANTIC BEACH WWTF", "CWP_STREET": "1100 SANDPIPER LN", "CWP_CITY": "ATLANTIC BEACH", "CWP_STATE": "FL", "CWP_ZIP": "32233-4353", "CWP_COUNTY": "Duval", "NPDES_ID": "FL0038776", "REGISTRY_ID": "110038520080", "CWP_FACILITY_TYPE_INDICATOR": "POTW", "CWP_MAJOR_MINOR_STATUS": "Major", "CWP_PERMIT_STATUS_DESC": "Effective", "STATE_WATER_BODY_NAME": "INTRACOASTAL WTWY CLASS III MARINE WBID 2205C, ST JOHNS R CLASS III MARINE WBID 2213A", "CWP_CSO_FLAG": "N"}}, {"type": "Feature", "geometry": {"type": "Point", "coordinates": [-80.1466722993271, 25.7463943645214]}, "properties": {"CWP_NAME": "MDWASA CENTRAL DISTRICT WWTF", "CWP_STREET": "3989 RICKENBACKER CAUSEWAY", "CWP_CITY": "MIAMI", "CWP_STATE": "FL", "CWP_ZIP": "33149", "CWP_COUNTY": "Miami-Dade", "NPDES_ID": "FL0024805", "REGISTRY_ID": "110007433438", "CWP_FACILITY_TYPE_INDICATOR": "POTW", "CWP_MAJOR_MINOR_STATUS": "Major", "CWP_PERMIT_STATUS_DESC": "Effective", "STATE_WATER_BODY_NAME": "ATLANTIC OCEAN CLASS III MARINE WBID 8091", "CWP_CSO_FLAG": "N"}}, {"type": "Feature", "geometry": {"type": "Point", "coordinates": [-81.75691353309, 30.2414453268447]}, "properties": {"CWP_NAME": "JACKSONVILLE HEIGHTS WWTF", "CWP_STREET": "5957 TAMPICO ROAD", "CWP_CITY": "JACKSONVILLE", "CWP_STATE": "FL", "CWP_ZIP": "32244", "CWP_COUNTY": "Duval", "NPDES_ID": "FL0023671", "REGISTRY_ID": "110015626919", "CWP_FACILITY_TYPE_INDICATOR": "POTW", "CWP_MAJOR_MINOR_STATUS": "Major", "CWP_PERMIT_STATUS_DESC": "Terminated", "STATE_WATER_BODY_NAME": "FISHING CREEK", "CWP_CSO_FLAG": "N"}}, {"type": "Feature", "geometry": {"type": "Point", "coordinates": [-82.1393835401226, 28.0201849851316]}, "properties": {"CWP_NAME": "PLANT CITY  WRF", "CWP_STREET": "1500 W. VICTORIA STREET", "CWP_CITY": "PLANT CITY", "CWP_STATE": "FL", "CWP_ZIP": "33563-3065", "CWP_COUNTY": "Hillsborough", "NPDES_ID": "FL0026557", "REGISTRY_ID": "110035612539", "CWP_FACILITY_TYPE_INDICATOR": "POTW", "CWP_MAJOR_MINOR_STATUS": "Major", "CWP_PERMIT_STATUS_DESC": "Effective", "STATE_WATER_BODY_NAME": "EAST CANAL CLASS III FRESH WBID 1518, LAKE THONOTOSASSA, SPARTMAN BR, PEMBERTON CR", "CWP_CSO_FLAG": "N"}}, {"type": "Feature", "geometry": {"type": "Point", "coordinates": [-80.7573275077488, 28.2291659308342]}, "properties": {"CWP_NAME": "BCUD/SOUTH CENTRAL REGIONAL", "CWP_STREET": "10001 N WICKHAM RD", "CWP_CITY": "MELBOURNE", "CWP_STATE": "FL", "CWP_ZIP": "32940-6604", "CWP_COUNTY": "Brevard", "NPDES_ID": "FL0102679", "REGISTRY_ID": "110014393726", "CWP_FACILITY_TYPE_INDICATOR": "POTW", "CWP_MAJOR_MINOR_STATUS": "Minor", "CWP_PERMIT_STATUS_DESC": "Effective", "STATE_WATER_BODY_NAME": "4-MILE CANAL CLASS III FRESH WBID 2893N", "CWP_CSO_FLAG": "N"}}, {"type": "Feature", "geometry": {"type": "Point", "coordinates": [-82.7545928408007, 27.9728914102132]}, "properties": {"CWP_NAME": "CLEARWATER CITY OF MASTER REUSE SYSTEM", "CWP_STREET": "1650 N ARCTURAS AVE", "CWP_CITY": "CLEARWATER", "CWP_STATE": "FL", "CWP_ZIP": "33765-1945", "CWP_COUNTY": "Pinellas", "NPDES_ID": "FL0186261", "REGISTRY_ID": "110013231074", "CWP_FACILITY_TYPE_INDICATOR": "POTW", "CWP_MAJOR_MINOR_STATUS": "Minor", "CWP_PERMIT_STATUS_DESC": "Effective", "STATE_WATER_BODY_NAME": "CORBET STREET STORMWATER SYSTEM, POSSUM CREEK", "CWP_CSO_FLAG": "N"}}, {"type": "Feature", "geometry": {"type": "Point", "coordinates": [-81.3801334425656, 29.8132357429125]}, "properties": {"CWP_NAME": "STATE ROAD 207 WWTF", "CWP_STREET": "4428 GOLF RIDGE DR", "CWP_CITY": "ELKTON", "CWP_STATE": "FL", "CWP_ZIP": "32033-2054", "CWP_COUNTY": "St. Johns", "NPDES_ID": "FL0117471", "REGISTRY_ID": "110012322619", "CWP_FACILITY_TYPE_INDICATOR": "POTW", "CWP_MAJOR_MINOR_STATUS": "Minor", "CWP_PERMIT_STATUS_DESC": "Effective", "STATE_WATER_BODY_NAME": "MATANZAS R (ICCW), MOULTRIE CREEK CLASS III MARINE WBID 2493", "CWP_CSO_FLAG": "N"}}, {"type": "Feature", "geometry": {"type": "Point", "coordinates": [-81.4197252271386, 30.3202835229518]}, "properties": {"CWP_NAME": "NEPTUNE BEACH WWTF", "CWP_STREET": "2010 FOREST AVE", "CWP_CITY": "NEPTUNE BEACH", "CWP_STATE": "FL", "CWP_ZIP": "32266-1557", "CWP_COUNTY": "Duval", "NPDES_ID": "FL0020427", "REGISTRY_ID": "110000752962", "CWP_FACILITY_TYPE_INDICATOR": "POTW", "CWP_MAJOR_MINOR_STATUS": "Major", "CWP_PERMIT_STATUS_DESC": "Effective", "STATE_WATER_BODY_NAME": "ST JOHNS R CLASS III MARINE WBID 2213A", "CWP_CSO_FLAG": "N"}}, {"type": "Feature", "geometry": {"type": "Point", "coordinates": [-83.0327532697329, 29.1371252227792]}, "properties": {"CWP_NAME": "CEDAR KEY WRF", "CWP_STREET": "510 3RD ST", "CWP_CITY": "CEDAR KEY", "CWP_STATE": "FL", "CWP_ZIP": "32625-5128", "CWP_COUNTY": "Levy", "NPDES_ID": "FL0031216", "REGISTRY_ID": "110027968117", "CWP_FACILITY_TYPE_INDICATOR": "POTW", "CWP_MAJOR_MINOR_STATUS": "Minor", "CWP_PERMIT_STATUS_DESC": "Effective", "STATE_WATER_BODY_NAME": "BACK BAYOU CLASS III MARINE WBID 8037C", "CWP_CSO_FLAG": "N"}}, {"type": "Feature", "geometry": {"type": "Point", "coordinates": [-80.5366418961734, 27.8883677638038]}, "properties": {"CWP_NAME": "BAREFOOT BAY ADVANCED WWTF", "CWP_STREET": "7773 DOTTIE DR", "CWP_CITY": "BAREFOOT BAY", "CWP_STATE": "FL", "CWP_ZIP": "32976-7003", "CWP_COUNTY": "Brevard", "NPDES_ID": "FL0042293", "REGISTRY_ID": "110014393735", "CWP_FACILITY_TYPE_INDICATOR": "POTW", "CWP_MAJOR_MINOR_STATUS": "Minor", "CWP_PERMIT_STATUS_DESC": "Effective", "STATE_WATER_BODY_NAME": "MICCO DITCH SYSTEM WBID 3121, N PRONG SEBASTIAN R, CLASS III FRESH", "CWP_CSO_FLAG": "N"}}, {"type": "Feature", "geometry": {"type": "Point", "coordinates": [-81.0468032055081, 29.2437156496347]}, "properties": {"CWP_NAME": "HOLLY HILL, WRF", "CWP_STREET": "453 LPGA BLVD", "CWP_CITY": "HOLLY HILL", "CWP_STATE": "FL", "CWP_ZIP": "32117", "CWP_COUNTY": "Volusia", "NPDES_ID": "FL0027677", "REGISTRY_ID": "110000510359", "CWP_FACILITY_TYPE_INDICATOR": "POTW", "CWP_MAJOR_MINOR_STATUS": "Major", "CWP_PERMIT_STATUS_DESC": "Effective", "STATE_WATER_BODY_NAME": "HALIFAX R CLASS III MARINE WBID 2363B, HALIFAX R WBID 2363B CLASS III MARINE", "CWP_CSO_FLAG": "N"}}, {"type": "Feature", "geometry": {"type": "Point", "coordinates": [-81.8273538652671, 30.5743060752183]}, "properties": {"CWP_NAME": "CALLAHAN WWTF", "CWP_STREET": "BRANDIES AVENUE EAST", "CWP_CITY": "CALLAHAN", "CWP_STATE": "FL", "CWP_ZIP": "32011", "CWP_COUNTY": "Nassau", "NPDES_ID": "FL0038407", "REGISTRY_ID": "110010043531", "CWP_FACILITY_TYPE_INDICATOR": "POTW", "CWP_MAJOR_MINOR_STATUS": "Minor", "CWP_PERMIT_STATUS_DESC": "Effective", "STATE_WATER_BODY_NAME": "ALLIGATOR CR CLASS III FRESH WBID 2153", "CWP_CSO_FLAG": "N"}}, {"type": "Feature", "geometry": {"type": "Point", "coordinates": [-81.9173031881717, 30.6985060731487]}, "properties": {"CWP_NAME": "HILLIARD WWTF", "CWP_STREET": "5TH STREET & RUBY DRIVE", "CWP_CITY": "HILLIARD", "CWP_STATE": "FL", "CWP_ZIP": "00000", "CWP_COUNTY": "Nassau", "NPDES_ID": "FL0043079", "REGISTRY_ID": "110027948283", "CWP_FACILITY_TYPE_INDICATOR": "POTW", "CWP_MAJOR_MINOR_STATUS": "Minor", "CWP_PERMIT_STATUS_DESC": "Effective", "STATE_WATER_BODY_NAME": "LITTLE SAINT MARYS R CLASS III FRESH WBID 2119, LOWER SAINT MARYS RIVER BASIN CLASS III FRESH 2119", "CWP_CSO_FLAG": "N"}}, {"type": "Feature", "geometry": {"type": "Point", "coordinates": [-81.654793614299, 28.2231755222714]}, "properties": {"CWP_NAME": "NORTHEAST REGIONAL WWTF", "CWP_STREET": "200 WESTVIEW DRIVE", "CWP_CITY": "DAVENPORT", "CWP_STATE": "FL", "CWP_ZIP": "33837", "CWP_COUNTY": "Polk", "NPDES_ID": "FL0A00002", "REGISTRY_ID": "110044886148", "CWP_FACILITY_TYPE_INDICATOR": "POTW", "CWP_MAJOR_MINOR_STATUS": "Minor", "CWP_PERMIT_STATUS_DESC": "Effective", "STATE_WATER_BODY_NAME": "REEDY CREEK CLASS III FRESH WBID 3170C", "CWP_CSO_FLAG": "N"}}, {"type": "Feature", "geometry": {"type": "Point", "coordinates": [-87.0349749914309, 30.6182054290223]}, "properties": {"CWP_NAME": "MILTON WWTF", "CWP_STREET": "6903 MUNICIPAL DRIVE", "CWP_CITY": "MILTON", "CWP_STATE": "FL", "CWP_ZIP": "32570", "CWP_COUNTY": "Santa Rosa", "NPDES_ID": "FL0021903", "REGISTRY_ID": "110000507540", "CWP_FACILITY_TYPE_INDICATOR": "POTW", "CWP_MAJOR_MINOR_STATUS": "Major", "CWP_PERMIT_STATUS_DESC": "Effective", "STATE_WATER_BODY_NAME": "BLACKWATER R CLASS III MARINE WBID 24AB", "CWP_CSO_FLAG": "N"}}, {"type": "Feature", "geometry": {"type": "Point", "coordinates": [-81.4573330099605, 28.1435756144364]}, "properties": {"CWP_NAME": "TWA-WALNUT DRIVE WRF", "CWP_STREET": "601 COUNTRY CLUB RD", "CWP_CITY": "KISSIMMEE", "CWP_STATE": "FL", "CWP_ZIP": "34759-4100", "CWP_COUNTY": "Osceola", "NPDES_ID": "FL0036862", "REGISTRY_ID": "110056004675", "CWP_FACILITY_TYPE_INDICATOR": "POTW", "CWP_MAJOR_MINOR_STATUS": "Minor", "CWP_PERMIT_STATUS_DESC": "Effective", "STATE_WATER_BODY_NAME": "BOOT WETLAND CLASS III FRESH WBID 1472A, LONDON CR WBID 1472A, M7 CANAL", "CWP_CSO_FLAG": "N"}}, {"type": "Feature", "geometry": {"type": "Point", "coordinates": [-81.6047949381548, 29.573292960735]}, "properties": {"CWP_NAME": "PARADISE POINT WWTF", "CWP_STREET": "341 PARADISE POINT RD", "CWP_CITY": "SATSUMA", "CWP_STATE": "FL", "CWP_ZIP": "32189-2167", "CWP_COUNTY": "Putnam", "NPDES_ID": "FL0043176", "REGISTRY_ID": "110027959966", "CWP_FACILITY_TYPE_INDICATOR": "POTW", "CWP_MAJOR_MINOR_STATUS": "Minor", "CWP_PERMIT_STATUS_DESC": "Terminated", "STATE_WATER_BODY_NAME": "DUNNS CR CLASS III FRESH WBID 2213M", "CWP_CSO_FLAG": "N"}}, {"type": "Feature", "geometry": {"type": "Point", "coordinates": [-81.3936862438677, 30.1867863293032]}, "properties": {"CWP_NAME": "PLAYERS CLUB SOUTH WWTF", "CWP_STREET": "5250 PALM VALLEY RD", "CWP_CITY": "PONTE VEDRA BEACH", "CWP_STATE": "FL", "CWP_ZIP": "32082-3200", "CWP_COUNTY": "St. Johns", "NPDES_ID": "FL0044245", "REGISTRY_ID": "110027958672", "CWP_FACILITY_TYPE_INDICATOR": "POTW", "CWP_MAJOR_MINOR_STATUS": "Major", "CWP_PERMIT_STATUS_DESC": "Effective", "STATE_WATER_BODY_NAME": "ICWW, TOLOMATO R CLASS III MARINE WBID 2363 I1, INTRACOASTAL WTWY CLASS III MARINE 2205C, INTRACOASTAL WTWY CLASS III MARINE WBID 2205C", "CWP_CSO_FLAG": "N"}}, {"type": "Feature", "geometry": {"type": "Point", "coordinates": [-82.7532861314985, 28.1560060133799]}, "properties": {"CWP_NAME": "TARPON SPRINGS CITY OF", "CWP_STREET": "201 EAST PINE STREET", "CWP_CITY": "TARPON SPRINGS", "CWP_STATE": "FL", "CWP_ZIP": "34689", "CWP_COUNTY": "Pinellas", "NPDES_ID": "FL0030406", "REGISTRY_ID": "110000515504", "CWP_FACILITY_TYPE_INDICATOR": "POTW", "CWP_MAJOR_MINOR_STATUS": "Major", "CWP_PERMIT_STATUS_DESC": "Effective", "STATE_WATER_BODY_NAME": "ANCLOTE R CLASS III MARINE WBID 1440, ST JOSEPH SOUND CLASS II MARINE WBID 8045D", "CWP_CSO_FLAG": "N"}}, {"type": "Feature", "geometry": {"type": "Point", "coordinates": [-81.6511145351856, 29.6158389961692]}, "properties": {"CWP_NAME": "PALATKA WWTF", "CWP_STREET": "3010 BROWNS LANDINGS ROAD", "CWP_CITY": "PALATKA", "CWP_STATE": "FL", "CWP_ZIP": "32177", "CWP_COUNTY": "Putnam", "NPDES_ID": "FL0040061", "REGISTRY_ID": "110000509744", "CWP_FACILITY_TYPE_INDICATOR": "POTW", "CWP_MAJOR_MINOR_STATUS": "Major", "CWP_PERMIT_STATUS_DESC": "Effective", "STATE_WATER_BODY_NAME": "SAINT JOHNS RIVER, ST JOHNS R CLASS III FRESH WBID 2213M", "CWP_CSO_FLAG": "N"}}, {"type": "Feature", "geometry": {"type": "Point", "coordinates": [-82.4013911736783, 27.132365045517]}, "properties": {"CWP_NAME": "VENICE EASTSIDE WWTP", "CWP_STREET": "3510 LAUREL RD E", "CWP_CITY": "VENICE", "CWP_STATE": "FL", "CWP_ZIP": "34275-3269", "CWP_COUNTY": "Sarasota", "NPDES_ID": "FL0041441", "REGISTRY_ID": "110009079718", "CWP_FACILITY_TYPE_INDICATOR": "POTW", "CWP_MAJOR_MINOR_STATUS": "Major", "CWP_PERMIT_STATUS_DESC": "Effective", "STATE_WATER_BODY_NAME": "CURRY CR CLASS III FRESH 2009B, ROBERTS CL 2018B, CURRY CREEK CLASS III FRESH WBID 2009B, ROBERTS CANAL WBID 2018B CLASS III MARINE", "CWP_CSO_FLAG": "N"}}, {"type": "Feature", "geometry": {"type": "Point", "coordinates": [-81.8793030829767, 26.5902347091048]}, "properties": {"CWP_NAME": "FORT MYERS SOUTH AWWTP", "CWP_STREET": "1618 MATTHEW DR", "CWP_CITY": "FORT MYERS", "CWP_STATE": "FL", "CWP_ZIP": "33907-1700", "CWP_COUNTY": "Lee", "NPDES_ID": "FL0021270", "REGISTRY_ID": "110000521338", "CWP_FACILITY_TYPE_INDICATOR": "POTW", "CWP_MAJOR_MINOR_STATUS": "Major", "CWP_PERMIT_STATUS_DESC": "Admin Continued", "STATE_WATER_BODY_NAME": "CALOOSAHATCHEE RIVER", "CWP_CSO_FLAG": "N"}}, {"type": "Feature", "geometry": {"type": "Point", "coordinates": [-82.7067695781867, 27.9608593788853]}, "properties": {"CWP_NAME": "CLEARWATER CITY OF EAST AWWTP", "CWP_STREET": "3141 GULF TO BAY BLVD", "CWP_CITY": "CLEARWATER", "CWP_STATE": "FL", "CWP_ZIP": "33759-4506", "CWP_COUNTY": "Pinellas", "NPDES_ID": "FL0021865", "REGISTRY_ID": "110000910649", "CWP_FACILITY_TYPE_INDICATOR": "POTW", "CWP_MAJOR_MINOR_STATUS": "Major", "CWP_PERMIT_STATUS_DESC": "Effective", "STATE_WATER_BODY_NAME": "OLD TAMPA BAY CLASS II MARINE WBID 1558H", "CWP_CSO_FLAG": "N"}}, {"type": "Feature", "geometry": {"type": "Point", "coordinates": [-81.7225000653134, 30.2327614721445]}, "properties": {"CWP_NAME": "SOUTHWEST DISTRICT WWTF", "CWP_STREET": "5420 118TH ST", "CWP_CITY": "JACKSONVILLE", "CWP_STATE": "FL", "CWP_ZIP": "32244-3002", "CWP_COUNTY": "Duval", "NPDES_ID": "FL0026468", "REGISTRY_ID": "110000731165", "CWP_FACILITY_TYPE_INDICATOR": "POTW", "CWP_MAJOR_MINOR_STATUS": "Major", "CWP_PERMIT_STATUS_DESC": "Effective", "STATE_WATER_BODY_NAME": "LOWER ST JOHNS R CLASS III MARINE WBID 2213E", "CWP_CSO_FLAG": "N"}}, {"type": "Feature", "geometry": {"type": "Point", "coordinates": [-82.383614287832, 27.7213941500037]}, "properties": {"CWP_NAME": "SOUTH COUNTY REGIONAL AWWTP", "CWP_STREET": "502 TECO RD", "CWP_CITY": "RUSKIN", "CWP_STATE": "FL", "CWP_ZIP": "33570-5224", "CWP_COUNTY": "Hillsborough", "NPDES_ID": "FL0028061", "REGISTRY_ID": "110000509245", "CWP_FACILITY_TYPE_INDICATOR": "POTW", "CWP_MAJOR_MINOR_STATUS": "Major", "CWP_PERMIT_STATUS_DESC": "Effective", "STATE_WATER_BODY_NAME": "ALAFIA R, CYPRESS CR, HILLSBOROUGH BAY CLASS III MARINE WBID 1691, PORT REDWING CANAL, THE KITCHEN WBID 1676", "CWP_CSO_FLAG": "N"}}, {"type": "Feature", "geometry": {"type": "Point", "coordinates": [-85.617279737226, 30.9806494276044]}, "properties": {"CWP_NAME": "NOMA WWTP", "CWP_STREET": "3488 SMALLEY LN", "CWP_CITY": "NOMA", "CWP_STATE": "FL", "CWP_ZIP": "32425-5658", "CWP_COUNTY": "Holmes", "NPDES_ID": "FL0040207", "REGISTRY_ID": "110055998862", "CWP_FACILITY_TYPE_INDICATOR": "POTW", "CWP_MAJOR_MINOR_STATUS": "Minor", "CWP_PERMIT_STATUS_DESC": "Effective", "STATE_WATER_BODY_NAME": "WRIGHTS CR, CLASS III FRESH, WBID 54, WRIGHTS CREEK CLASS III FRESH WBID 54", "CWP_CSO_FLAG": "N"}}, {"type": "Feature", "geometry": {"type": "Point", "coordinates": [-81.4113921085351, 30.369449470941]}, "properties": {"CWP_NAME": "BUCCANEER WWTF", "CWP_STREET": "739 WONDERWOOD DRIVE", "CWP_CITY": "JACKSONVILLE", "CWP_STATE": "FL", "CWP_ZIP": "32233", "CWP_COUNTY": "Duval", "NPDES_ID": "FL0023248", "REGISTRY_ID": "110027953953", "CWP_FACILITY_TYPE_INDICATOR": "POTW", "CWP_MAJOR_MINOR_STATUS": "Major", "CWP_PERMIT_STATUS_DESC": "Terminated", "STATE_WATER_BODY_NAME": "SAINT JOHNS RIVER", "CWP_CSO_FLAG": "N"}}, {"type": "Feature", "geometry": {"type": "Point", "coordinates": [-80.1438916249824, 26.8558378902242]}, "properties": {"CWP_NAME": "SEACOAST UTILITIES AUTHORITY PGA REGIONAL WWTF", "CWP_STREET": "11498 NURSERY LN", "CWP_CITY": "PALM BEACH GARDENS", "CWP_STATE": "FL", "CWP_ZIP": "33418-1737", "CWP_COUNTY": "Palm Beach", "NPDES_ID": "FL0038768", "REGISTRY_ID": "110000509771", "CWP_FACILITY_TYPE_INDICATOR": "POTW", "CWP_MAJOR_MINOR_STATUS": "Minor", "CWP_PERMIT_STATUS_DESC": "Effective", "STATE_WATER_BODY_NAME": "INTRACOASTAL WATERWAY, CLASS III FRESH WATERS", "CWP_CSO_FLAG": "N"}}, {"type": "Feature", "geometry": {"type": "Point", "coordinates": [-86.8790855547826, 30.3809084675239]}, "properties": {"CWP_NAME": "NAVARRE BEACH WWTP", "CWP_STREET": "1411 UTILITY DR", "CWP_CITY": "NAVARRE", "CWP_STATE": "FL", "CWP_ZIP": "32566-7153", "CWP_COUNTY": "Santa Rosa", "NPDES_ID": "FL0023981", "REGISTRY_ID": "110006778843", "CWP_FACILITY_TYPE_INDICATOR": "POTW", "CWP_MAJOR_MINOR_STATUS": "Minor", "CWP_PERMIT_STATUS_DESC": "Effective", "STATE_WATER_BODY_NAME": "SANTA ROSA SOUND CLASS III MARINE WBID 915G", "CWP_CSO_FLAG": "N"}}, {"type": "Feature", "geometry": {"type": "Point", "coordinates": [-80.109735349988, 26.3672127184927]}, "properties": {"CWP_NAME": "BOCA RATON, CITY OF - WWTP", "CWP_STREET": "1501 GLADES RD", "CWP_CITY": "BOCA RATON", "CWP_STATE": "FL", "CWP_ZIP": "33431-6445", "CWP_COUNTY": "Palm Beach", "NPDES_ID": "FL0026344", "REGISTRY_ID": "110000731156", "CWP_FACILITY_TYPE_INDICATOR": "POTW", "CWP_MAJOR_MINOR_STATUS": "Major", "CWP_PERMIT_STATUS_DESC": "Effective", "STATE_WATER_BODY_NAME": "ATLANTIC OCEAN, ATLANTIC OCEAN CLASS III MARINE WBID 8096, WBIDS 697B, 697C, 763", "CWP_CSO_FLAG": "N"}}, {"type": "Feature", "geometry": {"type": "Point", "coordinates": [-81.083059386153, 29.2936163429243]}, "properties": {"CWP_NAME": "ORMOND BEACH WWTF", "CWP_STREET": "550 N ORCHARD ST", "CWP_CITY": "ORMOND BEACH", "CWP_STATE": "FL", "CWP_ZIP": "32174-9512", "CWP_COUNTY": "Volusia", "NPDES_ID": "FL0020532", "REGISTRY_ID": "110000525815", "CWP_FACILITY_TYPE_INDICATOR": "POTW", "CWP_MAJOR_MINOR_STATUS": "Major", "CWP_PERMIT_STATUS_DESC": "Effective", "STATE_WATER_BODY_NAME": "HALIFAX R CLASS III MARINE WBID 2363B", "CWP_CSO_FLAG": "N"}}, {"type": "Feature", "geometry": {"type": "Point", "coordinates": [-81.6675973281464, 29.9825979009253]}, "properties": {"CWP_NAME": "SOUTH PLANT - GREEN COVE SPRINGS WWTF", "CWP_STREET": "3 MILES EAST OF US 17 AND STATE ROAD 16", "CWP_CITY": "GREEN COVE SPRINGS", "CWP_STATE": "FL", "CWP_ZIP": "00000", "CWP_COUNTY": "Clay", "NPDES_ID": "FL0030210", "REGISTRY_ID": "110010043684", "CWP_FACILITY_TYPE_INDICATOR": "POTW", "CWP_MAJOR_MINOR_STATUS": "Minor", "CWP_PERMIT_STATUS_DESC": "Effective", "STATE_WATER_BODY_NAME": "ST JOHNS R CLASS III FRESH WBID 2213I", "CWP_CSO_FLAG": "N"}}, {"type": "Feature", "geometry": {"type": "Point", "coordinates": [-80.3050024967176, 26.0613936787189]}, "properties": {"CWP_NAME": "CITY OF COOPER CITY WWTP", "CWP_STREET": "11791 SW 49TH ST", "CWP_CITY": "COOPER CITY", "CWP_STATE": "FL", "CWP_ZIP": "33330-4447", "CWP_COUNTY": "Broward", "NPDES_ID": "FL0040398", "REGISTRY_ID": "110027970319", "CWP_FACILITY_TYPE_INDICATOR": "POTW", "CWP_MAJOR_MINOR_STATUS": "Major", "CWP_PERMIT_STATUS_DESC": "Admin Continued", "STATE_WATER_BODY_NAME": "ATLANTIC OCEAN CLASS III MARINE WBID 8094", "CWP_CSO_FLAG": "N"}}, {"type": "Feature", "geometry": {"type": "Point", "coordinates": [-85.6326203403785, 30.1153566331767]}, "properties": {"CWP_NAME": "MILITARY POINT REGIONAL AWT FACILITY", "CWP_STREET": "100 LAGOON ROAD", "CWP_CITY": "PANAMA CITY", "CWP_STATE": "FL", "CWP_ZIP": "32403", "CWP_COUNTY": "Bay", "NPDES_ID": "FL0167959", "REGISTRY_ID": "110014393637", "CWP_FACILITY_TYPE_INDICATOR": "POTW", "CWP_MAJOR_MINOR_STATUS": "Major", "CWP_PERMIT_STATUS_DESC": "Admin Continued", "STATE_WATER_BODY_NAME": "ST ANDREWS BAY, E BAY-W SEGMENT CLASS III MARINE, ST. ANDREWS BAY CLASS III MARINE WBID 1061D", "CWP_CSO_FLAG": "N"}}, {"type": "Feature", "geometry": {"type": "Point", "coordinates": [-84.8458437521299, 30.6872959309494]}, "properties": {"CWP_NAME": "CHATTAHOOCHEE, CITY OF - WWTP", "CWP_STREET": "211 PALM ST", "CWP_CITY": "CHATTAHOOCHEE", "CWP_STATE": "FL", "CWP_ZIP": "32324-1918", "CWP_COUNTY": "Gadsden", "NPDES_ID": "FL0027669", "REGISTRY_ID": "110006778790", "CWP_FACILITY_TYPE_INDICATOR": "POTW", "CWP_MAJOR_MINOR_STATUS": "Minor", "CWP_PERMIT_STATUS_DESC": "Admin Continued", "STATE_WATER_BODY_NAME": "MOSQUITO CR CLASS III FRESH WBID 376A", "CWP_CSO_FLAG": "N"}}, {"type": "Feature", "geometry": {"type": "Point", "coordinates": [-81.5076447412318, 29.4282277864397]}, "properties": {"CWP_NAME": "CRESCENT CITY WWTF", "CWP_STREET": "1023 OLD HIGHWAY 17", "CWP_CITY": "CRESCENT CITY", "CWP_STATE": "FL", "CWP_ZIP": "32112", "CWP_COUNTY": "Putnam", "NPDES_ID": "FL0021610", "REGISTRY_ID": "110010043880", "CWP_FACILITY_TYPE_INDICATOR": "POTW", "CWP_MAJOR_MINOR_STATUS": "Minor", "CWP_PERMIT_STATUS_DESC": "Effective", "STATE_WATER_BODY_NAME": "CRESCENT LAKE CLASS III FRESH WBID 2606B, CRESCENT LK CLASS III FRESH WBID 2606B ST JOHNS R", "CWP_CSO_FLAG": "N"}}, {"type": "Feature", "geometry": {"type": "Point", "coordinates": [-82.3263536031425, 29.633925247009]}, "properties": {"CWP_NAME": "GRU - MAIN STREET WRF", "CWP_STREET": "200 SE 16TH AVE", "CWP_CITY": "GAINESVILLE", "CWP_STATE": "FL", "CWP_ZIP": "32601-8605", "CWP_COUNTY": "Alachua", "NPDES_ID": "FL0027251", "REGISTRY_ID": "110064648957", "CWP_FACILITY_TYPE_INDICATOR": "POTW", "CWP_MAJOR_MINOR_STATUS": "Major", "CWP_PERMIT_STATUS_DESC": "Effective", "STATE_WATER_BODY_NAME": "SWEETWATER BR, ALACHUA SINK, OCKLAWAHA R BASIN, SWEETWATER BRANCH CLASS III FRESH WBID 2711", "CWP_CSO_FLAG": "N"}}, {"type": "Feature", "geometry": {"type": "Point", "coordinates": [-82.674345421869, 28.2669625974695]}, "properties": {"CWP_NAME": "PASCO COUNTY UTILITIES - MASTER REUSE SYSTEM", "CWP_STREET": "7536 LITTLE RD STE 213", "CWP_CITY": "NEW PORT RICHEY", "CWP_STATE": "FL", "CWP_ZIP": "34654", "CWP_COUNTY": "Pasco", "NPDES_ID": "FL0127272", "REGISTRY_ID": "110031107549", "CWP_FACILITY_TYPE_INDICATOR": "POTW", "CWP_MAJOR_MINOR_STATUS": "Minor", "CWP_PERMIT_STATUS_DESC": "Terminated", "STATE_WATER_BODY_NAME": "DUCK, N CYPRESS, ZEPHYR, TROUT, ETC", "CWP_CSO_FLAG": "N"}}, {"type": "Feature", "geometry": {"type": "Point", "coordinates": [-80.5478915237818, 28.0415664122404]}, "properties": {"CWP_NAME": "BCUD/SOUTH BEACHES", "CWP_STREET": "2800 S HIGHWAY A1A", "CWP_CITY": "MELBOURNE BEACH", "CWP_STATE": "FL", "CWP_ZIP": "32951-2811", "CWP_COUNTY": "Brevard", "NPDES_ID": "FL0040622", "REGISTRY_ID": "110001123490", "CWP_FACILITY_TYPE_INDICATOR": "POTW", "CWP_MAJOR_MINOR_STATUS": "Minor", "CWP_PERMIT_STATUS_DESC": "Effective", "STATE_WATER_BODY_NAME": "INDIAN R LAGOON CLASS III MARINE WBID 2963A1", "CWP_CSO_FLAG": "N"}}, {"type": "Feature", "geometry": {"type": "Point", "coordinates": [-80.1508235756145, 25.9191047105812]}, "properties": {"CWP_NAME": "MDWASD NORTH DISTRICT WWTP", "CWP_STREET": "2575 NE 151 STREET (AT BISCAYNE BLVD)", "CWP_CITY": "MIAMI", "CWP_STATE": "FL", "CWP_ZIP": "33133", "CWP_COUNTY": "Miami-Dade", "NPDES_ID": "FL0032182", "REGISTRY_ID": "110002009567", "CWP_FACILITY_TYPE_INDICATOR": "POTW", "CWP_MAJOR_MINOR_STATUS": "Major", "CWP_PERMIT_STATUS_DESC": "Admin Continued", "STATE_WATER_BODY_NAME": "ATLANTIC OCEAN CLASS III MARINE WBID 8093", "CWP_CSO_FLAG": "N"}}, {"type": "Feature", "geometry": {"type": "Point", "coordinates": [-81.3848088938227, 25.8529487389294]}, "properties": {"CWP_NAME": "CITY OF EVERGLADES CITY WWTF", "CWP_STREET": "COPELAND AVENUE AND KUMQUAT ST", "CWP_CITY": "EVERGLADES CITY", "CWP_STATE": "FL", "CWP_ZIP": "33929", "CWP_COUNTY": "Collier", "NPDES_ID": "FL0027618", "REGISTRY_ID": "110039696102", "CWP_FACILITY_TYPE_INDICATOR": "POTW", "CWP_MAJOR_MINOR_STATUS": "Minor", "CWP_PERMIT_STATUS_DESC": "Terminated", "STATE_WATER_BODY_NAME": "LAKE PLACID CANAL", "CWP_CSO_FLAG": "N"}}, {"type": "Feature", "geometry": {"type": "Point", "coordinates": [-82.1249108266111, 30.2706930744521]}, "properties": {"CWP_NAME": "MACCLENNY WWTF", "CWP_STREET": "798 HONEYMILL RD", "CWP_CITY": "MACCLENNY", "CWP_STATE": "FL", "CWP_ZIP": "32063-2379", "CWP_COUNTY": "Baker", "NPDES_ID": "FL0040495", "REGISTRY_ID": "110027947596", "CWP_FACILITY_TYPE_INDICATOR": "POTW", "CWP_MAJOR_MINOR_STATUS": "Major", "CWP_PERMIT_STATUS_DESC": "Effective", "STATE_WATER_BODY_NAME": "TURKEY CR 2318 CLASS III FRESH TRIB OF ST MARYS R, TURKEY CR CLASS III FRESH WBID 2318", "CWP_CSO_FLAG": "N"}}, {"type": "Feature", "geometry": {"type": "Point", "coordinates": [-81.490002755936, 29.980561840429]}, "properties": {"CWP_NAME": "NORTHWEST WASTEWATER TREATMENT PLANT", "CWP_STREET": "COUNTY ROAD 2209", "CWP_CITY": "ST AUGUSTINE", "CWP_STATE": "FL", "CWP_ZIP": "32092", "CWP_COUNTY": "St. Johns", "NPDES_ID": "FL0670651", "REGISTRY_ID": "110067628847", "CWP_FACILITY_TYPE_INDICATOR": "POTW", "CWP_MAJOR_MINOR_STATUS": "Minor", "CWP_PERMIT_STATUS_DESC": "Effective", "STATE_WATER_BODY_NAME": "MILL CR 2460, SIX MILE CR 2411, CLASS III FRESH, SIX MILE CR CLASS III FRESH 2411", "CWP_CSO_FLAG": "N"}}, {"type": "Feature", "geometry": {"type": "Point", "coordinates": [-82.0577430291188, 26.9850947372774]}, "properties": {"CWP_NAME": "CHARLOTTE COUNTY UTILITIES - EASTPORT WWTP", "CWP_STREET": "3100 LOVELAND BLVD", "CWP_CITY": "PORT CHARLOTTE", "CWP_STATE": "FL", "CWP_ZIP": "33980-2503", "CWP_COUNTY": "Charlotte", "NPDES_ID": "FL0040291", "REGISTRY_ID": "110006778629", "CWP_FACILITY_TYPE_INDICATOR": "POTW", "CWP_MAJOR_MINOR_STATUS": "Minor", "CWP_PERMIT_STATUS_DESC": "Admin Continued", "STATE_WATER_BODY_NAME": "PEACE R", "CWP_CSO_FLAG": "N"}}, {"type": "Feature", "geometry": {"type": "Point", "coordinates": [-81.7881927279322, 26.151907734834]}, "properties": {"CWP_NAME": "CITY OF NAPLES WATER RECLAMATION FACILITY", "CWP_STREET": "1400 3RD AVE N", "CWP_CITY": "NAPLES", "CWP_STATE": "FL", "CWP_ZIP": "34102", "CWP_COUNTY": "Collier", "NPDES_ID": "FL0026271", "REGISTRY_ID": "110027962373", "CWP_FACILITY_TYPE_INDICATOR": "POTW", "CWP_MAJOR_MINOR_STATUS": "Major", "CWP_PERMIT_STATUS_DESC": "Admin Continued", "STATE_WATER_BODY_NAME": "BAY OF NAPLES WBID 3278R5, GORDON R CLASS III MARINE", "CWP_CSO_FLAG": "N"}}, {"type": "Feature", "geometry": {"type": "Point", "coordinates": [-81.5082733783556, 29.724099413662]}, "properties": {"CWP_NAME": "HASTINGS WWTF", "CWP_STREET": "819 N MAIN ST", "CWP_CITY": "HASTINGS", "CWP_STATE": "FL", "CWP_ZIP": "32145-3321", "CWP_COUNTY": "St. Johns", "NPDES_ID": "FL0042315", "REGISTRY_ID": "110027971372", "CWP_FACILITY_TYPE_INDICATOR": "POTW", "CWP_MAJOR_MINOR_STATUS": "Minor", "CWP_PERMIT_STATUS_DESC": "Effective", "STATE_WATER_BODY_NAME": "CRACKER BR WBID 2555 TO DEEP CR WBID 2549, LOWER ST JOHNS R WBID 2213K CLASS III FRESH", "CWP_CSO_FLAG": "N"}}, {"type": "Feature", "geometry": {"type": "Point", "coordinates": [-87.328083006041, 30.4363840451673]}, "properties": {"CWP_NAME": "ECUA - BAYOU MARCUS WATER RECLAMATION FACILITY", "CWP_STREET": "3050 FAYAL DRIVE", "CWP_CITY": "PENSACOLA", "CWP_STATE": "FL", "CWP_ZIP": "32526-2908", "CWP_COUNTY": "Escambia", "NPDES_ID": "FL0031801", "REGISTRY_ID": "110039824704", "CWP_FACILITY_TYPE_INDICATOR": "POTW", "CWP_MAJOR_MINOR_STATUS": "Major", "CWP_PERMIT_STATUS_DESC": "Effective", "STATE_WATER_BODY_NAME": "BAYOU MARCUS CR, PERDIDO BAY, CLASS III ESTUARY, RECEIVING WETLANDS", "CWP_CSO_FLAG": "N"}}, {"type": "Feature", "geometry": {"type": "Point", "coordinates": [-81.7890930059645, 28.0470954141646]}, "properties": {"CWP_NAME": "AUBURNDALE ALLRED WWTP", "CWP_STREET": "1300 RECKER HWY # 655", "CWP_CITY": "AUBURNDALE", "CWP_STATE": "FL", "CWP_ZIP": "33823-4078", "CWP_COUNTY": "Polk", "NPDES_ID": "FL0021466", "REGISTRY_ID": "110027961668", "CWP_FACILITY_TYPE_INDICATOR": "POTW", "CWP_MAJOR_MINOR_STATUS": "Minor", "CWP_PERMIT_STATUS_DESC": "Effective", "STATE_WATER_BODY_NAME": "LAKE LENA RUN CLASS III FRESH WBID 1501A", "CWP_CSO_FLAG": "N"}}, {"type": "Feature", "geometry": {"type": "Point", "coordinates": [-81.2791134313575, 28.8161751423486]}, "properties": {"CWP_NAME": "SANFORD/NORTH WWTF", "CWP_STREET": "1201 WEST SEMINOLE BOULEVARD", "CWP_CITY": "SANFORD", "CWP_STATE": "FL", "CWP_ZIP": "32771", "CWP_COUNTY": "Seminole", "NPDES_ID": "FL0020141", "REGISTRY_ID": "110027948755", "CWP_FACILITY_TYPE_INDICATOR": "POTW", "CWP_MAJOR_MINOR_STATUS": "Major", "CWP_PERMIT_STATUS_DESC": "Effective", "STATE_WATER_BODY_NAME": "ST JOHNS R CLASS III FRESH WBID 2893C, ST JOHNS RIVER CLASS III FRESH WBID 2893C", "CWP_CSO_FLAG": "N"}}, {"type": "Feature", "geometry": {"type": "Point", "coordinates": [-80.0497028975304, 26.7143250364326]}, "properties": {"CWP_NAME": "EAST CENTRAL REGIONAL WWTP", "CWP_STREET": "100 BAYAN BL HAVERHILL ROADP.O", "CWP_CITY": "WEST PALM BEACH", "CWP_STATE": "FL", "CWP_ZIP": "33402", "CWP_COUNTY": "Palm Beach", "NPDES_ID": "FL0041360", "REGISTRY_ID": "110006659197", "CWP_FACILITY_TYPE_INDICATOR": "POTW", "CWP_MAJOR_MINOR_STATUS": "Major", "CWP_PERMIT_STATUS_DESC": "Terminated", "STATE_WATER_BODY_NAME": "ATLANTIC OCEAN", "CWP_CSO_FLAG": "N"}}, {"type": "Feature", "geometry": {"type": "Point", "coordinates": [-85.0387042795988, 29.7168552704401]}, "properties": {"CWP_NAME": "APALACHICOLA, CITY OF - APALACHICOLA WWTF", "CWP_STREET": "US HWY 98", "CWP_CITY": "APALACHICOLA", "CWP_STATE": "FL", "CWP_ZIP": "32320", "CWP_COUNTY": "Franklin", "NPDES_ID": "FL0038857", "REGISTRY_ID": "110062710801", "CWP_FACILITY_TYPE_INDICATOR": "POTW", "CWP_MAJOR_MINOR_STATUS": "Major", "CWP_PERMIT_STATUS_DESC": "Terminated", "STATE_WATER_BODY_NAME": "TRIB TO HUCKLEBERRY CR", "CWP_CSO_FLAG": "N"}}, {"type": "Feature", "geometry": {"type": "Point", "coordinates": [-82.7410733237598, 27.8235094860654]}, "properties": {"CWP_NAME": "SOUTH CROSS BAYOU WRF", "CWP_STREET": "7401 54TH AVE N", "CWP_CITY": "SAINT PETERSBURG", "CWP_STATE": "FL", "CWP_ZIP": "33709-1374", "CWP_COUNTY": "Pinellas", "NPDES_ID": "FL0040436", "REGISTRY_ID": "110000511679", "CWP_FACILITY_TYPE_INDICATOR": "POTW", "CWP_MAJOR_MINOR_STATUS": "Major", "CWP_PERMIT_STATUS_DESC": "Effective", "STATE_WATER_BODY_NAME": "CROSS BAYOU LONG BAYOU CLASS III MARINE, JOES CR CLASS III MARINE WBID 1668E TO WBID 1641", "CWP_CSO_FLAG": "N"}}, {"type": "Feature", "geometry": {"type": "Point", "coordinates": [-81.8081362311651, 30.1736840913171]}, "properties": {"CWP_NAME": "SPENCER'S CROSSING WWTF", "CWP_STREET": "4145-1 SAVANNAH GLEN DRIVE", "CWP_CITY": "ORANGE PARK", "CWP_STATE": "FL", "CWP_ZIP": "32073", "CWP_COUNTY": "Clay", "NPDES_ID": "FL0173371", "REGISTRY_ID": "110010042881", "CWP_FACILITY_TYPE_INDICATOR": "POTW", "CWP_MAJOR_MINOR_STATUS": "Major", "CWP_PERMIT_STATUS_DESC": "Effective", "STATE_WATER_BODY_NAME": "LITTLE BLACK CR WBID 2368 CLASS III FRESH, WBID 2376 CLASS III FRESH TO LITTLE BLACK CREEK", "CWP_CSO_FLAG": "N"}}, {"type": "Feature", "geometry": {"type": "Point", "coordinates": [-81.5626140479706, 30.212699395907]}, "properties": {"CWP_NAME": "ROYAL LAKES SUBDIVISION", "CWP_STREET": "5509 WESTERN WAY", "CWP_CITY": "JACKSONVILLE", "CWP_STATE": "FL", "CWP_ZIP": "32256", "CWP_COUNTY": "Duval", "NPDES_ID": "FL0026751", "REGISTRY_ID": "110015626928", "CWP_FACILITY_TYPE_INDICATOR": "POTW", "CWP_MAJOR_MINOR_STATUS": "Major", "CWP_PERMIT_STATUS_DESC": "Terminated", "STATE_WATER_BODY_NAME": "POTTSBURG CREEK", "CWP_CSO_FLAG": "N"}}, {"type": "Feature", "geometry": {"type": "Point", "coordinates": [-87.1319740836277, 30.3354126462948]}, "properties": {"CWP_NAME": "ECUA - PENSACOLA BEACH WRF", "CWP_STREET": "53 VIA DELUNA DRIVE", "CWP_CITY": "PENSACOLA BEACH", "CWP_STATE": "FL", "CWP_ZIP": "32561", "CWP_COUNTY": "Escambia", "NPDES_ID": "FL0024007", "REGISTRY_ID": "110039695862", "CWP_FACILITY_TYPE_INDICATOR": "POTW", "CWP_MAJOR_MINOR_STATUS": "Major", "CWP_PERMIT_STATUS_DESC": "Effective", "STATE_WATER_BODY_NAME": "ENGLISH NAVY COVE CLASS III MARINE WBID 915J, SANTA ROSA SOUND CLASS III MARINE WBID 915J", "CWP_CSO_FLAG": "N"}}, {"type": "Feature", "geometry": {"type": "Point", "coordinates": [-82.9494643854003, 30.505716531834]}, "properties": {"CWP_NAME": "JASPER WWTF", "CWP_STREET": "SW 107TH AVE", "CWP_CITY": "JASPER", "CWP_STATE": "FL", "CWP_ZIP": "32052", "CWP_COUNTY": "Hamilton", "NPDES_ID": "FL0027880", "REGISTRY_ID": "110027947587", "CWP_FACILITY_TYPE_INDICATOR": "POTW", "CWP_MAJOR_MINOR_STATUS": "Major", "CWP_PERMIT_STATUS_DESC": "Admin Continued", "STATE_WATER_BODY_NAME": "BAISDEN SWAMP CLASS III FRESH WBID 3358, BAISDEN SWAMP TO CLASS III FRESH WBID 3358", "CWP_CSO_FLAG": "N"}}]}