{"type": "FeatureCollection", "features": [{"type": "Feature", "geometry": {"type": "Point", "coordinates": [-77.0327576460405, 38.8167888388484]}, "properties": {"CWP_NAME": "D.C. WASA (BLUE PLAINS)", "CWP_STREET": "5000 OVERLOOK AVE, SW", "CWP_CITY": "WASHINGTON", "CWP_STATE": "DC", "CWP_ZIP": "20372", "CWP_COUNTY": "District of Columbia", "NPDES_ID": "DC0021199", "REGISTRY_ID": "110029030144", "CWP_FACILITY_TYPE_INDICATOR": "POTW", "CWP_MAJOR_MINOR_STATUS": "Major", "CWP_PERMIT_STATUS_DESC": "Effective", "STATE_WATER_BODY_NAME": "ANACOSTIA RIVER, POTOMAC RIVER, ROCK CREEK, ROCK CREEK EAST SIDE, ROCK CREEK WEST SIDE", "CWP_CSO_FLAG": "Y"}}, {"type": "Feature", "geometry": {"type": "Point", "coordinates": [-77.0110803862049, 38.9072480652399]}, "properties": {"CWP_NAME": "DISTRICT DEPARTMENT OF ENERGY AND ENVIRONMENT NATURAL RESOURCES ADMINISTRATION", "CWP_STREET": "1200 FIRST STREE, N.E., 5TH FLOOR", "CWP_CITY": "WASHINGTON", "CWP_STATE": "DC", "CWP_ZIP": "20002", "CWP_COUNTY": "District of Columbia", "NPDES_ID": "DC0000221", "REGISTRY_ID": "110039828504", "CWP_FACILITY_TYPE_INDICATOR": "POTW", "CWP_MAJOR_MINOR_STATUS": "Major", "CWP_PERMIT_STATUS_DESC": "Effective", "STATE_WATER_BODY_NAME": "ANACOSTIA RIVER, POTOMAC RIVER, POTOMAC RVR, ROCK CREEK", "CWP_CSO_FLAG": "N"}}]}