{"type": "FeatureCollection", "features": [{"type": "Feature", "geometry": {"type": "Point", "coordinates": [-70.5196507056023, 44.5406287472446]}, "properties": {"CWP_NAME": "RUMFORD POINT WWTF", "CWP_STREET": "RTE 2", "CWP_CITY": "RUMFORD", "CWP_STATE": "ME", "CWP_ZIP": "04276", "CWP_COUNTY": "Oxford", "NPDES_ID": "ME0101486", "REGISTRY_ID": "110006618730", "CWP_FACILITY_TYPE_INDICATOR": "POTW", "CWP_MAJOR_MINOR_STATUS": "Minor", "CWP_PERMIT_STATUS_DESC": "Expired", "STATE_WATER_BODY_NAME": "ANDROSCOGGIN RIVER", "CWP_CSO_FLAG": "N"}}, {"type": "Feature", "geometry": {"type": "Point", "coordinates": [-68.7703599204632, 44.5694691650661]}, "properties": {"CWP_NAME": "BUCKSPORT WWTF", "CWP_STREET": "205 US RTE 1", "CWP_CITY": "BUCKSPORT", "CWP_STATE": "ME", "CWP_ZIP": "04416", "CWP_COUNTY": "Hancock", "NPDES_ID": "ME0100111", "REGISTRY_ID": "110009025991", "CWP_FACILITY_TYPE_INDICATOR": "POTW", "CWP_MAJOR_MINOR_STATUS": "Minor", "CWP_PERMIT_STATUS_DESC": "Effective", "STATE_WATER_BODY_NAME": "PENOBSCOT RIVER", "CWP_CSO_FLAG": "Y"}}, {"type": "Feature", "geometry": {"type": "Point", "coordinates": [-69.6025271302076, 43.8597986962871]}, "properties": {"CWP_NAME": "BAYVILLE VILLAGE CORPORATION", "CWP_STREET": "12 ROBERTS CIR", "CWP_CITY": "BOOTHBAY HARBOR", "CWP_STATE": "ME", "CWP_ZIP": "04538", "CWP_COUNTY": "Lincoln", "NPDES_ID": "ME0101664", "REGISTRY_ID": "110009025937", "CWP_FACILITY_TYPE_INDICATOR": "POTW", "CWP_MAJOR_MINOR_STATUS": "Minor", "CWP_PERMIT_STATUS_DESC": "Effective", "STATE_WATER_BODY_NAME": "LINEKIN BAY", "CWP_CSO_FLAG": "N"}}, {"type": "Feature", "geometry": {"type": "Point", "coordinates": [-66.9828695291082, 44.8563188246918]}, "properties": {"CWP_NAME": "LUBEC WWTF", "CWP_STREET": "PLEASANT ST", "CWP_CITY": "LUBEC", "CWP_STATE": "ME", "CWP_ZIP": "04652", "CWP_COUNTY": "Washington", "NPDES_ID": "ME0102016", "REGISTRY_ID": "110009912773", "CWP_FACILITY_TYPE_INDICATOR": "POTW", "CWP_MAJOR_MINOR_STATUS": "Minor", "CWP_PERMIT_STATUS_DESC": "Effective", "STATE_WATER_BODY_NAME": "PASSAMAQUODDY BAY", "CWP_CSO_FLAG": "N"}}, {"type": "Feature", "geometry": {"type": "Point", "coordinates": [-70.6059675812698, 43.1829282987308]}, "properties": {"CWP_NAME": "YORK WWTF", "CWP_STREET": "21 BAY HAVEN RD", "CWP_CITY": "YORK", "CWP_STATE": "ME", "CWP_ZIP": "03909", "CWP_COUNTY": "York", "NPDES_ID": "ME0101222", "REGISTRY_ID": "110000761792", "CWP_FACILITY_TYPE_INDICATOR": "POTW", "CWP_MAJOR_MINOR_STATUS": "Major", "CWP_PERMIT_STATUS_DESC": "Admin Continued", "STATE_WATER_BODY_NAME": "CAPE NEDDICK", "CWP_CSO_FLAG": "N"}}, {"type": "Feature", "geometry": {"type": "Point", "coordinates": [-67.3926448755015, 45.1543910652144]}, "properties": {"CWP_NAME": "BAILEYVILLE WWTF", "CWP_STREET": "3 ELM ST", "CWP_CITY": "BAILEYVILLE", "CWP_STATE": "ME", "CWP_ZIP": "04694", "CWP_COUNTY": "Washington", "NPDES_ID": "ME0101320", "REGISTRY_ID": "110001149392", "CWP_FACILITY_TYPE_INDICATOR": "POTW", "CWP_MAJOR_MINOR_STATUS": "Major", "CWP_PERMIT_STATUS_DESC": "Effective", "STATE_WATER_BODY_NAME": "ST CROIX RIVER", "CWP_CSO_FLAG": "N"}}, {"type": "Feature", "geometry": {"type": "Point", "coordinates": [-70.4696303245107, 43.3626587466556]}, "properties": {"CWP_NAME": "KENNEBUNKPORT WWTF", "CWP_STREET": "25 SCHOOL ST REAR", "CWP_CITY": "KENNEBUNKPORT", "CWP_STATE": "ME", "CWP_ZIP": "04046", "CWP_COUNTY": "York", "NPDES_ID": "ME0101184", "REGISTRY_ID": "110002040728", "CWP_FACILITY_TYPE_INDICATOR": "POTW", "CWP_MAJOR_MINOR_STATUS": "Major", "CWP_PERMIT_STATUS_DESC": "Effective", "STATE_WATER_BODY_NAME": "KENNEBUNK RIVER", "CWP_CSO_FLAG": "N"}}, {"type": "Feature", "geometry": {"type": "Point", "coordinates": [-66.9901189689416, 44.9016329725528]}, "properties": {"CWP_NAME": "EASTPORT MAIN WWTF", "CWP_STREET": "COUNTRY RD", "CWP_CITY": "EASTPORT", "CWP_STATE": "ME", "CWP_ZIP": "04631", "CWP_COUNTY": "Washington", "NPDES_ID": "ME0100200", "REGISTRY_ID": "110009026008", "CWP_FACILITY_TYPE_INDICATOR": "POTW", "CWP_MAJOR_MINOR_STATUS": "Minor", "CWP_PERMIT_STATUS_DESC": "Effective", "STATE_WATER_BODY_NAME": "PASSAMAQUODDY BAY", "CWP_CSO_FLAG": "N"}}, {"type": "Feature", "geometry": {"type": "Point", "coordinates": [-68.5730100830258, 47.1622096830625]}, "properties": {"CWP_NAME": "EAGLE LAKE WATER & SEWER DISTRICT", "CWP_STREET": "CHURCH ST", "CWP_CITY": "WALLAGRASS", "CWP_STATE": "ME", "CWP_ZIP": "04781", "CWP_COUNTY": "Aroostook", "NPDES_ID": "MEU507955", "REGISTRY_ID": "110009913969", "CWP_FACILITY_TYPE_INDICATOR": "POTW", "CWP_MAJOR_MINOR_STATUS": "Minor", "CWP_PERMIT_STATUS_DESC": "Admin Continued", "STATE_WATER_BODY_NAME": "GROUNDWATER", "CWP_CSO_FLAG": "N"}}, {"type": "Feature", "geometry": {"type": "Point", "coordinates": [-68.5730100830258, 47.1622096830625]}, "properties": {"CWP_NAME": "EAGLE LAKE WATER & SEWER DISTRICT", "CWP_STREET": "243 OLD MAIN ST", "CWP_CITY": "EAGLE LAKE", "CWP_STATE": "ME", "CWP_ZIP": "04739", "CWP_COUNTY": "Aroostook", "NPDES_ID": "MEU503374", "REGISTRY_ID": "110009913969", "CWP_FACILITY_TYPE_INDICATOR": "POTW", "CWP_MAJOR_MINOR_STATUS": "Minor", "CWP_PERMIT_STATUS_DESC": "Admin Continued", "STATE_WATER_BODY_NAME": "GROUNDWATER", "CWP_CSO_FLAG": "N"}}, {"type": "Feature", "geometry": {"type": "Point", "coordinates": [-70.7108735850264, 44.0423754593079]}, "properties": {"CWP_NAME": "BRIDGTON WWTF SUBSURFACE WASTEWATER TREATMENT SYSTEM DISCHARGE", "CWP_STREET": "LOWER MAIN ST & WAYSIDE AVE", "CWP_CITY": "BRIDGTON", "CWP_STATE": "ME", "CWP_ZIP": "04009-1264", "CWP_COUNTY": "Cumberland", "NPDES_ID": "MEU507879", "REGISTRY_ID": "110009914183", "CWP_FACILITY_TYPE_INDICATOR": "POTW", "CWP_MAJOR_MINOR_STATUS": "Minor", "CWP_PERMIT_STATUS_DESC": "Effective", "STATE_WATER_BODY_NAME": "GROUNDWATER", "CWP_CSO_FLAG": "N"}}, {"type": "Feature", "geometry": {"type": "Point", "coordinates": [-68.669730222739, 44.155019225974]}, "properties": {"CWP_NAME": "STONINGTON SD WWTF", "CWP_STREET": "W MAIN ST", "CWP_CITY": "STONINGTON", "CWP_STATE": "ME", "CWP_ZIP": "04681", "CWP_COUNTY": "Hancock", "NPDES_ID": "ME0101851", "REGISTRY_ID": "110008993358", "CWP_FACILITY_TYPE_INDICATOR": "POTW", "CWP_MAJOR_MINOR_STATUS": "Minor", "CWP_PERMIT_STATUS_DESC": "Effective", "STATE_WATER_BODY_NAME": "DEER ISLE THOROUGHFARE", "CWP_CSO_FLAG": "N"}}, {"type": "Feature", "geometry": {"type": "Point", "coordinates": [-70.7866208317525, 44.413879165951]}, "properties": {"CWP_NAME": "BETHEL WWTF", "CWP_STREET": "199 MAIN ST", "CWP_CITY": "BETHEL", "CWP_STATE": "ME", "CWP_ZIP": "04217", "CWP_COUNTY": "Oxford", "NPDES_ID": "ME0101176", "REGISTRY_ID": "110009912880", "CWP_FACILITY_TYPE_INDICATOR": "POTW", "CWP_MAJOR_MINOR_STATUS": "Minor", "CWP_PERMIT_STATUS_DESC": "Admin Continued", "STATE_WATER_BODY_NAME": "ANDROSCOGGIN RIVER", "CWP_CSO_FLAG": "N"}}, {"type": "Feature", "geometry": {"type": "Point", "coordinates": [-69.8109801616413, 43.9272622448649]}, "properties": {"CWP_NAME": "BATH WWTF", "CWP_STREET": "1 TOWN LANDING RD", "CWP_CITY": "BATH", "CWP_STATE": "ME", "CWP_ZIP": "04530", "CWP_COUNTY": "Sagadahoc", "NPDES_ID": "ME0100021", "REGISTRY_ID": "110009913086", "CWP_FACILITY_TYPE_INDICATOR": "POTW", "CWP_MAJOR_MINOR_STATUS": "Major", "CWP_PERMIT_STATUS_DESC": "Effective", "STATE_WATER_BODY_NAME": "KENNEBEC RIVER", "CWP_CSO_FLAG": "Y"}}, {"type": "Feature", "geometry": {"type": "Point", "coordinates": [-70.1103573873788, 44.1107806236863]}, "properties": {"CWP_NAME": "SABATTUS SANITARY DISTRICT", "CWP_STREET": "22 LISBON RD", "CWP_CITY": "SABATTUS", "CWP_STATE": "ME", "CWP_ZIP": "04280", "CWP_COUNTY": "Androscoggin", "NPDES_ID": "ME0101842", "REGISTRY_ID": "110009048146", "CWP_FACILITY_TYPE_INDICATOR": "POTW", "CWP_MAJOR_MINOR_STATUS": "Minor", "CWP_PERMIT_STATUS_DESC": "Admin Continued", "STATE_WATER_BODY_NAME": "SABATTUS RIVER", "CWP_CSO_FLAG": "N"}}, {"type": "Feature", "geometry": {"type": "Point", "coordinates": [-69.6320401912078, 43.8518792640002]}, "properties": {"CWP_NAME": "BOOTHBAY HARBOR WWTF", "CWP_STREET": "27 SEA ST", "CWP_CITY": "BOOTHBAY HARBOR", "CWP_STATE": "ME", "CWP_ZIP": "04538", "CWP_COUNTY": "Lincoln", "NPDES_ID": "ME0100064", "REGISTRY_ID": "110000916153", "CWP_FACILITY_TYPE_INDICATOR": "POTW", "CWP_MAJOR_MINOR_STATUS": "Major", "CWP_PERMIT_STATUS_DESC": "Effective", "STATE_WATER_BODY_NAME": "BOOTHBAY HARBOR", "CWP_CSO_FLAG": "N"}}, {"type": "Feature", "geometry": {"type": "Point", "coordinates": [-70.1656000419136, 43.7903089509961]}, "properties": {"CWP_NAME": "YARMOUTH WWTF", "CWP_STREET": "82 PRINCES POINT RD", "CWP_CITY": "YARMOUTH", "CWP_STATE": "ME", "CWP_ZIP": "04096", "CWP_COUNTY": "Cumberland", "NPDES_ID": "ME0100765", "REGISTRY_ID": "110002052215", "CWP_FACILITY_TYPE_INDICATOR": "POTW", "CWP_MAJOR_MINOR_STATUS": "Major", "CWP_PERMIT_STATUS_DESC": "Admin Continued", "STATE_WATER_BODY_NAME": "ROYAL RIVER", "CWP_CSO_FLAG": "Y"}}, {"type": "Feature", "geometry": {"type": "Point", "coordinates": [-69.4667564817813, 44.64739631283]}, "properties": {"CWP_NAME": "CLINTON WWTF", "CWP_STREET": "111 OLD LEONARD WOOD RD", "CWP_CITY": "CLINTON", "CWP_STATE": "ME", "CWP_ZIP": "04927", "CWP_COUNTY": "Kennebec", "NPDES_ID": "ME0101699", "REGISTRY_ID": "110009912960", "CWP_FACILITY_TYPE_INDICATOR": "POTW", "CWP_MAJOR_MINOR_STATUS": "Minor", "CWP_PERMIT_STATUS_DESC": "Effective", "STATE_WATER_BODY_NAME": "SEBASTICOOK RIVER", "CWP_CSO_FLAG": "N"}}, {"type": "Feature", "geometry": {"type": "Point", "coordinates": [-69.8832821336013, 44.7953905609278]}, "properties": {"CWP_NAME": "ANSON-MADISON WWTF", "CWP_STREET": "49 PINE ST", "CWP_CITY": "MADISON", "CWP_STATE": "ME", "CWP_ZIP": "04950", "CWP_COUNTY": "Somerset", "NPDES_ID": "ME0101389", "REGISTRY_ID": "110006618320", "CWP_FACILITY_TYPE_INDICATOR": "POTW", "CWP_MAJOR_MINOR_STATUS": "Major", "CWP_PERMIT_STATUS_DESC": "Effective", "STATE_WATER_BODY_NAME": "KENNEBEC RIVER", "CWP_CSO_FLAG": "N"}}, {"type": "Feature", "geometry": {"type": "Point", "coordinates": [-68.306985134019, 47.1739746239638]}, "properties": {"CWP_NAME": "SINCLAIR SANITARY DISTRICT", "CWP_STREET": "P.O. BOX 71", "CWP_CITY": "SINCLAIR", "CWP_STATE": "ME", "CWP_ZIP": "047790071", "CWP_COUNTY": "Aroostook", "NPDES_ID": "ME0102326", "REGISTRY_ID": "110055023228", "CWP_FACILITY_TYPE_INDICATOR": "POTW", "CWP_MAJOR_MINOR_STATUS": "Minor", "CWP_PERMIT_STATUS_DESC": "Terminated", "STATE_WATER_BODY_NAME": "NO APPLICATION RECEIVED", "CWP_CSO_FLAG": "N"}}, {"type": "Feature", "geometry": {"type": "Point", "coordinates": [-69.6247224428353, 44.4877873005435]}, "properties": {"CWP_NAME": "VASSALBORO SANITARY DISTRICT NORTH", "CWP_STREET": "N MAIN ST", "CWP_CITY": "VASSALBORO", "CWP_STATE": "ME", "CWP_ZIP": "04989", "CWP_COUNTY": "Kennebec", "NPDES_ID": "ME0102652", "REGISTRY_ID": "110020741018", "CWP_FACILITY_TYPE_INDICATOR": "POTW", "CWP_MAJOR_MINOR_STATUS": "Minor", "CWP_PERMIT_STATUS_DESC": "Terminated", "STATE_WATER_BODY_NAME": "OUTLET STREAM", "CWP_CSO_FLAG": "N"}}, {"type": "Feature", "geometry": {"type": "Point", "coordinates": [-70.805180972856, 43.2256892649794]}, "properties": {"CWP_NAME": "SOUTH BERWICK SD WWTF", "CWP_STREET": "LIBERTY ST", "CWP_CITY": "SOUTH BERWICK", "CWP_STATE": "ME", "CWP_ZIP": "03908", "CWP_COUNTY": "York", "NPDES_ID": "ME0100820", "REGISTRY_ID": "110006618767", "CWP_FACILITY_TYPE_INDICATOR": "POTW", "CWP_MAJOR_MINOR_STATUS": "Major", "CWP_PERMIT_STATUS_DESC": "Admin Continued", "STATE_WATER_BODY_NAME": "SALMON FALLS RIVER", "CWP_CSO_FLAG": "N"}}, {"type": "Feature", "geometry": {"type": "Point", "coordinates": [-68.9088402673245, 44.456178844463]}, "properties": {"CWP_NAME": "SEARSPORT WWTF", "CWP_STREET": "45 NAVY ST", "CWP_CITY": "SEARSPORT", "CWP_STATE": "ME", "CWP_ZIP": "04974", "CWP_COUNTY": "Waldo", "NPDES_ID": "ME0101966", "REGISTRY_ID": "110011126968", "CWP_FACILITY_TYPE_INDICATOR": "POTW", "CWP_MAJOR_MINOR_STATUS": "Minor", "CWP_PERMIT_STATUS_DESC": "Effective", "STATE_WATER_BODY_NAME": "PENOBSCOT BAY, SEARSPORT HARBOR", "CWP_CSO_FLAG": "N"}}, {"type": "Feature", "geometry": {"type": "Point", "coordinates": [-67.3940558898555, 44.7355650223251]}, "properties": {"CWP_NAME": "EAST MACHIAS WWTF", "CWP_STREET": "RTE 1", "CWP_CITY": "EAST MACHIAS", "CWP_STATE": "ME", "CWP_ZIP": "04630", "CWP_COUNTY": "Washington", "NPDES_ID": "ME0102156", "REGISTRY_ID": "110011126995", "CWP_FACILITY_TYPE_INDICATOR": "POTW", "CWP_MAJOR_MINOR_STATUS": "Minor", "CWP_PERMIT_STATUS_DESC": "Effective", "STATE_WATER_BODY_NAME": "EAST MACHIAS RIVER", "CWP_CSO_FLAG": "N"}}, {"type": "Feature", "geometry": {"type": "Point", "coordinates": [-69.3519094523759, 45.1758128636134]}, "properties": {"CWP_NAME": "GUILFORD-SANGERVILLE SD WWTF", "CWP_STREET": "22 DEAN RD", "CWP_CITY": "GUILFORD", "CWP_STATE": "ME", "CWP_ZIP": "04443", "CWP_COUNTY": "Piscataquis", "NPDES_ID": "ME0102032", "REGISTRY_ID": "110039674769", "CWP_FACILITY_TYPE_INDICATOR": "POTW", "CWP_MAJOR_MINOR_STATUS": "Major", "CWP_PERMIT_STATUS_DESC": "Admin Continued", "STATE_WATER_BODY_NAME": "PISCATAQUIS RIVER", "CWP_CSO_FLAG": "N"}}, {"type": "Feature", "geometry": {"type": "Point", "coordinates": [-69.1938498876294, 44.087739117406]}, "properties": {"CWP_NAME": "THOMASTON WWTF", "CWP_STREET": "33 CLARK ST", "CWP_CITY": "THOMASTON", "CWP_STATE": "ME", "CWP_ZIP": "04861", "CWP_COUNTY": "Knox", "NPDES_ID": "ME0100668", "REGISTRY_ID": "110006618776", "CWP_FACILITY_TYPE_INDICATOR": "POTW", "CWP_MAJOR_MINOR_STATUS": "Major", "CWP_PERMIT_STATUS_DESC": "Effective", "STATE_WATER_BODY_NAME": "ST GEORGE RIVER", "CWP_CSO_FLAG": "N"}}, {"type": "Feature", "geometry": {"type": "Point", "coordinates": [-70.1343000472298, 44.1272894807321]}, "properties": {"CWP_NAME": "NO NAME POND COMMUNITY SEPTIC SYSTEM", "CWP_STREET": "LOON DR & CENTER AVE", "CWP_CITY": "LEWISTON", "CWP_STATE": "ME", "CWP_ZIP": "04240", "CWP_COUNTY": "Androscoggin", "NPDES_ID": "MEU508126", "REGISTRY_ID": "110012311578", "CWP_FACILITY_TYPE_INDICATOR": "POTW", "CWP_MAJOR_MINOR_STATUS": "Minor", "CWP_PERMIT_STATUS_DESC": "Effective", "STATE_WATER_BODY_NAME": "GROUNDWATER", "CWP_CSO_FLAG": "N"}}, {"type": "Feature", "geometry": {"type": "Point", "coordinates": [-70.4400003587877, 43.4900090681291]}, "properties": {"CWP_NAME": "SACO WWTF", "CWP_STREET": "68 FRONT ST", "CWP_CITY": "SACO", "CWP_STATE": "ME", "CWP_ZIP": "04072", "CWP_COUNTY": "York", "NPDES_ID": "ME0101117", "REGISTRY_ID": "110020625858", "CWP_FACILITY_TYPE_INDICATOR": "POTW", "CWP_MAJOR_MINOR_STATUS": "Major", "CWP_PERMIT_STATUS_DESC": "Admin Continued", "STATE_WATER_BODY_NAME": "SACO RIVER", "CWP_CSO_FLAG": "Y"}}, {"type": "Feature", "geometry": {"type": "Point", "coordinates": [-68.6471204049305, 44.9525201743042]}, "properties": {"CWP_NAME": "PENOBSCOT INDIAN NATION", "CWP_STREET": "12 WABANAKI WY", "CWP_CITY": "INDIAN ISLAND", "CWP_STATE": "ME", "CWP_ZIP": "04468", "CWP_COUNTY": "Penobscot", "NPDES_ID": "ME0101311", "REGISTRY_ID": "110009912933", "CWP_FACILITY_TYPE_INDICATOR": "POTW", "CWP_MAJOR_MINOR_STATUS": "Minor", "CWP_PERMIT_STATUS_DESC": "Admin Continued", "STATE_WATER_BODY_NAME": "PENOBSCOT RIVER", "CWP_CSO_FLAG": "N"}}, {"type": "Feature", "geometry": {"type": "Point", "coordinates": [-68.4208328913625, 44.5369532814416]}, "properties": {"CWP_NAME": "ELLSWORTH WWTF", "CWP_STREET": "333 WATER ST", "CWP_CITY": "ELLSWORTH", "CWP_STATE": "ME", "CWP_ZIP": "04605", "CWP_COUNTY": "Hancock", "NPDES_ID": "ME0100889", "REGISTRY_ID": "110009025964", "CWP_FACILITY_TYPE_INDICATOR": "POTW", "CWP_MAJOR_MINOR_STATUS": "Major", "CWP_PERMIT_STATUS_DESC": "Terminated", "STATE_WATER_BODY_NAME": "UNION RIVER", "CWP_CSO_FLAG": "N"}}, {"type": "Feature", "geometry": {"type": "Point", "coordinates": [-68.25919947739, 44.4172094333013]}, "properties": {"CWP_NAME": "BAR HARBOR WWTF HULLS COVE FACILITY", "CWP_STREET": "37 CROOKED RD", "CWP_CITY": "BAR HARBOR", "CWP_STATE": "ME", "CWP_ZIP": "04609", "CWP_COUNTY": "Hancock", "NPDES_ID": "ME0102466", "REGISTRY_ID": "110012311658", "CWP_FACILITY_TYPE_INDICATOR": "POTW", "CWP_MAJOR_MINOR_STATUS": "Minor", "CWP_PERMIT_STATUS_DESC": "Expired", "STATE_WATER_BODY_NAME": "FRENCHMAN BAY", "CWP_CSO_FLAG": "N"}}, {"type": "Feature", "geometry": {"type": "Point", "coordinates": [-67.8633799509679, 46.5134692475308]}, "properties": {"CWP_NAME": "MARS HILL UTILITY DISTRICT WWTF", "CWP_STREET": "70 MILL ST", "CWP_CITY": "MARS HILL", "CWP_STATE": "ME", "CWP_ZIP": "04758", "CWP_COUNTY": "Aroostook", "NPDES_ID": "ME0101079", "REGISTRY_ID": "110002332592", "CWP_FACILITY_TYPE_INDICATOR": "POTW", "CWP_MAJOR_MINOR_STATUS": "Major", "CWP_PERMIT_STATUS_DESC": "Effective", "STATE_WATER_BODY_NAME": "PRESTILE STREAM", "CWP_CSO_FLAG": "N"}}, {"type": "Feature", "geometry": {"type": "Point", "coordinates": [-68.151289925393, 46.7699694200847]}, "properties": {"CWP_NAME": "WASHBURN WWTF", "CWP_STREET": "2326 PARSONS RD", "CWP_CITY": "WASHBURN", "CWP_STATE": "ME", "CWP_ZIP": "04786", "CWP_COUNTY": "Aroostook", "NPDES_ID": "ME0101028", "REGISTRY_ID": "110039675517", "CWP_FACILITY_TYPE_INDICATOR": "POTW", "CWP_MAJOR_MINOR_STATUS": "Minor", "CWP_PERMIT_STATUS_DESC": "Admin Continued", "STATE_WATER_BODY_NAME": "AROOSTOOK RIVER", "CWP_CSO_FLAG": "N"}}, {"type": "Feature", "geometry": {"type": "Point", "coordinates": [-69.5962597958285, 44.5878288031291]}, "properties": {"CWP_NAME": "FAIRFIELD WWTF", "CWP_STREET": "19 LAWRENCE AVE", "CWP_CITY": "FAIRFIELD", "CWP_STATE": "ME", "CWP_ZIP": "049370149", "CWP_COUNTY": "Somerset", "NPDES_ID": "ME0102393", "REGISTRY_ID": "110006743970", "CWP_FACILITY_TYPE_INDICATOR": "POTW", "CWP_MAJOR_MINOR_STATUS": "Minor", "CWP_PERMIT_STATUS_DESC": "Terminated", "STATE_WATER_BODY_NAME": "KENNEBEC RIVER", "CWP_CSO_FLAG": "N"}}, {"type": "Feature", "geometry": {"type": "Point", "coordinates": [-70.3900007349602, 43.5000086333845]}, "properties": {"CWP_NAME": "OLD ORCHARD BEACH WWTF", "CWP_STREET": "24 MANOR ST", "CWP_CITY": "OLD ORCHARD BEACH", "CWP_STATE": "ME", "CWP_ZIP": "04064", "CWP_COUNTY": "York", "NPDES_ID": "ME0101524", "REGISTRY_ID": "110022329461", "CWP_FACILITY_TYPE_INDICATOR": "POTW", "CWP_MAJOR_MINOR_STATUS": "Major", "CWP_PERMIT_STATUS_DESC": "Admin Continued", "STATE_WATER_BODY_NAME": "ATLANTIC OCEAN", "CWP_CSO_FLAG": "N"}}, {"type": "Feature", "geometry": {"type": "Point", "coordinates": [-70.5245205152492, 44.2080387101475]}, "properties": {"CWP_NAME": "NORWAY WWTF", "CWP_STREET": "43 BROWN ST", "CWP_CITY": "NORWAY", "CWP_STATE": "ME", "CWP_ZIP": "04268", "CWP_COUNTY": "Oxford", "NPDES_ID": "ME0100455", "REGISTRY_ID": "110009913175", "CWP_FACILITY_TYPE_INDICATOR": "POTW", "CWP_MAJOR_MINOR_STATUS": "Major", "CWP_PERMIT_STATUS_DESC": "Effective", "STATE_WATER_BODY_NAME": "LITTLE ANDROSCOGGIN RIVER", "CWP_CSO_FLAG": "N"}}, {"type": "Feature", "geometry": {"type": "Point", "coordinates": [-70.1981105366098, 43.6540193668339]}, "properties": {"CWP_NAME": "PEAKS ISLAND WWTF", "CWP_STREET": "15 WELCH ST", "CWP_CITY": "PORTLAND", "CWP_STATE": "ME", "CWP_ZIP": "04108", "CWP_COUNTY": "Cumberland", "NPDES_ID": "ME0102237", "REGISTRY_ID": "110009026106", "CWP_FACILITY_TYPE_INDICATOR": "POTW", "CWP_MAJOR_MINOR_STATUS": "Minor", "CWP_PERMIT_STATUS_DESC": "Admin Continued", "STATE_WATER_BODY_NAME": "CASCO BAY", "CWP_CSO_FLAG": "N"}}, {"type": "Feature", "geometry": {"type": "Point", "coordinates": [-68.6567296811558, 45.2415191634151]}, "properties": {"CWP_NAME": "HOWLAND WWTF", "CWP_STREET": "8 MAIN ST", "CWP_CITY": "HOWLAND", "CWP_STATE": "ME", "CWP_ZIP": "04448", "CWP_COUNTY": "Penobscot", "NPDES_ID": "ME0101788", "REGISTRY_ID": "110009912719", "CWP_FACILITY_TYPE_INDICATOR": "POTW", "CWP_MAJOR_MINOR_STATUS": "Minor", "CWP_PERMIT_STATUS_DESC": "Expired", "STATE_WATER_BODY_NAME": "PENOBSCOT RIVER", "CWP_CSO_FLAG": "N"}}, {"type": "Feature", "geometry": {"type": "Point", "coordinates": [-70.2300005103266, 43.7100093680713]}, "properties": {"CWP_NAME": "FALMOUTH WWTF", "CWP_STREET": "96 CLEARWATER DR", "CWP_CITY": "FALMOUTH", "CWP_STATE": "ME", "CWP_ZIP": "04105", "CWP_COUNTY": "Cumberland", "NPDES_ID": "ME0100218", "REGISTRY_ID": "110006618543", "CWP_FACILITY_TYPE_INDICATOR": "POTW", "CWP_MAJOR_MINOR_STATUS": "Major", "CWP_PERMIT_STATUS_DESC": "Effective", "STATE_WATER_BODY_NAME": "PRESUMPSCOT RIVER ESTUARY", "CWP_CSO_FLAG": "N"}}, {"type": "Feature", "geometry": {"type": "Point", "coordinates": [-68.9136003693115, 44.2603190577405]}, "properties": {"CWP_NAME": "DARK HARBOR WWTF", "CWP_STREET": "524 PENDLETON POINT RD", "CWP_CITY": "ISLESBORO", "CWP_STATE": "ME", "CWP_ZIP": "04848", "CWP_COUNTY": "Waldo", "NPDES_ID": "ME0100269", "REGISTRY_ID": "110009913148", "CWP_FACILITY_TYPE_INDICATOR": "POTW", "CWP_MAJOR_MINOR_STATUS": "Minor", "CWP_PERMIT_STATUS_DESC": "Admin Continued", "STATE_WATER_BODY_NAME": "DARK HARBOR", "CWP_CSO_FLAG": "N"}}, {"type": "Feature", "geometry": {"type": "Point", "coordinates": [-67.5238299030495, 44.7211794607827]}, "properties": {"CWP_NAME": "WHITNEYVILLE WWTF", "CWP_STREET": "CANAL RD", "CWP_CITY": "WHITNEYVILLE", "CWP_STATE": "ME", "CWP_ZIP": "04654", "CWP_COUNTY": "Washington", "NPDES_ID": "ME0102181", "REGISTRY_ID": "110009912808", "CWP_FACILITY_TYPE_INDICATOR": "POTW", "CWP_MAJOR_MINOR_STATUS": "Minor", "CWP_PERMIT_STATUS_DESC": "Effective", "STATE_WATER_BODY_NAME": "MACHIAS RIVER", "CWP_CSO_FLAG": "N"}}, {"type": "Feature", "geometry": {"type": "Point", "coordinates": [-68.5681797267494, 45.6194197520665]}, "properties": {"CWP_NAME": "EAST MILLINOCKET WWTF", "CWP_STREET": "1 CLARIFIER RD", "CWP_CITY": "EAST MILLINOCKE", "CWP_STATE": "ME", "CWP_ZIP": "04430", "CWP_COUNTY": "Penobscot", "NPDES_ID": "ME0100196", "REGISTRY_ID": "110039677285", "CWP_FACILITY_TYPE_INDICATOR": "POTW", "CWP_MAJOR_MINOR_STATUS": "Minor", "CWP_PERMIT_STATUS_DESC": "Terminated", "STATE_WATER_BODY_NAME": "WEST BRANCH PENOBSCOT RIVER", "CWP_CSO_FLAG": "Y"}}, {"type": "Feature", "geometry": {"type": "Point", "coordinates": [-70.1368604504357, 44.6555693321628]}, "properties": {"CWP_NAME": "FARMINGTON WWTF", "CWP_STREET": "269 FARMINGTON FALLS RD", "CWP_CITY": "FARMINGTON", "CWP_STATE": "ME", "CWP_ZIP": "04938", "CWP_COUNTY": "Franklin", "NPDES_ID": "ME0101249", "REGISTRY_ID": "110009912915", "CWP_FACILITY_TYPE_INDICATOR": "POTW", "CWP_MAJOR_MINOR_STATUS": "Major", "CWP_PERMIT_STATUS_DESC": "Expired", "STATE_WATER_BODY_NAME": "SANDY RIVER", "CWP_CSO_FLAG": "N"}}, {"type": "Feature", "geometry": {"type": "Point", "coordinates": [-68.7819998618363, 44.7809088089194]}, "properties": {"CWP_NAME": "BANGOR WWTF", "CWP_STREET": "760 MAIN ST", "CWP_CITY": "BANGOR", "CWP_STATE": "ME", "CWP_ZIP": "04401", "CWP_COUNTY": "Penobscot", "NPDES_ID": "ME0100781", "REGISTRY_ID": "110000732985", "CWP_FACILITY_TYPE_INDICATOR": "POTW", "CWP_MAJOR_MINOR_STATUS": "Major", "CWP_PERMIT_STATUS_DESC": "Expired", "STATE_WATER_BODY_NAME": "PENOBSCOT RIVER", "CWP_CSO_FLAG": "Y"}}, {"type": "Feature", "geometry": {"type": "Point", "coordinates": [-69.7582798877366, 44.1913886829154]}, "properties": {"CWP_NAME": "GARDINER WWTF", "CWP_STREET": "540 RIVER AVE", "CWP_CITY": "GARDINER", "CWP_STATE": "ME", "CWP_ZIP": "04345", "CWP_COUNTY": "Kennebec", "NPDES_ID": "ME0101702", "REGISTRY_ID": "110006618589", "CWP_FACILITY_TYPE_INDICATOR": "POTW", "CWP_MAJOR_MINOR_STATUS": "Major", "CWP_PERMIT_STATUS_DESC": "Admin Continued", "STATE_WATER_BODY_NAME": "KENNEBEC RIVER", "CWP_CSO_FLAG": "Y"}}, {"type": "Feature", "geometry": {"type": "Point", "coordinates": [-68.6439395012203, 44.9429693725671]}, "properties": {"CWP_NAME": "MILFORD COMBINED SEWER OVERFLOW", "CWP_STREET": "DAVENPORT ST", "CWP_CITY": "MILFORD", "CWP_STATE": "ME", "CWP_ZIP": "04461", "CWP_COUNTY": "Penobscot", "NPDES_ID": "ME0102695", "REGISTRY_ID": "110023142605", "CWP_FACILITY_TYPE_INDICATOR": "POTW", "CWP_MAJOR_MINOR_STATUS": "Minor", "CWP_PERMIT_STATUS_DESC": "Effective", "STATE_WATER_BODY_NAME": "PENOBSCOT RIVER", "CWP_CSO_FLAG": "N"}}, {"type": "Feature", "geometry": {"type": "Point", "coordinates": [-68.5072083546889, 45.3748670670008]}, "properties": {"CWP_NAME": "LINCOLN WWTF", "CWP_STREET": "56 HAYNES ST", "CWP_CITY": "LINCOLN", "CWP_STATE": "ME", "CWP_ZIP": "04457", "CWP_COUNTY": "Penobscot", "NPDES_ID": "ME0101796", "REGISTRY_ID": "110006618641", "CWP_FACILITY_TYPE_INDICATOR": "POTW", "CWP_MAJOR_MINOR_STATUS": "Major", "CWP_PERMIT_STATUS_DESC": "Admin Continued", "STATE_WATER_BODY_NAME": "PENOBSCOT RIVER", "CWP_CSO_FLAG": "N"}}, {"type": "Feature", "geometry": {"type": "Point", "coordinates": [-67.9264701366387, 46.9155094357758]}, "properties": {"CWP_NAME": "LIMESTONE WWTF", "CWP_STREET": "28 SEWER PLANT RD", "CWP_CITY": "LIMESTONE", "CWP_STATE": "ME", "CWP_ZIP": "04750", "CWP_COUNTY": "Aroostook", "NPDES_ID": "ME0101095", "REGISTRY_ID": "110038330393", "CWP_FACILITY_TYPE_INDICATOR": "POTW", "CWP_MAJOR_MINOR_STATUS": "Minor", "CWP_PERMIT_STATUS_DESC": "Terminated", "STATE_WATER_BODY_NAME": "LIMESTONE STREAM", "CWP_CSO_FLAG": "N"}}, {"type": "Feature", "geometry": {"type": "Point", "coordinates": [-70.1525005841603, 44.9538088569476]}, "properties": {"CWP_NAME": "KINGFIELD WWTF", "CWP_STREET": "171 MAIN ST", "CWP_CITY": "KINGFIELD", "CWP_STATE": "ME", "CWP_ZIP": "04947-4214", "CWP_COUNTY": "Franklin", "NPDES_ID": "MEU506272", "REGISTRY_ID": "110012658846", "CWP_FACILITY_TYPE_INDICATOR": "POTW", "CWP_MAJOR_MINOR_STATUS": "Minor", "CWP_PERMIT_STATUS_DESC": "Admin Continued", "STATE_WATER_BODY_NAME": "GROUNDWATER", "CWP_CSO_FLAG": "N"}}, {"type": "Feature", "geometry": {"type": "Point", "coordinates": [-68.1715389341759, 44.481253767552]}, "properties": {"CWP_NAME": "SORRENTO WWTF", "CWP_STREET": "OCEAN AVE", "CWP_CITY": "SORRENTO", "CWP_STATE": "ME", "CWP_ZIP": "04677", "CWP_COUNTY": "Hancock", "NPDES_ID": "ME0102130", "REGISTRY_ID": "110009912791", "CWP_FACILITY_TYPE_INDICATOR": "POTW", "CWP_MAJOR_MINOR_STATUS": "Minor", "CWP_PERMIT_STATUS_DESC": "Expired", "STATE_WATER_BODY_NAME": "BACK COVE", "CWP_CSO_FLAG": "N"}}, {"type": "Feature", "geometry": {"type": "Point", "coordinates": [-68.3007600361262, 47.3536798832004]}, "properties": {"CWP_NAME": "MADAWASKA WWTF", "CWP_STREET": "7 PUBLIC WORKS AVE", "CWP_CITY": "MADAWASKA", "CWP_STATE": "ME", "CWP_ZIP": "04756", "CWP_COUNTY": "Aroostook", "NPDES_ID": "ME0101681", "REGISTRY_ID": "110006744005", "CWP_FACILITY_TYPE_INDICATOR": "POTW", "CWP_MAJOR_MINOR_STATUS": "Minor", "CWP_PERMIT_STATUS_DESC": "Effective", "STATE_WATER_BODY_NAME": "ST JOHN RIVER", "CWP_CSO_FLAG": "Y"}}, {"type": "Feature", "geometry": {"type": "Point", "coordinates": [-69.2674198942737, 44.8140488177435]}, "properties": {"CWP_NAME": "NEWPORT SD WWTF", "CWP_STREET": "106 MARTIN STREAM RD", "CWP_CITY": "NEWPORT", "CWP_STATE": "ME", "CWP_ZIP": "04953", "CWP_COUNTY": "Penobscot", "NPDES_ID": "ME0100447", "REGISTRY_ID": "110009913166", "CWP_FACILITY_TYPE_INDICATOR": "POTW", "CWP_MAJOR_MINOR_STATUS": "Minor", "CWP_PERMIT_STATUS_DESC": "Admin Continued", "STATE_WATER_BODY_NAME": "EAST BRANCH SEBASTICOOK RIVER", "CWP_CSO_FLAG": "N"}}, {"type": "Feature", "geometry": {"type": "Point", "coordinates": [-69.8642003271948, 45.0397094251857]}, "properties": {"CWP_NAME": "BINGHAM WWTF", "CWP_STREET": "RTE 201", "CWP_CITY": "BINGHAM", "CWP_STATE": "ME", "CWP_ZIP": "04920", "CWP_COUNTY": "Somerset", "NPDES_ID": "ME0100056", "REGISTRY_ID": "110009913095", "CWP_FACILITY_TYPE_INDICATOR": "POTW", "CWP_MAJOR_MINOR_STATUS": "Minor", "CWP_PERMIT_STATUS_DESC": "Expired", "STATE_WATER_BODY_NAME": "JACKSON BROOK", "CWP_CSO_FLAG": "N"}}, {"type": "Feature", "geometry": {"type": "Point", "coordinates": [-69.7490114741749, 44.2342467824014]}, "properties": {"CWP_NAME": "RANDOLPH COMBINED SEWER OVERFLOW SYSTEM", "CWP_STREET": "WATER ST", "CWP_CITY": "RANDOLPH", "CWP_STATE": "ME", "CWP_ZIP": "04346", "CWP_COUNTY": "Kennebec", "NPDES_ID": "ME0102423", "REGISTRY_ID": "110017724346", "CWP_FACILITY_TYPE_INDICATOR": "POTW", "CWP_MAJOR_MINOR_STATUS": "Minor", "CWP_PERMIT_STATUS_DESC": "Effective", "STATE_WATER_BODY_NAME": "KENNEBEC RIVER", "CWP_CSO_FLAG": "N"}}, {"type": "Feature", "geometry": {"type": "Point", "coordinates": [-69.8009365388305, 44.0821246304328]}, "properties": {"CWP_NAME": "RICHMOND UD WWTF", "CWP_STREET": "15 WATER ST", "CWP_CITY": "RICHMOND", "CWP_STATE": "ME", "CWP_ZIP": "04357", "CWP_COUNTY": "Sagadahoc", "NPDES_ID": "ME0100587", "REGISTRY_ID": "110020694266", "CWP_FACILITY_TYPE_INDICATOR": "POTW", "CWP_MAJOR_MINOR_STATUS": "Minor", "CWP_PERMIT_STATUS_DESC": "Effective", "STATE_WATER_BODY_NAME": "KENNEBEC RIVER", "CWP_CSO_FLAG": "N"}}, {"type": "Feature", "geometry": {"type": "Point", "coordinates": [-67.8413501662468, 46.7758033321109]}, "properties": {"CWP_NAME": "FORT FAIRFIELD WWTF", "CWP_STREET": "96 HIGH ST", "CWP_CITY": "FORT FAIRFIELD", "CWP_STATE": "ME", "CWP_ZIP": "04742", "CWP_COUNTY": "Aroostook", "NPDES_ID": "ME0100226", "REGISTRY_ID": "110002047348", "CWP_FACILITY_TYPE_INDICATOR": "POTW", "CWP_MAJOR_MINOR_STATUS": "Major", "CWP_PERMIT_STATUS_DESC": "Expired", "STATE_WATER_BODY_NAME": "AROOSTOOK RIVER", "CWP_CSO_FLAG": "N"}}, {"type": "Feature", "geometry": {"type": "Point", "coordinates": [-70.5388304820364, 43.3806092158305]}, "properties": {"CWP_NAME": "KENNEBUNK WWTF", "CWP_STREET": "71 WATER ST", "CWP_CITY": "KENNEBUNK", "CWP_STATE": "ME", "CWP_ZIP": "04043", "CWP_COUNTY": "York", "NPDES_ID": "ME0100935", "REGISTRY_ID": "110002046401", "CWP_FACILITY_TYPE_INDICATOR": "POTW", "CWP_MAJOR_MINOR_STATUS": "Major", "CWP_PERMIT_STATUS_DESC": "Admin Continued", "STATE_WATER_BODY_NAME": "MOUSAM RIVER", "CWP_CSO_FLAG": "N"}}, {"type": "Feature", "geometry": {"type": "Point", "coordinates": [-69.49944059293, 45.2856290934707]}, "properties": {"CWP_NAME": "MONSON UTILITIES DISTRICT SUBSURFACE WWTS", "CWP_STREET": "10 TENNEY HILL RD", "CWP_CITY": "MONSON", "CWP_STATE": "ME", "CWP_ZIP": "04464", "CWP_COUNTY": "Piscataquis", "NPDES_ID": "MEU507155", "REGISTRY_ID": "110011127556", "CWP_FACILITY_TYPE_INDICATOR": "POTW", "CWP_MAJOR_MINOR_STATUS": "Minor", "CWP_PERMIT_STATUS_DESC": "Effective", "STATE_WATER_BODY_NAME": "GROUNDWATER", "CWP_CSO_FLAG": "N"}}, {"type": "Feature", "geometry": {"type": "Point", "coordinates": [-68.1329797167895, 46.6821299235687]}, "properties": {"CWP_NAME": "MAPLETON SEWER DISTRICT", "CWP_STREET": "1461 MAIN ST", "CWP_CITY": "MAPLETON", "CWP_STATE": "ME", "CWP_ZIP": "04757", "CWP_COUNTY": "Aroostook", "NPDES_ID": "MEU508147", "REGISTRY_ID": "110013739749", "CWP_FACILITY_TYPE_INDICATOR": "POTW", "CWP_MAJOR_MINOR_STATUS": "Minor", "CWP_PERMIT_STATUS_DESC": "Effective", "STATE_WATER_BODY_NAME": "GROUNDWATER", "CWP_CSO_FLAG": "N"}}, {"type": "Feature", "geometry": {"type": "Point", "coordinates": [-70.1355302985012, 43.7660794129288]}, "properties": {"CWP_NAME": "YARMOUTH SEA MEADOWS WWTF", "CWP_STREET": "94 EBEN HILL RD", "CWP_CITY": "YARMOUTH", "CWP_STATE": "ME", "CWP_ZIP": "04096", "CWP_COUNTY": "Cumberland", "NPDES_ID": "ME0102377", "REGISTRY_ID": "110064259403", "CWP_FACILITY_TYPE_INDICATOR": "POTW", "CWP_MAJOR_MINOR_STATUS": "Minor", "CWP_PERMIT_STATUS_DESC": "Expired", "STATE_WATER_BODY_NAME": "CASCO BAY", "CWP_CSO_FLAG": "N"}}, {"type": "Feature", "geometry": {"type": "Point", "coordinates": [-68.8340616308117, 44.7482939882256]}, "properties": {"CWP_NAME": "HAMPDEN COMBINED SEWER OVERFLOW", "CWP_STREET": "139 MAIN RD N", "CWP_CITY": "HAMPDEN", "CWP_STATE": "ME", "CWP_ZIP": "04444", "CWP_COUNTY": "Penobscot", "NPDES_ID": "ME0102512", "REGISTRY_ID": "110013678564", "CWP_FACILITY_TYPE_INDICATOR": "POTW", "CWP_MAJOR_MINOR_STATUS": "Minor", "CWP_PERMIT_STATUS_DESC": "Effective", "STATE_WATER_BODY_NAME": "SOUADABSCOOK STREAM", "CWP_CSO_FLAG": "N"}}, {"type": "Feature", "geometry": {"type": "Point", "coordinates": [-68.0033298185792, 46.8485198224046]}, "properties": {"CWP_NAME": "CARIBOU WATER FILTER PLANT", "CWP_STREET": "122 LOWER LYNDON ST", "CWP_CITY": "CARIBOU", "CWP_STATE": "ME", "CWP_ZIP": "04736", "CWP_COUNTY": "Aroostook", "NPDES_ID": "ME0102611", "REGISTRY_ID": "110039664217", "CWP_FACILITY_TYPE_INDICATOR": "POTW", "CWP_MAJOR_MINOR_STATUS": "Minor", "CWP_PERMIT_STATUS_DESC": "Terminated", "STATE_WATER_BODY_NAME": "AROOSTOOK RIVER", "CWP_CSO_FLAG": "N"}}, {"type": "Feature", "geometry": {"type": "Point", "coordinates": [-69.7092200898766, 44.7693695776406]}, "properties": {"CWP_NAME": "SKOWHEGAN WWTF", "CWP_STREET": "53 JOYCE ST", "CWP_CITY": "SKOWHEGAN", "CWP_STATE": "ME", "CWP_ZIP": "04976", "CWP_COUNTY": "Somerset", "NPDES_ID": "ME0100625", "REGISTRY_ID": "110002050752", "CWP_FACILITY_TYPE_INDICATOR": "POTW", "CWP_MAJOR_MINOR_STATUS": "Major", "CWP_PERMIT_STATUS_DESC": "Admin Continued", "STATE_WATER_BODY_NAME": "KENNEBEC RIVER", "CWP_CSO_FLAG": "Y"}}, {"type": "Feature", "geometry": {"type": "Point", "coordinates": [-70.4280564732152, 43.731675832532]}, "properties": {"CWP_NAME": "LITTLE FALLS WWTF", "CWP_STREET": "TOW PATH RD", "CWP_CITY": "GORHAM", "CWP_STATE": "ME", "CWP_ZIP": "04038", "CWP_COUNTY": "Cumberland", "NPDES_ID": "ME0100242", "REGISTRY_ID": "110055042494", "CWP_FACILITY_TYPE_INDICATOR": "POTW", "CWP_MAJOR_MINOR_STATUS": "Minor", "CWP_PERMIT_STATUS_DESC": "Terminated", "STATE_WATER_BODY_NAME": "PRESUMPSCOT RIVER", "CWP_CSO_FLAG": "N"}}, {"type": "Feature", "geometry": {"type": "Point", "coordinates": [-68.0146594720773, 46.6918498013096]}, "properties": {"CWP_NAME": "PRESQUE ISLE WWTF", "CWP_STREET": "126 DYER ST", "CWP_CITY": "PRESQUE ISLE", "CWP_STATE": "ME", "CWP_ZIP": "04769", "CWP_COUNTY": "Aroostook", "NPDES_ID": "ME0100561", "REGISTRY_ID": "110006618721", "CWP_FACILITY_TYPE_INDICATOR": "POTW", "CWP_MAJOR_MINOR_STATUS": "Major", "CWP_PERMIT_STATUS_DESC": "Expired", "STATE_WATER_BODY_NAME": "PRESQUE ISLE STREAM", "CWP_CSO_FLAG": "N"}}, {"type": "Feature", "geometry": {"type": "Point", "coordinates": [-70.2087783244926, 44.0903696037208]}, "properties": {"CWP_NAME": "LEWISTON COMBINED SEWER OVERFLOW", "CWP_STREET": "CITYWIDE", "CWP_CITY": "LEWISTON", "CWP_STATE": "ME", "CWP_ZIP": "04240", "CWP_COUNTY": "Androscoggin", "NPDES_ID": "ME0100994", "REGISTRY_ID": "110036399867", "CWP_FACILITY_TYPE_INDICATOR": "POTW", "CWP_MAJOR_MINOR_STATUS": "Minor", "CWP_PERMIT_STATUS_DESC": "Effective", "STATE_WATER_BODY_NAME": "ANDROSCOGGIN RIVER", "CWP_CSO_FLAG": "Y"}}, {"type": "Feature", "geometry": {"type": "Point", "coordinates": [-69.3444162362032, 44.1296960912756]}, "properties": {"CWP_NAME": "WALDOBORO UTILITY DISTRICT", "CWP_STREET": "850 UNION RD", "CWP_CITY": "WALDOBORO", "CWP_STATE": "ME", "CWP_ZIP": "04572", "CWP_COUNTY": "Lincoln", "NPDES_ID": "MEU508114", "REGISTRY_ID": "110013677609", "CWP_FACILITY_TYPE_INDICATOR": "POTW", "CWP_MAJOR_MINOR_STATUS": "Minor", "CWP_PERMIT_STATUS_DESC": "Effective", "STATE_WATER_BODY_NAME": "GROUNDWATER", "CWP_CSO_FLAG": "N"}}, {"type": "Feature", "geometry": {"type": "Point", "coordinates": [-68.7091197295617, 45.6564097694333]}, "properties": {"CWP_NAME": "MILLINOCKET WWTF", "CWP_STREET": "197 PENOBSCOT AVE", "CWP_CITY": "MILLINOCKET", "CWP_STATE": "ME", "CWP_ZIP": "04462", "CWP_COUNTY": "Penobscot", "NPDES_ID": "ME0100803", "REGISTRY_ID": "110039671398", "CWP_FACILITY_TYPE_INDICATOR": "POTW", "CWP_MAJOR_MINOR_STATUS": "Major", "CWP_PERMIT_STATUS_DESC": "Admin Continued", "STATE_WATER_BODY_NAME": "WEST BRANCH PENOBSCOT RIVER", "CWP_CSO_FLAG": "N"}}, {"type": "Feature", "geometry": {"type": "Point", "coordinates": [-69.5215827347229, 44.0608700578765]}, "properties": {"CWP_NAME": "GREAT SALT BAY SANITARY DIST", "CWP_STREET": "DAMARISCOTTA MILLS", "CWP_CITY": "NOBLEBORO", "CWP_STATE": "ME", "CWP_ZIP": "04543", "CWP_COUNTY": "Lincoln", "NPDES_ID": "ME0102431", "REGISTRY_ID": "110012311649", "CWP_FACILITY_TYPE_INDICATOR": "POTW", "CWP_MAJOR_MINOR_STATUS": "Minor", "CWP_PERMIT_STATUS_DESC": "Admin Continued", "STATE_WATER_BODY_NAME": "DAMARISCOTTA RIVER ESTUARY", "CWP_CSO_FLAG": "N"}}, {"type": "Feature", "geometry": {"type": "Point", "coordinates": [-70.3114108114331, 44.4478789567122]}, "properties": {"CWP_NAME": "CANTON WWTF", "CWP_STREET": "PRIMROSE LN", "CWP_CITY": "CANTON", "CWP_STATE": "ME", "CWP_ZIP": "04221", "CWP_COUNTY": "Oxford", "NPDES_ID": "ME0102067", "REGISTRY_ID": "110009912782", "CWP_FACILITY_TYPE_INDICATOR": "POTW", "CWP_MAJOR_MINOR_STATUS": "Minor", "CWP_PERMIT_STATUS_DESC": "Expired", "STATE_WATER_BODY_NAME": "WHITNEY BROOK", "CWP_CSO_FLAG": "N"}}, {"type": "Feature", "geometry": {"type": "Point", "coordinates": [-70.5196507056023, 44.5406287472446]}, "properties": {"CWP_NAME": "RUMFORD-MEXICO SEWER DISTRICT WWTF", "CWP_STREET": "228 RIVER RD", "CWP_CITY": "MEXICO", "CWP_STATE": "ME", "CWP_ZIP": "04257-1812", "CWP_COUNTY": "Oxford", "NPDES_ID": "ME0100552", "REGISTRY_ID": "110006618730", "CWP_FACILITY_TYPE_INDICATOR": "POTW", "CWP_MAJOR_MINOR_STATUS": "Major", "CWP_PERMIT_STATUS_DESC": "Admin Continued", "STATE_WATER_BODY_NAME": "ANDROSCOGGIN RIVER", "CWP_CSO_FLAG": "N"}}, {"type": "Feature", "geometry": {"type": "Point", "coordinates": [-70.7555905324471, 43.0962192434234]}, "properties": {"CWP_NAME": "KITTERY WWTF", "CWP_STREET": "18 DENNETT RD", "CWP_CITY": "KITTERY", "CWP_STATE": "ME", "CWP_ZIP": "03904", "CWP_COUNTY": "York", "NPDES_ID": "ME0100285", "REGISTRY_ID": "110000732967", "CWP_FACILITY_TYPE_INDICATOR": "POTW", "CWP_MAJOR_MINOR_STATUS": "Major", "CWP_PERMIT_STATUS_DESC": "Admin Continued", "STATE_WATER_BODY_NAME": "PISCATAQUA RIVER", "CWP_CSO_FLAG": "Y"}}, {"type": "Feature", "geometry": {"type": "Point", "coordinates": [-70.331060146062, 45.0890588169629]}, "properties": {"CWP_NAME": "CARRABASSETT VALLEY SANIT DIST", "CWP_STREET": "4064 CARRABASSETT DR", "CWP_CITY": "CARRABASSETT VALLEY", "CWP_STATE": "ME", "CWP_ZIP": "04947-5716", "CWP_COUNTY": "Franklin", "NPDES_ID": "MEU502781", "REGISTRY_ID": "110028004273", "CWP_FACILITY_TYPE_INDICATOR": "POTW", "CWP_MAJOR_MINOR_STATUS": "Minor", "CWP_PERMIT_STATUS_DESC": "Expired", "STATE_WATER_BODY_NAME": "GROUNDWATER", "CWP_CSO_FLAG": "N"}}, {"type": "Feature", "geometry": {"type": "Point", "coordinates": [-69.1071803952313, 44.1040393350398]}, "properties": {"CWP_NAME": "ROCKLAND WWTF", "CWP_STREET": "40 TILLSON AVE", "CWP_CITY": "ROCKLAND", "CWP_STATE": "ME", "CWP_ZIP": "04841", "CWP_COUNTY": "Knox", "NPDES_ID": "ME0100595", "REGISTRY_ID": "110002052206", "CWP_FACILITY_TYPE_INDICATOR": "POTW", "CWP_MAJOR_MINOR_STATUS": "Major", "CWP_PERMIT_STATUS_DESC": "Admin Continued", "STATE_WATER_BODY_NAME": "ROCKLAND HARBOR", "CWP_CSO_FLAG": "Y"}}, {"type": "Feature", "geometry": {"type": "Point", "coordinates": [-70.2125303282141, 44.5919593707288]}, "properties": {"CWP_NAME": "WILTON WWTF", "CWP_STREET": "78 DAVIS CT", "CWP_CITY": "WILTON", "CWP_STATE": "ME", "CWP_ZIP": "04294", "CWP_COUNTY": "Franklin", "NPDES_ID": "ME0101915", "REGISTRY_ID": "110009912755", "CWP_FACILITY_TYPE_INDICATOR": "POTW", "CWP_MAJOR_MINOR_STATUS": "Major", "CWP_PERMIT_STATUS_DESC": "Admin Continued", "STATE_WATER_BODY_NAME": "WILSON STREAM", "CWP_CSO_FLAG": "N"}}, {"type": "Feature", "geometry": {"type": "Point", "coordinates": [-67.8794795072396, 44.5351393638078]}, "properties": {"CWP_NAME": "MILBRIDGE WWTF", "CWP_STREET": "MILL ST", "CWP_CITY": "MILBRIDGE", "CWP_STATE": "ME", "CWP_ZIP": "04658", "CWP_COUNTY": "Washington", "NPDES_ID": "ME0100404", "REGISTRY_ID": "110009913157", "CWP_FACILITY_TYPE_INDICATOR": "POTW", "CWP_MAJOR_MINOR_STATUS": "Minor", "CWP_PERMIT_STATUS_DESC": "Admin Continued", "STATE_WATER_BODY_NAME": "NARRAGUAGUS RIVER", "CWP_CSO_FLAG": "N"}}, {"type": "Feature", "geometry": {"type": "Point", "coordinates": [-70.5800005536602, 43.2800092331536]}, "properties": {"CWP_NAME": "WELLS SANITARY DISTRICT WWTF", "CWP_STREET": "197 ELDRIDGE RD", "CWP_CITY": "WELLS", "CWP_STATE": "ME", "CWP_ZIP": "04090", "CWP_COUNTY": "York", "NPDES_ID": "ME0100790", "REGISTRY_ID": "110002052055", "CWP_FACILITY_TYPE_INDICATOR": "POTW", "CWP_MAJOR_MINOR_STATUS": "Major", "CWP_PERMIT_STATUS_DESC": "Effective", "STATE_WATER_BODY_NAME": "ATLANTIC OCEAN", "CWP_CSO_FLAG": "N"}}, {"type": "Feature", "geometry": {"type": "Point", "coordinates": [-68.3226198576804, 47.2436792882425]}, "properties": {"CWP_NAME": "ST AGATHA SD WWTF", "CWP_STREET": "307 MAIN ST", "CWP_CITY": "SAINT AGATHA", "CWP_STATE": "ME", "CWP_ZIP": "04772", "CWP_COUNTY": "Aroostook", "NPDES_ID": "ME0100609", "REGISTRY_ID": "110006744023", "CWP_FACILITY_TYPE_INDICATOR": "POTW", "CWP_MAJOR_MINOR_STATUS": "Minor", "CWP_PERMIT_STATUS_DESC": "Terminated", "STATE_WATER_BODY_NAME": "ST JOHN RIVER", "CWP_CSO_FLAG": "N"}}, {"type": "Feature", "geometry": {"type": "Point", "coordinates": [-70.5893804848379, 43.2652990194168]}, "properties": {"CWP_NAME": "OGUNQUIT SEWER DISTRICT WWTF", "CWP_STREET": "80 MARSHVIEW LN", "CWP_CITY": "OGUNQUIT", "CWP_STATE": "ME", "CWP_ZIP": "03907", "CWP_COUNTY": "York", "NPDES_ID": "ME0100986", "REGISTRY_ID": "110006618687", "CWP_FACILITY_TYPE_INDICATOR": "POTW", "CWP_MAJOR_MINOR_STATUS": "Major", "CWP_PERMIT_STATUS_DESC": "Effective", "STATE_WATER_BODY_NAME": "ATLANTIC OCEAN", "CWP_CSO_FLAG": "N"}}, {"type": "Feature", "geometry": {"type": "Point", "coordinates": [-69.0666938069668, 44.1833154883563]}, "properties": {"CWP_NAME": "UNKNOWN", "CWP_STREET": "UNKNOWN", "CWP_CITY": "UNKNOWN", "CWP_STATE": "ME", "CWP_ZIP": "00000", "CWP_COUNTY": "Knox", "NPDES_ID": "ME0101877", "REGISTRY_ID": "110045293133", "CWP_FACILITY_TYPE_INDICATOR": "POTW", "CWP_MAJOR_MINOR_STATUS": "Minor", "CWP_PERMIT_STATUS_DESC": "Terminated", "STATE_WATER_BODY_NAME": "ROCKPORT HARBOR", "CWP_CSO_FLAG": "N"}}, {"type": "Feature", "geometry": {"type": "Point", "coordinates": [-68.7914238386096, 44.3957264090511]}, "properties": {"CWP_NAME": "CASTINE WWTF", "CWP_STREET": "184 COURT ST", "CWP_CITY": "CASTINE", "CWP_STATE": "ME", "CWP_ZIP": "04421", "CWP_COUNTY": "Hancock", "NPDES_ID": "ME0101192", "REGISTRY_ID": "110009912899", "CWP_FACILITY_TYPE_INDICATOR": "POTW", "CWP_MAJOR_MINOR_STATUS": "Minor", "CWP_PERMIT_STATUS_DESC": "Effective", "STATE_WATER_BODY_NAME": "CASTINE, TIDEWATER", "CWP_CSO_FLAG": "N"}}, {"type": "Feature", "geometry": {"type": "Point", "coordinates": [-70.2044444892029, 44.075564961644]}, "properties": {"CWP_NAME": "LEWISTON-AUBURN WWTF", "CWP_STREET": "535 LINCOLN ST", "CWP_CITY": "LEWISTON", "CWP_STATE": "ME", "CWP_ZIP": "04240", "CWP_COUNTY": "Androscoggin", "NPDES_ID": "ME0101478", "REGISTRY_ID": "110009913068", "CWP_FACILITY_TYPE_INDICATOR": "POTW", "CWP_MAJOR_MINOR_STATUS": "Major", "CWP_PERMIT_STATUS_DESC": "Admin Continued", "STATE_WATER_BODY_NAME": "ANDROSCOGGIN RIVER", "CWP_CSO_FLAG": "Y"}}, {"type": "Feature", "geometry": {"type": "Point", "coordinates": [-70.2555844302567, 43.6736929377301]}, "properties": {"CWP_NAME": "EAST END WWTF", "CWP_STREET": "500 MARGINAL WAY", "CWP_CITY": "PORTLAND", "CWP_STATE": "ME", "CWP_ZIP": "04104", "CWP_COUNTY": "Cumberland", "NPDES_ID": "ME0102075", "REGISTRY_ID": "110000568877", "CWP_FACILITY_TYPE_INDICATOR": "POTW", "CWP_MAJOR_MINOR_STATUS": "Major", "CWP_PERMIT_STATUS_DESC": "Expired", "STATE_WATER_BODY_NAME": "CASCO BAY", "CWP_CSO_FLAG": "Y"}}, {"type": "Feature", "geometry": {"type": "Point", "coordinates": [-69.0071901578287, 44.4280894116952]}, "properties": {"CWP_NAME": "BELFAST WWTF", "CWP_STREET": "54 FRONT ST", "CWP_CITY": "BELFAST", "CWP_STATE": "ME", "CWP_ZIP": "04915", "CWP_COUNTY": "Waldo", "NPDES_ID": "ME0101532", "REGISTRY_ID": "110039672048", "CWP_FACILITY_TYPE_INDICATOR": "POTW", "CWP_MAJOR_MINOR_STATUS": "Major", "CWP_PERMIT_STATUS_DESC": "Admin Continued", "STATE_WATER_BODY_NAME": "BELFAST HARBOR", "CWP_CSO_FLAG": "Y"}}, {"type": "Feature", "geometry": {"type": "Point", "coordinates": [-68.8410700097373, 44.0450492018167]}, "properties": {"CWP_NAME": "VINALHAVEN WWTF", "CWP_STREET": "62 SANDS RD", "CWP_CITY": "VINALHAVEN", "CWP_STATE": "ME", "CWP_ZIP": "04863", "CWP_COUNTY": "Knox", "NPDES_ID": "ME0102491", "REGISTRY_ID": "110013402825", "CWP_FACILITY_TYPE_INDICATOR": "POTW", "CWP_MAJOR_MINOR_STATUS": "Minor", "CWP_PERMIT_STATUS_DESC": "Effective", "STATE_WATER_BODY_NAME": "ATLANTIC OCEAN", "CWP_CSO_FLAG": "N"}}, {"type": "Feature", "geometry": {"type": "Point", "coordinates": [-67.2717085039185, 45.1884169241264]}, "properties": {"CWP_NAME": "CALAIS WWTF", "CWP_STREET": "ELM ST", "CWP_CITY": "CALAIS", "CWP_STATE": "ME", "CWP_ZIP": "04619", "CWP_COUNTY": "Washington", "NPDES_ID": "ME0100129", "REGISTRY_ID": "110006618400", "CWP_FACILITY_TYPE_INDICATOR": "POTW", "CWP_MAJOR_MINOR_STATUS": "Major", "CWP_PERMIT_STATUS_DESC": "Expired", "STATE_WATER_BODY_NAME": "ST CROIX RIVER", "CWP_CSO_FLAG": "N"}}, {"type": "Feature", "geometry": {"type": "Point", "coordinates": [-68.8573396563501, 44.1518293246365]}, "properties": {"CWP_NAME": "NORTH HAVEN PUMPING STATION", "CWP_STREET": "94 PUMPING STATION RD", "CWP_CITY": "NORTH HAVEN", "CWP_STATE": "ME", "CWP_ZIP": "04853", "CWP_COUNTY": "Knox", "NPDES_ID": "ME0102482", "REGISTRY_ID": "110012805839", "CWP_FACILITY_TYPE_INDICATOR": "POTW", "CWP_MAJOR_MINOR_STATUS": "Minor", "CWP_PERMIT_STATUS_DESC": "Effective", "STATE_WATER_BODY_NAME": "GROUNDWATER", "CWP_CSO_FLAG": "N"}}, {"type": "Feature", "geometry": {"type": "Point", "coordinates": [-68.6428297366494, 44.9293491377852]}, "properties": {"CWP_NAME": "OLD TOWN WWTF", "CWP_STREET": "298 WATER ST", "CWP_CITY": "OLD TOWN", "CWP_STATE": "ME", "CWP_ZIP": "04468", "CWP_COUNTY": "Penobscot", "NPDES_ID": "ME0100471", "REGISTRY_ID": "110002043119", "CWP_FACILITY_TYPE_INDICATOR": "POTW", "CWP_MAJOR_MINOR_STATUS": "Major", "CWP_PERMIT_STATUS_DESC": "Admin Continued", "STATE_WATER_BODY_NAME": "PENOBSCOT RIVER", "CWP_CSO_FLAG": "Y"}}, {"type": "Feature", "geometry": {"type": "Point", "coordinates": [-70.1015224279266, 43.8324224134895]}, "properties": {"CWP_NAME": "FREEPORT WWTF", "CWP_STREET": "43 S FREEPORT RD", "CWP_CITY": "FREEPORT", "CWP_STATE": "ME", "CWP_ZIP": "04032", "CWP_COUNTY": "Cumberland", "NPDES_ID": "ME0101036", "REGISTRY_ID": "110000736936", "CWP_FACILITY_TYPE_INDICATOR": "POTW", "CWP_MAJOR_MINOR_STATUS": "Major", "CWP_PERMIT_STATUS_DESC": "Admin Continued", "STATE_WATER_BODY_NAME": "HARRASEEKET RIVER ESTUARY", "CWP_CSO_FLAG": "N"}}, {"type": "Feature", "geometry": {"type": "Point", "coordinates": [-67.8276795297738, 46.1477391914958]}, "properties": {"CWP_NAME": "HOULTON WATER COMPANY WWTF", "CWP_STREET": "135 ACCESS RD", "CWP_CITY": "HOULTON", "CWP_STATE": "ME", "CWP_ZIP": "04730", "CWP_COUNTY": "Aroostook", "NPDES_ID": "ME0101290", "REGISTRY_ID": "110022329924", "CWP_FACILITY_TYPE_INDICATOR": "POTW", "CWP_MAJOR_MINOR_STATUS": "Major", "CWP_PERMIT_STATUS_DESC": "Expired", "STATE_WATER_BODY_NAME": "MEDUXNEKEAG RIVER", "CWP_CSO_FLAG": "N"}}, {"type": "Feature", "geometry": {"type": "Point", "coordinates": [-68.0393494623674, 46.5978094769497]}, "properties": {"CWP_NAME": "AROOSTOOK WASTE SOLUTIONS", "CWP_STREET": "202 LATHROP RD", "CWP_CITY": "PRESQUE ISLE", "CWP_STATE": "ME", "CWP_ZIP": "04769", "CWP_COUNTY": "Aroostook", "NPDES_ID": "MEU508088", "REGISTRY_ID": "110013694742", "CWP_FACILITY_TYPE_INDICATOR": "POTW", "CWP_MAJOR_MINOR_STATUS": "Minor", "CWP_PERMIT_STATUS_DESC": "Admin Continued", "STATE_WATER_BODY_NAME": "GROUNDWATER", "CWP_CSO_FLAG": "N"}}, {"type": "Feature", "geometry": {"type": "Point", "coordinates": [-70.2323891338542, 44.0979526878453]}, "properties": {"CWP_NAME": "AUBURN SEWERAGE DISTRICT CSO 001", "CWP_STREET": "516 RIVERSIDE DR", "CWP_CITY": "AUBURN", "CWP_STATE": "ME", "CWP_ZIP": "04212-0414", "CWP_COUNTY": "Androscoggin", "NPDES_ID": "ME0100005", "REGISTRY_ID": "110009913077", "CWP_FACILITY_TYPE_INDICATOR": "POTW", "CWP_MAJOR_MINOR_STATUS": "Minor", "CWP_PERMIT_STATUS_DESC": "Admin Continued", "STATE_WATER_BODY_NAME": "ANDROSCOGGIN RIVER", "CWP_CSO_FLAG": "Y"}}, {"type": "Feature", "geometry": {"type": "Point", "coordinates": [-70.766740366559, 43.6876486035276]}, "properties": {"CWP_NAME": "LIMERICK WWTF", "CWP_STREET": "316 BURNHAM RD", "CWP_CITY": "LIMERICK", "CWP_STATE": "ME", "CWP_ZIP": "04048", "CWP_COUNTY": "York", "NPDES_ID": "ME0100871", "REGISTRY_ID": "110009913040", "CWP_FACILITY_TYPE_INDICATOR": "POTW", "CWP_MAJOR_MINOR_STATUS": "Minor", "CWP_PERMIT_STATUS_DESC": "Admin Continued", "STATE_WATER_BODY_NAME": "LITTLE OSSIPEE RIVER", "CWP_CSO_FLAG": "N"}}, {"type": "Feature", "geometry": {"type": "Point", "coordinates": [-68.4015992491611, 47.2833277035233]}, "properties": {"CWP_NAME": "FRENCHVILLE WWTF", "CWP_STREET": "368A US RTE 1", "CWP_CITY": "FRENCHVILLE", "CWP_STATE": "ME", "CWP_ZIP": "04745", "CWP_COUNTY": "Aroostook", "NPDES_ID": "ME0101982", "REGISTRY_ID": "110009912764", "CWP_FACILITY_TYPE_INDICATOR": "POTW", "CWP_MAJOR_MINOR_STATUS": "Minor", "CWP_PERMIT_STATUS_DESC": "Expired", "STATE_WATER_BODY_NAME": "ST JOHN RIVER", "CWP_CSO_FLAG": "N"}}, {"type": "Feature", "geometry": {"type": "Point", "coordinates": [-68.4209435080209, 44.5371205553691]}, "properties": {"CWP_NAME": "ELLSWORTH WWTF SANDFILTER", "CWP_STREET": "SHORE RD", "CWP_CITY": "ELLSWORTH", "CWP_STATE": "ME", "CWP_ZIP": "04605", "CWP_COUNTY": "Hancock", "NPDES_ID": "ME0102593", "REGISTRY_ID": "110020041765", "CWP_FACILITY_TYPE_INDICATOR": "POTW", "CWP_MAJOR_MINOR_STATUS": "Minor", "CWP_PERMIT_STATUS_DESC": "Admin Continued", "STATE_WATER_BODY_NAME": "UNION RIVER", "CWP_CSO_FLAG": "N"}}, {"type": "Feature", "geometry": {"type": "Point", "coordinates": [-68.1232697707808, 47.2846299302812]}, "properties": {"CWP_NAME": "GRAND ISLE WWTF", "CWP_STREET": "826 MAIN ST", "CWP_CITY": "GRAND ISLE", "CWP_STATE": "ME", "CWP_ZIP": "04746-0197", "CWP_COUNTY": "Aroostook", "NPDES_ID": "ME0102318", "REGISTRY_ID": "110009025900", "CWP_FACILITY_TYPE_INDICATOR": "POTW", "CWP_MAJOR_MINOR_STATUS": "Minor", "CWP_PERMIT_STATUS_DESC": "Effective", "STATE_WATER_BODY_NAME": "ST JOHN RIVER", "CWP_CSO_FLAG": "N"}}, {"type": "Feature", "geometry": {"type": "Point", "coordinates": [-70.2419804344829, 44.5490194323595]}, "properties": {"CWP_NAME": "NORTH JAY WWTF", "CWP_STREET": "32 JERRY ST", "CWP_CITY": "JAY", "CWP_STATE": "ME", "CWP_ZIP": "04239", "CWP_COUNTY": "Franklin", "NPDES_ID": "ME0101061", "REGISTRY_ID": "110009912862", "CWP_FACILITY_TYPE_INDICATOR": "POTW", "CWP_MAJOR_MINOR_STATUS": "Minor", "CWP_PERMIT_STATUS_DESC": "Terminated", "STATE_WATER_BODY_NAME": "SEVENMILE STREAM", "CWP_CSO_FLAG": "N"}}, {"type": "Feature", "geometry": {"type": "Point", "coordinates": [-68.3005997751211, 44.2967092493253]}, "properties": {"CWP_NAME": "SOMESVILLE WWTF", "CWP_STREET": "PARKER FARM RD", "CWP_CITY": "SOMESVILLE", "CWP_STATE": "ME", "CWP_ZIP": "04662", "CWP_COUNTY": "Hancock", "NPDES_ID": "ME0102547", "REGISTRY_ID": "110016695218", "CWP_FACILITY_TYPE_INDICATOR": "POTW", "CWP_MAJOR_MINOR_STATUS": "Minor", "CWP_PERMIT_STATUS_DESC": "Effective", "STATE_WATER_BODY_NAME": "ATLANTIC OCEAN", "CWP_CSO_FLAG": "N"}}, {"type": "Feature", "geometry": {"type": "Point", "coordinates": [-70.385520347944, 44.1105791668038]}, "properties": {"CWP_NAME": "MECHANIC FALLS WWTF", "CWP_STREET": "56 LEWISTON ST", "CWP_CITY": "MECHANIC FALLS", "CWP_STATE": "ME", "CWP_ZIP": "04256", "CWP_COUNTY": "Androscoggin", "NPDES_ID": "ME0100391", "REGISTRY_ID": "110000732976", "CWP_FACILITY_TYPE_INDICATOR": "POTW", "CWP_MAJOR_MINOR_STATUS": "Major", "CWP_PERMIT_STATUS_DESC": "Admin Continued", "STATE_WATER_BODY_NAME": "LITTLE ANDROSCOGGIN RIVER", "CWP_CSO_FLAG": "Y"}}, {"type": "Feature", "geometry": {"type": "Point", "coordinates": [-70.8424938589267, 43.2592807470848]}, "properties": {"CWP_NAME": "BERWICK WWTF", "CWP_STREET": "39 POWERHOUSE RD", "CWP_CITY": "BERWICK", "CWP_STATE": "ME", "CWP_ZIP": "03901", "CWP_COUNTY": "York", "NPDES_ID": "ME0101397", "REGISTRY_ID": "110006618384", "CWP_FACILITY_TYPE_INDICATOR": "POTW", "CWP_MAJOR_MINOR_STATUS": "Major", "CWP_PERMIT_STATUS_DESC": "Admin Continued", "STATE_WATER_BODY_NAME": "SALMON FALLS RIVER", "CWP_CSO_FLAG": "N"}}, {"type": "Feature", "geometry": {"type": "Point", "coordinates": [-69.7375001798925, 44.7597315406731]}, "properties": {"CWP_NAME": "SKOWHEGAN WWTF PUMP STATION", "CWP_STREET": "NORRIDGEWOCK AVE", "CWP_CITY": "SKOWHEGAN", "CWP_STATE": "ME", "CWP_ZIP": "04976", "CWP_COUNTY": "Somerset", "NPDES_ID": "ME0102351", "REGISTRY_ID": "110055023237", "CWP_FACILITY_TYPE_INDICATOR": "POTW", "CWP_MAJOR_MINOR_STATUS": "Minor", "CWP_PERMIT_STATUS_DESC": "Terminated", "STATE_WATER_BODY_NAME": "KENNEBEC RIVER", "CWP_CSO_FLAG": "N"}}, {"type": "Feature", "geometry": {"type": "Point", "coordinates": [-69.6247224428353, 44.4877873005435]}, "properties": {"CWP_NAME": "VASSALBORO SANITARY DISTRICT EAST", "CWP_STREET": "MAIN ST FACILITY", "CWP_CITY": "VASSALBORO", "CWP_STATE": "ME", "CWP_ZIP": "04989", "CWP_COUNTY": "Kennebec", "NPDES_ID": "ME0100692", "REGISTRY_ID": "110020741018", "CWP_FACILITY_TYPE_INDICATOR": "POTW", "CWP_MAJOR_MINOR_STATUS": "Minor", "CWP_PERMIT_STATUS_DESC": "Terminated", "STATE_WATER_BODY_NAME": "OUTLET STREAM", "CWP_CSO_FLAG": "N"}}, {"type": "Feature", "geometry": {"type": "Point", "coordinates": [-68.3005997751211, 44.2967092493253]}, "properties": {"CWP_NAME": "SEAL HARBOR WWTF", "CWP_STREET": "STATE ROUTE 3", "CWP_CITY": "SEAL HARBOR", "CWP_STATE": "ME", "CWP_ZIP": "04675", "CWP_COUNTY": "Hancock", "NPDES_ID": "ME0102555", "REGISTRY_ID": "110017883067", "CWP_FACILITY_TYPE_INDICATOR": "POTW", "CWP_MAJOR_MINOR_STATUS": "Minor", "CWP_PERMIT_STATUS_DESC": "Effective", "STATE_WATER_BODY_NAME": "ATLANTIC OCEAN", "CWP_CSO_FLAG": "N"}}, {"type": "Feature", "geometry": {"type": "Point", "coordinates": [-68.3497199317013, 45.5137197219098]}, "properties": {"CWP_NAME": "MATTAWAMKEAG WWTF", "CWP_STREET": "GREEN RD", "CWP_CITY": "MATTAWAMKEAG", "CWP_STATE": "ME", "CWP_ZIP": "04459", "CWP_COUNTY": "Penobscot", "NPDES_ID": "ME0102245", "REGISTRY_ID": "110011127011", "CWP_FACILITY_TYPE_INDICATOR": "POTW", "CWP_MAJOR_MINOR_STATUS": "Minor", "CWP_PERMIT_STATUS_DESC": "Admin Continued", "STATE_WATER_BODY_NAME": "PENOBSCOT RIVER", "CWP_CSO_FLAG": "N"}}, {"type": "Feature", "geometry": {"type": "Point", "coordinates": [-69.7932671563813, 44.72052378869]}, "properties": {"CWP_NAME": "NORRIDGEWOCK WWTF", "CWP_STREET": "33 WILLOW ST", "CWP_CITY": "NORRIDGEWOCK", "CWP_STATE": "ME", "CWP_ZIP": "04957", "CWP_COUNTY": "Somerset", "NPDES_ID": "ME0102334", "REGISTRY_ID": "110009912835", "CWP_FACILITY_TYPE_INDICATOR": "POTW", "CWP_MAJOR_MINOR_STATUS": "Minor", "CWP_PERMIT_STATUS_DESC": "Admin Continued", "STATE_WATER_BODY_NAME": "KENNEBEC RIVER", "CWP_CSO_FLAG": "N"}}, {"type": "Feature", "geometry": {"type": "Point", "coordinates": [-68.5858495422605, 44.4110292817339]}, "properties": {"CWP_NAME": "BLUE HILL WWTF", "CWP_STREET": "WATER ST", "CWP_CITY": "BLUE HILL", "CWP_STATE": "ME", "CWP_ZIP": "04614", "CWP_COUNTY": "Hancock", "NPDES_ID": "ME0101231", "REGISTRY_ID": "110009912906", "CWP_FACILITY_TYPE_INDICATOR": "POTW", "CWP_MAJOR_MINOR_STATUS": "Minor", "CWP_PERMIT_STATUS_DESC": "Effective", "STATE_WATER_BODY_NAME": "BLUE HILL BAY", "CWP_CSO_FLAG": "N"}}, {"type": "Feature", "geometry": {"type": "Point", "coordinates": [-69.2354381994327, 44.9239244085952]}, "properties": {"CWP_NAME": "CORINNA SEWER DISTRICT", "CWP_STREET": "SMITH RD / GREENBUSH RD", "CWP_CITY": "CORINNA", "CWP_STATE": "ME", "CWP_ZIP": "04928", "CWP_COUNTY": "Penobscot", "NPDES_ID": "MEU508206", "REGISTRY_ID": "110020155776", "CWP_FACILITY_TYPE_INDICATOR": "POTW", "CWP_MAJOR_MINOR_STATUS": "Minor", "CWP_PERMIT_STATUS_DESC": "Expired", "STATE_WATER_BODY_NAME": "GROUNDWATER", "CWP_CSO_FLAG": "N"}}, {"type": "Feature", "geometry": {"type": "Point", "coordinates": [-68.6680970944595, 44.8781534218003]}, "properties": {"CWP_NAME": "ORONO WPCF", "CWP_STREET": "60 BROADWAY", "CWP_CITY": "ORONO", "CWP_STATE": "ME", "CWP_ZIP": "04473", "CWP_COUNTY": "Penobscot", "NPDES_ID": "ME0100498", "REGISTRY_ID": "110055618577", "CWP_FACILITY_TYPE_INDICATOR": "POTW", "CWP_MAJOR_MINOR_STATUS": "Major", "CWP_PERMIT_STATUS_DESC": "Effective", "STATE_WATER_BODY_NAME": "PENOBSCOT RIVER", "CWP_CSO_FLAG": "Y"}}, {"type": "Feature", "geometry": {"type": "Point", "coordinates": [-67.5238299030495, 44.7211794607827]}, "properties": {"CWP_NAME": "WHITNEYVILLE WWTF", "CWP_STREET": "SCHOOL ST", "CWP_CITY": "WHITNEYVILLE", "CWP_STATE": "ME", "CWP_ZIP": "04654", "CWP_COUNTY": "Washington", "NPDES_ID": "ME0102687", "REGISTRY_ID": "110009912808", "CWP_FACILITY_TYPE_INDICATOR": "POTW", "CWP_MAJOR_MINOR_STATUS": "Minor", "CWP_PERMIT_STATUS_DESC": "Effective", "STATE_WATER_BODY_NAME": "MACHIAS RIVER", "CWP_CSO_FLAG": "N"}}, {"type": "Feature", "geometry": {"type": "Point", "coordinates": [-67.0896397828432, 44.9731794474186]}, "properties": {"CWP_NAME": "PASSAMAQUODDY WATER DISTRICT", "CWP_STREET": "182 S MEADOW RD", "CWP_CITY": "PERRY", "CWP_STATE": "ME", "CWP_ZIP": "04667", "CWP_COUNTY": "Washington", "NPDES_ID": "ME0102211", "REGISTRY_ID": "110009026099", "CWP_FACILITY_TYPE_INDICATOR": "POTW", "CWP_MAJOR_MINOR_STATUS": "Minor", "CWP_PERMIT_STATUS_DESC": "Admin Continued", "STATE_WATER_BODY_NAME": "BOYDEN STREAM", "CWP_CSO_FLAG": "N"}}, {"type": "Feature", "geometry": {"type": "Point", "coordinates": [-69.1873991132096, 45.1857512783152]}, "properties": {"CWP_NAME": "DOVER-FOXCROFT WWTF", "CWP_STREET": "478 VAUGHN RD", "CWP_CITY": "DOVER-FOXCROFT", "CWP_STATE": "ME", "CWP_ZIP": "04426", "CWP_COUNTY": "Piscataquis", "NPDES_ID": "ME0100501", "REGISTRY_ID": "110015984078", "CWP_FACILITY_TYPE_INDICATOR": "POTW", "CWP_MAJOR_MINOR_STATUS": "Minor", "CWP_PERMIT_STATUS_DESC": "Admin Continued", "STATE_WATER_BODY_NAME": "PISCATAQUIS RIVER", "CWP_CSO_FLAG": "Y"}}, {"type": "Feature", "geometry": {"type": "Point", "coordinates": [-68.2555994910304, 44.4354593789869]}, "properties": {"CWP_NAME": "BAR HARBOR WWTF DEGREGOIRE PARK FACILITY", "CWP_STREET": "DEGREGOIRE PARK RD", "CWP_CITY": "BAR HARBOR", "CWP_STATE": "ME", "CWP_ZIP": "04609", "CWP_COUNTY": "Hancock", "NPDES_ID": "ME0102474", "REGISTRY_ID": "110012311667", "CWP_FACILITY_TYPE_INDICATOR": "POTW", "CWP_MAJOR_MINOR_STATUS": "Minor", "CWP_PERMIT_STATUS_DESC": "Expired", "STATE_WATER_BODY_NAME": "FRENCHMAN BAY", "CWP_CSO_FLAG": "N"}}, {"type": "Feature", "geometry": {"type": "Point", "coordinates": [-67.4525298283028, 44.7196290312274]}, "properties": {"CWP_NAME": "MACHIAS WWTF", "CWP_STREET": "LOWER MAIN ST", "CWP_CITY": "MACHIAS", "CWP_STATE": "ME", "CWP_ZIP": "04654", "CWP_COUNTY": "Washington", "NPDES_ID": "ME0100323", "REGISTRY_ID": "110002046438", "CWP_FACILITY_TYPE_INDICATOR": "POTW", "CWP_MAJOR_MINOR_STATUS": "Major", "CWP_PERMIT_STATUS_DESC": "Admin Continued", "STATE_WATER_BODY_NAME": "MACHIAS RIVER", "CWP_CSO_FLAG": "Y"}}, {"type": "Feature", "geometry": {"type": "Point", "coordinates": [-68.7817696348947, 44.77366926516]}, "properties": {"CWP_NAME": "BREWER WWTF", "CWP_STREET": "37 OAK ST", "CWP_CITY": "BREWER", "CWP_STATE": "ME", "CWP_ZIP": "04412", "CWP_COUNTY": "Penobscot", "NPDES_ID": "ME0100072", "REGISTRY_ID": "110000732958", "CWP_FACILITY_TYPE_INDICATOR": "POTW", "CWP_MAJOR_MINOR_STATUS": "Major", "CWP_PERMIT_STATUS_DESC": "Expired", "STATE_WATER_BODY_NAME": "PENOBSCOT RIVER", "CWP_CSO_FLAG": "Y"}}, {"type": "Feature", "geometry": {"type": "Point", "coordinates": [-70.2459006496932, 45.6257194521586]}, "properties": {"CWP_NAME": "JACKMAN UTILITY DISTRICT WWTF", "CWP_STREET": "28 WALTON ST", "CWP_CITY": "JACKMAN", "CWP_STATE": "ME", "CWP_ZIP": "04945", "CWP_COUNTY": "Somerset", "NPDES_ID": "ME0100978", "REGISTRY_ID": "110009025973", "CWP_FACILITY_TYPE_INDICATOR": "POTW", "CWP_MAJOR_MINOR_STATUS": "Minor", "CWP_PERMIT_STATUS_DESC": "Effective", "STATE_WATER_BODY_NAME": "MOOSE RIVER", "CWP_CSO_FLAG": "N"}}, {"type": "Feature", "geometry": {"type": "Point", "coordinates": [-69.2387899792901, 45.0145895766797]}, "properties": {"CWP_NAME": "DEXTER UTILITY DISTRICT", "CWP_STREET": "101 DUNN RD", "CWP_CITY": "DEXTER", "CWP_STATE": "ME", "CWP_ZIP": "04930", "CWP_COUNTY": "Penobscot", "NPDES_ID": "MEU500830", "REGISTRY_ID": "110013677583", "CWP_FACILITY_TYPE_INDICATOR": "POTW", "CWP_MAJOR_MINOR_STATUS": "Minor", "CWP_PERMIT_STATUS_DESC": "Effective", "STATE_WATER_BODY_NAME": "GROUNDWATER, SEBASTICOOK RIVER", "CWP_CSO_FLAG": "N"}}, {"type": "Feature", "geometry": {"type": "Point", "coordinates": [-67.0273994795116, 44.935699296772]}, "properties": {"CWP_NAME": "EASTPORT QUODDY WWTF", "CWP_STREET": "VANASSE RD", "CWP_CITY": "EASTPORT", "CWP_STATE": "ME", "CWP_ZIP": "04631", "CWP_COUNTY": "Washington", "NPDES_ID": "ME0102148", "REGISTRY_ID": "110009026080", "CWP_FACILITY_TYPE_INDICATOR": "POTW", "CWP_MAJOR_MINOR_STATUS": "Minor", "CWP_PERMIT_STATUS_DESC": "Effective", "STATE_WATER_BODY_NAME": "EASTPORT, TIDEWATER, PASSAMAQUODDY BAY", "CWP_CSO_FLAG": "N"}}, {"type": "Feature", "geometry": {"type": "Point", "coordinates": [-70.1827987234526, 44.4644561670637]}, "properties": {"CWP_NAME": "LIVERMORE FALLS WWTF", "CWP_STREET": "108 FOUNDRY RD", "CWP_CITY": "LIVERMORE FALLS", "CWP_STATE": "ME", "CWP_ZIP": "04254", "CWP_COUNTY": "Androscoggin", "NPDES_ID": "ME0100315", "REGISTRY_ID": "110006618650", "CWP_FACILITY_TYPE_INDICATOR": "POTW", "CWP_MAJOR_MINOR_STATUS": "Major", "CWP_PERMIT_STATUS_DESC": "Admin Continued", "STATE_WATER_BODY_NAME": "ANDROSCOGGIN RIVER", "CWP_CSO_FLAG": "N"}}, {"type": "Feature", "geometry": {"type": "Point", "coordinates": [-68.8689103363376, 44.1279388297916]}, "properties": {"CWP_NAME": "NORTH HAVEN WWTF", "CWP_STREET": "9 WATERMAN LN", "CWP_CITY": "NORTH HAVEN", "CWP_STATE": "ME", "CWP_ZIP": "04853", "CWP_COUNTY": "Knox", "NPDES_ID": "ME0101907", "REGISTRY_ID": "110015984675", "CWP_FACILITY_TYPE_INDICATOR": "POTW", "CWP_MAJOR_MINOR_STATUS": "Minor", "CWP_PERMIT_STATUS_DESC": "Effective", "STATE_WATER_BODY_NAME": "FOX ISLAND THOROUGHFARE", "CWP_CSO_FLAG": "N"}}, {"type": "Feature", "geometry": {"type": "Point", "coordinates": [-70.2443707746991, 43.5857491183302]}, "properties": {"CWP_NAME": "SOUTH CAPE ELIZABETH WWTF", "CWP_STREET": "488 SPURWINK AVE", "CWP_CITY": "CAPE ELIZABETH", "CWP_STATE": "ME", "CWP_ZIP": "04107", "CWP_COUNTY": "Cumberland", "NPDES_ID": "ME0102121", "REGISTRY_ID": "110011126986", "CWP_FACILITY_TYPE_INDICATOR": "POTW", "CWP_MAJOR_MINOR_STATUS": "Minor", "CWP_PERMIT_STATUS_DESC": "Expired", "STATE_WATER_BODY_NAME": "PEABBLES COVE", "CWP_CSO_FLAG": "N"}}, {"type": "Feature", "geometry": {"type": "Point", "coordinates": [-68.9671999881919, 44.3806087975524]}, "properties": {"CWP_NAME": "NORTHPORT VILLAGE CORP.", "CWP_STREET": "LOWER MAIN ST", "CWP_CITY": "NORTHPORT", "CWP_STATE": "ME", "CWP_ZIP": "04849", "CWP_COUNTY": "Waldo", "NPDES_ID": "ME0100901", "REGISTRY_ID": "110009913059", "CWP_FACILITY_TYPE_INDICATOR": "POTW", "CWP_MAJOR_MINOR_STATUS": "Minor", "CWP_PERMIT_STATUS_DESC": "Effective", "STATE_WATER_BODY_NAME": "WEST PENOBSCOT BAY", "CWP_CSO_FLAG": "N"}}, {"type": "Feature", "geometry": {"type": "Point", "coordinates": [-69.0728038045582, 44.2104723209371]}, "properties": {"CWP_NAME": "CAMDEN WWTF", "CWP_STREET": "20 LIONS LN", "CWP_CITY": "CAMDEN", "CWP_STATE": "ME", "CWP_ZIP": "04843", "CWP_COUNTY": "Knox", "NPDES_ID": "ME0100137", "REGISTRY_ID": "110009913111", "CWP_FACILITY_TYPE_INDICATOR": "POTW", "CWP_MAJOR_MINOR_STATUS": "Major", "CWP_PERMIT_STATUS_DESC": "Effective", "STATE_WATER_BODY_NAME": "CAMDEN HARBOR", "CWP_CSO_FLAG": "N"}}, {"type": "Feature", "geometry": {"type": "Point", "coordinates": [-68.7144895341489, 44.8245789979457]}, "properties": {"CWP_NAME": "VEAZIE WWTF", "CWP_STREET": "34 HOBSON AVE", "CWP_CITY": "VEAZIE", "CWP_STATE": "ME", "CWP_ZIP": "04401", "CWP_COUNTY": "Penobscot", "NPDES_ID": "ME0100706", "REGISTRY_ID": "110006744032", "CWP_FACILITY_TYPE_INDICATOR": "POTW", "CWP_MAJOR_MINOR_STATUS": "Minor", "CWP_PERMIT_STATUS_DESC": "Effective", "STATE_WATER_BODY_NAME": "PENOBSCOT RIVER", "CWP_CSO_FLAG": "N"}}, {"type": "Feature", "geometry": {"type": "Point", "coordinates": [-70.5176685785962, 44.2130191567602]}, "properties": {"CWP_NAME": "PARIS UTILITY DISTRICT WWTF", "CWP_STREET": "7 C N BROWN WAY", "CWP_CITY": "SOUTH PARIS", "CWP_STATE": "ME", "CWP_ZIP": "04281", "CWP_COUNTY": "Oxford", "NPDES_ID": "ME0100951", "REGISTRY_ID": "110008435498", "CWP_FACILITY_TYPE_INDICATOR": "POTW", "CWP_MAJOR_MINOR_STATUS": "Major", "CWP_PERMIT_STATUS_DESC": "Effective", "STATE_WATER_BODY_NAME": "LITTLE ANDROSCOGGIN RIVER", "CWP_CSO_FLAG": "Y"}}, {"type": "Feature", "geometry": {"type": "Point", "coordinates": [-69.3664001997094, 44.6178095145881]}, "properties": {"CWP_NAME": "UNITY UD WWTF", "CWP_STREET": "PRAIRIE RD", "CWP_CITY": "UNITY", "CWP_STATE": "ME", "CWP_ZIP": "04988", "CWP_COUNTY": "Waldo", "NPDES_ID": "ME0101150", "REGISTRY_ID": "110011127039", "CWP_FACILITY_TYPE_INDICATOR": "POTW", "CWP_MAJOR_MINOR_STATUS": "Minor", "CWP_PERMIT_STATUS_DESC": "Admin Continued", "STATE_WATER_BODY_NAME": "TWENTYFIVE MILE STEAM", "CWP_CSO_FLAG": "N"}}, {"type": "Feature", "geometry": {"type": "Point", "coordinates": [-68.3237213515404, 44.2751767770084]}, "properties": {"CWP_NAME": "SOUTHWEST HARBOR WWTF", "CWP_STREET": "9 APPLE LN", "CWP_CITY": "SOUTHWEST HARBOR", "CWP_STATE": "ME", "CWP_ZIP": "04679", "CWP_COUNTY": null, "NPDES_ID": "ME0100641", "REGISTRY_ID": "110025390253", "CWP_FACILITY_TYPE_INDICATOR": "POTW", "CWP_MAJOR_MINOR_STATUS": "Major", "CWP_PERMIT_STATUS_DESC": "Effective", "STATE_WATER_BODY_NAME": "ATLANTIC OCEAN", "CWP_CSO_FLAG": "N"}}, {"type": "Feature", "geometry": {"type": "Point", "coordinates": [-70.3498783646574, 43.4461446300658]}, "properties": {"CWP_NAME": "BIDDEFORD POOL  WWTF", "CWP_STREET": "12 STONECLIFF RD", "CWP_CITY": "BIDDEFORD", "CWP_STATE": "ME", "CWP_ZIP": "04005", "CWP_COUNTY": "York", "NPDES_ID": "ME0102741", "REGISTRY_ID": "110022460479", "CWP_FACILITY_TYPE_INDICATOR": "POTW", "CWP_MAJOR_MINOR_STATUS": "Minor", "CWP_PERMIT_STATUS_DESC": "Admin Continued", "STATE_WATER_BODY_NAME": "SACO BAY", "CWP_CSO_FLAG": "N"}}, {"type": "Feature", "geometry": {"type": "Point", "coordinates": [-69.6634400398594, 44.004248727207]}, "properties": {"CWP_NAME": "WISCASSET WWTF", "CWP_STREET": "69 WATER ST", "CWP_CITY": "WISCASSET", "CWP_STATE": "ME", "CWP_ZIP": "04578-4108", "CWP_COUNTY": "Lincoln", "NPDES_ID": "ME0100757", "REGISTRY_ID": "110064258921", "CWP_FACILITY_TYPE_INDICATOR": "POTW", "CWP_MAJOR_MINOR_STATUS": "Minor", "CWP_PERMIT_STATUS_DESC": "Effective", "STATE_WATER_BODY_NAME": "SHEEPSCOT RIVER", "CWP_CSO_FLAG": "N"}}, {"type": "Feature", "geometry": {"type": "Point", "coordinates": [-68.4116967994608, 46.633546731607]}, "properties": {"CWP_NAME": "ASHLAND WWTF", "CWP_STREET": "127 LAGOON RD", "CWP_CITY": "ASHLAND", "CWP_STATE": "ME", "CWP_ZIP": "04732", "CWP_COUNTY": "Aroostook", "NPDES_ID": "ME0101087", "REGISTRY_ID": "110009912871", "CWP_FACILITY_TYPE_INDICATOR": "POTW", "CWP_MAJOR_MINOR_STATUS": "Minor", "CWP_PERMIT_STATUS_DESC": "Effective", "STATE_WATER_BODY_NAME": "AROOSTOOK RIVER", "CWP_CSO_FLAG": "N"}}, {"type": "Feature", "geometry": {"type": "Point", "coordinates": [-70.7371805166989, 43.2965684480545]}, "properties": {"CWP_NAME": "NORTH BERWICK SD WWTF", "CWP_STREET": "115 EASTERN AVE", "CWP_CITY": "NORTH BERWICK", "CWP_STATE": "ME", "CWP_ZIP": "03906-0173", "CWP_COUNTY": "York", "NPDES_ID": "ME0101885", "REGISTRY_ID": "110009912746", "CWP_FACILITY_TYPE_INDICATOR": "POTW", "CWP_MAJOR_MINOR_STATUS": "Minor", "CWP_PERMIT_STATUS_DESC": "Expired", "STATE_WATER_BODY_NAME": "GREAT WORKS RIVER", "CWP_CSO_FLAG": "N"}}, {"type": "Feature", "geometry": {"type": "Point", "coordinates": [-68.2063498981563, 44.380409170005]}, "properties": {"CWP_NAME": "BAR HARBOR WWTF MAIN FACILITY", "CWP_STREET": "136 LEDGELAWN AVE", "CWP_CITY": "BAR HARBOR", "CWP_STATE": "ME", "CWP_ZIP": "04609-0337", "CWP_COUNTY": null, "NPDES_ID": "ME0101214", "REGISTRY_ID": "110064596815", "CWP_FACILITY_TYPE_INDICATOR": "POTW", "CWP_MAJOR_MINOR_STATUS": "Major", "CWP_PERMIT_STATUS_DESC": "Expired", "STATE_WATER_BODY_NAME": "FRENCHMAN BAY", "CWP_CSO_FLAG": "Y"}}, {"type": "Feature", "geometry": {"type": "Point", "coordinates": [-69.6043006902999, 45.4530693947371]}, "properties": {"CWP_NAME": "MOOSEHEAD SANITARY DISTRICT", "CWP_STREET": "SPRUCE ST", "CWP_CITY": "GREENVILLE", "CWP_STATE": "ME", "CWP_ZIP": "04441", "CWP_COUNTY": "Piscataquis", "NPDES_ID": "MEU502119", "REGISTRY_ID": "110011127841", "CWP_FACILITY_TYPE_INDICATOR": "POTW", "CWP_MAJOR_MINOR_STATUS": "Minor", "CWP_PERMIT_STATUS_DESC": "Effective", "STATE_WATER_BODY_NAME": "GROUNDWATER", "CWP_CSO_FLAG": "N"}}, {"type": "Feature", "geometry": {"type": "Point", "coordinates": [-67.8690195520467, 45.6681396532167]}, "properties": {"CWP_NAME": "DANFORTH WWTF", "CWP_STREET": "244 BANCROFT RD", "CWP_CITY": "DANFORTH", "CWP_STATE": "ME", "CWP_ZIP": "04424-0117", "CWP_COUNTY": "Washington", "NPDES_ID": "ME0100161", "REGISTRY_ID": "110009913139", "CWP_FACILITY_TYPE_INDICATOR": "POTW", "CWP_MAJOR_MINOR_STATUS": "Minor", "CWP_PERMIT_STATUS_DESC": "Effective", "STATE_WATER_BODY_NAME": "BASKAHEGAN STREAM", "CWP_CSO_FLAG": "N"}}, {"type": "Feature", "geometry": {"type": "Point", "coordinates": [-70.7249803166755, 43.4113588349866]}, "properties": {"CWP_NAME": "SANFORD WWTF", "CWP_STREET": "192 GAVEL RD", "CWP_CITY": "SANFORD", "CWP_STATE": "ME", "CWP_ZIP": "04073", "CWP_COUNTY": "York", "NPDES_ID": "ME0100617", "REGISTRY_ID": "110006618758", "CWP_FACILITY_TYPE_INDICATOR": "POTW", "CWP_MAJOR_MINOR_STATUS": "Major", "CWP_PERMIT_STATUS_DESC": "Effective", "STATE_WATER_BODY_NAME": "MOUSAM RIVER", "CWP_CSO_FLAG": "Y"}}, {"type": "Feature", "geometry": {"type": "Point", "coordinates": [-68.2996770704791, 44.2983199354286]}, "properties": {"CWP_NAME": "NORTHEAST HARBOR  WWTF", "CWP_STREET": "18 SINCLAIR RD", "CWP_CITY": "NORTHEAST HARBOR", "CWP_STATE": "ME", "CWP_ZIP": "04662", "CWP_COUNTY": "Hancock", "NPDES_ID": "ME0101346", "REGISTRY_ID": "110033164171", "CWP_FACILITY_TYPE_INDICATOR": "POTW", "CWP_MAJOR_MINOR_STATUS": "Minor", "CWP_PERMIT_STATUS_DESC": "Effective", "STATE_WATER_BODY_NAME": "ATLANTIC OCEAN", "CWP_CSO_FLAG": "N"}}, {"type": "Feature", "geometry": {"type": "Point", "coordinates": [-69.7044446750353, 44.5530654998577]}, "properties": {"CWP_NAME": "OAKLAND WWTF", "CWP_STREET": "41 MUNICIPAL DR", "CWP_CITY": "OAKLAND", "CWP_STATE": "ME", "CWP_ZIP": "04963", "CWP_COUNTY": "Kennebec", "NPDES_ID": "ME0100463", "REGISTRY_ID": "110006618678", "CWP_FACILITY_TYPE_INDICATOR": "POTW", "CWP_MAJOR_MINOR_STATUS": "Minor", "CWP_PERMIT_STATUS_DESC": "Terminated", "STATE_WATER_BODY_NAME": "MESSALONSKEE STREAM", "CWP_CSO_FLAG": "N"}}, {"type": "Feature", "geometry": {"type": "Point", "coordinates": [-69.214264503918, 44.0701213947023]}, "properties": {"CWP_NAME": "WARREN SANITARY DISTRICT", "CWP_STREET": "RTE 97 E SIDE", "CWP_CITY": "WARREN", "CWP_STATE": "ME", "CWP_ZIP": "04864", "CWP_COUNTY": "Knox", "NPDES_ID": "ME0102253", "REGISTRY_ID": "110009912817", "CWP_FACILITY_TYPE_INDICATOR": "POTW", "CWP_MAJOR_MINOR_STATUS": "Minor", "CWP_PERMIT_STATUS_DESC": "Admin Continued", "STATE_WATER_BODY_NAME": "ST GEORGE RIVER", "CWP_CSO_FLAG": "N"}}, {"type": "Feature", "geometry": {"type": "Point", "coordinates": [-68.0866842683963, 44.3942254604677]}, "properties": {"CWP_NAME": "WINTER HARBOR WWTF", "CWP_STREET": "39 MEADOW LN", "CWP_CITY": "WINTER HARBOR", "CWP_STATE": "ME", "CWP_ZIP": "04693", "CWP_COUNTY": "Hancock", "NPDES_ID": "ME0100731", "REGISTRY_ID": "110009913013", "CWP_FACILITY_TYPE_INDICATOR": "POTW", "CWP_MAJOR_MINOR_STATUS": "Minor", "CWP_PERMIT_STATUS_DESC": "Admin Continued", "STATE_WATER_BODY_NAME": "HENRY COVE", "CWP_CSO_FLAG": "N"}}, {"type": "Feature", "geometry": {"type": "Point", "coordinates": [-70.3158066443278, 43.5480090594662]}, "properties": {"CWP_NAME": "SCARBOROUGH SD WWTF", "CWP_STREET": "415 BLACK POINT RD", "CWP_CITY": "SCARBOROUGH", "CWP_STATE": "ME", "CWP_ZIP": "04074", "CWP_COUNTY": "Cumberland", "NPDES_ID": "ME0102059", "REGISTRY_ID": "110000736945", "CWP_FACILITY_TYPE_INDICATOR": "POTW", "CWP_MAJOR_MINOR_STATUS": "Major", "CWP_PERMIT_STATUS_DESC": "Effective", "STATE_WATER_BODY_NAME": "ATLANTIC OCEAN", "CWP_CSO_FLAG": "N"}}, {"type": "Feature", "geometry": {"type": "Point", "coordinates": [-70.4478703287221, 43.4915586000519]}, "properties": {"CWP_NAME": "BIDDEFORD WWTF", "CWP_STREET": "63 WATER ST", "CWP_CITY": "BIDDEFORD", "CWP_STATE": "ME", "CWP_ZIP": "04005", "CWP_COUNTY": "York", "NPDES_ID": "ME0100048", "REGISTRY_ID": "110002045288", "CWP_FACILITY_TYPE_INDICATOR": "POTW", "CWP_MAJOR_MINOR_STATUS": "Major", "CWP_PERMIT_STATUS_DESC": "Effective", "STATE_WATER_BODY_NAME": "SACO RIVER", "CWP_CSO_FLAG": "Y"}}, {"type": "Feature", "geometry": {"type": "Point", "coordinates": [-69.7793806946042, 44.3020592733035]}, "properties": {"CWP_NAME": "GREATER AUGUSTA UTILITY DISTRICT", "CWP_STREET": "33 JACKSON AVE", "CWP_CITY": "AUGUSTA", "CWP_STATE": "ME", "CWP_ZIP": "04330", "CWP_COUNTY": "Kennebec", "NPDES_ID": "ME0100013", "REGISTRY_ID": "110000916251", "CWP_FACILITY_TYPE_INDICATOR": "POTW", "CWP_MAJOR_MINOR_STATUS": "Major", "CWP_PERMIT_STATUS_DESC": "Admin Continued", "STATE_WATER_BODY_NAME": "KENNEBEC RIVER", "CWP_CSO_FLAG": "Y"}}, {"type": "Feature", "geometry": {"type": "Point", "coordinates": [-69.447107201679, 44.8781803781277]}, "properties": {"CWP_NAME": "HARTLAND WWTF", "CWP_STREET": "162 PITTSFIELD AVE", "CWP_CITY": "HARTLAND", "CWP_STATE": "ME", "CWP_ZIP": "04943", "CWP_COUNTY": "Somerset", "NPDES_ID": "ME0101443", "REGISTRY_ID": "110006618623", "CWP_FACILITY_TYPE_INDICATOR": "POTW", "CWP_MAJOR_MINOR_STATUS": "Major", "CWP_PERMIT_STATUS_DESC": "Effective", "STATE_WATER_BODY_NAME": "WEST BRANCH SEBASTICOOK RIVER", "CWP_CSO_FLAG": "N"}}, {"type": "Feature", "geometry": {"type": "Point", "coordinates": [-69.0097622716832, 45.3073216593057]}, "properties": {"CWP_NAME": "BROWNVILLE SUBSURFACE WWTF", "CWP_STREET": "27 CHURCH ST", "CWP_CITY": "BROWNVILLE", "CWP_STATE": "ME", "CWP_ZIP": "04414", "CWP_COUNTY": "Piscataquis", "NPDES_ID": "MEU500829", "REGISTRY_ID": "110013343738", "CWP_FACILITY_TYPE_INDICATOR": "POTW", "CWP_MAJOR_MINOR_STATUS": "Minor", "CWP_PERMIT_STATUS_DESC": "Terminated", "STATE_WATER_BODY_NAME": "GROUNDWATER", "CWP_CSO_FLAG": "N"}}, {"type": "Feature", "geometry": {"type": "Point", "coordinates": [-70.2564603681485, 43.6388891681179]}, "properties": {"CWP_NAME": "SOUTH PORTLAND WWTF", "CWP_STREET": "111 WATERMAN DR", "CWP_CITY": "SOUTH PORTLAND", "CWP_STATE": "ME", "CWP_ZIP": "04116-9422", "CWP_COUNTY": "Cumberland", "NPDES_ID": "ME0100633", "REGISTRY_ID": "110028276595", "CWP_FACILITY_TYPE_INDICATOR": "POTW", "CWP_MAJOR_MINOR_STATUS": "Major", "CWP_PERMIT_STATUS_DESC": "Admin Continued", "STATE_WATER_BODY_NAME": "FORE RIVER", "CWP_CSO_FLAG": "Y"}}, {"type": "Feature", "geometry": {"type": "Point", "coordinates": [-67.0420494418843, 44.9596455487866]}, "properties": {"CWP_NAME": "PASSAMAQUODDY WWTF", "CWP_STREET": "7 TREATMENT PLANT RD", "CWP_CITY": "PERRY", "CWP_STATE": "ME", "CWP_ZIP": "04667", "CWP_COUNTY": "Washington", "NPDES_ID": "ME0100773", "REGISTRY_ID": "110033028097", "CWP_FACILITY_TYPE_INDICATOR": "POTW", "CWP_MAJOR_MINOR_STATUS": "Minor", "CWP_PERMIT_STATUS_DESC": "Admin Continued", "STATE_WATER_BODY_NAME": "PASSAMAQUODDY BAY", "CWP_CSO_FLAG": "N"}}, {"type": "Feature", "geometry": {"type": "Point", "coordinates": [-69.5150500551306, 44.0255689633631]}, "properties": {"CWP_NAME": "GREAT SALT BAY WWTF", "CWP_STREET": "121 PIPER MILL RD", "CWP_CITY": "DAMARISCOTTA", "CWP_STATE": "ME", "CWP_ZIP": "04543", "CWP_COUNTY": "Lincoln", "NPDES_ID": "ME0101516", "REGISTRY_ID": "110009025919", "CWP_FACILITY_TYPE_INDICATOR": "POTW", "CWP_MAJOR_MINOR_STATUS": "Minor", "CWP_PERMIT_STATUS_DESC": "Admin Continued", "STATE_WATER_BODY_NAME": "DAMARISCOTTA RIVER", "CWP_CSO_FLAG": "N"}}, {"type": "Feature", "geometry": {"type": "Point", "coordinates": [-68.9783903061826, 45.2313496183713]}, "properties": {"CWP_NAME": "MILO WD WWTF", "CWP_STREET": "FERRY RD", "CWP_CITY": "MILO", "CWP_STATE": "ME", "CWP_ZIP": "04463", "CWP_COUNTY": "Piscataquis", "NPDES_ID": "ME0100439", "REGISTRY_ID": "110006649010", "CWP_FACILITY_TYPE_INDICATOR": "POTW", "CWP_MAJOR_MINOR_STATUS": "Minor", "CWP_PERMIT_STATUS_DESC": "Admin Continued", "STATE_WATER_BODY_NAME": "PISCATAQUIS RIVER", "CWP_CSO_FLAG": "Y"}}, {"type": "Feature", "geometry": {"type": "Point", "coordinates": [-70.0482924472648, 43.9949847972254]}, "properties": {"CWP_NAME": "LISBON WWTF", "CWP_STREET": "744 LISBON RD", "CWP_CITY": "LISBON", "CWP_STATE": "ME", "CWP_ZIP": "04250", "CWP_COUNTY": "Androscoggin", "NPDES_ID": "ME0100307", "REGISTRY_ID": "110002047026", "CWP_FACILITY_TYPE_INDICATOR": "POTW", "CWP_MAJOR_MINOR_STATUS": "Major", "CWP_PERMIT_STATUS_DESC": "Expired", "STATE_WATER_BODY_NAME": "ANDROSCOGGIN RIVER", "CWP_CSO_FLAG": "Y"}}, {"type": "Feature", "geometry": {"type": "Point", "coordinates": [-69.3816041518493, 44.7598799397972]}, "properties": {"CWP_NAME": "PITTSFIELD WWTF", "CWP_STREET": "MCCARTHY RD", "CWP_CITY": "PITTSFIELD", "CWP_STATE": "ME", "CWP_ZIP": "04967", "CWP_COUNTY": "Somerset", "NPDES_ID": "ME0100528", "REGISTRY_ID": "110006618712", "CWP_FACILITY_TYPE_INDICATOR": "POTW", "CWP_MAJOR_MINOR_STATUS": "Major", "CWP_PERMIT_STATUS_DESC": "Effective", "STATE_WATER_BODY_NAME": "SEBASTICOOK RIVER", "CWP_CSO_FLAG": "N"}}, {"type": "Feature", "geometry": {"type": "Point", "coordinates": [-69.6511939575939, 43.8353982845792]}, "properties": {"CWP_NAME": "SQUIRREL ISLAND VILLAGE CORP.", "CWP_STREET": "UNKNOWN", "CWP_CITY": "SQUIRRELL ISLAND", "CWP_STATE": "ME", "CWP_ZIP": "00000", "CWP_COUNTY": "Lincoln", "NPDES_ID": "ME0100650", "REGISTRY_ID": "110055025020", "CWP_FACILITY_TYPE_INDICATOR": "POTW", "CWP_MAJOR_MINOR_STATUS": "Minor", "CWP_PERMIT_STATUS_DESC": "Terminated", "STATE_WATER_BODY_NAME": "BOOTHBAY HARBOR", "CWP_CSO_FLAG": "N"}}, {"type": "Feature", "geometry": {"type": "Point", "coordinates": [-69.6240560446262, 44.4819812763894]}, "properties": {"CWP_NAME": "VASSALBORO SANITARY DISTRICT MAIN", "CWP_STREET": "CEMETERY ST", "CWP_CITY": "VASSALBORO", "CWP_STATE": "ME", "CWP_ZIP": "04989", "CWP_COUNTY": "Kennebec", "NPDES_ID": "ME0102661", "REGISTRY_ID": "110024404312", "CWP_FACILITY_TYPE_INDICATOR": "POTW", "CWP_MAJOR_MINOR_STATUS": "Minor", "CWP_PERMIT_STATUS_DESC": "Terminated", "STATE_WATER_BODY_NAME": "OUTLET STREAM", "CWP_CSO_FLAG": "N"}}, {"type": "Feature", "geometry": {"type": "Point", "coordinates": [-68.8456386008395, 44.634620560197]}, "properties": {"CWP_NAME": "WINTERPORT WWTF", "CWP_STREET": "34 SAMPSON ST", "CWP_CITY": "WINTERPORT", "CWP_STATE": "ME", "CWP_ZIP": "04496", "CWP_COUNTY": "Waldo", "NPDES_ID": "ME0100749", "REGISTRY_ID": "110018930497", "CWP_FACILITY_TYPE_INDICATOR": "POTW", "CWP_MAJOR_MINOR_STATUS": "Minor", "CWP_PERMIT_STATUS_DESC": "Expired", "STATE_WATER_BODY_NAME": "PENOBSCOT RIVER", "CWP_CSO_FLAG": "Y"}}, {"type": "Feature", "geometry": {"type": "Point", "coordinates": [-68.6141468914488, 47.2403706731637]}, "properties": {"CWP_NAME": "FORT KENT WWTF", "CWP_STREET": "542 W MAIN ST", "CWP_CITY": "FORT KENT", "CWP_STATE": "ME", "CWP_ZIP": "04743", "CWP_COUNTY": "Aroostook", "NPDES_ID": "ME0102369", "REGISTRY_ID": "110030570727", "CWP_FACILITY_TYPE_INDICATOR": "POTW", "CWP_MAJOR_MINOR_STATUS": "Major", "CWP_PERMIT_STATUS_DESC": "Admin Continued", "STATE_WATER_BODY_NAME": "ST JOHN RIVER", "CWP_CSO_FLAG": "Y"}}, {"type": "Feature", "geometry": {"type": "Point", "coordinates": [-69.9463029931258, 43.9154361536153]}, "properties": {"CWP_NAME": "BRUNSWICK S D WWTF", "CWP_STREET": "8 PINE TREE RD", "CWP_CITY": "BRUNSWICK", "CWP_STATE": "ME", "CWP_ZIP": "04011", "CWP_COUNTY": "Cumberland", "NPDES_ID": "ME0100102", "REGISTRY_ID": "110003555545", "CWP_FACILITY_TYPE_INDICATOR": "POTW", "CWP_MAJOR_MINOR_STATUS": "Major", "CWP_PERMIT_STATUS_DESC": "Expired", "STATE_WATER_BODY_NAME": "ANDROSCOGGIN RIVER", "CWP_CSO_FLAG": "N"}}, {"type": "Feature", "geometry": {"type": "Point", "coordinates": [-67.9499694259704, 46.8517897594515]}, "properties": {"CWP_NAME": "CARIBOU U D WWTF", "CWP_STREET": "363 GRIMES RD", "CWP_CITY": "CARIBOU", "CWP_STATE": "ME", "CWP_ZIP": "04736", "CWP_COUNTY": "Aroostook", "NPDES_ID": "ME0100145", "REGISTRY_ID": "110006618491", "CWP_FACILITY_TYPE_INDICATOR": "POTW", "CWP_MAJOR_MINOR_STATUS": "Major", "CWP_PERMIT_STATUS_DESC": "Admin Continued", "STATE_WATER_BODY_NAME": "AROOSTOOK RIVER", "CWP_CSO_FLAG": "N"}}, {"type": "Feature", "geometry": {"type": "Point", "coordinates": [-67.9388295392794, 47.1664697909929]}, "properties": {"CWP_NAME": "VAN BUREN WWTF", "CWP_STREET": "33 JACKSON ST", "CWP_CITY": "VAN BUREN", "CWP_STATE": "ME", "CWP_ZIP": "04785", "CWP_COUNTY": "Aroostook", "NPDES_ID": "ME0100684", "REGISTRY_ID": "110009912997", "CWP_FACILITY_TYPE_INDICATOR": "POTW", "CWP_MAJOR_MINOR_STATUS": "Major", "CWP_PERMIT_STATUS_DESC": "Effective", "STATE_WATER_BODY_NAME": "ST JOHN RIVER", "CWP_CSO_FLAG": "N"}}, {"type": "Feature", "geometry": {"type": "Point", "coordinates": [-70.6717908948589, 44.9896387360891]}, "properties": {"CWP_NAME": "RANGELEY WWTF", "CWP_STREET": "231 CHICK HILL DR", "CWP_CITY": "RANGELEY", "CWP_STATE": "ME", "CWP_ZIP": "04970-0632", "CWP_COUNTY": "Franklin", "NPDES_ID": "MEU508086", "REGISTRY_ID": "110009048173", "CWP_FACILITY_TYPE_INDICATOR": "POTW", "CWP_MAJOR_MINOR_STATUS": "Minor", "CWP_PERMIT_STATUS_DESC": "Effective", "STATE_WATER_BODY_NAME": "GROUNDWATER, HALEY POND", "CWP_CSO_FLAG": "N"}}, {"type": "Feature", "geometry": {"type": "Point", "coordinates": [-69.6537714563891, 44.527049009277]}, "properties": {"CWP_NAME": "KENNEBEC STD WWTF", "CWP_STREET": "401 WATER ST", "CWP_CITY": "WATERVILLE", "CWP_STATE": "ME", "CWP_ZIP": "04901-6354", "CWP_COUNTY": "Kennebec", "NPDES_ID": "ME0100854", "REGISTRY_ID": "110000732994", "CWP_FACILITY_TYPE_INDICATOR": "POTW", "CWP_MAJOR_MINOR_STATUS": "Major", "CWP_PERMIT_STATUS_DESC": "Admin Continued", "STATE_WATER_BODY_NAME": "KENNEBEC RIVER", "CWP_CSO_FLAG": "Y"}}, {"type": "Feature", "geometry": {"type": "Point", "coordinates": [-68.4364497084931, 45.9893892187587]}, "properties": {"CWP_NAME": "PATTEN WWTF", "CWP_STREET": "81 LOVEJOY RD", "CWP_CITY": "PATTEN", "CWP_STATE": "ME", "CWP_ZIP": "04765", "CWP_COUNTY": "Penobscot", "NPDES_ID": "MEU507775", "REGISTRY_ID": "110009048182", "CWP_FACILITY_TYPE_INDICATOR": "POTW", "CWP_MAJOR_MINOR_STATUS": "Minor", "CWP_PERMIT_STATUS_DESC": "Effective", "STATE_WATER_BODY_NAME": "GROUNDWATER", "CWP_CSO_FLAG": "N"}}, {"type": "Feature", "geometry": {"type": "Point", "coordinates": [-70.34986039298, 43.6939789458823]}, "properties": {"CWP_NAME": "WESTBROOK/GORHAM WWTF", "CWP_STREET": "285 PARK RD", "CWP_CITY": "WESTBROOK", "CWP_STATE": "ME", "CWP_ZIP": "04092", "CWP_COUNTY": "Cumberland", "NPDES_ID": "ME0100846", "REGISTRY_ID": "110039692053", "CWP_FACILITY_TYPE_INDICATOR": "POTW", "CWP_MAJOR_MINOR_STATUS": "Major", "CWP_PERMIT_STATUS_DESC": "Expired", "STATE_WATER_BODY_NAME": "PRESUMPSCOT RIVER", "CWP_CSO_FLAG": "Y"}}]}