{"type": "FeatureCollection", "features": [{"type": "Feature", "geometry": {"type": "Point", "coordinates": [144.815795521382, 13.5403067124501]}, "properties": {"CWP_NAME": "NORTHERN DISTRICT STP", "CWP_STREET": "ROUTE 34, HARMON ANNEX", "CWP_CITY": "DEDEDO", "CWP_STATE": "GU", "CWP_ZIP": "96912", "CWP_COUNTY": "Guam", "NPDES_ID": "GU0020141", "REGISTRY_ID": "110009723246", "CWP_FACILITY_TYPE_INDICATOR": "POTW", "CWP_MAJOR_MINOR_STATUS": "Major", "CWP_PERMIT_STATUS_DESC": "Effective", "STATE_WATER_BODY_NAME": "PACIFIC OCEAN, PHILIPPINE SEA", "CWP_CSO_FLAG": "N"}}, {"type": "Feature", "geometry": {"type": "Point", "coordinates": [144.749162062256, 13.3166741705938]}, "properties": {"CWP_NAME": "UGUM SURFACE WATER TREATMENT PLANT", "CWP_STREET": "308 PAULINO HEIGHTS RD", "CWP_CITY": "TALOFOFO", "CWP_STATE": "GU", "CWP_ZIP": "96915", "CWP_COUNTY": "Guam", "NPDES_ID": "GU0020371", "REGISTRY_ID": "110041921356", "CWP_FACILITY_TYPE_INDICATOR": "POTW", "CWP_MAJOR_MINOR_STATUS": "Minor", "CWP_PERMIT_STATUS_DESC": "Effective", "STATE_WATER_BODY_NAME": "UGUM RIVER", "CWP_CSO_FLAG": "N"}}, {"type": "Feature", "geometry": {"type": "Point", "coordinates": [144.666695151806, 13.2839073854976]}, "properties": {"CWP_NAME": "UMATAC-MERIZO STP", "CWP_STREET": "ROUTE 2", "CWP_CITY": "MERIZO", "CWP_STATE": "GU", "CWP_ZIP": "96915", "CWP_COUNTY": "Guam", "NPDES_ID": "GU0020273", "REGISTRY_ID": "110009723255", "CWP_FACILITY_TYPE_INDICATOR": "POTW", "CWP_MAJOR_MINOR_STATUS": "Minor", "CWP_PERMIT_STATUS_DESC": "Effective", "STATE_WATER_BODY_NAME": "TOGUAN RIVER", "CWP_CSO_FLAG": "N"}}, {"type": "Feature", "geometry": {"type": "Point", "coordinates": [144.746894874349, 13.371106519812]}, "properties": {"CWP_NAME": "BAZA GARDENS WWTF", "CWP_STREET": "BAZA GARDENS WTP", "CWP_CITY": "YONA", "CWP_STATE": "GU", "CWP_ZIP": "96914", "CWP_COUNTY": "Guam", "NPDES_ID": "GU0020095", "REGISTRY_ID": "110010755272", "CWP_FACILITY_TYPE_INDICATOR": "POTW", "CWP_MAJOR_MINOR_STATUS": "Minor", "CWP_PERMIT_STATUS_DESC": "Terminated", "STATE_WATER_BODY_NAME": "TOGCHA RIVER", "CWP_CSO_FLAG": "N"}}, {"type": "Feature", "geometry": {"type": "Point", "coordinates": [144.747495625988, 13.4809065126709]}, "properties": {"CWP_NAME": "AGANA SEWERAGE TREATMENT PLANT", "CWP_STREET": "MARINE CORPS DRIVE, ROUTE 1", "CWP_CITY": "HAGATNA", "CWP_STATE": "GU", "CWP_ZIP": "96932", "CWP_COUNTY": "Guam", "NPDES_ID": "GU0020087", "REGISTRY_ID": "110010679328", "CWP_FACILITY_TYPE_INDICATOR": "POTW", "CWP_MAJOR_MINOR_STATUS": "Major", "CWP_PERMIT_STATUS_DESC": "Effective", "STATE_WATER_BODY_NAME": "PACIFIC OCEAN", "CWP_CSO_FLAG": "N"}}, {"type": "Feature", "geometry": {"type": "Point", "coordinates": [144.654395131829, 13.3815071798067]}, "properties": {"CWP_NAME": "AGAT STP", "CWP_STREET": "ROUTE 2A, TIPALAO", "CWP_CITY": "AGAT", "CWP_STATE": "GU", "CWP_ZIP": "96928", "CWP_COUNTY": "Guam", "NPDES_ID": "GU0020222", "REGISTRY_ID": "110067558663", "CWP_FACILITY_TYPE_INDICATOR": "POTW", "CWP_MAJOR_MINOR_STATUS": "Major", "CWP_PERMIT_STATUS_DESC": "Effective", "STATE_WATER_BODY_NAME": "TIPALAO BAY PHILIPPINE SEA", "CWP_CSO_FLAG": "N"}}]}