{"type": "FeatureCollection", "features": [{"type": "Feature", "geometry": {"type": "Point", "coordinates": [-123.48000162546, 45.0755795359189]}, "properties": {"CWP_NAME": "WILLAMINA STP", "CWP_STREET": "ADAMS AND LINCOLN STS", "CWP_CITY": "WILLAMINA", "CWP_STATE": "OR", "CWP_ZIP": "97396", "CWP_COUNTY": "Yamhill", "NPDES_ID": "OR0022713", "REGISTRY_ID": "110039739334", "CWP_FACILITY_TYPE_INDICATOR": "POTW", "CWP_MAJOR_MINOR_STATUS": "Minor", "CWP_PERMIT_STATUS_DESC": "Admin Continued", "STATE_WATER_BODY_NAME": "SOUTH YAMHILL RIVER", "CWP_CSO_FLAG": "N"}}, {"type": "Feature", "geometry": {"type": "Point", "coordinates": [-122.802025101312, 45.0089623201336]}, "properties": {"CWP_NAME": "SILVERTON STP", "CWP_STREET": "400 SCHEMMEL LANE", "CWP_CITY": "SILVERTON", "CWP_STATE": "OR", "CWP_ZIP": "97381", "CWP_COUNTY": "Marion", "NPDES_ID": "OR0020656", "REGISTRY_ID": "110070149697", "CWP_FACILITY_TYPE_INDICATOR": "POTW", "CWP_MAJOR_MINOR_STATUS": "Major", "CWP_PERMIT_STATUS_DESC": "Admin Continued", "STATE_WATER_BODY_NAME": "SILVER CREEK (RM 6.8)", "CWP_CSO_FLAG": "N"}}, {"type": "Feature", "geometry": {"type": "Point", "coordinates": [-123.186536455514, 44.2907321768983]}, "properties": {"CWP_NAME": "HARRISBURG LAGOON TREATMENT PLANT", "CWP_STREET": "23914 PEORIA ROAD", "CWP_CITY": "HARRISBURG", "CWP_STATE": "OR", "CWP_ZIP": "97446", "CWP_COUNTY": "Linn", "NPDES_ID": "OR0033260", "REGISTRY_ID": "110010151520", "CWP_FACILITY_TYPE_INDICATOR": "POTW", "CWP_MAJOR_MINOR_STATUS": "Minor", "CWP_PERMIT_STATUS_DESC": "Admin Continued", "STATE_WATER_BODY_NAME": "WILLAMETTE RIVER (RM 158.4)", "CWP_CSO_FLAG": "N"}}, {"type": "Feature", "geometry": {"type": "Point", "coordinates": [-123.280777979975, 42.9416285064296]}, "properties": {"CWP_NAME": "CANYONVILLE STP", "CWP_STREET": "450 CANYONVILLE NORTH ROAD", "CWP_CITY": "CANYONVILLE", "CWP_STATE": "OR", "CWP_ZIP": "97417", "CWP_COUNTY": "Douglas", "NPDES_ID": "OR0020729", "REGISTRY_ID": "110009817421", "CWP_FACILITY_TYPE_INDICATOR": "POTW", "CWP_MAJOR_MINOR_STATUS": "Minor", "CWP_PERMIT_STATUS_DESC": "Admin Continued", "STATE_WATER_BODY_NAME": "SOUTH UMPQUA RIVER", "CWP_CSO_FLAG": "N"}}, {"type": "Feature", "geometry": {"type": "Point", "coordinates": [-121.776314031697, 45.3023051051281]}, "properties": {"CWP_NAME": "GOVERNMENT CAMP STP", "CWP_STREET": "OLD LOOP HWY", "CWP_CITY": "GOVERNMENT CAMP", "CWP_STATE": "OR", "CWP_ZIP": "97028", "CWP_COUNTY": "Clackamas", "NPDES_ID": "OR0027791", "REGISTRY_ID": "110009816985", "CWP_FACILITY_TYPE_INDICATOR": "POTW", "CWP_MAJOR_MINOR_STATUS": "Minor", "CWP_PERMIT_STATUS_DESC": "Effective", "STATE_WATER_BODY_NAME": "CAMP CREEK TO ZIG ZAG RIVER", "CWP_CSO_FLAG": "N"}}, {"type": "Feature", "geometry": {"type": "Point", "coordinates": [-124.282774050872, 43.3856651016097]}, "properties": {"CWP_NAME": "COOS BAY STP NO. 2 - EMPIRE", "CWP_STREET": "490 FULTON AVE", "CWP_CITY": "COOS BAY", "CWP_STATE": "OR", "CWP_ZIP": "97420", "CWP_COUNTY": "Coos", "NPDES_ID": "OR0023582", "REGISTRY_ID": "110039763422", "CWP_FACILITY_TYPE_INDICATOR": "POTW", "CWP_MAJOR_MINOR_STATUS": "Major", "CWP_PERMIT_STATUS_DESC": "Effective", "STATE_WATER_BODY_NAME": "COOS BAY", "CWP_CSO_FLAG": "N"}}, {"type": "Feature", "geometry": {"type": "Point", "coordinates": [-123.112040390476, 45.2391545716207]}, "properties": {"CWP_NAME": "LAFAYETTE  STP", "CWP_STREET": "260 S MADISON", "CWP_CITY": "LAFAYETTE", "CWP_STATE": "OR", "CWP_ZIP": "97127", "CWP_COUNTY": "Yamhill", "NPDES_ID": "OR0022551", "REGISTRY_ID": "110006696316", "CWP_FACILITY_TYPE_INDICATOR": "POTW", "CWP_MAJOR_MINOR_STATUS": "Minor", "CWP_PERMIT_STATUS_DESC": "Effective", "STATE_WATER_BODY_NAME": "YAMHILL RIVER", "CWP_CSO_FLAG": "N"}}, {"type": "Feature", "geometry": {"type": "Point", "coordinates": [-121.54429437244, 45.64283883839]}, "properties": {"CWP_NAME": "ODELL STP", "CWP_STREET": "3700 DETHMAN RIDGE RD.", "CWP_CITY": "ODELL", "CWP_STATE": "OR", "CWP_ZIP": "97044", "CWP_COUNTY": "Hood River", "NPDES_ID": "OR0022471", "REGISTRY_ID": "110009817216", "CWP_FACILITY_TYPE_INDICATOR": "POTW", "CWP_MAJOR_MINOR_STATUS": "Minor", "CWP_PERMIT_STATUS_DESC": "Effective", "STATE_WATER_BODY_NAME": "ODELL CREEK TO HOOD RIVER", "CWP_CSO_FLAG": "N"}}, {"type": "Feature", "geometry": {"type": "Point", "coordinates": [-122.571757700278, 42.5452469584142]}, "properties": {"CWP_NAME": "BUTTE FALLS STP", "CWP_STREET": "BUTTE FALLS", "CWP_CITY": "BUTTE FALLS", "CWP_STATE": "OR", "CWP_ZIP": "97522", "CWP_COUNTY": "Jackson", "NPDES_ID": "OR0029891", "REGISTRY_ID": "110039767632", "CWP_FACILITY_TYPE_INDICATOR": "POTW", "CWP_MAJOR_MINOR_STATUS": "Minor", "CWP_PERMIT_STATUS_DESC": "Effective", "STATE_WATER_BODY_NAME": "SOUTH FORK BIG BUTTE CREEK", "CWP_CSO_FLAG": "N"}}, {"type": "Feature", "geometry": {"type": "Point", "coordinates": [-123.278306760682, 43.6065225179013]}, "properties": {"CWP_NAME": "YONCALLA STP", "CWP_STREET": "380 HALO TRAIL ROAD", "CWP_CITY": "YONCALLA", "CWP_STATE": "OR", "CWP_ZIP": "974999722", "CWP_COUNTY": "Douglas", "NPDES_ID": "OR0022454", "REGISTRY_ID": "110039739423", "CWP_FACILITY_TYPE_INDICATOR": "POTW", "CWP_MAJOR_MINOR_STATUS": "Minor", "CWP_PERMIT_STATUS_DESC": "Effective", "STATE_WATER_BODY_NAME": "YONCALLA CREEK", "CWP_CSO_FLAG": "N"}}, {"type": "Feature", "geometry": {"type": "Point", "coordinates": [-118.836957745829, 45.66794548797]}, "properties": {"CWP_NAME": "PENDLETON STP", "CWP_STREET": "500 SW DORIAN AVENUE", "CWP_CITY": "PENDLETON", "CWP_STATE": "OR", "CWP_ZIP": "978012090", "CWP_COUNTY": "Umatilla", "NPDES_ID": "OR0026395", "REGISTRY_ID": "110009817172", "CWP_FACILITY_TYPE_INDICATOR": "POTW", "CWP_MAJOR_MINOR_STATUS": "Major", "CWP_PERMIT_STATUS_DESC": "Admin Continued", "STATE_WATER_BODY_NAME": "MCKAY CREEK, AT ITS MOUTH", "CWP_CSO_FLAG": "N"}}, {"type": "Feature", "geometry": {"type": "Point", "coordinates": [-123.915941856511, 45.5572779892081]}, "properties": {"CWP_NAME": "GARIBALDI STP", "CWP_STREET": "206 S 7TH STREET", "CWP_CITY": "GARIBALDI", "CWP_STATE": "OR", "CWP_ZIP": "97118", "CWP_COUNTY": "Tillamook", "NPDES_ID": "OR0020362", "REGISTRY_ID": "110009817635", "CWP_FACILITY_TYPE_INDICATOR": "POTW", "CWP_MAJOR_MINOR_STATUS": "Minor", "CWP_PERMIT_STATUS_DESC": "Effective", "STATE_WATER_BODY_NAME": "TILLAMOOK BAY", "CWP_CSO_FLAG": "N"}}, {"type": "Feature", "geometry": {"type": "Point", "coordinates": [-122.94335021111, 46.0919817332145]}, "properties": {"CWP_NAME": "RAINIER STP", "CWP_STREET": "106 W. 6TH", "CWP_CITY": "RAINIER", "CWP_STATE": "OR", "CWP_ZIP": "97048", "CWP_COUNTY": "Columbia", "NPDES_ID": "OR0020389", "REGISTRY_ID": "110006696478", "CWP_FACILITY_TYPE_INDICATOR": "POTW", "CWP_MAJOR_MINOR_STATUS": "Minor", "CWP_PERMIT_STATUS_DESC": "Admin Continued", "STATE_WATER_BODY_NAME": "COLUMBIA RIVER (RM 67.0)", "CWP_CSO_FLAG": "N"}}, {"type": "Feature", "geometry": {"type": "Point", "coordinates": [-124.099860072385, 43.705911919853]}, "properties": {"CWP_NAME": "REEDSPORT STP", "CWP_STREET": "183 W RAILROAD", "CWP_CITY": "REEDSPORT", "CWP_STATE": "OR", "CWP_ZIP": "97467", "CWP_COUNTY": "Douglas", "NPDES_ID": "OR0020826", "REGISTRY_ID": "110009817467", "CWP_FACILITY_TYPE_INDICATOR": "POTW", "CWP_MAJOR_MINOR_STATUS": "Minor", "CWP_PERMIT_STATUS_DESC": "Admin Continued", "STATE_WATER_BODY_NAME": "UMPQUA RIVER", "CWP_CSO_FLAG": "N"}}, {"type": "Feature", "geometry": {"type": "Point", "coordinates": [-124.254269140537, 43.4153679146137]}, "properties": {"CWP_NAME": "NORTH BEND STP", "CWP_STREET": "1255 AIRPORT LANE", "CWP_CITY": "NORTH BEND", "CWP_STATE": "OR", "CWP_ZIP": "97459", "CWP_COUNTY": "Coos", "NPDES_ID": "OR0023361", "REGISTRY_ID": "110000579133", "CWP_FACILITY_TYPE_INDICATOR": "POTW", "CWP_MAJOR_MINOR_STATUS": "Major", "CWP_PERMIT_STATUS_DESC": "Effective", "STATE_WATER_BODY_NAME": "COOS BAY (RM 7.7)", "CWP_CSO_FLAG": "N"}}, {"type": "Feature", "geometry": {"type": "Point", "coordinates": [-123.801711724251, 45.4251100287332]}, "properties": {"CWP_NAME": "TILLAMOOK INDUSTRIAL PARK STP", "CWP_STREET": "4000 BLIMP BLVD", "CWP_CITY": "TILLAMOOK", "CWP_STATE": "OR", "CWP_ZIP": "971419624", "CWP_COUNTY": "Tillamook", "NPDES_ID": "OR0022918", "REGISTRY_ID": "110054993708", "CWP_FACILITY_TYPE_INDICATOR": "POTW", "CWP_MAJOR_MINOR_STATUS": "Minor", "CWP_PERMIT_STATUS_DESC": "Effective", "STATE_WATER_BODY_NAME": "TRASK RIVER (RM 5.2)", "CWP_CSO_FLAG": "N"}}, {"type": "Feature", "geometry": {"type": "Point", "coordinates": [-123.014520487472, 44.7231424472097]}, "properties": {"CWP_NAME": "JEFFERSON STP", "CWP_STREET": "700 N. 2ND STREET", "CWP_CITY": "JEFFERSON", "CWP_STATE": "OR", "CWP_ZIP": "97352", "CWP_COUNTY": "Marion", "NPDES_ID": "OR0020451", "REGISTRY_ID": "110006661923", "CWP_FACILITY_TYPE_INDICATOR": "POTW", "CWP_MAJOR_MINOR_STATUS": "Minor", "CWP_PERMIT_STATUS_DESC": "Admin Continued", "STATE_WATER_BODY_NAME": "SANTIAM RIVER", "CWP_CSO_FLAG": "N"}}, {"type": "Feature", "geometry": {"type": "Point", "coordinates": [-123.374713906239, 42.5076165498349]}, "properties": {"CWP_NAME": "FLEMING MIDDLE SCHOOL STP", "CWP_STREET": "6001 MONUMENT DRIVE", "CWP_CITY": "MERLIN", "CWP_STATE": "OR", "CWP_ZIP": "97532", "CWP_COUNTY": "Josephine", "NPDES_ID": "OR0028355", "REGISTRY_ID": "110006802987", "CWP_FACILITY_TYPE_INDICATOR": "POTW", "CWP_MAJOR_MINOR_STATUS": "Minor", "CWP_PERMIT_STATUS_DESC": "Effective", "STATE_WATER_BODY_NAME": "HARRIS CREEK", "CWP_CSO_FLAG": "N"}}, {"type": "Feature", "geometry": {"type": "Point", "coordinates": [-123.429080162543, 44.864538322514]}, "properties": {"CWP_NAME": "FALLS CITY STP", "CWP_STREET": "R.M. 12 LITTLE LUCKIAMUTE", "CWP_CITY": "FALLS CITY", "CWP_STATE": "OR", "CWP_ZIP": "97344", "CWP_COUNTY": "Polk", "NPDES_ID": "OR0032701", "REGISTRY_ID": "110006661932", "CWP_FACILITY_TYPE_INDICATOR": "POTW", "CWP_MAJOR_MINOR_STATUS": "Minor", "CWP_PERMIT_STATUS_DESC": "Effective", "STATE_WATER_BODY_NAME": "LITTLE LUCKIAMUTE RIVER, LITTLE LUCKIAMUTTE RIVER(RM12)", "CWP_CSO_FLAG": "N"}}, {"type": "Feature", "geometry": {"type": "Point", "coordinates": [-123.293014407828, 44.3150057691925]}, "properties": {"CWP_NAME": "MONROE STP", "CWP_STREET": "AT MONROE CITY PARK", "CWP_CITY": "MONROE", "CWP_STATE": "OR", "CWP_ZIP": "97456", "CWP_COUNTY": "Benton", "NPDES_ID": "OR0029203", "REGISTRY_ID": "110014261958", "CWP_FACILITY_TYPE_INDICATOR": "POTW", "CWP_MAJOR_MINOR_STATUS": "Minor", "CWP_PERMIT_STATUS_DESC": "Effective", "STATE_WATER_BODY_NAME": "LONG TOM RIVER", "CWP_CSO_FLAG": "N"}}, {"type": "Feature", "geometry": {"type": "Point", "coordinates": [-123.932184344942, 44.7257494899662]}, "properties": {"CWP_NAME": "SILETZ STP", "CWP_STREET": "1264 JAMES FRANK RD.", "CWP_CITY": "SILETZ", "CWP_STATE": "OR", "CWP_ZIP": "97380", "CWP_COUNTY": "Lincoln", "NPDES_ID": "OR0020419", "REGISTRY_ID": "110039738353", "CWP_FACILITY_TYPE_INDICATOR": "POTW", "CWP_MAJOR_MINOR_STATUS": "Minor", "CWP_PERMIT_STATUS_DESC": "Effective", "STATE_WATER_BODY_NAME": "SILETZ RIVER (RM 38.1)", "CWP_CSO_FLAG": "N"}}, {"type": "Feature", "geometry": {"type": "Point", "coordinates": [-122.897715589125, 44.5499941763612]}, "properties": {"CWP_NAME": "LEBANON WWTP", "CWP_STREET": "33110 TENNESSEE RD", "CWP_CITY": "LEBANON", "CWP_STATE": "OR", "CWP_ZIP": "97355", "CWP_COUNTY": "Linn", "NPDES_ID": "OR0020818", "REGISTRY_ID": "110014215081", "CWP_FACILITY_TYPE_INDICATOR": "POTW", "CWP_MAJOR_MINOR_STATUS": "Major", "CWP_PERMIT_STATUS_DESC": "Admin Continued", "STATE_WATER_BODY_NAME": "SOUTH SANTIAM RIVER", "CWP_CSO_FLAG": "N"}}, {"type": "Feature", "geometry": {"type": "Point", "coordinates": [-122.677707354937, 45.2851288608313]}, "properties": {"CWP_NAME": "CANBY STP", "CWP_STREET": "1480 E TERRITORIAL RD", "CWP_CITY": "CANBY", "CWP_STATE": "OR", "CWP_ZIP": "97013", "CWP_COUNTY": "Clackamas", "NPDES_ID": "OR0020214", "REGISTRY_ID": "110006618106", "CWP_FACILITY_TYPE_INDICATOR": "POTW", "CWP_MAJOR_MINOR_STATUS": "Major", "CWP_PERMIT_STATUS_DESC": "Admin Continued", "STATE_WATER_BODY_NAME": "WILLAMETTE RIVER", "CWP_CSO_FLAG": "N"}}, {"type": "Feature", "geometry": {"type": "Point", "coordinates": [-122.818247087543, 45.0719958044129]}, "properties": {"CWP_NAME": "MT. ANGEL STP", "CWP_STREET": "RM34 UNNAMED TRIB OF", "CWP_CITY": "MOUNT ANGEL", "CWP_STATE": "OR", "CWP_ZIP": "97362", "CWP_COUNTY": "Marion", "NPDES_ID": "OR0028762", "REGISTRY_ID": "110055006639", "CWP_FACILITY_TYPE_INDICATOR": "POTW", "CWP_MAJOR_MINOR_STATUS": "Minor", "CWP_PERMIT_STATUS_DESC": "Admin Continued", "STATE_WATER_BODY_NAME": "PUDDING RIVER (RM 34)", "CWP_CSO_FLAG": "N"}}, {"type": "Feature", "geometry": {"type": "Point", "coordinates": [-123.86287458532, 45.2293554813844]}, "properties": {"CWP_NAME": "HEBO JWSA", "CWP_STREET": "OFF HWY 101", "CWP_CITY": "HEBO", "CWP_STATE": "OR", "CWP_ZIP": "97112", "CWP_COUNTY": "Tillamook", "NPDES_ID": "OR0031461", "REGISTRY_ID": "110014172858", "CWP_FACILITY_TYPE_INDICATOR": "POTW", "CWP_MAJOR_MINOR_STATUS": "Minor", "CWP_PERMIT_STATUS_DESC": "Effective", "STATE_WATER_BODY_NAME": "THREE RIVERS", "CWP_CSO_FLAG": "N"}}, {"type": "Feature", "geometry": {"type": "Point", "coordinates": [-117.100275574886, 44.8763830187508]}, "properties": {"CWP_NAME": "HALFWAY STP", "CWP_STREET": "PINE CREEK HIGHWAY", "CWP_CITY": "HALFWAY", "CWP_STATE": "OR", "CWP_ZIP": "97834", "CWP_COUNTY": "Baker", "NPDES_ID": "OR0023329", "REGISTRY_ID": "110009817350", "CWP_FACILITY_TYPE_INDICATOR": "POTW", "CWP_MAJOR_MINOR_STATUS": "Minor", "CWP_PERMIT_STATUS_DESC": "Terminated", "STATE_WATER_BODY_NAME": "PINE CREEK", "CWP_CSO_FLAG": "N"}}, {"type": "Feature", "geometry": {"type": "Point", "coordinates": [-123.890724789727, 45.2056655359081]}, "properties": {"CWP_NAME": "CLOVERDALE STP", "CWP_STREET": "OFF HWY 101 IN CLOVERDALE", "CWP_CITY": "CLOVERDALE", "CWP_STATE": "OR", "CWP_ZIP": "97112", "CWP_COUNTY": "Tillamook", "NPDES_ID": "OR0027294", "REGISTRY_ID": "110014262617", "CWP_FACILITY_TYPE_INDICATOR": "POTW", "CWP_MAJOR_MINOR_STATUS": "Minor", "CWP_PERMIT_STATUS_DESC": "Effective", "STATE_WATER_BODY_NAME": "NESTUCCA RIVER (RM 7.0)", "CWP_CSO_FLAG": "N"}}, {"type": "Feature", "geometry": {"type": "Point", "coordinates": [-122.968354745999, 45.0423775152388]}, "properties": {"CWP_NAME": "BROOKS SEWAGE TREATMENT PLANT", "CWP_STREET": "4850 BROOKLAKE RD NE", "CWP_CITY": "BROOKS", "CWP_STATE": "OR", "CWP_ZIP": "973059211", "CWP_COUNTY": "Marion", "NPDES_ID": "OR0033049", "REGISTRY_ID": "110070157187", "CWP_FACILITY_TYPE_INDICATOR": "POTW", "CWP_MAJOR_MINOR_STATUS": "Minor", "CWP_PERMIT_STATUS_DESC": "Effective", "STATE_WATER_BODY_NAME": "WILLAMETTE RIVER", "CWP_CSO_FLAG": "N"}}, {"type": "Feature", "geometry": {"type": "Point", "coordinates": [-122.887888807605, 45.1153188408249]}, "properties": {"CWP_NAME": "GERVAIS STP", "CWP_STREET": "524 FOURTH STREET", "CWP_CITY": "GERVAIS", "CWP_STATE": "OR", "CWP_ZIP": "97026", "CWP_COUNTY": "Marion", "NPDES_ID": "OR0027391", "REGISTRY_ID": "110006661969", "CWP_FACILITY_TYPE_INDICATOR": "POTW", "CWP_MAJOR_MINOR_STATUS": "Minor", "CWP_PERMIT_STATUS_DESC": "Admin Continued", "STATE_WATER_BODY_NAME": "PUDDING RIVER", "CWP_CSO_FLAG": "N"}}, {"type": "Feature", "geometry": {"type": "Point", "coordinates": [-123.159080333241, 45.2227203548201]}, "properties": {"CWP_NAME": "MCMINNVILLE WATER RECLAMATION FACILITY", "CWP_STREET": "3500 NE CLEARWATER DR", "CWP_CITY": "MCMINNVILLE", "CWP_STATE": "OR", "CWP_ZIP": "97128", "CWP_COUNTY": "Yamhill", "NPDES_ID": "OR0034002", "REGISTRY_ID": "110014165679", "CWP_FACILITY_TYPE_INDICATOR": "POTW", "CWP_MAJOR_MINOR_STATUS": "Major", "CWP_PERMIT_STATUS_DESC": "Admin Continued", "STATE_WATER_BODY_NAME": "SOUTH YAMHILL RIVER", "CWP_CSO_FLAG": "N"}}, {"type": "Feature", "geometry": {"type": "Point", "coordinates": [-122.761395603345, 45.4011378057031]}, "properties": {"CWP_NAME": "DURHAM STP", "CWP_STREET": "16580 SW 85TH AVENUE", "CWP_CITY": "TIGARD", "CWP_STATE": "OR", "CWP_ZIP": "972245500", "CWP_COUNTY": "Washington", "NPDES_ID": "OR0028118", "REGISTRY_ID": "110039754566", "CWP_FACILITY_TYPE_INDICATOR": "POTW", "CWP_MAJOR_MINOR_STATUS": "Major", "CWP_PERMIT_STATUS_DESC": "Admin Continued", "STATE_WATER_BODY_NAME": "TUALATIN RIVER", "CWP_CSO_FLAG": "N"}}, {"type": "Feature", "geometry": {"type": "Point", "coordinates": [-124.069304556037, 42.8885117712677]}, "properties": {"CWP_NAME": "POWERS STP", "CWP_STREET": "285 E CEDAR ST", "CWP_CITY": "POWERS", "CWP_STATE": "OR", "CWP_ZIP": "97466", "CWP_COUNTY": "Coos", "NPDES_ID": "OR0026930", "REGISTRY_ID": "110006696272", "CWP_FACILITY_TYPE_INDICATOR": "POTW", "CWP_MAJOR_MINOR_STATUS": "Minor", "CWP_PERMIT_STATUS_DESC": "Admin Continued", "STATE_WATER_BODY_NAME": "COQUILLE RIVER (SOUTH FORK)", "CWP_CSO_FLAG": "N"}}, {"type": "Feature", "geometry": {"type": "Point", "coordinates": [-121.179422263326, 45.6015015352202]}, "properties": {"CWP_NAME": "THE DALLES STP", "CWP_STREET": "105 LAUGHLIN STREET", "CWP_CITY": "THE DALLES", "CWP_STATE": "OR", "CWP_ZIP": "97058", "CWP_COUNTY": "Wasco", "NPDES_ID": "OR0020885", "REGISTRY_ID": "110014169461", "CWP_FACILITY_TYPE_INDICATOR": "POTW", "CWP_MAJOR_MINOR_STATUS": "Major", "CWP_PERMIT_STATUS_DESC": "Effective", "STATE_WATER_BODY_NAME": "COLUMBIA RIVER (RM 189.5)", "CWP_CSO_FLAG": "N"}}, {"type": "Feature", "geometry": {"type": "Point", "coordinates": [-121.404406612903, 45.6849217311197]}, "properties": {"CWP_NAME": "MOSIER STP", "CWP_STREET": "OLD COLUMBIA RIVER HIGHWAY AT", "CWP_CITY": "MOSIER", "CWP_STATE": "OR", "CWP_ZIP": "97040", "CWP_COUNTY": "Wasco", "NPDES_ID": "OR0028045", "REGISTRY_ID": "110039775614", "CWP_FACILITY_TYPE_INDICATOR": "POTW", "CWP_MAJOR_MINOR_STATUS": "Minor", "CWP_PERMIT_STATUS_DESC": "Effective", "STATE_WATER_BODY_NAME": "COLUMBIA RIVER (RM 174.5)", "CWP_CSO_FLAG": "N"}}, {"type": "Feature", "geometry": {"type": "Point", "coordinates": [-117.288952583749, 45.4334869710983]}, "properties": {"CWP_NAME": "ENTERPRISE STP", "CWP_STREET": "GOLF COURSE ROAD", "CWP_CITY": "ENTERPRISE", "CWP_STATE": "OR", "CWP_ZIP": "97828", "CWP_COUNTY": "Wallowa", "NPDES_ID": "OR0020567", "REGISTRY_ID": "110009155877", "CWP_FACILITY_TYPE_INDICATOR": "POTW", "CWP_MAJOR_MINOR_STATUS": "Minor", "CWP_PERMIT_STATUS_DESC": "Effective", "STATE_WATER_BODY_NAME": "WALLOWA RIVER", "CWP_CSO_FLAG": "N"}}, {"type": "Feature", "geometry": {"type": "Point", "coordinates": [-122.387023097177, 45.553413759729]}, "properties": {"CWP_NAME": "CITY OF TROUTDALE WATER POLLUTION CONTROL FACILITY", "CWP_STREET": "1820 NW GRAHAM ROAD", "CWP_CITY": "TROUTDALE", "CWP_STATE": "OR", "CWP_ZIP": "97060", "CWP_COUNTY": "Multnomah", "NPDES_ID": "OR0020524", "REGISTRY_ID": "110004814602", "CWP_FACILITY_TYPE_INDICATOR": "POTW", "CWP_MAJOR_MINOR_STATUS": "Major", "CWP_PERMIT_STATUS_DESC": "Effective", "STATE_WATER_BODY_NAME": "SANDY RIVER (RM 2.3)", "CWP_CSO_FLAG": "N"}}, {"type": "Feature", "geometry": {"type": "Point", "coordinates": [-123.205844373785, 46.107795385387]}, "properties": {"CWP_NAME": "CLATSKANIE WWTP", "CWP_STREET": "190 NW 4TH ST, 1/4 MILE WEST", "CWP_CITY": "CLATSKANIE", "CWP_STATE": "OR", "CWP_ZIP": "97016", "CWP_COUNTY": "Columbia", "NPDES_ID": "OR0020231", "REGISTRY_ID": "110014262467", "CWP_FACILITY_TYPE_INDICATOR": "POTW", "CWP_MAJOR_MINOR_STATUS": "Minor", "CWP_PERMIT_STATUS_DESC": "Admin Continued", "STATE_WATER_BODY_NAME": "CLASKANIE RIVER", "CWP_CSO_FLAG": "N"}}, {"type": "Feature", "geometry": {"type": "Point", "coordinates": [-123.374114754786, 46.1348056074743]}, "properties": {"CWP_NAME": "WESTPORT SEWER SERVICE DISTRICT STP", "CWP_STREET": "COUNTY RD #153", "CWP_CITY": "WESTPORT", "CWP_STATE": "OR", "CWP_ZIP": "97016", "CWP_COUNTY": "Clatsop", "NPDES_ID": "OR0031496", "REGISTRY_ID": "110010151478", "CWP_FACILITY_TYPE_INDICATOR": "POTW", "CWP_MAJOR_MINOR_STATUS": "Minor", "CWP_PERMIT_STATUS_DESC": "Effective", "STATE_WATER_BODY_NAME": "WESTPORT SLOUGH/COLUMBIA RIVER", "CWP_CSO_FLAG": "N"}}, {"type": "Feature", "geometry": {"type": "Point", "coordinates": [-123.190516162801, 45.3333090905748]}, "properties": {"CWP_NAME": "YAMHILL STP", "CWP_STREET": "450 S MAPLE ST", "CWP_CITY": "YAMHILL", "CWP_STATE": "OR", "CWP_ZIP": "971488638", "CWP_COUNTY": "Yamhill", "NPDES_ID": "OR0022802", "REGISTRY_ID": "110039739405", "CWP_FACILITY_TYPE_INDICATOR": "POTW", "CWP_MAJOR_MINOR_STATUS": "Minor", "CWP_PERMIT_STATUS_DESC": "Admin Continued", "STATE_WATER_BODY_NAME": "NORTH YAMHILL RIVER", "CWP_CSO_FLAG": "N"}}, {"type": "Feature", "geometry": {"type": "Point", "coordinates": [-121.865745723477, 42.5757151567222]}, "properties": {"CWP_NAME": "CHILOQUIN STP", "CWP_STREET": "S OF CHOCKTOOT ST, E OF", "CWP_CITY": "CHILOQUIN", "CWP_STATE": "OR", "CWP_ZIP": "97624", "CWP_COUNTY": "Klamath", "NPDES_ID": "OR0020320", "REGISTRY_ID": "110014262421", "CWP_FACILITY_TYPE_INDICATOR": "POTW", "CWP_MAJOR_MINOR_STATUS": "Minor", "CWP_PERMIT_STATUS_DESC": "Admin Continued", "STATE_WATER_BODY_NAME": "WILLIAMSON RIVER", "CWP_CSO_FLAG": "N"}}, {"type": "Feature", "geometry": {"type": "Point", "coordinates": [-123.396144874672, 43.2089232122739]}, "properties": {"CWP_NAME": "R.U.S.A. ROSEBURG STP", "CWP_STREET": "3485 W GOEDECK AVE", "CWP_CITY": "ROSEBURG", "CWP_STATE": "OR", "CWP_ZIP": "974702463", "CWP_COUNTY": "Douglas", "NPDES_ID": "OR0031356", "REGISTRY_ID": "110014064555", "CWP_FACILITY_TYPE_INDICATOR": "POTW", "CWP_MAJOR_MINOR_STATUS": "Major", "CWP_PERMIT_STATUS_DESC": "Admin Continued", "STATE_WATER_BODY_NAME": "SOUTH UMPQUA RIVER", "CWP_CSO_FLAG": "N"}}, {"type": "Feature", "geometry": {"type": "Point", "coordinates": [-123.06203336708, 44.1527456020016]}, "properties": {"CWP_NAME": "COBURG WASTEWATER TREATMENT PLANT", "CWP_STREET": "COBURG RD.", "CWP_CITY": "COBURG", "CWP_STATE": "OR", "CWP_ZIP": "97408", "CWP_COUNTY": "Lane", "NPDES_ID": "OR0044628", "REGISTRY_ID": "110039702676", "CWP_FACILITY_TYPE_INDICATOR": "POTW", "CWP_MAJOR_MINOR_STATUS": "Minor", "CWP_PERMIT_STATUS_DESC": "Admin Continued", "STATE_WATER_BODY_NAME": null, "CWP_CSO_FLAG": "N"}}, {"type": "Feature", "geometry": {"type": "Point", "coordinates": [-123.111960126576, 44.0955891810135]}, "properties": {"CWP_NAME": "MWMC - EUGENE/SPRINGFIELD STP", "CWP_STREET": "410 RIVER AVENUE", "CWP_CITY": "EUGENE", "CWP_STATE": "OR", "CWP_ZIP": "974042546", "CWP_COUNTY": "Lane", "NPDES_ID": "OR0031224", "REGISTRY_ID": "110014130083", "CWP_FACILITY_TYPE_INDICATOR": "POTW", "CWP_MAJOR_MINOR_STATUS": "Major", "CWP_PERMIT_STATUS_DESC": "Effective", "STATE_WATER_BODY_NAME": "WILLAMETTE RIVER", "CWP_CSO_FLAG": "N"}}, {"type": "Feature", "geometry": {"type": "Point", "coordinates": [-123.07529216834, 44.6433383967026]}, "properties": {"CWP_NAME": "AM WRF", "CWP_STREET": "408 WAVERLY DR NE", "CWP_CITY": "ALBANY", "CWP_STATE": "OR", "CWP_ZIP": "97321", "CWP_COUNTY": "Linn", "NPDES_ID": "OR0028801", "REGISTRY_ID": "110000916796", "CWP_FACILITY_TYPE_INDICATOR": "POTW", "CWP_MAJOR_MINOR_STATUS": "Major", "CWP_PERMIT_STATUS_DESC": "Admin Continued", "STATE_WATER_BODY_NAME": "WILLAMETTE RIVER", "CWP_CSO_FLAG": "N"}}, {"type": "Feature", "geometry": {"type": "Point", "coordinates": [-119.105618376183, 44.724183348603]}, "properties": {"CWP_NAME": "LONG CREEK STP", "CWP_STREET": "350 W. HARDISTY", "CWP_CITY": "LONG CREEK", "CWP_STATE": "OR", "CWP_ZIP": "97856", "CWP_COUNTY": "Grant", "NPDES_ID": "OR0034070", "REGISTRY_ID": "110006695870", "CWP_FACILITY_TYPE_INDICATOR": "POTW", "CWP_MAJOR_MINOR_STATUS": "Minor", "CWP_PERMIT_STATUS_DESC": "Admin Continued", "STATE_WATER_BODY_NAME": "LONG CREEK", "CWP_CSO_FLAG": "N"}}, {"type": "Feature", "geometry": {"type": "Point", "coordinates": [-123.887665402161, 45.7166801353051]}, "properties": {"CWP_NAME": "NEHALEM BAY STP", "CWP_STREET": "14000 TIDELAND ROAD", "CWP_CITY": "NEHALEM", "CWP_STATE": "OR", "CWP_ZIP": "97131", "CWP_COUNTY": "Tillamook", "NPDES_ID": "OR0023370", "REGISTRY_ID": "110006696352", "CWP_FACILITY_TYPE_INDICATOR": "POTW", "CWP_MAJOR_MINOR_STATUS": "Minor", "CWP_PERMIT_STATUS_DESC": "Effective", "STATE_WATER_BODY_NAME": "NEHALEM RIVER", "CWP_CSO_FLAG": "N"}}, {"type": "Feature", "geometry": {"type": "Point", "coordinates": [-122.376465028539, 45.4269348994349]}, "properties": {"CWP_NAME": "WES (BORING STP)", "CWP_STREET": "13305 RICHEY RD", "CWP_CITY": "BORING", "CWP_STATE": "OR", "CWP_ZIP": "97009", "CWP_COUNTY": "Clackamas", "NPDES_ID": "OR0031399", "REGISTRY_ID": "110006695941", "CWP_FACILITY_TYPE_INDICATOR": "POTW", "CWP_MAJOR_MINOR_STATUS": "Minor", "CWP_PERMIT_STATUS_DESC": "Admin Continued", "STATE_WATER_BODY_NAME": "DEEP CREEK (NORTH FORK)", "CWP_CSO_FLAG": "N"}}, {"type": "Feature", "geometry": {"type": "Point", "coordinates": [-122.771828618217, 45.2949485492409]}, "properties": {"CWP_NAME": "WILSONVILLE STP", "CWP_STREET": "9275 SW TAUCHMAN ROAD", "CWP_CITY": "WILSONVILLE", "CWP_STATE": "OR", "CWP_ZIP": "97070", "CWP_COUNTY": "Clackamas", "NPDES_ID": "OR0022764", "REGISTRY_ID": "110009155984", "CWP_FACILITY_TYPE_INDICATOR": "POTW", "CWP_MAJOR_MINOR_STATUS": "Major", "CWP_PERMIT_STATUS_DESC": "Effective", "STATE_WATER_BODY_NAME": "WILLAMETTE RIVER", "CWP_CSO_FLAG": "N"}}, {"type": "Feature", "geometry": {"type": "Point", "coordinates": [-122.944987750204, 45.495035107788]}, "properties": {"CWP_NAME": "ROCK CREEK STP", "CWP_STREET": "3235 SW RIVER ROAD", "CWP_CITY": "HILLSBORO", "CWP_STATE": "OR", "CWP_ZIP": "97123", "CWP_COUNTY": "Washington", "NPDES_ID": "OR0029777", "REGISTRY_ID": "110037740068", "CWP_FACILITY_TYPE_INDICATOR": "POTW", "CWP_MAJOR_MINOR_STATUS": "Major", "CWP_PERMIT_STATUS_DESC": "Admin Continued", "STATE_WATER_BODY_NAME": "TUALATIN RIVER (RM 38)", "CWP_CSO_FLAG": "N"}}, {"type": "Feature", "geometry": {"type": "Point", "coordinates": [-122.856090705518, 45.7526405357308]}, "properties": {"CWP_NAME": "SCAPPOOSE STP", "CWP_STREET": "34345 EAST COLUMBIA AVENUE", "CWP_CITY": "SCAPPOOSE", "CWP_STATE": "OR", "CWP_ZIP": "97056", "CWP_COUNTY": "Columbia", "NPDES_ID": "OR0022420", "REGISTRY_ID": "110006696290", "CWP_FACILITY_TYPE_INDICATOR": "POTW", "CWP_MAJOR_MINOR_STATUS": "Minor", "CWP_PERMIT_STATUS_DESC": "Admin Continued", "STATE_WATER_BODY_NAME": "MULTNOMAH CHANNEL (RM 10.5)", "CWP_CSO_FLAG": "N"}}, {"type": "Feature", "geometry": {"type": "Point", "coordinates": [-124.219079556423, 43.3782519956476]}, "properties": {"CWP_NAME": "COOS BAY STP NO. 1", "CWP_STREET": "1 BLK OFF HWY 101 BTWN JUNIPER", "CWP_CITY": "COOS BAY", "CWP_STATE": "OR", "CWP_ZIP": "97420", "CWP_COUNTY": "Coos", "NPDES_ID": "OR0023574", "REGISTRY_ID": "110045431145", "CWP_FACILITY_TYPE_INDICATOR": "POTW", "CWP_MAJOR_MINOR_STATUS": "Major", "CWP_PERMIT_STATUS_DESC": "Effective", "STATE_WATER_BODY_NAME": "COOS BAY", "CWP_CSO_FLAG": "N"}}, {"type": "Feature", "geometry": {"type": "Point", "coordinates": [-123.084955559504, 45.5071642505251]}, "properties": {"CWP_NAME": "FOREST GROVE STP", "CWP_STREET": "1345 FERNHILL ROAD", "CWP_CITY": "FOREST GROVE", "CWP_STATE": "OR", "CWP_ZIP": "97116", "CWP_COUNTY": "Washington", "NPDES_ID": "OR0020168", "REGISTRY_ID": "110039754619", "CWP_FACILITY_TYPE_INDICATOR": "POTW", "CWP_MAJOR_MINOR_STATUS": "Major", "CWP_PERMIT_STATUS_DESC": "Admin Continued", "STATE_WATER_BODY_NAME": "TUALATIN RIVER (RM 56.7)", "CWP_CSO_FLAG": "N"}}, {"type": "Feature", "geometry": {"type": "Point", "coordinates": [-124.007410887461, 44.9309819792054]}, "properties": {"CWP_NAME": "LINCOLN CITY STP", "CWP_STREET": "5000 SE PORT", "CWP_CITY": "LINCOLN CITY", "CWP_STATE": "OR", "CWP_ZIP": "97367", "CWP_COUNTY": "Lincoln", "NPDES_ID": "OR0020478", "REGISTRY_ID": "110008996042", "CWP_FACILITY_TYPE_INDICATOR": "POTW", "CWP_MAJOR_MINOR_STATUS": "Major", "CWP_PERMIT_STATUS_DESC": "Effective", "STATE_WATER_BODY_NAME": "SCHOONER CREEK", "CWP_CSO_FLAG": "N"}}, {"type": "Feature", "geometry": {"type": "Point", "coordinates": [-124.058731507046, 44.4248938604756]}, "properties": {"CWP_NAME": "WALDPORT WWTP", "CWP_STREET": "S SIDE HWY 34 ADJ TO", "CWP_CITY": "WALDPORT", "CWP_STATE": "OR", "CWP_ZIP": "97394", "CWP_COUNTY": "Lincoln", "NPDES_ID": "OR0034053", "REGISTRY_ID": "110039739067", "CWP_FACILITY_TYPE_INDICATOR": "POTW", "CWP_MAJOR_MINOR_STATUS": "Minor", "CWP_PERMIT_STATUS_DESC": "Effective", "STATE_WATER_BODY_NAME": "LINT SLOUGH/ALSEA BAY", "CWP_CSO_FLAG": "N"}}, {"type": "Feature", "geometry": {"type": "Point", "coordinates": [-122.344604715016, 45.2981330922625]}, "properties": {"CWP_NAME": "ESTACADA STP", "CWP_STREET": "777 NW TULIP RD", "CWP_CITY": "ESTACADA", "CWP_STATE": "OR", "CWP_ZIP": "97023", "CWP_COUNTY": "Clackamas", "NPDES_ID": "OR0020575", "REGISTRY_ID": "110070100612", "CWP_FACILITY_TYPE_INDICATOR": "POTW", "CWP_MAJOR_MINOR_STATUS": "Minor", "CWP_PERMIT_STATUS_DESC": "Admin Continued", "STATE_WATER_BODY_NAME": "CLACKAMAS RIVER", "CWP_CSO_FLAG": "N"}}, {"type": "Feature", "geometry": {"type": "Point", "coordinates": [-122.714485471659, 42.2136372069804]}, "properties": {"CWP_NAME": "ASHLAND STP", "CWP_STREET": "1/4 MI NW OF NEVADA ST &", "CWP_CITY": "ASHLAND", "CWP_STATE": "OR", "CWP_ZIP": "97520", "CWP_COUNTY": "Jackson", "NPDES_ID": "OR0026255", "REGISTRY_ID": "110006618160", "CWP_FACILITY_TYPE_INDICATOR": "POTW", "CWP_MAJOR_MINOR_STATUS": "Major", "CWP_PERMIT_STATUS_DESC": "Effective", "STATE_WATER_BODY_NAME": "ASHLAND CREEK, BEAR CREEK", "CWP_CSO_FLAG": "N"}}, {"type": "Feature", "geometry": {"type": "Point", "coordinates": [-124.194070269824, 43.1754764484034]}, "properties": {"CWP_NAME": "COQUILLE STP", "CWP_STREET": "300 W MAIN ST", "CWP_CITY": "COQUILLE", "CWP_STATE": "OR", "CWP_ZIP": "974231289", "CWP_COUNTY": "Coos", "NPDES_ID": "OR0026247", "REGISTRY_ID": "110009817127", "CWP_FACILITY_TYPE_INDICATOR": "POTW", "CWP_MAJOR_MINOR_STATUS": "Minor", "CWP_PERMIT_STATUS_DESC": "Admin Continued", "STATE_WATER_BODY_NAME": "COQUILLE RIVER", "CWP_CSO_FLAG": "N"}}, {"type": "Feature", "geometry": {"type": "Point", "coordinates": [-119.312513970933, 45.8616729120436]}, "properties": {"CWP_NAME": "HERMISTON STP", "CWP_STREET": "2205 N 1ST PL", "CWP_CITY": "HERMISTON", "CWP_STATE": "OR", "CWP_ZIP": "978386662", "CWP_COUNTY": "Umatilla", "NPDES_ID": "OR0020761", "REGISTRY_ID": "110058294224", "CWP_FACILITY_TYPE_INDICATOR": "POTW", "CWP_MAJOR_MINOR_STATUS": "Major", "CWP_PERMIT_STATUS_DESC": "Admin Continued", "STATE_WATER_BODY_NAME": "UMATILLA RIVER (RM 3.9), UMATILLA RIVER (RM 5.2), UMATILLA RIVER (RM 5.4), W DIVISION MAIN CANAL", "CWP_CSO_FLAG": "N"}}, {"type": "Feature", "geometry": {"type": "Point", "coordinates": [-120.206207284316, 45.7211303598259]}, "properties": {"CWP_NAME": "ARLINGTON STP", "CWP_STREET": "100 PLANT RD", "CWP_CITY": "ARLINGTON", "CWP_STATE": "OR", "CWP_ZIP": "97812", "CWP_COUNTY": "Gilliam", "NPDES_ID": "OR0020192", "REGISTRY_ID": "110039767259", "CWP_FACILITY_TYPE_INDICATOR": "POTW", "CWP_MAJOR_MINOR_STATUS": "Minor", "CWP_PERMIT_STATUS_DESC": "Effective", "STATE_WATER_BODY_NAME": "COLUMBIA RIVER", "CWP_CSO_FLAG": "N"}}, {"type": "Feature", "geometry": {"type": "Point", "coordinates": [-118.504267913619, 45.806852116538]}, "properties": {"CWP_NAME": "ATHENA STP", "CWP_STREET": "SW EDGE OF ATHENA", "CWP_CITY": "ATHENA", "CWP_STATE": "OR", "CWP_ZIP": "97813", "CWP_COUNTY": "Umatilla", "NPDES_ID": "OR0022811", "REGISTRY_ID": "110014173018", "CWP_FACILITY_TYPE_INDICATOR": "POTW", "CWP_MAJOR_MINOR_STATUS": "Minor", "CWP_PERMIT_STATUS_DESC": "Admin Continued", "STATE_WATER_BODY_NAME": "WILD HORSE CREEK", "CWP_CSO_FLAG": "N"}}, {"type": "Feature", "geometry": {"type": "Point", "coordinates": [-123.923277723093, 46.0055046163817]}, "properties": {"CWP_NAME": "SEASIDE STP", "CWP_STREET": "N 19TH & RIVERSIDE", "CWP_CITY": "SEASIDE", "CWP_STATE": "OR", "CWP_ZIP": "97138", "CWP_COUNTY": "Clatsop", "NPDES_ID": "OR0020401", "REGISTRY_ID": "110014263536", "CWP_FACILITY_TYPE_INDICATOR": "POTW", "CWP_MAJOR_MINOR_STATUS": "Major", "CWP_PERMIT_STATUS_DESC": "Effective", "STATE_WATER_BODY_NAME": "NECANICUM RIVER", "CWP_CSO_FLAG": "N"}}, {"type": "Feature", "geometry": {"type": "Point", "coordinates": [-122.812684802787, 45.1855397165504]}, "properties": {"CWP_NAME": "HUBBARD STP", "CWP_STREET": "3607 SUNSET DRIVE", "CWP_CITY": "HUBBARD", "CWP_STATE": "OR", "CWP_ZIP": "97032", "CWP_COUNTY": "Marion", "NPDES_ID": "OR0020591", "REGISTRY_ID": "110006696389", "CWP_FACILITY_TYPE_INDICATOR": "POTW", "CWP_MAJOR_MINOR_STATUS": "Minor", "CWP_PERMIT_STATUS_DESC": "Effective", "STATE_WATER_BODY_NAME": "MILL CREEK", "CWP_CSO_FLAG": "N"}}, {"type": "Feature", "geometry": {"type": "Point", "coordinates": [-119.224543155948, 45.7822052222032]}, "properties": {"CWP_NAME": "STANFIELD STP", "CWP_STREET": "N. SHERMAN & HINKLE ROAD", "CWP_CITY": "STANFIELD", "CWP_STATE": "OR", "CWP_ZIP": "97875", "CWP_COUNTY": "Umatilla", "NPDES_ID": "OR0026972", "REGISTRY_ID": "110009816903", "CWP_FACILITY_TYPE_INDICATOR": "POTW", "CWP_MAJOR_MINOR_STATUS": "Minor", "CWP_PERMIT_STATUS_DESC": "Admin Continued", "STATE_WATER_BODY_NAME": "UMATILLA RIVER (RM 29.9)", "CWP_CSO_FLAG": "N"}}, {"type": "Feature", "geometry": {"type": "Point", "coordinates": [-123.94134142369, 45.6089089673061]}, "properties": {"CWP_NAME": "ROCKAWAY BEACH STP", "CWP_STREET": "410 S 3RD STREET", "CWP_CITY": "ROCKAWAY BEACH", "CWP_STATE": "OR", "CWP_ZIP": "97136", "CWP_COUNTY": "Tillamook", "NPDES_ID": "OR0023302", "REGISTRY_ID": "110014083892", "CWP_FACILITY_TYPE_INDICATOR": "POTW", "CWP_MAJOR_MINOR_STATUS": "Minor", "CWP_PERMIT_STATUS_DESC": "Admin Continued", "STATE_WATER_BODY_NAME": "CLEAR LAKE (RM 0.5)", "CWP_CSO_FLAG": "N"}}, {"type": "Feature", "geometry": {"type": "Point", "coordinates": [-123.230014172734, 44.2190049399035]}, "properties": {"CWP_NAME": "JUNCTION CITY STP", "CWP_STREET": "HIGH PASS ROAD", "CWP_CITY": "JUNCTION CITY", "CWP_STATE": "OR", "CWP_ZIP": "97448", "CWP_COUNTY": "Lane", "NPDES_ID": "OR0026565", "REGISTRY_ID": "110009155957", "CWP_FACILITY_TYPE_INDICATOR": "POTW", "CWP_MAJOR_MINOR_STATUS": "Minor", "CWP_PERMIT_STATUS_DESC": "Admin Continued", "STATE_WATER_BODY_NAME": "CROW CREEK", "CWP_CSO_FLAG": "N"}}, {"type": "Feature", "geometry": {"type": "Point", "coordinates": [-122.907070856853, 42.4349279842645]}, "properties": {"CWP_NAME": "MEDFORD RWRF", "CWP_STREET": "1100 KIRTLAND RD", "CWP_CITY": "CENTRAL POINT", "CWP_STATE": "OR", "CWP_ZIP": "975029439", "CWP_COUNTY": "Jackson", "NPDES_ID": "OR0026263", "REGISTRY_ID": "110001658448", "CWP_FACILITY_TYPE_INDICATOR": "POTW", "CWP_MAJOR_MINOR_STATUS": "Major", "CWP_PERMIT_STATUS_DESC": "Effective", "STATE_WATER_BODY_NAME": "ROGUE RIVER", "CWP_CSO_FLAG": "N"}}, {"type": "Feature", "geometry": {"type": "Point", "coordinates": [-123.343691774647, 42.4299286127117]}, "properties": {"CWP_NAME": "GRANTS PASS STP", "CWP_STREET": "1200 SW GREENWOOD AVE", "CWP_CITY": "GRANTS PASS", "CWP_STATE": "OR", "CWP_ZIP": "97526", "CWP_COUNTY": "Josephine", "NPDES_ID": "OR0028843", "REGISTRY_ID": "110045420157", "CWP_FACILITY_TYPE_INDICATOR": "POTW", "CWP_MAJOR_MINOR_STATUS": "Major", "CWP_PERMIT_STATUS_DESC": "Admin Continued", "STATE_WATER_BODY_NAME": "ROGUE RIVER", "CWP_CSO_FLAG": "N"}}, {"type": "Feature", "geometry": {"type": "Point", "coordinates": [-117.220207482643, 45.3730768133935]}, "properties": {"CWP_NAME": "JOSEPH STP", "CWP_STREET": "MAPLE STREET", "CWP_CITY": "JOSEPH", "CWP_STATE": "OR", "CWP_ZIP": "97846", "CWP_COUNTY": "Wallowa", "NPDES_ID": "OR0020605", "REGISTRY_ID": "110009817378", "CWP_FACILITY_TYPE_INDICATOR": "POTW", "CWP_MAJOR_MINOR_STATUS": "Minor", "CWP_PERMIT_STATUS_DESC": "Effective", "STATE_WATER_BODY_NAME": "PRAIRIE CREEK TO WALLOWA RIVER", "CWP_CSO_FLAG": "N"}}, {"type": "Feature", "geometry": {"type": "Point", "coordinates": [-124.190250039043, 43.6732413379151]}, "properties": {"CWP_NAME": "WINCHESTER BAY STP", "CWP_STREET": "S BANK OF UMPQUA R ESTUARY ON", "CWP_CITY": "WINCHESTER BAY", "CWP_STATE": "OR", "CWP_ZIP": "97467", "CWP_COUNTY": "Douglas", "NPDES_ID": "OR0022616", "REGISTRY_ID": "110014261887", "CWP_FACILITY_TYPE_INDICATOR": "POTW", "CWP_MAJOR_MINOR_STATUS": "Minor", "CWP_PERMIT_STATUS_DESC": "Admin Continued", "STATE_WATER_BODY_NAME": "UMPQUA RIVER ESTUARY", "CWP_CSO_FLAG": "N"}}, {"type": "Feature", "geometry": {"type": "Point", "coordinates": [-121.776202852007, 42.2163379559469]}, "properties": {"CWP_NAME": "KLAMATH FALLS WASTEWATER TREATMENT AND RECLAMATION FACILITY (@ SPRING STREET)", "CWP_STREET": "1200 S SPRING ST", "CWP_CITY": "KLAMATH FALLS", "CWP_STATE": "OR", "CWP_ZIP": "97601", "CWP_COUNTY": "Klamath", "NPDES_ID": "OR0026301", "REGISTRY_ID": "110006698047", "CWP_FACILITY_TYPE_INDICATOR": "POTW", "CWP_MAJOR_MINOR_STATUS": "Major", "CWP_PERMIT_STATUS_DESC": "Effective", "STATE_WATER_BODY_NAME": "KLAMATH RIVER (LAKE EWAUNA)", "CWP_CSO_FLAG": "N"}}, {"type": "Feature", "geometry": {"type": "Point", "coordinates": [-124.50555762499, 42.7473091674894]}, "properties": {"CWP_NAME": "PORT ORFORD STP", "CWP_STREET": "913 - 12TH STREET", "CWP_CITY": "PORT ORFORD", "CWP_STATE": "OR", "CWP_ZIP": "97465", "CWP_COUNTY": "Curry", "NPDES_ID": "OR0020516", "REGISTRY_ID": "110016656055", "CWP_FACILITY_TYPE_INDICATOR": "POTW", "CWP_MAJOR_MINOR_STATUS": "Minor", "CWP_PERMIT_STATUS_DESC": "Effective", "STATE_WATER_BODY_NAME": "PACIFIC OCEAN", "CWP_CSO_FLAG": "N"}}, {"type": "Feature", "geometry": {"type": "Point", "coordinates": [-124.145634557385, 43.069673006607]}, "properties": {"CWP_NAME": "MYRTLE POINT STP", "CWP_STREET": "220 RIVER RD", "CWP_CITY": "MYRTLE POINT", "CWP_STATE": "OR", "CWP_ZIP": "97458", "CWP_COUNTY": "Coos", "NPDES_ID": "OR0020435", "REGISTRY_ID": "110014205412", "CWP_FACILITY_TYPE_INDICATOR": "POTW", "CWP_MAJOR_MINOR_STATUS": "Minor", "CWP_PERMIT_STATUS_DESC": "Admin Continued", "STATE_WATER_BODY_NAME": "COQUILLE RIVER (SOUTH FORK)", "CWP_CSO_FLAG": "N"}}, {"type": "Feature", "geometry": {"type": "Point", "coordinates": [-124.408414707413, 43.1205053647548]}, "properties": {"CWP_NAME": "BANDON STP", "CWP_STREET": "RIVERSIDE DRIVE & CAROLINE ST.", "CWP_CITY": "BANDON", "CWP_STATE": "OR", "CWP_ZIP": "97411", "CWP_COUNTY": "Coos", "NPDES_ID": "OR0020206", "REGISTRY_ID": "110009156064", "CWP_FACILITY_TYPE_INDICATOR": "POTW", "CWP_MAJOR_MINOR_STATUS": "Minor", "CWP_PERMIT_STATUS_DESC": "Effective", "STATE_WATER_BODY_NAME": "COQUILLE RIVER", "CWP_CSO_FLAG": "N"}}, {"type": "Feature", "geometry": {"type": "Point", "coordinates": [-121.123225387002, 45.4501834025363]}, "properties": {"CWP_NAME": "DUFUR STP", "CWP_STREET": "FIFTEEN MILE CR, SOUTH OF CITY", "CWP_CITY": "DUFUR", "CWP_STATE": "OR", "CWP_ZIP": "97021", "CWP_COUNTY": "Wasco", "NPDES_ID": "OR0029050", "REGISTRY_ID": "110039771100", "CWP_FACILITY_TYPE_INDICATOR": "POTW", "CWP_MAJOR_MINOR_STATUS": "Minor", "CWP_PERMIT_STATUS_DESC": "Admin Continued", "STATE_WATER_BODY_NAME": "FIFTEEN MILE CREEK", "CWP_CSO_FLAG": "N"}}, {"type": "Feature", "geometry": {"type": "Point", "coordinates": [-123.3688721836, 44.0502030674723]}, "properties": {"CWP_NAME": "VENETA STP", "CWP_STREET": "24679 SERTIC RD", "CWP_CITY": "VENETA", "CWP_STATE": "OR", "CWP_ZIP": "97487", "CWP_COUNTY": "Lane", "NPDES_ID": "OR0020532", "REGISTRY_ID": "110006661772", "CWP_FACILITY_TYPE_INDICATOR": "POTW", "CWP_MAJOR_MINOR_STATUS": "Minor", "CWP_PERMIT_STATUS_DESC": "Admin Continued", "STATE_WATER_BODY_NAME": "LONG TOM RIVER (RM 33)", "CWP_CSO_FLAG": "N"}}, {"type": "Feature", "geometry": {"type": "Point", "coordinates": [-124.024983634708, 44.890476510249]}, "properties": {"CWP_NAME": "SALISHAN STP", "CWP_STREET": "ADJACENT TO HWY 101", "CWP_CITY": "GLENEDEN BEACH", "CWP_STATE": "OR", "CWP_ZIP": "97388", "CWP_COUNTY": "Lincoln", "NPDES_ID": "OR0027201", "REGISTRY_ID": "110009816921", "CWP_FACILITY_TYPE_INDICATOR": "POTW", "CWP_MAJOR_MINOR_STATUS": "Minor", "CWP_PERMIT_STATUS_DESC": "Admin Continued", "STATE_WATER_BODY_NAME": "SILETZ BAY VIA SIJOTA CREEK", "CWP_CSO_FLAG": "N"}}, {"type": "Feature", "geometry": {"type": "Point", "coordinates": [-123.324888961431, 43.6600285811577]}, "properties": {"CWP_NAME": "DRAIN STP", "CWP_STREET": "801 DIVISION AVENUE", "CWP_CITY": "DRAIN", "CWP_STATE": "OR", "CWP_ZIP": "97435", "CWP_COUNTY": "Douglas", "NPDES_ID": "OR0029645", "REGISTRY_ID": "110010151575", "CWP_FACILITY_TYPE_INDICATOR": "POTW", "CWP_MAJOR_MINOR_STATUS": "Minor", "CWP_PERMIT_STATUS_DESC": "Effective", "STATE_WATER_BODY_NAME": "ELK CREEK", "CWP_CSO_FLAG": "N"}}, {"type": "Feature", "geometry": {"type": "Point", "coordinates": [-118.027713373882, 45.2855816855559]}, "properties": {"CWP_NAME": "LA GRANDE STP", "CWP_STREET": "63836 HIGHWAY 203", "CWP_CITY": "LA GRANDE", "CWP_STATE": "OR", "CWP_ZIP": "97850", "CWP_COUNTY": "Union", "NPDES_ID": "OR0020460", "REGISTRY_ID": "110014195682", "CWP_FACILITY_TYPE_INDICATOR": "POTW", "CWP_MAJOR_MINOR_STATUS": "Major", "CWP_PERMIT_STATUS_DESC": "Admin Continued", "STATE_WATER_BODY_NAME": "GRANDE RONDE RIVER", "CWP_CSO_FLAG": "N"}}, {"type": "Feature", "geometry": {"type": "Point", "coordinates": [-124.106836228943, 44.3140811855942]}, "properties": {"CWP_NAME": "YACHATS STP", "CWP_STREET": "W. 7TH ST. 3 BLOCKS W. OF", "CWP_CITY": "YACHATS", "CWP_STATE": "OR", "CWP_ZIP": "97498", "CWP_COUNTY": "Lincoln", "NPDES_ID": "OR0020290", "REGISTRY_ID": "110039739370", "CWP_FACILITY_TYPE_INDICATOR": "POTW", "CWP_MAJOR_MINOR_STATUS": "Minor", "CWP_PERMIT_STATUS_DESC": "Effective", "STATE_WATER_BODY_NAME": "PACIFIC OCEAN", "CWP_CSO_FLAG": "N"}}, {"type": "Feature", "geometry": {"type": "Point", "coordinates": [-123.650794068395, 42.1735453426203]}, "properties": {"CWP_NAME": "CAVE JUNCTION WASTEWATER TREATMENT FACILITY", "CWP_STREET": "1300 SAWYER AVENUE", "CWP_CITY": "CAVE JUNCTION", "CWP_STATE": "OR", "CWP_ZIP": "97523", "CWP_COUNTY": "Josephine", "NPDES_ID": "OR0028339", "REGISTRY_ID": "110009817010", "CWP_FACILITY_TYPE_INDICATOR": "POTW", "CWP_MAJOR_MINOR_STATUS": "Minor", "CWP_PERMIT_STATUS_DESC": "Effective", "STATE_WATER_BODY_NAME": "ILLINOIS RIVER", "CWP_CSO_FLAG": "N"}}, {"type": "Feature", "geometry": {"type": "Point", "coordinates": [-122.840637952066, 42.5828466916638]}, "properties": {"CWP_NAME": "SHADY COVE STP", "CWP_STREET": "ROGUE RIVER DRIVE", "CWP_CITY": "SHADY COVE", "CWP_STATE": "OR", "CWP_ZIP": "97539", "CWP_COUNTY": "Jackson", "NPDES_ID": "OR0030660", "REGISTRY_ID": "110039735169", "CWP_FACILITY_TYPE_INDICATOR": "POTW", "CWP_MAJOR_MINOR_STATUS": "Minor", "CWP_PERMIT_STATUS_DESC": "Admin Continued", "STATE_WATER_BODY_NAME": "ROGUE RIVER (RM 145)", "CWP_CSO_FLAG": "N"}}, {"type": "Feature", "geometry": {"type": "Point", "coordinates": [-123.07023539586, 45.2248598511386]}, "properties": {"CWP_NAME": "DAYTON STP", "CWP_STREET": "416 FERRY STREET", "CWP_CITY": "DAYTON", "CWP_STATE": "OR", "CWP_ZIP": "97114", "CWP_COUNTY": "Yamhill", "NPDES_ID": "OR0023639", "REGISTRY_ID": "110009817083", "CWP_FACILITY_TYPE_INDICATOR": "POTW", "CWP_MAJOR_MINOR_STATUS": "Minor", "CWP_PERMIT_STATUS_DESC": "Admin Continued", "STATE_WATER_BODY_NAME": "YAMHILL RIVER", "CWP_CSO_FLAG": "N"}}, {"type": "Feature", "geometry": {"type": "Point", "coordinates": [-123.857935554582, 45.4552705880234]}, "properties": {"CWP_NAME": "TILLAMOOK STP", "CWP_STREET": "WASTEWATER TREATMENT PLANT", "CWP_CITY": "TILLAMOOK", "CWP_STATE": "OR", "CWP_ZIP": "97141", "CWP_COUNTY": "Tillamook", "NPDES_ID": "OR0020664", "REGISTRY_ID": "110039738692", "CWP_FACILITY_TYPE_INDICATOR": "POTW", "CWP_MAJOR_MINOR_STATUS": "Major", "CWP_PERMIT_STATUS_DESC": "Effective", "STATE_WATER_BODY_NAME": "TRASK RIVER (RM 1.9)", "CWP_CSO_FLAG": "N"}}, {"type": "Feature", "geometry": {"type": "Point", "coordinates": [-123.356926288527, 42.9508681345897]}, "properties": {"CWP_NAME": "RIDDLE STP", "CWP_STREET": "127 PARKSIDE STREET", "CWP_CITY": "RIDDLE", "CWP_STATE": "OR", "CWP_ZIP": "97469", "CWP_COUNTY": "Douglas", "NPDES_ID": "OR0020630", "REGISTRY_ID": "110039734614", "CWP_FACILITY_TYPE_INDICATOR": "POTW", "CWP_MAJOR_MINOR_STATUS": "Minor", "CWP_PERMIT_STATUS_DESC": "Admin Continued", "STATE_WATER_BODY_NAME": "COW CREEK (RM 2.0)", "CWP_CSO_FLAG": "N"}}, {"type": "Feature", "geometry": {"type": "Point", "coordinates": [-122.459196399247, 45.5466175752261]}, "properties": {"CWP_NAME": "GRESHAM WWTP", "CWP_STREET": "20015 NE SANDY BLVD", "CWP_CITY": "PORTLAND", "CWP_STATE": "OR", "CWP_ZIP": "972307312", "CWP_COUNTY": "Multnomah", "NPDES_ID": "OR0026131", "REGISTRY_ID": "110004821328", "CWP_FACILITY_TYPE_INDICATOR": "POTW", "CWP_MAJOR_MINOR_STATUS": "Major", "CWP_PERMIT_STATUS_DESC": "Effective", "STATE_WATER_BODY_NAME": "COLUMBIA RIVER", "CWP_CSO_FLAG": "N"}}, {"type": "Feature", "geometry": {"type": "Point", "coordinates": [-122.590264478641, 45.3753227823487]}, "properties": {"CWP_NAME": "WES (TRI-CITY WPCP)", "CWP_STREET": "15941 AGNES AVE", "CWP_CITY": "OREGON CITY", "CWP_STATE": "OR", "CWP_ZIP": "970451003", "CWP_COUNTY": "Clackamas", "NPDES_ID": "OR0031259", "REGISTRY_ID": "110009819303", "CWP_FACILITY_TYPE_INDICATOR": "POTW", "CWP_MAJOR_MINOR_STATUS": "Major", "CWP_PERMIT_STATUS_DESC": "Admin Continued", "STATE_WATER_BODY_NAME": "WILLAMETTE RIVER", "CWP_CSO_FLAG": "N"}}, {"type": "Feature", "geometry": {"type": "Point", "coordinates": [-123.337040370708, 42.3271459893181]}, "properties": {"CWP_NAME": "HIDDEN VALLEY HIGH SCHOOL STP", "CWP_STREET": "651 MURPHY CREEK RD", "CWP_CITY": "MURPHY", "CWP_STATE": "OR", "CWP_ZIP": "97533", "CWP_COUNTY": "Josephine", "NPDES_ID": "OR0030210", "REGISTRY_ID": "110014170440", "CWP_FACILITY_TYPE_INDICATOR": "POTW", "CWP_MAJOR_MINOR_STATUS": "Minor", "CWP_PERMIT_STATUS_DESC": "Effective", "STATE_WATER_BODY_NAME": "APPLEGATE RIVER", "CWP_CSO_FLAG": "N"}}, {"type": "Feature", "geometry": {"type": "Point", "coordinates": [-122.73798424912, 44.4000241380052]}, "properties": {"CWP_NAME": "SWEET HOME STP", "CWP_STREET": "OFF PLEASANT VALLEY RD ADJ TO", "CWP_CITY": "SWEET HOME", "CWP_STATE": "OR", "CWP_ZIP": "97386", "CWP_COUNTY": "Linn", "NPDES_ID": "OR0020346", "REGISTRY_ID": "110002053599", "CWP_FACILITY_TYPE_INDICATOR": "POTW", "CWP_MAJOR_MINOR_STATUS": "Major", "CWP_PERMIT_STATUS_DESC": "Admin Continued", "STATE_WATER_BODY_NAME": "SOUTH SANTIAM RIVER", "CWP_CSO_FLAG": "N"}}, {"type": "Feature", "geometry": {"type": "Point", "coordinates": [-123.219001197113, 44.8560262600055]}, "properties": {"CWP_NAME": "MONMOUTH STP", "CWP_STREET": "151 WEST MAIN STREET", "CWP_CITY": "MONMOUTH", "CWP_STATE": "OR", "CWP_ZIP": "97361", "CWP_COUNTY": "Polk", "NPDES_ID": "OR0020613", "REGISTRY_ID": "110004789578", "CWP_FACILITY_TYPE_INDICATOR": "POTW", "CWP_MAJOR_MINOR_STATUS": "Minor", "CWP_PERMIT_STATUS_DESC": "Effective", "STATE_WATER_BODY_NAME": "WILLAMETTE RIVER", "CWP_CSO_FLAG": "N"}}, {"type": "Feature", "geometry": {"type": "Point", "coordinates": [-122.853974386052, 44.7001557903823]}, "properties": {"CWP_NAME": "SCIO STP", "CWP_STREET": "OFF S. W. SIXTH STREET", "CWP_CITY": "SCIO", "CWP_STATE": "OR", "CWP_ZIP": "97374", "CWP_COUNTY": "Linn", "NPDES_ID": "OR0029301", "REGISTRY_ID": "110010151557", "CWP_FACILITY_TYPE_INDICATOR": "POTW", "CWP_MAJOR_MINOR_STATUS": "Minor", "CWP_PERMIT_STATUS_DESC": "Admin Continued", "STATE_WATER_BODY_NAME": "THOMAS CREEK (RM 8.0)", "CWP_CSO_FLAG": "N"}}, {"type": "Feature", "geometry": {"type": "Point", "coordinates": [-124.114765487246, 43.9701156636696]}, "properties": {"CWP_NAME": "FLORENCE STP", "CWP_STREET": "794 RHODODENDRON DRIVE", "CWP_CITY": "FLORENCE", "CWP_STATE": "OR", "CWP_ZIP": "97439", "CWP_COUNTY": "Lane", "NPDES_ID": "OR0020745", "REGISTRY_ID": "110006661898", "CWP_FACILITY_TYPE_INDICATOR": "POTW", "CWP_MAJOR_MINOR_STATUS": "Minor", "CWP_PERMIT_STATUS_DESC": "Admin Continued", "STATE_WATER_BODY_NAME": "SIUSLAW RIVER", "CWP_CSO_FLAG": "N"}}, {"type": "Feature", "geometry": {"type": "Point", "coordinates": [-123.306414142224, 43.4189050390555]}, "properties": {"CWP_NAME": "OAKLAND STP", "CWP_STREET": "1/2 MI SW OF CITY CNTR,", "CWP_CITY": "OAKLAND", "CWP_STATE": "OR", "CWP_ZIP": "97462", "CWP_COUNTY": "Douglas", "NPDES_ID": "OR0020494", "REGISTRY_ID": "110014263661", "CWP_FACILITY_TYPE_INDICATOR": "POTW", "CWP_MAJOR_MINOR_STATUS": "Minor", "CWP_PERMIT_STATUS_DESC": "Admin Continued", "STATE_WATER_BODY_NAME": "CALAPOOYA CREEK", "CWP_CSO_FLAG": "N"}}, {"type": "Feature", "geometry": {"type": "Point", "coordinates": [-122.783237150702, 43.9155170493179]}, "properties": {"CWP_NAME": "LOWELL STP", "CWP_STREET": "240 S MOSS STREET", "CWP_CITY": "LOWELL", "CWP_STATE": "OR", "CWP_ZIP": "97452", "CWP_COUNTY": "Lane", "NPDES_ID": "OR0020044", "REGISTRY_ID": "110009817573", "CWP_FACILITY_TYPE_INDICATOR": "POTW", "CWP_MAJOR_MINOR_STATUS": "Minor", "CWP_PERMIT_STATUS_DESC": "Admin Continued", "STATE_WATER_BODY_NAME": "DEXTER RESERVOIR", "CWP_CSO_FLAG": "N"}}, {"type": "Feature", "geometry": {"type": "Point", "coordinates": [-122.496901928737, 43.7429830308246]}, "properties": {"CWP_NAME": "OAKRIDGE STP", "CWP_STREET": "LADUKE ROAD", "CWP_CITY": "OAKRIDGE", "CWP_STATE": "OR", "CWP_ZIP": "97463", "CWP_COUNTY": "Lane", "NPDES_ID": "OR0022314", "REGISTRY_ID": "110009817500", "CWP_FACILITY_TYPE_INDICATOR": "POTW", "CWP_MAJOR_MINOR_STATUS": "Minor", "CWP_PERMIT_STATUS_DESC": "Admin Continued", "STATE_WATER_BODY_NAME": "WILLAMETTE RIVER (MIDDLE FORK)", "CWP_CSO_FLAG": "N"}}, {"type": "Feature", "geometry": {"type": "Point", "coordinates": [-117.904568235308, 45.0333110527937]}, "properties": {"CWP_NAME": "NORTH POWDER STP", "CWP_STREET": "2ND STREET", "CWP_CITY": "NORTH POWDER", "CWP_STATE": "OR", "CWP_ZIP": "97867", "CWP_COUNTY": "Union", "NPDES_ID": "OR0022403", "REGISTRY_ID": "110009817519", "CWP_FACILITY_TYPE_INDICATOR": "POTW", "CWP_MAJOR_MINOR_STATUS": "Minor", "CWP_PERMIT_STATUS_DESC": "Effective", "STATE_WATER_BODY_NAME": "NORTH POWDER RIVER", "CWP_CSO_FLAG": "N"}}, {"type": "Feature", "geometry": {"type": "Point", "coordinates": [-122.999956074418, 45.2701802960893]}, "properties": {"CWP_NAME": "DUNDEE STP", "CWP_STREET": "520 SW 5TH STREET", "CWP_CITY": "DUNDEE", "CWP_STATE": "OR", "CWP_ZIP": "97115", "CWP_COUNTY": "Yamhill", "NPDES_ID": "OR0023388", "REGISTRY_ID": "110006696361", "CWP_FACILITY_TYPE_INDICATOR": "POTW", "CWP_MAJOR_MINOR_STATUS": "Minor", "CWP_PERMIT_STATUS_DESC": "Effective", "STATE_WATER_BODY_NAME": "WILLAMETTE RIVER (RM 51.7)", "CWP_CSO_FLAG": "N"}}, {"type": "Feature", "geometry": {"type": "Point", "coordinates": [-123.208433226159, 44.6738254025675]}, "properties": {"CWP_NAME": "ADAIR VILLAGE STP", "CWP_STREET": "7305 N.E. ARNOLD AVE", "CWP_CITY": "CORVALLIS", "CWP_STATE": "OR", "CWP_ZIP": "97330", "CWP_COUNTY": "Benton", "NPDES_ID": "OR0023396", "REGISTRY_ID": "110039763244", "CWP_FACILITY_TYPE_INDICATOR": "POTW", "CWP_MAJOR_MINOR_STATUS": "Minor", "CWP_PERMIT_STATUS_DESC": "Admin Continued", "STATE_WATER_BODY_NAME": "BOWERS SLOUGH,WILLAMETTE RIVER", "CWP_CSO_FLAG": "N"}}, {"type": "Feature", "geometry": {"type": "Point", "coordinates": [-122.321528129795, 45.4060931153864]}, "properties": {"CWP_NAME": "SANDY WWTP", "CWP_STREET": "33400 SE JARL RD", "CWP_CITY": "BORING", "CWP_STATE": "OR", "CWP_ZIP": "97009", "CWP_COUNTY": "Clackamas", "NPDES_ID": "OR0026573", "REGISTRY_ID": "110006696263", "CWP_FACILITY_TYPE_INDICATOR": "POTW", "CWP_MAJOR_MINOR_STATUS": "Minor", "CWP_PERMIT_STATUS_DESC": "Admin Continued", "STATE_WATER_BODY_NAME": "TICKLE CREEK", "CWP_CSO_FLAG": "N"}}, {"type": "Feature", "geometry": {"type": "Point", "coordinates": [-123.353604443869, 44.3291853747519]}, "properties": {"CWP_NAME": "ALPINE COMMUNITY", "CWP_STREET": "25327 ALPINE RD", "CWP_CITY": "MONROE", "CWP_STATE": "OR", "CWP_ZIP": "97456", "CWP_COUNTY": "Benton", "NPDES_ID": "OR0032387", "REGISTRY_ID": "110006695987", "CWP_FACILITY_TYPE_INDICATOR": "POTW", "CWP_MAJOR_MINOR_STATUS": "Minor", "CWP_PERMIT_STATUS_DESC": "Admin Continued", "STATE_WATER_BODY_NAME": "MUDDY CREEK (RM 21)", "CWP_CSO_FLAG": "N"}}, {"type": "Feature", "geometry": {"type": "Point", "coordinates": [-123.037114005652, 43.9228051310123]}, "properties": {"CWP_NAME": "CRESWELL STP", "CWP_STREET": "WEST OF MEADOW LANE", "CWP_CITY": "CRESWELL", "CWP_STATE": "OR", "CWP_ZIP": "97426", "CWP_COUNTY": "Lane", "NPDES_ID": "OR0027545", "REGISTRY_ID": "110009156135", "CWP_FACILITY_TYPE_INDICATOR": "POTW", "CWP_MAJOR_MINOR_STATUS": "Minor", "CWP_PERMIT_STATUS_DESC": "Admin Continued", "STATE_WATER_BODY_NAME": "CAMAS SWALE", "CWP_CSO_FLAG": "N"}}, {"type": "Feature", "geometry": {"type": "Point", "coordinates": [-120.362813703664, 42.1817051879043]}, "properties": {"CWP_NAME": "LAKEVIEW STP", "CWP_STREET": "1 MILE SOUTHWEST OF LAKEVIEW", "CWP_CITY": "LAKEVIEW", "CWP_STATE": "OR", "CWP_ZIP": "97630", "CWP_COUNTY": "Lake", "NPDES_ID": "OR0041386", "REGISTRY_ID": "110010151227", "CWP_FACILITY_TYPE_INDICATOR": "POTW", "CWP_MAJOR_MINOR_STATUS": "Minor", "CWP_PERMIT_STATUS_DESC": "Effective", "STATE_WATER_BODY_NAME": null, "CWP_CSO_FLAG": "N"}}, {"type": "Feature", "geometry": {"type": "Point", "coordinates": [-124.048454086901, 44.5977750446941]}, "properties": {"CWP_NAME": "NEWPORT STP", "CWP_STREET": "5525 SE 50TH PLACE", "CWP_CITY": "NEWPORT", "CWP_STATE": "OR", "CWP_ZIP": "97366", "CWP_COUNTY": "Lincoln", "NPDES_ID": "OR0044571", "REGISTRY_ID": "110012660539", "CWP_FACILITY_TYPE_INDICATOR": "POTW", "CWP_MAJOR_MINOR_STATUS": "Major", "CWP_PERMIT_STATUS_DESC": "Admin Continued", "STATE_WATER_BODY_NAME": "PACIFIC OCEAN", "CWP_CSO_FLAG": "N"}}, {"type": "Feature", "geometry": {"type": "Point", "coordinates": [-123.201276508687, 45.1175257454712]}, "properties": {"CWP_NAME": "AMITY STP", "CWP_STREET": "401 EAST 3RD", "CWP_CITY": "AMITY", "CWP_STATE": "OR", "CWP_ZIP": "97101", "CWP_COUNTY": "Yamhill", "NPDES_ID": "OR0026212", "REGISTRY_ID": "110009817118", "CWP_FACILITY_TYPE_INDICATOR": "POTW", "CWP_MAJOR_MINOR_STATUS": "Minor", "CWP_PERMIT_STATUS_DESC": "Admin Continued", "STATE_WATER_BODY_NAME": "ASH SWALE", "CWP_CSO_FLAG": "N"}}, {"type": "Feature", "geometry": {"type": "Point", "coordinates": [-121.765544082755, 42.1997733429562]}, "properties": {"CWP_NAME": "SOUTH SUBURBAN STP", "CWP_STREET": "2980 MAYWOOD DR", "CWP_CITY": "KLAMATH FALLS", "CWP_STATE": "OR", "CWP_ZIP": "97603", "CWP_COUNTY": "Klamath", "NPDES_ID": "OR0023876", "REGISTRY_ID": "110014169531", "CWP_FACILITY_TYPE_INDICATOR": "POTW", "CWP_MAJOR_MINOR_STATUS": "Major", "CWP_PERMIT_STATUS_DESC": "Effective", "STATE_WATER_BODY_NAME": "KLAMATH RIVER (LAKE EWAUNA)", "CWP_CSO_FLAG": "N"}}, {"type": "Feature", "geometry": {"type": "Point", "coordinates": [-121.863781286712, 45.6814718844589]}, "properties": {"CWP_NAME": "CASCADE LOCKS STP", "CWP_STREET": "105 HERMAN CREEK LANE", "CWP_CITY": "CASCADE LOCKS", "CWP_STATE": "OR", "CWP_ZIP": "97014", "CWP_COUNTY": "Hood River", "NPDES_ID": "OR0041271", "REGISTRY_ID": "110014183427", "CWP_FACILITY_TYPE_INDICATOR": "POTW", "CWP_MAJOR_MINOR_STATUS": "Minor", "CWP_PERMIT_STATUS_DESC": "Effective", "STATE_WATER_BODY_NAME": "COLUMBIA RIVER", "CWP_CSO_FLAG": "N"}}, {"type": "Feature", "geometry": {"type": "Point", "coordinates": [-123.050124478379, 43.8077755377211]}, "properties": {"CWP_NAME": "COTTAGE GROVE STP", "CWP_STREET": "1800 NORTH DOUGLAS", "CWP_CITY": "COTTAGE GROVE", "CWP_STATE": "OR", "CWP_ZIP": "97424", "CWP_COUNTY": "Lane", "NPDES_ID": "OR0020559", "REGISTRY_ID": "110009817706", "CWP_FACILITY_TYPE_INDICATOR": "POTW", "CWP_MAJOR_MINOR_STATUS": "Major", "CWP_PERMIT_STATUS_DESC": "Admin Continued", "STATE_WATER_BODY_NAME": "WILLAMETTE RIVER (COAST FORK)", "CWP_CSO_FLAG": "N"}}, {"type": "Feature", "geometry": {"type": "Point", "coordinates": [-123.771520745104, 46.2015559492773]}, "properties": {"CWP_NAME": "ASTORIA STP", "CWP_STREET": "550 30TH ST", "CWP_CITY": "ASTORIA", "CWP_STATE": "OR", "CWP_ZIP": "97103-2802", "CWP_COUNTY": "Clatsop", "NPDES_ID": "OR0027561", "REGISTRY_ID": "110000723995", "CWP_FACILITY_TYPE_INDICATOR": "POTW", "CWP_MAJOR_MINOR_STATUS": "Major", "CWP_PERMIT_STATUS_DESC": "Admin Continued", "STATE_WATER_BODY_NAME": "COLUMBIA RIVER", "CWP_CSO_FLAG": "Y"}}, {"type": "Feature", "geometry": {"type": "Point", "coordinates": [-122.658575202769, 45.4216126824288]}, "properties": {"CWP_NAME": "TRYON CREEK WWTP", "CWP_STREET": "195 FOOTHILLS ROAD", "CWP_CITY": "PORTLAND", "CWP_STATE": "OR", "CWP_ZIP": "97034", "CWP_COUNTY": "Multnomah", "NPDES_ID": "OR0026891", "REGISTRY_ID": "110009155966", "CWP_FACILITY_TYPE_INDICATOR": "POTW", "CWP_MAJOR_MINOR_STATUS": "Major", "CWP_PERMIT_STATUS_DESC": "Admin Continued", "STATE_WATER_BODY_NAME": "WILLAMETTE RIVER", "CWP_CSO_FLAG": "N"}}, {"type": "Feature", "geometry": {"type": "Point", "coordinates": [-119.339937015337, 45.9216603917992]}, "properties": {"CWP_NAME": "UMATILLA STP", "CWP_STREET": "300 6TH ST", "CWP_CITY": "UMATILLA", "CWP_STATE": "OR", "CWP_ZIP": "978826174", "CWP_COUNTY": "Umatilla", "NPDES_ID": "OR0022306", "REGISTRY_ID": "110006696423", "CWP_FACILITY_TYPE_INDICATOR": "POTW", "CWP_MAJOR_MINOR_STATUS": "Minor", "CWP_PERMIT_STATUS_DESC": "Admin Continued", "STATE_WATER_BODY_NAME": "COLUMBIA RIVER (RM 289.0)", "CWP_CSO_FLAG": "N"}}, {"type": "Feature", "geometry": {"type": "Point", "coordinates": [-123.609334943842, 45.0601156793349]}, "properties": {"CWP_NAME": "GRAND RONDE STP", "CWP_STREET": "8630 GRAND RONDE ROAD", "CWP_CITY": "GRAND RONDE", "CWP_STATE": "OR", "CWP_ZIP": "97347", "CWP_COUNTY": "Polk", "NPDES_ID": "OR0031453", "REGISTRY_ID": "110006695950", "CWP_FACILITY_TYPE_INDICATOR": "POTW", "CWP_MAJOR_MINOR_STATUS": "Minor", "CWP_PERMIT_STATUS_DESC": "Admin Continued", "STATE_WATER_BODY_NAME": "SOUTH YAMHILL", "CWP_CSO_FLAG": "N"}}, {"type": "Feature", "geometry": {"type": "Point", "coordinates": [-121.520310363746, 45.7140138899075]}, "properties": {"CWP_NAME": "HOOD RIVER STP", "CWP_STREET": "818 RIVERSIDE DR", "CWP_CITY": "HOOD RIVER", "CWP_STATE": "OR", "CWP_ZIP": "970311179", "CWP_COUNTY": "Hood River", "NPDES_ID": "OR0020788", "REGISTRY_ID": "110037765656", "CWP_FACILITY_TYPE_INDICATOR": "POTW", "CWP_MAJOR_MINOR_STATUS": "Major", "CWP_PERMIT_STATUS_DESC": "Effective", "STATE_WATER_BODY_NAME": "COLUMBIA RIVER (RM 164.5), COLUMBIA RIVER (RM 168.5)", "CWP_CSO_FLAG": "N"}}, {"type": "Feature", "geometry": {"type": "Point", "coordinates": [-120.831513191684, 45.6709490221075]}, "properties": {"CWP_NAME": "BSD WASTEWATER TREATMENT PLANT", "CWP_STREET": "500 FEET NE OF US HWY 97 &", "CWP_CITY": "BIGGS", "CWP_STATE": "OR", "CWP_ZIP": "97039", "CWP_COUNTY": "Sherman", "NPDES_ID": "OR0041246", "REGISTRY_ID": "110039702612", "CWP_FACILITY_TYPE_INDICATOR": "POTW", "CWP_MAJOR_MINOR_STATUS": "Minor", "CWP_PERMIT_STATUS_DESC": "Effective", "STATE_WATER_BODY_NAME": "COLUMBIA RIVER", "CWP_CSO_FLAG": "N"}}, {"type": "Feature", "geometry": {"type": "Point", "coordinates": [-119.210299685652, 45.7567508106902]}, "properties": {"CWP_NAME": "ECHO STP", "CWP_STREET": "33245 BOWMAN RD.", "CWP_CITY": "ECHO", "CWP_STATE": "OR", "CWP_ZIP": "97826", "CWP_COUNTY": "Umatilla", "NPDES_ID": "OR0031470", "REGISTRY_ID": "110006695969", "CWP_FACILITY_TYPE_INDICATOR": "POTW", "CWP_MAJOR_MINOR_STATUS": "Minor", "CWP_PERMIT_STATUS_DESC": "Admin Continued", "STATE_WATER_BODY_NAME": "UMATILLA RIVER", "CWP_CSO_FLAG": "N"}}, {"type": "Feature", "geometry": {"type": "Point", "coordinates": [-121.081789961621, 45.180337312894]}, "properties": {"CWP_NAME": "MAUPIN STP", "CWP_STREET": "NORTH SECOND STREET", "CWP_CITY": "MAUPIN", "CWP_STATE": "OR", "CWP_ZIP": "97037", "CWP_COUNTY": "Wasco", "NPDES_ID": "OR0022608", "REGISTRY_ID": "110009817243", "CWP_FACILITY_TYPE_INDICATOR": "POTW", "CWP_MAJOR_MINOR_STATUS": "Minor", "CWP_PERMIT_STATUS_DESC": "Effective", "STATE_WATER_BODY_NAME": "DESCHUTES RIVER (RM 51.2)", "CWP_CSO_FLAG": "N"}}, {"type": "Feature", "geometry": {"type": "Point", "coordinates": [-123.131797430336, 44.3851556068428]}, "properties": {"CWP_NAME": "HALSEY STP", "CWP_STREET": "1 1/4 MI W OF HALSEY,", "CWP_CITY": "HALSEY", "CWP_STATE": "OR", "CWP_ZIP": "97348", "CWP_COUNTY": "Linn", "NPDES_ID": "OR0022390", "REGISTRY_ID": "110014262172", "CWP_FACILITY_TYPE_INDICATOR": "POTW", "CWP_MAJOR_MINOR_STATUS": "Minor", "CWP_PERMIT_STATUS_DESC": "Admin Continued", "STATE_WATER_BODY_NAME": "MUDDY CREEK (RM 23)", "CWP_CSO_FLAG": "N"}}, {"type": "Feature", "geometry": {"type": "Point", "coordinates": [-122.642508815737, 45.4401198335354]}, "properties": {"CWP_NAME": "WES (KELLOGG CREEK WWTP)", "CWP_STREET": "11525 SE MCLOUGHLIN BLVD", "CWP_CITY": "MILWAUKIE", "CWP_STATE": "OR", "CWP_ZIP": "97222", "CWP_COUNTY": "Clackamas", "NPDES_ID": "OR0026221", "REGISTRY_ID": "110006175637", "CWP_FACILITY_TYPE_INDICATOR": "POTW", "CWP_MAJOR_MINOR_STATUS": "Major", "CWP_PERMIT_STATUS_DESC": "Admin Continued", "STATE_WATER_BODY_NAME": "WILLAMETTE RIVER", "CWP_CSO_FLAG": "N"}}, {"type": "Feature", "geometry": {"type": "Point", "coordinates": [-123.384547572165, 45.0907376195535]}, "properties": {"CWP_NAME": "SHERIDAN STP", "CWP_STREET": "139 NW YAMHILL STREET", "CWP_CITY": "SHERIDAN", "CWP_STATE": "OR", "CWP_ZIP": "97378", "CWP_COUNTY": "Yamhill", "NPDES_ID": "OR0020648", "REGISTRY_ID": "110006696398", "CWP_FACILITY_TYPE_INDICATOR": "POTW", "CWP_MAJOR_MINOR_STATUS": "Minor", "CWP_PERMIT_STATUS_DESC": "Admin Continued", "STATE_WATER_BODY_NAME": "SOUTH YAMHILL RIVER (RM 36.6)", "CWP_CSO_FLAG": "N"}}, {"type": "Feature", "geometry": {"type": "Point", "coordinates": [-121.599414704176, 45.5236058092333]}, "properties": {"CWP_NAME": "PARKDALE STP", "CWP_STREET": "7200 DEE HIGHWAY", "CWP_CITY": "PARKDALE", "CWP_STATE": "OR", "CWP_ZIP": "97041", "CWP_COUNTY": "Hood River", "NPDES_ID": "OR0026018", "REGISTRY_ID": "110039734222", "CWP_FACILITY_TYPE_INDICATOR": "POTW", "CWP_MAJOR_MINOR_STATUS": "Minor", "CWP_PERMIT_STATUS_DESC": "Effective", "STATE_WATER_BODY_NAME": "TROUT CREEK (RM 4.0)", "CWP_CSO_FLAG": "N"}}, {"type": "Feature", "geometry": {"type": "Point", "coordinates": [-123.296871364201, 43.0210854113701]}, "properties": {"CWP_NAME": "MYRTLE CREEK STP", "CWP_STREET": "SW HURST ST/NEAR MYRTLE CR/S", "CWP_CITY": "MYRTLE CREEK", "CWP_STATE": "OR", "CWP_ZIP": "97457", "CWP_COUNTY": "Douglas", "NPDES_ID": "OR0028665", "REGISTRY_ID": "110000572737", "CWP_FACILITY_TYPE_INDICATOR": "POTW", "CWP_MAJOR_MINOR_STATUS": "Minor", "CWP_PERMIT_STATUS_DESC": "Admin Continued", "STATE_WATER_BODY_NAME": "SOUTH UMPQUA, MYRTLE CREEK", "CWP_CSO_FLAG": "N"}}, {"type": "Feature", "geometry": {"type": "Point", "coordinates": [-122.719014186767, 45.597505689457]}, "properties": {"CWP_NAME": "COLUMBIA BOULEVARD STP", "CWP_STREET": "5001 NORTH COLUMBIA BLVD", "CWP_CITY": "PORTLAND", "CWP_STATE": "OR", "CWP_ZIP": "972032098", "CWP_COUNTY": "Multnomah", "NPDES_ID": "OR0026905", "REGISTRY_ID": "110000576895", "CWP_FACILITY_TYPE_INDICATOR": "POTW", "CWP_MAJOR_MINOR_STATUS": "Major", "CWP_PERMIT_STATUS_DESC": "Effective", "STATE_WATER_BODY_NAME": "COLUMBIA RIVER", "CWP_CSO_FLAG": "Y"}}, {"type": "Feature", "geometry": {"type": "Point", "coordinates": [-123.966600653694, 45.4559144914301]}, "properties": {"CWP_NAME": "NETARTS-OCEANSIDE STP", "CWP_STREET": "5390 NETARTS HWY NW", "CWP_CITY": "OCEANSIDE", "CWP_STATE": "OR", "CWP_ZIP": "97134", "CWP_COUNTY": "Tillamook", "NPDES_ID": "OR0029882", "REGISTRY_ID": "110055006728", "CWP_FACILITY_TYPE_INDICATOR": "POTW", "CWP_MAJOR_MINOR_STATUS": "Minor", "CWP_PERMIT_STATUS_DESC": "Effective", "STATE_WATER_BODY_NAME": "PACIFIC OCEAN", "CWP_CSO_FLAG": "N"}}, {"type": "Feature", "geometry": {"type": "Point", "coordinates": [-123.189760722549, 45.2864535100759]}, "properties": {"CWP_NAME": "CARLTON STP", "CWP_STREET": "CITY PARK", "CWP_CITY": "CARLTON", "CWP_STATE": "OR", "CWP_ZIP": "97111", "CWP_COUNTY": "Yamhill", "NPDES_ID": "OR0020541", "REGISTRY_ID": "110039767712", "CWP_FACILITY_TYPE_INDICATOR": "POTW", "CWP_MAJOR_MINOR_STATUS": "Minor", "CWP_PERMIT_STATUS_DESC": "Admin Continued", "STATE_WATER_BODY_NAME": "N. YAMHILL RIVER", "CWP_CSO_FLAG": "N"}}, {"type": "Feature", "geometry": {"type": "Point", "coordinates": [-124.066558381754, 44.8006243361666]}, "properties": {"CWP_NAME": "DEPOE BAY STP", "CWP_STREET": "212 S POINT ST", "CWP_CITY": "DEPOE BAY", "CWP_STATE": "OR", "CWP_ZIP": "973419663", "CWP_COUNTY": "Lincoln", "NPDES_ID": "OR0026107", "REGISTRY_ID": "110014089048", "CWP_FACILITY_TYPE_INDICATOR": "POTW", "CWP_MAJOR_MINOR_STATUS": "Minor", "CWP_PERMIT_STATUS_DESC": "Effective", "STATE_WATER_BODY_NAME": "PACIFIC OCEAN (SOUTH)", "CWP_CSO_FLAG": "N"}}, {"type": "Feature", "geometry": {"type": "Point", "coordinates": [-122.805863438006, 45.1559061547708]}, "properties": {"CWP_NAME": "WOODBURN WWTP", "CWP_STREET": "2815 MOLALLA RD", "CWP_CITY": "WOODBURN", "CWP_STATE": "OR", "CWP_ZIP": "970713527", "CWP_COUNTY": "Marion", "NPDES_ID": "OR0020001", "REGISTRY_ID": "110004777885", "CWP_FACILITY_TYPE_INDICATOR": "POTW", "CWP_MAJOR_MINOR_STATUS": "Major", "CWP_PERMIT_STATUS_DESC": "Admin Continued", "STATE_WATER_BODY_NAME": "PUDDING RIVER (RM 21.5)", "CWP_CSO_FLAG": "N"}}, {"type": "Feature", "geometry": {"type": "Point", "coordinates": [-122.990074372561, 45.5141052282257]}, "properties": {"CWP_NAME": "HILLSBORO-WESTSIDE STP", "CWP_STREET": "770 SOUTH FIRST STREET", "CWP_CITY": "HILLSBORO", "CWP_STATE": "OR", "CWP_ZIP": "97120", "CWP_COUNTY": "Washington", "NPDES_ID": "OR0023345", "REGISTRY_ID": "110016653520", "CWP_FACILITY_TYPE_INDICATOR": "POTW", "CWP_MAJOR_MINOR_STATUS": "Major", "CWP_PERMIT_STATUS_DESC": "Admin Continued", "STATE_WATER_BODY_NAME": "TUALATIN RIVER (RM 44)", "CWP_CSO_FLAG": "N"}}, {"type": "Feature", "geometry": {"type": "Point", "coordinates": [-124.333794173505, 42.0875278193922]}, "properties": {"CWP_NAME": "RAINBOW ROCK STP", "CWP_STREET": "17744 HWY 101 NORTH", "CWP_CITY": "BROOKINGS", "CWP_STATE": "OR", "CWP_ZIP": "97415", "CWP_COUNTY": "Curry", "NPDES_ID": "OR0030945", "REGISTRY_ID": "110006696138", "CWP_FACILITY_TYPE_INDICATOR": "POTW", "CWP_MAJOR_MINOR_STATUS": "Minor", "CWP_PERMIT_STATUS_DESC": "Effective", "STATE_WATER_BODY_NAME": "PACIFIC OCEAN", "CWP_CSO_FLAG": "N"}}, {"type": "Feature", "geometry": {"type": "Point", "coordinates": [-117.53142426967, 45.577580832983]}, "properties": {"CWP_NAME": "WALLOWA STP", "CWP_STREET": "700 N. PINE ST.", "CWP_CITY": "WALLOWA", "CWP_STATE": "OR", "CWP_ZIP": "97885", "CWP_COUNTY": "Wallowa", "NPDES_ID": "OR0020028", "REGISTRY_ID": "110006696441", "CWP_FACILITY_TYPE_INDICATOR": "POTW", "CWP_MAJOR_MINOR_STATUS": "Minor", "CWP_PERMIT_STATUS_DESC": "Effective", "STATE_WATER_BODY_NAME": "WALLOWA RIVER", "CWP_CSO_FLAG": "N"}}, {"type": "Feature", "geometry": {"type": "Point", "coordinates": [-121.969403910673, 45.3462855335886]}, "properties": {"CWP_NAME": "WES (HOODLAND STP)", "CWP_STREET": "24596 E BRIGHT AVE.", "CWP_CITY": "WELCHES", "CWP_STATE": "OR", "CWP_ZIP": "97067", "CWP_COUNTY": "Clackamas", "NPDES_ID": "OR0031020", "REGISTRY_ID": "110039749859", "CWP_FACILITY_TYPE_INDICATOR": "POTW", "CWP_MAJOR_MINOR_STATUS": "Minor", "CWP_PERMIT_STATUS_DESC": "Effective", "STATE_WATER_BODY_NAME": "SANDY RIVER CHANNEL", "CWP_CSO_FLAG": "N"}}, {"type": "Feature", "geometry": {"type": "Point", "coordinates": [-122.761808356355, 45.2259543575069]}, "properties": {"CWP_NAME": "AURORA STP", "CWP_STREET": "HWY 99 E", "CWP_CITY": "AURORA", "CWP_STATE": "OR", "CWP_ZIP": "97002", "CWP_COUNTY": "Marion", "NPDES_ID": "OR0043991", "REGISTRY_ID": "110009156251", "CWP_FACILITY_TYPE_INDICATOR": "POTW", "CWP_MAJOR_MINOR_STATUS": "Minor", "CWP_PERMIT_STATUS_DESC": "Effective", "STATE_WATER_BODY_NAME": null, "CWP_CSO_FLAG": "N"}}, {"type": "Feature", "geometry": {"type": "Point", "coordinates": [-123.054584448142, 45.008579183423]}, "properties": {"CWP_NAME": "SALEM WILLOW LAKE STP", "CWP_STREET": "5915 WINDSOR ISLAND RD N", "CWP_CITY": "SALEM", "CWP_STATE": "OR", "CWP_ZIP": "97303", "CWP_COUNTY": "Marion", "NPDES_ID": "OR0026409", "REGISTRY_ID": "110000571809", "CWP_FACILITY_TYPE_INDICATOR": "POTW", "CWP_MAJOR_MINOR_STATUS": "Major", "CWP_PERMIT_STATUS_DESC": "Admin Continued", "STATE_WATER_BODY_NAME": "WILLAMETTE RIVER", "CWP_CSO_FLAG": "N"}}, {"type": "Feature", "geometry": {"type": "Point", "coordinates": [-117.000875134844, 44.0393839321247]}, "properties": {"CWP_NAME": "ONTARIO STP", "CWP_STREET": "2405 MALHEUR DRIVE", "CWP_CITY": "ONTARIO", "CWP_STATE": "OR", "CWP_ZIP": "97914", "CWP_COUNTY": "Malheur", "NPDES_ID": "OR0020621", "REGISTRY_ID": "110006618446", "CWP_FACILITY_TYPE_INDICATOR": "POTW", "CWP_MAJOR_MINOR_STATUS": "Major", "CWP_PERMIT_STATUS_DESC": "Effective", "STATE_WATER_BODY_NAME": "SNAKE RIVER", "CWP_CSO_FLAG": "N"}}, {"type": "Feature", "geometry": {"type": "Point", "coordinates": [-123.957144354245, 45.8032155978528]}, "properties": {"CWP_NAME": "ARCH CAPE STP", "CWP_STREET": "32065 E SHINGLE MILL LN", "CWP_CITY": "ARCH CAPE", "CWP_STATE": "OR", "CWP_ZIP": "97102", "CWP_COUNTY": "Clatsop", "NPDES_ID": "OR0027499", "REGISTRY_ID": "110038207464", "CWP_FACILITY_TYPE_INDICATOR": "POTW", "CWP_MAJOR_MINOR_STATUS": "Minor", "CWP_PERMIT_STATUS_DESC": "Effective", "STATE_WATER_BODY_NAME": "ARCH CAPE CREEK", "CWP_CSO_FLAG": "N"}}, {"type": "Feature", "geometry": {"type": "Point", "coordinates": [-123.957166857229, 45.8962261866799]}, "properties": {"CWP_NAME": "CANNON BEACH WWTP", "CWP_STREET": "163 E GOWER ST", "CWP_CITY": "CANNON BEACH", "CWP_STATE": "OR", "CWP_ZIP": "97110", "CWP_COUNTY": "Clatsop", "NPDES_ID": "OR0020222", "REGISTRY_ID": "110006696469", "CWP_FACILITY_TYPE_INDICATOR": "POTW", "CWP_MAJOR_MINOR_STATUS": "Minor", "CWP_PERMIT_STATUS_DESC": "Effective", "STATE_WATER_BODY_NAME": "ECOLA CREEK", "CWP_CSO_FLAG": "N"}}, {"type": "Feature", "geometry": {"type": "Point", "coordinates": [-122.491485314277, 43.7597077245056]}, "properties": {"CWP_NAME": "WESTFIR STP", "CWP_STREET": "47441 WESTOAK ROAD", "CWP_CITY": "WESTFIR", "CWP_STATE": "OR", "CWP_ZIP": "97492", "CWP_COUNTY": "Lane", "NPDES_ID": "OR0028282", "REGISTRY_ID": "110039759062", "CWP_FACILITY_TYPE_INDICATOR": "POTW", "CWP_MAJOR_MINOR_STATUS": "Minor", "CWP_PERMIT_STATUS_DESC": "Admin Continued", "STATE_WATER_BODY_NAME": "WILLAMETTE RIVER", "CWP_CSO_FLAG": "N"}}, {"type": "Feature", "geometry": {"type": "Point", "coordinates": [-119.11882036699, 44.4120124544007]}, "properties": {"CWP_NAME": "MT VERNON STP", "CWP_STREET": "MOORE STREET", "CWP_CITY": "MOUNT VERNON", "CWP_STATE": "OR", "CWP_ZIP": "97865", "CWP_COUNTY": "Grant", "NPDES_ID": "OR0030694", "REGISTRY_ID": "110009816869", "CWP_FACILITY_TYPE_INDICATOR": "POTW", "CWP_MAJOR_MINOR_STATUS": "Minor", "CWP_PERMIT_STATUS_DESC": "Admin Continued", "STATE_WATER_BODY_NAME": "JOHN DAY RIVER", "CWP_CSO_FLAG": "N"}}, {"type": "Feature", "geometry": {"type": "Point", "coordinates": [-123.186847936948, 45.8553071118771]}, "properties": {"CWP_NAME": "VERNONIA STP", "CWP_STREET": "943 CALIFORNIA AVENUE", "CWP_CITY": "VERNONIA", "CWP_STATE": "OR", "CWP_ZIP": "97064", "CWP_COUNTY": "Columbia", "NPDES_ID": "OR0022560", "REGISTRY_ID": "110006696325", "CWP_FACILITY_TYPE_INDICATOR": "POTW", "CWP_MAJOR_MINOR_STATUS": "Minor", "CWP_PERMIT_STATUS_DESC": "Admin Continued", "STATE_WATER_BODY_NAME": "NEHALEM RIVER", "CWP_CSO_FLAG": "N"}}, {"type": "Feature", "geometry": {"type": "Point", "coordinates": [-117.843456551235, 44.8144250491723]}, "properties": {"CWP_NAME": "BAKER CITY WWTP", "CWP_STREET": "42661 IMNAHA ROAD", "CWP_CITY": "BAKER CITY", "CWP_STATE": "OR", "CWP_ZIP": "97814", "CWP_COUNTY": "Baker", "NPDES_ID": "OR0020699", "REGISTRY_ID": "110006618197", "CWP_FACILITY_TYPE_INDICATOR": "POTW", "CWP_MAJOR_MINOR_STATUS": "Major", "CWP_PERMIT_STATUS_DESC": "Admin Continued", "STATE_WATER_BODY_NAME": "POWDER RIVER", "CWP_CSO_FLAG": "N"}}, {"type": "Feature", "geometry": {"type": "Point", "coordinates": [-122.880213939027, 44.8502850217639]}, "properties": {"CWP_NAME": "AUMSVILLE STP", "CWP_STREET": "BEAVER CREEK AT R.M. 2.5", "CWP_CITY": "AUMSVILLE", "CWP_STATE": "OR", "CWP_ZIP": "97325", "CWP_COUNTY": "Marion", "NPDES_ID": "OR0022721", "REGISTRY_ID": "110006696334", "CWP_FACILITY_TYPE_INDICATOR": "POTW", "CWP_MAJOR_MINOR_STATUS": "Minor", "CWP_PERMIT_STATUS_DESC": "Effective", "STATE_WATER_BODY_NAME": "BEAVER CREEK", "CWP_CSO_FLAG": "N"}}, {"type": "Feature", "geometry": {"type": "Point", "coordinates": [-123.884875662469, 45.5159451489785]}, "properties": {"CWP_NAME": "BAY CITY STP", "CWP_STREET": "NORTH END OF ELLIOTT ST", "CWP_CITY": "BAY CITY", "CWP_STATE": "OR", "CWP_ZIP": "97141", "CWP_COUNTY": "Tillamook", "NPDES_ID": "OR0022578", "REGISTRY_ID": "110009817225", "CWP_FACILITY_TYPE_INDICATOR": "POTW", "CWP_MAJOR_MINOR_STATUS": "Minor", "CWP_PERMIT_STATUS_DESC": "Effective", "STATE_WATER_BODY_NAME": "TILLAMOOK BAY", "CWP_CSO_FLAG": "N"}}, {"type": "Feature", "geometry": {"type": "Point", "coordinates": [-123.909414691, 46.0944250897513]}, "properties": {"CWP_NAME": "SHORELINE SANITARY DISTRICT", "CWP_STREET": "NEAR 33589 CULLABY LAKE LANE", "CWP_CITY": "WARRENTON", "CWP_STATE": "OR", "CWP_ZIP": "97146", "CWP_COUNTY": "Clatsop", "NPDES_ID": "OR0028550", "REGISTRY_ID": "110039735409", "CWP_FACILITY_TYPE_INDICATOR": "POTW", "CWP_MAJOR_MINOR_STATUS": "Minor", "CWP_PERMIT_STATUS_DESC": "Terminated", "STATE_WATER_BODY_NAME": "SKIPANON RIVER (RM 8.0)", "CWP_CSO_FLAG": "N"}}, {"type": "Feature", "geometry": {"type": "Point", "coordinates": [-123.196878770758, 44.8560874161331]}, "properties": {"CWP_NAME": "INDEPENDENCE STP", "CWP_STREET": "END OF WILLIAMS STREET", "CWP_CITY": "INDEPENDENCE", "CWP_STATE": "OR", "CWP_ZIP": "97351", "CWP_COUNTY": "Polk", "NPDES_ID": "OR0020443", "REGISTRY_ID": "110009817662", "CWP_FACILITY_TYPE_INDICATOR": "POTW", "CWP_MAJOR_MINOR_STATUS": "Minor", "CWP_PERMIT_STATUS_DESC": "Effective", "STATE_WATER_BODY_NAME": "WILLAMETTE RIVER (RM 95.5)", "CWP_CSO_FLAG": "N"}}, {"type": "Feature", "geometry": {"type": "Point", "coordinates": [-123.930714830244, 44.6127856415935]}, "properties": {"CWP_NAME": "TOLEDO STP", "CWP_STREET": "1105 SE FIR STREET", "CWP_CITY": "TOLEDO", "CWP_STATE": "OR", "CWP_ZIP": "97391", "CWP_COUNTY": "Lincoln", "NPDES_ID": "OR0020869", "REGISTRY_ID": "110014263741", "CWP_FACILITY_TYPE_INDICATOR": "POTW", "CWP_MAJOR_MINOR_STATUS": "Minor", "CWP_PERMIT_STATUS_DESC": "Admin Continued", "STATE_WATER_BODY_NAME": "YAQUINA RIVER", "CWP_CSO_FLAG": "N"}}, {"type": "Feature", "geometry": {"type": "Point", "coordinates": [-121.693377066499, 42.1501424601237]}, "properties": {"CWP_NAME": "HENLEY SCHOOLS TREATMENT", "CWP_STREET": "8245 HWY 39", "CWP_CITY": "KLAMATH FALLS", "CWP_STATE": "OR", "CWP_ZIP": "97603", "CWP_COUNTY": "Klamath", "NPDES_ID": "OR0026476", "REGISTRY_ID": "110006696254", "CWP_FACILITY_TYPE_INDICATOR": "POTW", "CWP_MAJOR_MINOR_STATUS": "Minor", "CWP_PERMIT_STATUS_DESC": "Terminated", "STATE_WATER_BODY_NAME": "LOST RIVER (RM 25)", "CWP_CSO_FLAG": "N"}}, {"type": "Feature", "geometry": {"type": "Point", "coordinates": [-122.652312323485, 45.423638855757]}, "properties": {"CWP_NAME": "OAK LODGE WATER SERVICES WATER RECLAMATION FACILITY", "CWP_STREET": "13750 SE RENTON AVE.", "CWP_CITY": "MILWAUKIE", "CWP_STATE": "OR", "CWP_ZIP": "97267", "CWP_COUNTY": "Clackamas", "NPDES_ID": "OR0026140", "REGISTRY_ID": "110000552777", "CWP_FACILITY_TYPE_INDICATOR": "POTW", "CWP_MAJOR_MINOR_STATUS": "Major", "CWP_PERMIT_STATUS_DESC": "Effective", "STATE_WATER_BODY_NAME": "WILLAMETTE RIVER", "CWP_CSO_FLAG": "N"}}, {"type": "Feature", "geometry": {"type": "Point", "coordinates": [-123.346653619972, 44.5221870924435]}, "properties": {"CWP_NAME": "PHILOMATH WWTP", "CWP_STREET": "W OF BELLFOUNTAIN/", "CWP_CITY": "PHILOMATH", "CWP_STATE": "OR", "CWP_ZIP": "97370", "CWP_COUNTY": "Benton", "NPDES_ID": "OR0032441", "REGISTRY_ID": "110010151496", "CWP_FACILITY_TYPE_INDICATOR": "POTW", "CWP_MAJOR_MINOR_STATUS": "Minor", "CWP_PERMIT_STATUS_DESC": "Admin Continued", "STATE_WATER_BODY_NAME": "MARYS RIVER", "CWP_CSO_FLAG": "N"}}, {"type": "Feature", "geometry": {"type": "Point", "coordinates": [-123.254406556992, 44.5760762804239]}, "properties": {"CWP_NAME": "CORVALLIS STP", "CWP_STREET": "1304 N.E. SECOND STREET", "CWP_CITY": "CORVALLIS", "CWP_STATE": "OR", "CWP_ZIP": "97339", "CWP_COUNTY": "Benton", "NPDES_ID": "OR0026361", "REGISTRY_ID": "110016653450", "CWP_FACILITY_TYPE_INDICATOR": "POTW", "CWP_MAJOR_MINOR_STATUS": "Major", "CWP_PERMIT_STATUS_DESC": "Admin Continued", "STATE_WATER_BODY_NAME": "WILLAMETTE RIVER", "CWP_CSO_FLAG": "Y"}}, {"type": "Feature", "geometry": {"type": "Point", "coordinates": [-123.921623006625, 46.172328864717]}, "properties": {"CWP_NAME": "WARRENTON, CITY OF STP", "CWP_STREET": "SKIPANON DR/5TH ST/", "CWP_CITY": "WARRENTON", "CWP_STATE": "OR", "CWP_ZIP": "97146", "CWP_COUNTY": "Clatsop", "NPDES_ID": "OR0020877", "REGISTRY_ID": "110039739218", "CWP_FACILITY_TYPE_INDICATOR": "POTW", "CWP_MAJOR_MINOR_STATUS": "Minor", "CWP_PERMIT_STATUS_DESC": "Effective", "STATE_WATER_BODY_NAME": "COLUMBIA RIVER", "CWP_CSO_FLAG": "N"}}, {"type": "Feature", "geometry": {"type": "Point", "coordinates": [-123.143132519842, 44.5543981322999]}, "properties": {"CWP_NAME": "TANGENT STP", "CWP_STREET": "HINCK RD BETWEEN HWY 34 &", "CWP_CITY": "TANGENT", "CWP_STATE": "OR", "CWP_ZIP": "97389", "CWP_COUNTY": "Linn", "NPDES_ID": "OR0031917", "REGISTRY_ID": "110014174446", "CWP_FACILITY_TYPE_INDICATOR": "POTW", "CWP_MAJOR_MINOR_STATUS": "Minor", "CWP_PERMIT_STATUS_DESC": "Admin Continued", "STATE_WATER_BODY_NAME": "CALAPOOIA RIVER", "CWP_CSO_FLAG": "N"}}, {"type": "Feature", "geometry": {"type": "Point", "coordinates": [-120.873860206156, 44.3100669290064]}, "properties": {"CWP_NAME": "PRINEVILLE STP", "CWP_STREET": "400 E 3RD ST", "CWP_CITY": "PRINEVILLE", "CWP_STATE": "OR", "CWP_ZIP": "97754", "CWP_COUNTY": "Crook", "NPDES_ID": "OR0023612", "REGISTRY_ID": "110009817074", "CWP_FACILITY_TYPE_INDICATOR": "POTW", "CWP_MAJOR_MINOR_STATUS": "Major", "CWP_PERMIT_STATUS_DESC": "Admin Continued", "STATE_WATER_BODY_NAME": "CROOKED RIVER (RM 46.8), OCHOCO CREEK", "CWP_CSO_FLAG": "N"}}, {"type": "Feature", "geometry": {"type": "Point", "coordinates": [-123.254857185042, 44.9188367103641]}, "properties": {"CWP_NAME": "DALLAS STP", "CWP_STREET": "1070 BOWERSVILLE ROAD", "CWP_CITY": "DALLAS", "CWP_STATE": "OR", "CWP_ZIP": "97338", "CWP_COUNTY": "Polk", "NPDES_ID": "OR0020737", "REGISTRY_ID": "110039758802", "CWP_FACILITY_TYPE_INDICATOR": "POTW", "CWP_MAJOR_MINOR_STATUS": "Major", "CWP_PERMIT_STATUS_DESC": "Admin Continued", "STATE_WATER_BODY_NAME": "RICKREALL CREEK", "CWP_CSO_FLAG": "N"}}, {"type": "Feature", "geometry": {"type": "Point", "coordinates": [-123.429718289294, 42.7431759833547]}, "properties": {"CWP_NAME": "GLENDALE STP", "CWP_STREET": "331 MERRITT ROAD", "CWP_CITY": "GLENDALE", "CWP_STATE": "OR", "CWP_ZIP": "97442", "CWP_COUNTY": "Douglas", "NPDES_ID": "OR0022730", "REGISTRY_ID": "110009817261", "CWP_FACILITY_TYPE_INDICATOR": "POTW", "CWP_MAJOR_MINOR_STATUS": "Minor", "CWP_PERMIT_STATUS_DESC": "Effective", "STATE_WATER_BODY_NAME": "COW CREEK", "CWP_CSO_FLAG": "N"}}, {"type": "Feature", "geometry": {"type": "Point", "coordinates": [-123.965261512237, 45.2103518957194]}, "properties": {"CWP_NAME": "PACIFIC CITY JWSA", "CWP_STREET": "34005 CAPE KIWANDA DR", "CWP_CITY": "PACIFIC CITY", "CWP_STATE": "OR", "CWP_ZIP": "97135", "CWP_COUNTY": "Tillamook", "NPDES_ID": "OR0030066", "REGISTRY_ID": "110013198565", "CWP_FACILITY_TYPE_INDICATOR": "POTW", "CWP_MAJOR_MINOR_STATUS": "Minor", "CWP_PERMIT_STATUS_DESC": "Effective", "STATE_WATER_BODY_NAME": "NESTUCCA RIVER", "CWP_CSO_FLAG": "N"}}, {"type": "Feature", "geometry": {"type": "Point", "coordinates": [-123.359717863206, 43.3967556299307]}, "properties": {"CWP_NAME": "SUTHERLIN STP", "CWP_STREET": "STEARNS ROAD", "CWP_CITY": "SUTHERLIN", "CWP_STATE": "OR", "CWP_ZIP": "97479", "CWP_COUNTY": "Douglas", "NPDES_ID": "OR0020842", "REGISTRY_ID": "110014205699", "CWP_FACILITY_TYPE_INDICATOR": "POTW", "CWP_MAJOR_MINOR_STATUS": "Minor", "CWP_PERMIT_STATUS_DESC": "Effective", "STATE_WATER_BODY_NAME": "CALAPOOIA CREEK, FORDS POND", "CWP_CSO_FLAG": "N"}}, {"type": "Feature", "geometry": {"type": "Point", "coordinates": [-122.814030109437, 44.78918148767]}, "properties": {"CWP_NAME": "STAYTON STP", "CWP_STREET": "1/2 MI S OF INT OF IDA &", "CWP_CITY": "STAYTON", "CWP_STATE": "OR", "CWP_ZIP": "97383", "CWP_COUNTY": "Marion", "NPDES_ID": "OR0020427", "REGISTRY_ID": "110070001159", "CWP_FACILITY_TYPE_INDICATOR": "POTW", "CWP_MAJOR_MINOR_STATUS": "Major", "CWP_PERMIT_STATUS_DESC": "Effective", "STATE_WATER_BODY_NAME": "NORTH SANTIAM RIVER", "CWP_CSO_FLAG": "N"}}, {"type": "Feature", "geometry": {"type": "Point", "coordinates": [-124.287923340055, 42.0470754160854]}, "properties": {"CWP_NAME": "BROOKINGS WWTP", "CWP_STREET": "901 WHARF ST", "CWP_CITY": "BROOKINGS", "CWP_STATE": "OR", "CWP_ZIP": "97415", "CWP_COUNTY": "Curry", "NPDES_ID": "OR0020354", "REGISTRY_ID": "110006618142", "CWP_FACILITY_TYPE_INDICATOR": "POTW", "CWP_MAJOR_MINOR_STATUS": "Major", "CWP_PERMIT_STATUS_DESC": "Effective", "STATE_WATER_BODY_NAME": "PACIFIC OCEAN", "CWP_CSO_FLAG": "N"}}, {"type": "Feature", "geometry": {"type": "Point", "coordinates": [-122.953543858652, 45.2873474603459]}, "properties": {"CWP_NAME": "NEWBERG - WYNOOSKI ROAD STP", "CWP_STREET": "2501 WYNOOSKI STREET", "CWP_CITY": "NEWBERG", "CWP_STATE": "OR", "CWP_ZIP": "97132", "CWP_COUNTY": "Yamhill", "NPDES_ID": "OR0032352", "REGISTRY_ID": "110000758403", "CWP_FACILITY_TYPE_INDICATOR": "POTW", "CWP_MAJOR_MINOR_STATUS": "Major", "CWP_PERMIT_STATUS_DESC": "Admin Continued", "STATE_WATER_BODY_NAME": "WILLAMETTE RIVER", "CWP_CSO_FLAG": "N"}}, {"type": "Feature", "geometry": {"type": "Point", "coordinates": [-117.883641941656, 45.2117743338371]}, "properties": {"CWP_NAME": "UNION STP", "CWP_STREET": ".4 MILE W OF TENTH STREET", "CWP_CITY": "UNION", "CWP_STATE": "OR", "CWP_ZIP": "97883", "CWP_COUNTY": "Union", "NPDES_ID": "OR0029939", "REGISTRY_ID": "110039738941", "CWP_FACILITY_TYPE_INDICATOR": "POTW", "CWP_MAJOR_MINOR_STATUS": "Minor", "CWP_PERMIT_STATUS_DESC": "Admin Continued", "STATE_WATER_BODY_NAME": "CATHERINE CREEK", "CWP_CSO_FLAG": "N"}}, {"type": "Feature", "geometry": {"type": "Point", "coordinates": [-124.181249604052, 43.5713607355568]}, "properties": {"CWP_NAME": "LAKESIDE STP", "CWP_STREET": "105 PARK AVENUE", "CWP_CITY": "LAKESIDE", "CWP_STATE": "OR", "CWP_ZIP": "97449", "CWP_COUNTY": "Coos", "NPDES_ID": "OR0029998", "REGISTRY_ID": "110006661941", "CWP_FACILITY_TYPE_INDICATOR": "POTW", "CWP_MAJOR_MINOR_STATUS": "Minor", "CWP_PERMIT_STATUS_DESC": "Effective", "STATE_WATER_BODY_NAME": "TENMILE CREEK", "CWP_CSO_FLAG": "N"}}, {"type": "Feature", "geometry": {"type": "Point", "coordinates": [-119.564143322043, 45.3647596505108]}, "properties": {"CWP_NAME": "HEPPNER STP", "CWP_STREET": "710 NW RIVERSIDE AVE.", "CWP_CITY": "HEPPNER", "CWP_STATE": "OR", "CWP_ZIP": "97836", "CWP_COUNTY": "Morrow", "NPDES_ID": "OR0020770", "REGISTRY_ID": "110006696405", "CWP_FACILITY_TYPE_INDICATOR": "POTW", "CWP_MAJOR_MINOR_STATUS": "Minor", "CWP_PERMIT_STATUS_DESC": "Effective", "STATE_WATER_BODY_NAME": "WILLOW CREEK", "CWP_CSO_FLAG": "N"}}, {"type": "Feature", "geometry": {"type": "Point", "coordinates": [-123.076963608978, 42.436395662398]}, "properties": {"CWP_NAME": "GOLD HILL STP", "CWP_STREET": "SARDINE CREEK ROAD", "CWP_CITY": "GOLD HILL", "CWP_STATE": "OR", "CWP_ZIP": "97525", "CWP_COUNTY": "Jackson", "NPDES_ID": "OR0022594", "REGISTRY_ID": "110009817234", "CWP_FACILITY_TYPE_INDICATOR": "POTW", "CWP_MAJOR_MINOR_STATUS": "Minor", "CWP_PERMIT_STATUS_DESC": "Admin Continued", "STATE_WATER_BODY_NAME": "ROGUE RIVER", "CWP_CSO_FLAG": "N"}}, {"type": "Feature", "geometry": {"type": "Point", "coordinates": [-123.401809692431, 43.1371878849381]}, "properties": {"CWP_NAME": "WINSTON-GREEN WWTF", "CWP_STREET": "658 HARMONY DR", "CWP_CITY": "ROSEBURG", "CWP_STATE": "OR", "CWP_ZIP": "974704736", "CWP_COUNTY": "Douglas", "NPDES_ID": "OR0030392", "REGISTRY_ID": "110039771440", "CWP_FACILITY_TYPE_INDICATOR": "POTW", "CWP_MAJOR_MINOR_STATUS": "Minor", "CWP_PERMIT_STATUS_DESC": "Admin Continued", "STATE_WATER_BODY_NAME": "SOUTH UMPQUA RIVER", "CWP_CSO_FLAG": "N"}}, {"type": "Feature", "geometry": {"type": "Point", "coordinates": [-117.255690046728, 44.3562348759467]}, "properties": {"CWP_NAME": "HUNTINGTON STP", "CWP_STREET": "23 FT N OF LOTS 11 & 12 ON", "CWP_CITY": "HUNTINGTON", "CWP_STATE": "OR", "CWP_ZIP": "97907", "CWP_COUNTY": "Baker", "NPDES_ID": "OR0020052", "REGISTRY_ID": "110006696450", "CWP_FACILITY_TYPE_INDICATOR": "POTW", "CWP_MAJOR_MINOR_STATUS": "Minor", "CWP_PERMIT_STATUS_DESC": "Effective", "STATE_WATER_BODY_NAME": "BURNT RIVER", "CWP_CSO_FLAG": "N"}}, {"type": "Feature", "geometry": {"type": "Point", "coordinates": [-122.998814663767, 44.4090056420737]}, "properties": {"CWP_NAME": "BROWNSVILLE STP", "CWP_STREET": "1.4 MI NW OF CITY LIMITS", "CWP_CITY": "BROWNSVILLE", "CWP_STATE": "OR", "CWP_ZIP": "97327", "CWP_COUNTY": "Linn", "NPDES_ID": "OR0020079", "REGISTRY_ID": "110014099536", "CWP_FACILITY_TYPE_INDICATOR": "POTW", "CWP_MAJOR_MINOR_STATUS": "Minor", "CWP_PERMIT_STATUS_DESC": "Admin Continued", "STATE_WATER_BODY_NAME": "CALAPOOIA RIVER", "CWP_CSO_FLAG": "N"}}, {"type": "Feature", "geometry": {"type": "Point", "coordinates": [-119.511632622654, 44.463605626749]}, "properties": {"CWP_NAME": "CITY OF DAYVILLE", "CWP_STREET": "45473 HWY 26", "CWP_CITY": "DAYVILLE", "CWP_STATE": "OR", "CWP_ZIP": "97825", "CWP_COUNTY": "Grant", "NPDES_ID": "OR0041505", "REGISTRY_ID": "110039770959", "CWP_FACILITY_TYPE_INDICATOR": "POTW", "CWP_MAJOR_MINOR_STATUS": "Minor", "CWP_PERMIT_STATUS_DESC": "Effective", "STATE_WATER_BODY_NAME": null, "CWP_CSO_FLAG": "N"}}, {"type": "Feature", "geometry": {"type": "Point", "coordinates": [-123.945772379723, 45.5882623302177]}, "properties": {"CWP_NAME": "TWIN ROCKS WWTP", "CWP_STREET": "14945 HWY 101", "CWP_CITY": "TWIN ROCKS", "CWP_STATE": "OR", "CWP_ZIP": "97136", "CWP_COUNTY": "Tillamook", "NPDES_ID": "OR0023493", "REGISTRY_ID": "110039738790", "CWP_FACILITY_TYPE_INDICATOR": "POTW", "CWP_MAJOR_MINOR_STATUS": "Minor", "CWP_PERMIT_STATUS_DESC": "Effective", "STATE_WATER_BODY_NAME": "WATSECO CREEK (RM 0.2)", "CWP_CSO_FLAG": "N"}}, {"type": "Feature", "geometry": {"type": "Point", "coordinates": [-117.907443476388, 45.5798120138628]}, "properties": {"CWP_NAME": "ELGIN STP", "CWP_STREET": "ONE MILE NORTHEAST OF ELGIN", "CWP_CITY": "ELGIN", "CWP_STATE": "OR", "CWP_ZIP": "97827", "CWP_COUNTY": "Union", "NPDES_ID": "OR0022438", "REGISTRY_ID": "110009817190", "CWP_FACILITY_TYPE_INDICATOR": "POTW", "CWP_MAJOR_MINOR_STATUS": "Minor", "CWP_PERMIT_STATUS_DESC": "Admin Continued", "STATE_WATER_BODY_NAME": "GRANDE RONDE RIVER", "CWP_CSO_FLAG": "N"}}, {"type": "Feature", "geometry": {"type": "Point", "coordinates": [-122.609850771276, 45.1533368113971]}, "properties": {"CWP_NAME": "MOLALLA STP", "CWP_STREET": "12424 TOLIVER RD", "CWP_CITY": "MOLALLA", "CWP_STATE": "OR", "CWP_ZIP": "97038", "CWP_COUNTY": "Clackamas", "NPDES_ID": "OR0022381", "REGISTRY_ID": "110006696432", "CWP_FACILITY_TYPE_INDICATOR": "POTW", "CWP_MAJOR_MINOR_STATUS": "Minor", "CWP_PERMIT_STATUS_DESC": "Admin Continued", "STATE_WATER_BODY_NAME": "BEAR CREEK", "CWP_CSO_FLAG": "N"}}]}