{"type": "FeatureCollection", "features": [{"type": "Feature", "geometry": {"type": "Point", "coordinates": [-112.109122970778, 41.0843934903403]}, "properties": {"CWP_NAME": "NORTH DAVIS SEWER DIST", "CWP_STREET": "4252 W 2200 S", "CWP_CITY": "SYRACUSE", "CWP_STATE": "UT", "CWP_ZIP": "84041", "CWP_COUNTY": "Davis", "NPDES_ID": "UT0021741", "REGISTRY_ID": "110010919426", "CWP_FACILITY_TYPE_INDICATOR": "POTW", "CWP_MAJOR_MINOR_STATUS": "Major", "CWP_PERMIT_STATUS_DESC": "Effective", "STATE_WATER_BODY_NAME": "DITCH TO FARMINGTON BAY", "CWP_CSO_FLAG": "N"}}, {"type": "Feature", "geometry": {"type": "Point", "coordinates": [-113.579681599439, 37.1115757374812]}, "properties": {"CWP_NAME": "ST GEORGE CITY CORPORATION", "CWP_STREET": "3780 SOUTH 1550 WEST", "CWP_CITY": "SAINT GEORGE", "CWP_STATE": "UT", "CWP_ZIP": "84770", "CWP_COUNTY": "Washington", "NPDES_ID": "UT0024686", "REGISTRY_ID": "110000736071", "CWP_FACILITY_TYPE_INDICATOR": "POTW", "CWP_MAJOR_MINOR_STATUS": "Major", "CWP_PERMIT_STATUS_DESC": "Effective", "STATE_WATER_BODY_NAME": "VIRGIN RIVER", "CWP_CSO_FLAG": "N"}}, {"type": "Feature", "geometry": {"type": "Point", "coordinates": [-110.025744904303, 40.4082931528015]}, "properties": {"CWP_NAME": "NEOLA TOWN WATER & SEWER ASSOC", "CWP_STREET": "BOX 246", "CWP_CITY": "NEOLA", "CWP_STATE": "UT", "CWP_ZIP": "84053", "CWP_COUNTY": "Duchesne", "NPDES_ID": "UT0023001", "REGISTRY_ID": "110009769072", "CWP_FACILITY_TYPE_INDICATOR": "POTW", "CWP_MAJOR_MINOR_STATUS": "Minor", "CWP_PERMIT_STATUS_DESC": "Effective", "STATE_WATER_BODY_NAME": "CLASS E DITCH & WATER OF CRESCENT", "CWP_CSO_FLAG": "N"}}, {"type": "Feature", "geometry": {"type": "Point", "coordinates": [-112.44277055393, 40.6182819908913]}, "properties": {"CWP_NAME": "GRANTSVILLE CITY", "CWP_STREET": "630 NORTH RACE STREET", "CWP_CITY": "GRANTSVILLE", "CWP_STATE": "UT", "CWP_ZIP": "84029", "CWP_COUNTY": "Tooele", "NPDES_ID": "UT0021130", "REGISTRY_ID": "110010134201", "CWP_FACILITY_TYPE_INDICATOR": "POTW", "CWP_MAJOR_MINOR_STATUS": "Minor", "CWP_PERMIT_STATUS_DESC": "Effective", "STATE_WATER_BODY_NAME": "BLUE LAKES TO GREAT SALT LAKE", "CWP_CSO_FLAG": "N"}}, {"type": "Feature", "geometry": {"type": "Point", "coordinates": [-109.813794415519, 40.2299386998752]}, "properties": {"CWP_NAME": "RANDLETT SEWAGE LAGOONS", "CWP_STREET": "S7 T3S R2E", "CWP_CITY": "FORT DUCHESNE", "CWP_STATE": "UT", "CWP_ZIP": "84026", "CWP_COUNTY": "Uintah", "NPDES_ID": "UTG589406", "REGISTRY_ID": "110021020919", "CWP_FACILITY_TYPE_INDICATOR": "POTW", "CWP_MAJOR_MINOR_STATUS": "Minor", "CWP_PERMIT_STATUS_DESC": "Admin Continued", "STATE_WATER_BODY_NAME": "UINTAH AND DUCHESNE RIVERS", "CWP_CSO_FLAG": "N"}}, {"type": "Feature", "geometry": {"type": "Point", "coordinates": [-112.081761568351, 37.6235653361389]}, "properties": {"CWP_NAME": "TROPIC WASTEWATER LAGOON", "CWP_STREET": "20 SOUTH MAIN", "CWP_CITY": "TROPIC", "CWP_STATE": "UT", "CWP_ZIP": "84776", "CWP_COUNTY": "Garfield", "NPDES_ID": "UTOP00139", "REGISTRY_ID": "110069609132", "CWP_FACILITY_TYPE_INDICATOR": "POTW", "CWP_MAJOR_MINOR_STATUS": "Minor", "CWP_PERMIT_STATUS_DESC": "Terminated", "STATE_WATER_BODY_NAME": "TROPIC WASTEWATER LAGOON", "CWP_CSO_FLAG": "N"}}, {"type": "Feature", "geometry": {"type": "Point", "coordinates": [-109.859045616087, 40.2582988206223]}, "properties": {"CWP_NAME": "SUNSHINE SUBDIVISION WWTF", "CWP_STREET": "2600 SOUTH ROAD 2762", "CWP_CITY": "SUNSHINE (SUBDIVISION)", "CWP_STATE": "UT", "CWP_ZIP": "84026", "CWP_COUNTY": "Davis", "NPDES_ID": "UTG589403", "REGISTRY_ID": "110020847020", "CWP_FACILITY_TYPE_INDICATOR": "POTW", "CWP_MAJOR_MINOR_STATUS": "Minor", "CWP_PERMIT_STATUS_DESC": "Admin Continued", "STATE_WATER_BODY_NAME": "UINTAH RIVER", "CWP_CSO_FLAG": "N"}}, {"type": "Feature", "geometry": {"type": "Point", "coordinates": [-109.850712496781, 40.2624662801096]}, "properties": {"CWP_NAME": "FORT DUCHESNE WASTEWATER TREATMENT FACILITY", "CWP_STREET": "S35 T2S R1E", "CWP_CITY": "FORT DUCHESNE", "CWP_STATE": "UT", "CWP_ZIP": "84026", "CWP_COUNTY": "Uintah", "NPDES_ID": "UTG589401", "REGISTRY_ID": "110020847002", "CWP_FACILITY_TYPE_INDICATOR": "POTW", "CWP_MAJOR_MINOR_STATUS": "Minor", "CWP_PERMIT_STATUS_DESC": "Admin Continued", "STATE_WATER_BODY_NAME": "UINTAH RIVER", "CWP_CSO_FLAG": "N"}}, {"type": "Feature", "geometry": {"type": "Point", "coordinates": [-111.506881040738, 41.0302300631311]}, "properties": {"CWP_NAME": "HENEFER", "CWP_STREET": "P O BOX 112", "CWP_CITY": "HENEFER", "CWP_STATE": "UT", "CWP_ZIP": "84033", "CWP_COUNTY": "Summit", "NPDES_ID": "UT0020192", "REGISTRY_ID": "110009769241", "CWP_FACILITY_TYPE_INDICATOR": "POTW", "CWP_MAJOR_MINOR_STATUS": "Minor", "CWP_PERMIT_STATUS_DESC": "Effective", "STATE_WATER_BODY_NAME": "WEBER RIVER", "CWP_CSO_FLAG": "N"}}, {"type": "Feature", "geometry": {"type": "Point", "coordinates": [-111.285786216395, 40.6516163555499]}, "properties": {"CWP_NAME": "KAMAS - CITY OF", "CWP_STREET": "BOX 7, 178 NORTH MAIN", "CWP_CITY": "KAMAS", "CWP_STATE": "UT", "CWP_ZIP": "840360007", "CWP_COUNTY": "Summit", "NPDES_ID": "UT0020966", "REGISTRY_ID": "110020117924", "CWP_FACILITY_TYPE_INDICATOR": "POTW", "CWP_MAJOR_MINOR_STATUS": "Minor", "CWP_PERMIT_STATUS_DESC": "Expired", "STATE_WATER_BODY_NAME": "DITCH TO BEAVER CREEK", "CWP_CSO_FLAG": "N"}}, {"type": "Feature", "geometry": {"type": "Point", "coordinates": [-111.778353953988, 40.34342221464]}, "properties": {"CWP_NAME": "TIMPANOGOS SPECIAL SERV. DIST.", "CWP_STREET": "5050 W. 6400 NORTH", "CWP_CITY": "AMERICAN FORK", "CWP_STATE": "UT", "CWP_ZIP": "84003", "CWP_COUNTY": "Utah", "NPDES_ID": "UT0023639", "REGISTRY_ID": "110064604076", "CWP_FACILITY_TYPE_INDICATOR": "POTW", "CWP_MAJOR_MINOR_STATUS": "Major", "CWP_PERMIT_STATUS_DESC": "Effective", "STATE_WATER_BODY_NAME": "UTAH LAKE", "CWP_CSO_FLAG": "N"}}, {"type": "Feature", "geometry": {"type": "Point", "coordinates": [-111.48516130942, 39.4893260983]}, "properties": {"CWP_NAME": "SPRING CITY CORPORATION", "CWP_STREET": "800 NORTH 800 WEST", "CWP_CITY": "SPRING CITY", "CWP_STATE": "UT", "CWP_ZIP": "84662", "CWP_COUNTY": "Sanpete", "NPDES_ID": "UT0025216", "REGISTRY_ID": "110006686247", "CWP_FACILITY_TYPE_INDICATOR": "POTW", "CWP_MAJOR_MINOR_STATUS": "Minor", "CWP_PERMIT_STATUS_DESC": "Terminated", "STATE_WATER_BODY_NAME": "UNNAMED STREAM TO OAK CREEK", "CWP_CSO_FLAG": "N"}}, {"type": "Feature", "geometry": {"type": "Point", "coordinates": [-112.900289611475, 37.8952837780279]}, "properties": {"CWP_NAME": "PAROWAN CITY", "CWP_STREET": "2800 WEST 2200 NORTH", "CWP_CITY": "PAROWAN", "CWP_STATE": "UT", "CWP_ZIP": "84761", "CWP_COUNTY": "Iron", "NPDES_ID": "UT0026158", "REGISTRY_ID": "110070826080", "CWP_FACILITY_TYPE_INDICATOR": "POTW", "CWP_MAJOR_MINOR_STATUS": "Minor", "CWP_PERMIT_STATUS_DESC": "Effective", "STATE_WATER_BODY_NAME": null, "CWP_CSO_FLAG": "N"}}, {"type": "Feature", "geometry": {"type": "Point", "coordinates": [-113.719111665574, 37.5735817991163]}, "properties": {"CWP_NAME": "ENTERPRISE CITY WWTF", "CWP_STREET": "P.O. BOX 340", "CWP_CITY": "ENTERPRISE", "CWP_STATE": "UT", "CWP_ZIP": "84725", "CWP_COUNTY": "Washington", "NPDES_ID": "UT0025330", "REGISTRY_ID": "110009769027", "CWP_FACILITY_TYPE_INDICATOR": "POTW", "CWP_MAJOR_MINOR_STATUS": "Minor", "CWP_PERMIT_STATUS_DESC": "Terminated", "STATE_WATER_BODY_NAME": "SHOAL CREEK", "CWP_CSO_FLAG": "N"}}, {"type": "Feature", "geometry": {"type": "Point", "coordinates": [-112.043262032857, 41.271436313853]}, "properties": {"CWP_NAME": "CENTRAL WEBER SEWER DISTRICT", "CWP_STREET": "2618 WEST PIONEER ROAD", "CWP_CITY": "OGDEN", "CWP_STATE": "UT", "CWP_ZIP": "84404", "CWP_COUNTY": "Weber", "NPDES_ID": "UT0021911", "REGISTRY_ID": "110000536135", "CWP_FACILITY_TYPE_INDICATOR": "POTW", "CWP_MAJOR_MINOR_STATUS": "Major", "CWP_PERMIT_STATUS_DESC": "Effective", "STATE_WATER_BODY_NAME": "WARREN CANAL & WEBER RIVER", "CWP_CSO_FLAG": "N"}}, {"type": "Feature", "geometry": {"type": "Point", "coordinates": [-111.674230388804, 40.0533260783996]}, "properties": {"CWP_NAME": "SALEM CITY WATER RECLAMATION FACILITY", "CWP_STREET": "30 WEST 100 SOUTH", "CWP_CITY": "SALEM", "CWP_STATE": "UT", "CWP_ZIP": "84653", "CWP_COUNTY": "Utah", "NPDES_ID": "UT0026085", "REGISTRY_ID": "110058287116", "CWP_FACILITY_TYPE_INDICATOR": "POTW", "CWP_MAJOR_MINOR_STATUS": "Minor", "CWP_PERMIT_STATUS_DESC": "Effective", "STATE_WATER_BODY_NAME": null, "CWP_CSO_FLAG": "N"}}, {"type": "Feature", "geometry": {"type": "Point", "coordinates": [-112.284987174858, 40.6744221881488]}, "properties": {"CWP_NAME": "LAKEPOINT IMPROV DIST", "CWP_STREET": "1651 CANYON ROAD", "CWP_CITY": "LAKE POINT", "CWP_STATE": "UT", "CWP_ZIP": "84074", "CWP_COUNTY": "Tooele", "NPDES_ID": "UT0020231", "REGISTRY_ID": "110006686309", "CWP_FACILITY_TYPE_INDICATOR": "POTW", "CWP_MAJOR_MINOR_STATUS": "Minor", "CWP_PERMIT_STATUS_DESC": "Effective", "STATE_WATER_BODY_NAME": "DITCH TO GREAT SALT LAKE", "CWP_CSO_FLAG": "N"}}, {"type": "Feature", "geometry": {"type": "Point", "coordinates": [-109.900685138356, 40.2850761346365]}, "properties": {"CWP_NAME": "HILLTOP SEWAGE LAGOONS", "CWP_STREET": "NE1/4 S29 T2S R1E", "CWP_CITY": "HILLTOP (SUBDIVISION)", "CWP_STATE": "UT", "CWP_ZIP": "84026", "CWP_COUNTY": "Davis", "NPDES_ID": "UTG589404", "REGISTRY_ID": "110020847039", "CWP_FACILITY_TYPE_INDICATOR": "POTW", "CWP_MAJOR_MINOR_STATUS": "Minor", "CWP_PERMIT_STATUS_DESC": "Admin Continued", "STATE_WATER_BODY_NAME": "BOTTLE HOLLOW RESERVOIR", "CWP_CSO_FLAG": "N"}}, {"type": "Feature", "geometry": {"type": "Point", "coordinates": [-112.026678558334, 41.4647285229214]}, "properties": {"CWP_NAME": "PERRY CITY", "CWP_STREET": "3005 SOUTH 1200 WEST", "CWP_CITY": "PERRY", "CWP_STATE": "UT", "CWP_ZIP": "84302", "CWP_COUNTY": "Box Elder", "NPDES_ID": "UT0021148", "REGISTRY_ID": "110009769296", "CWP_FACILITY_TYPE_INDICATOR": "POTW", "CWP_MAJOR_MINOR_STATUS": "Minor", "CWP_PERMIT_STATUS_DESC": "Terminated", "STATE_WATER_BODY_NAME": "BEAR RIVER NATIONAL WILDLIFE REFUGE", "CWP_CSO_FLAG": "N"}}, {"type": "Feature", "geometry": {"type": "Point", "coordinates": [-109.46081643328, 37.6313122719491]}, "properties": {"CWP_NAME": "WHITE MESA WASTEWATER LAGOON", "CWP_STREET": "BEAVER LANE", "CWP_CITY": "WHITE MESA", "CWP_STATE": "UT", "CWP_ZIP": "84511", "CWP_COUNTY": "San Juan", "NPDES_ID": "COG587102", "REGISTRY_ID": "110067611230", "CWP_FACILITY_TYPE_INDICATOR": "POTW", "CWP_MAJOR_MINOR_STATUS": "Minor", "CWP_PERMIT_STATUS_DESC": "Admin Continued", "STATE_WATER_BODY_NAME": null, "CWP_CSO_FLAG": "N"}}, {"type": "Feature", "geometry": {"type": "Point", "coordinates": [-111.942475830692, 40.8424434708035]}, "properties": {"CWP_NAME": "SOUTH DAVIS SEWER DISTRICT-SOUTH PLANT", "CWP_STREET": "1380 W CENTER STREET", "CWP_CITY": "NORTH SALT LAKE", "CWP_STATE": "UT", "CWP_ZIP": "84054", "CWP_COUNTY": "Davis", "NPDES_ID": "UT0021628", "REGISTRY_ID": "110000537492", "CWP_FACILITY_TYPE_INDICATOR": "POTW", "CWP_MAJOR_MINOR_STATUS": "Major", "CWP_PERMIT_STATUS_DESC": "Effective", "STATE_WATER_BODY_NAME": "JORDAN RIVER", "CWP_CSO_FLAG": "N"}}, {"type": "Feature", "geometry": {"type": "Point", "coordinates": [-111.791693554188, 39.9844514827174]}, "properties": {"CWP_NAME": "MONA WASTEWATER TREATMENT PLANT", "CWP_STREET": "560 N 300 WEST", "CWP_CITY": "MONA", "CWP_STATE": "UT", "CWP_ZIP": "84645", "CWP_COUNTY": "Juab", "NPDES_ID": "UT0025950", "REGISTRY_ID": "110045506662", "CWP_FACILITY_TYPE_INDICATOR": "POTW", "CWP_MAJOR_MINOR_STATUS": "Minor", "CWP_PERMIT_STATUS_DESC": "Effective", "STATE_WATER_BODY_NAME": "MONA RESERVOIR", "CWP_CSO_FLAG": "N"}}, {"type": "Feature", "geometry": {"type": "Point", "coordinates": [-111.772466816358, 38.9415696388812]}, "properties": {"CWP_NAME": "SALINA CITY SANITARY SEWER", "CWP_STREET": "LAGOONS", "CWP_CITY": "SALINA", "CWP_STATE": "UT", "CWP_ZIP": "84654", "CWP_COUNTY": "Sevier", "NPDES_ID": "UT0025291", "REGISTRY_ID": "110009769009", "CWP_FACILITY_TYPE_INDICATOR": "POTW", "CWP_MAJOR_MINOR_STATUS": "Minor", "CWP_PERMIT_STATUS_DESC": "Terminated", "STATE_WATER_BODY_NAME": "SEVIER RIVER", "CWP_CSO_FLAG": "N"}}, {"type": "Feature", "geometry": {"type": "Point", "coordinates": [-112.07400888556, 40.7278689197726]}, "properties": {"CWP_NAME": "MAGNA WATER & SEWER DISTRICT", "CWP_STREET": "7650 WEST 2100 SOUTH", "CWP_CITY": "MAGNA", "CWP_STATE": "UT", "CWP_ZIP": "84044", "CWP_COUNTY": "Salt Lake", "NPDES_ID": "UT0021440", "REGISTRY_ID": "110028187423", "CWP_FACILITY_TYPE_INDICATOR": "POTW", "CWP_MAJOR_MINOR_STATUS": "Major", "CWP_PERMIT_STATUS_DESC": "Effective", "STATE_WATER_BODY_NAME": "KERSEY CREEK, KERSEY CREEK TO C DITCH AND THENCE GSL", "CWP_CSO_FLAG": "N"}}, {"type": "Feature", "geometry": {"type": "Point", "coordinates": [-111.30047755208, 40.7094005004199]}, "properties": {"CWP_NAME": "OAKLEY - TOWN OF", "CWP_STREET": "P O BOX 129", "CWP_CITY": "OAKLEY", "CWP_STATE": "UT", "CWP_ZIP": "84055", "CWP_COUNTY": "Summit", "NPDES_ID": "UT0020061", "REGISTRY_ID": "110009769232", "CWP_FACILITY_TYPE_INDICATOR": "POTW", "CWP_MAJOR_MINOR_STATUS": "Minor", "CWP_PERMIT_STATUS_DESC": "Expired", "STATE_WATER_BODY_NAME": "DITCH TO WEBER RIVER", "CWP_CSO_FLAG": "N"}}, {"type": "Feature", "geometry": {"type": "Point", "coordinates": [-110.401481702231, 40.1616036619826]}, "properties": {"CWP_NAME": "DUCHESNE CITY WWTP", "CWP_STREET": "165 S CENTER", "CWP_CITY": "DUCHESNE", "CWP_STATE": "UT", "CWP_ZIP": "84021", "CWP_COUNTY": "Duchesne", "NPDES_ID": "UT0020095", "REGISTRY_ID": "110006686292", "CWP_FACILITY_TYPE_INDICATOR": "POTW", "CWP_MAJOR_MINOR_STATUS": "Minor", "CWP_PERMIT_STATUS_DESC": "Effective", "STATE_WATER_BODY_NAME": "DUCHESNE RIVER", "CWP_CSO_FLAG": "N"}}, {"type": "Feature", "geometry": {"type": "Point", "coordinates": [-111.652581925071, 40.2159460076657]}, "properties": {"CWP_NAME": "PROVO CITY CORPORATION", "CWP_STREET": "1685 S EAST BAY BLVD", "CWP_CITY": "PROVO", "CWP_STATE": "UT", "CWP_ZIP": "84603", "CWP_COUNTY": "Utah", "NPDES_ID": "UT0021717", "REGISTRY_ID": "110010919408", "CWP_FACILITY_TYPE_INDICATOR": "POTW", "CWP_MAJOR_MINOR_STATUS": "Major", "CWP_PERMIT_STATUS_DESC": "Effective", "STATE_WATER_BODY_NAME": "MILLRACE CREEK", "CWP_CSO_FLAG": "N"}}, {"type": "Feature", "geometry": {"type": "Point", "coordinates": [-112.148025699495, 39.9413415492755]}, "properties": {"CWP_NAME": "EUREKA CITY CORPORATION", "CWP_STREET": "P.O. BOX 156", "CWP_CITY": "EUREKA", "CWP_STATE": "UT", "CWP_ZIP": "84628", "CWP_COUNTY": "Juab", "NPDES_ID": "UT0024601", "REGISTRY_ID": "110017907210", "CWP_FACILITY_TYPE_INDICATOR": "POTW", "CWP_MAJOR_MINOR_STATUS": "Minor", "CWP_PERMIT_STATUS_DESC": "Effective", "STATE_WATER_BODY_NAME": "EUREKA CREEK", "CWP_CSO_FLAG": "N"}}, {"type": "Feature", "geometry": {"type": "Point", "coordinates": [-111.919455834104, 40.5038954491553]}, "properties": {"CWP_NAME": "JORDAN BASIN WATER RECLAMATION FACILITY", "CWP_STREET": "13826 S JORDAN BASIN LANE", "CWP_CITY": "RIVERTON", "CWP_STATE": "UT", "CWP_ZIP": "84065", "CWP_COUNTY": "Salt Lake", "NPDES_ID": "UT0025852", "REGISTRY_ID": "110040439086", "CWP_FACILITY_TYPE_INDICATOR": "POTW", "CWP_MAJOR_MINOR_STATUS": "Major", "CWP_PERMIT_STATUS_DESC": "Effective", "STATE_WATER_BODY_NAME": "JORDAN RIVER", "CWP_CSO_FLAG": "N"}}, {"type": "Feature", "geometry": {"type": "Point", "coordinates": [-111.667461214865, 40.2430758577963]}, "properties": {"CWP_NAME": "SPRINGVILLE CITY WWT PLANT", "CWP_STREET": "700 NORTH 500 WEST", "CWP_CITY": "SPRINGVILLE", "CWP_STATE": "UT", "CWP_ZIP": "84663", "CWP_COUNTY": "Utah", "NPDES_ID": "UT0020834", "REGISTRY_ID": "110010919373", "CWP_FACILITY_TYPE_INDICATOR": "POTW", "CWP_MAJOR_MINOR_STATUS": "Major", "CWP_PERMIT_STATUS_DESC": "Effective", "STATE_WATER_BODY_NAME": "SPRING CREEK", "CWP_CSO_FLAG": "N"}}, {"type": "Feature", "geometry": {"type": "Point", "coordinates": [-111.899741815305, 40.6817364052402]}, "properties": {"CWP_NAME": "CENTRAL VALLEY WATER RECLAM", "CWP_STREET": "800 WEST CENTRAL VALLEY ROAD", "CWP_CITY": "SOUTH SALT LAKE", "CWP_STATE": "UT", "CWP_ZIP": "841193379", "CWP_COUNTY": "Salt Lake", "NPDES_ID": "UT0024392", "REGISTRY_ID": "110000534681", "CWP_FACILITY_TYPE_INDICATOR": "POTW", "CWP_MAJOR_MINOR_STATUS": "Major", "CWP_PERMIT_STATUS_DESC": "Expired", "STATE_WATER_BODY_NAME": "MILL CREEK TO JORDAN RIVER", "CWP_CSO_FLAG": "N"}}, {"type": "Feature", "geometry": {"type": "Point", "coordinates": [-112.328624077165, 40.5943870103962]}, "properties": {"CWP_NAME": "TOOELE CITY", "CWP_STREET": "3300 NORTH 1200 WEST", "CWP_CITY": "TOOELE", "CWP_STATE": "UT", "CWP_ZIP": "84074", "CWP_COUNTY": "Tooele", "NPDES_ID": "UT0025445", "REGISTRY_ID": "110010919275", "CWP_FACILITY_TYPE_INDICATOR": "POTW", "CWP_MAJOR_MINOR_STATUS": "Minor", "CWP_PERMIT_STATUS_DESC": "Effective", "STATE_WATER_BODY_NAME": "UNAMED DITCH", "CWP_CSO_FLAG": "N"}}, {"type": "Feature", "geometry": {"type": "Point", "coordinates": [-111.834852266605, 41.7364263485528]}, "properties": {"CWP_NAME": "LOGAN CITY CORPORATION", "CWP_STREET": "2655 W 200 NORTH", "CWP_CITY": "LOGAN", "CWP_STATE": "UT", "CWP_ZIP": "84321", "CWP_COUNTY": "Cache", "NPDES_ID": "UT0021920", "REGISTRY_ID": "110001882464", "CWP_FACILITY_TYPE_INDICATOR": "POTW", "CWP_MAJOR_MINOR_STATUS": "Major", "CWP_PERMIT_STATUS_DESC": "Effective", "STATE_WATER_BODY_NAME": "IRRIGATION DITCH TO CUTLER RES.", "CWP_CSO_FLAG": "N"}}, {"type": "Feature", "geometry": {"type": "Point", "coordinates": [-109.461532276576, 37.465008717949]}, "properties": {"CWP_NAME": "WHITE MESA WASTEWATER LAGOON", "CWP_STREET": "HIGHWAY 191", "CWP_CITY": "WHITE MESA", "CWP_STATE": "UT", "CWP_ZIP": "84511", "CWP_COUNTY": "San Juan", "NPDES_ID": "COG587002", "REGISTRY_ID": "110016691490", "CWP_FACILITY_TYPE_INDICATOR": "POTW", "CWP_MAJOR_MINOR_STATUS": "Minor", "CWP_PERMIT_STATUS_DESC": "Terminated", "STATE_WATER_BODY_NAME": null, "CWP_CSO_FLAG": "N"}}, {"type": "Feature", "geometry": {"type": "Point", "coordinates": [-111.650573728362, 40.1372391319765]}, "properties": {"CWP_NAME": "SPANISH FORK CITY CORPORATION", "CWP_STREET": "2160 N 150 EAST", "CWP_CITY": "SPANISH FORK", "CWP_STATE": "UT", "CWP_ZIP": "84660", "CWP_COUNTY": "Utah", "NPDES_ID": "UT0020109", "REGISTRY_ID": "110001148311", "CWP_FACILITY_TYPE_INDICATOR": "POTW", "CWP_MAJOR_MINOR_STATUS": "Major", "CWP_PERMIT_STATUS_DESC": "Effective", "STATE_WATER_BODY_NAME": "DRY CREEK", "CWP_CSO_FLAG": "N"}}, {"type": "Feature", "geometry": {"type": "Point", "coordinates": [-111.930911442169, 40.8131057846615]}, "properties": {"CWP_NAME": "SLC WATER RECLAMATION FACILITY", "CWP_STREET": "1365 WEST 2300 NORTH", "CWP_CITY": "SALT LAKE CITY", "CWP_STATE": "UT", "CWP_ZIP": "84116", "CWP_COUNTY": "Salt Lake", "NPDES_ID": "UT0021725", "REGISTRY_ID": "110010919417", "CWP_FACILITY_TYPE_INDICATOR": "POTW", "CWP_MAJOR_MINOR_STATUS": "Major", "CWP_PERMIT_STATUS_DESC": "Effective", "STATE_WATER_BODY_NAME": "OIL DRAIN CANAL, OIL DRAIN CANAL THEN TO GREAT SALT LAKE", "CWP_CSO_FLAG": "N"}}, {"type": "Feature", "geometry": {"type": "Point", "coordinates": [-112.111042190146, 41.5499662688573]}, "properties": {"CWP_NAME": "CORINNE - CITY OF", "CWP_STREET": "1/2 MILE SOUTH OF CORINNE", "CWP_CITY": "CORINNE", "CWP_STATE": "UT", "CWP_ZIP": "84307", "CWP_COUNTY": "Box Elder", "NPDES_ID": "UT0020931", "REGISTRY_ID": "110010690528", "CWP_FACILITY_TYPE_INDICATOR": "POTW", "CWP_MAJOR_MINOR_STATUS": "Minor", "CWP_PERMIT_STATUS_DESC": "Effective", "STATE_WATER_BODY_NAME": "BEAR RIVER", "CWP_CSO_FLAG": "N"}}, {"type": "Feature", "geometry": {"type": "Point", "coordinates": [-112.079732250903, 41.2978763819714]}, "properties": {"CWP_NAME": "PLAIN CITY SEWER DEPARTMENT", "CWP_STREET": "4160 WEST 2200 NORTH", "CWP_CITY": "PLAIN CITY", "CWP_STATE": "UT", "CWP_ZIP": "84404", "CWP_COUNTY": "Weber", "NPDES_ID": "UT0021326", "REGISTRY_ID": "110009769045", "CWP_FACILITY_TYPE_INDICATOR": "POTW", "CWP_MAJOR_MINOR_STATUS": "Minor", "CWP_PERMIT_STATUS_DESC": "Effective", "STATE_WATER_BODY_NAME": "DRAIN TO GREAT SALT LAKE", "CWP_CSO_FLAG": "N"}}, {"type": "Feature", "geometry": {"type": "Point", "coordinates": [-111.744245351151, 40.2769865921909]}, "properties": {"CWP_NAME": "OREM CITY CORPORATION", "CWP_STREET": "1797 WEST 1000 SOUTH", "CWP_CITY": "OREM", "CWP_STATE": "UT", "CWP_ZIP": "84058", "CWP_COUNTY": "Utah", "NPDES_ID": "UT0020915", "REGISTRY_ID": "110002298022", "CWP_FACILITY_TYPE_INDICATOR": "POTW", "CWP_MAJOR_MINOR_STATUS": "Major", "CWP_PERMIT_STATUS_DESC": "Effective", "STATE_WATER_BODY_NAME": "POWELL SLOUGH", "CWP_CSO_FLAG": "N"}}, {"type": "Feature", "geometry": {"type": "Point", "coordinates": [-111.678161456805, 41.0358157394702]}, "properties": {"CWP_NAME": "MORGAN CITY CORPORATION", "CWP_STREET": "48 WEST YOUNG STREET", "CWP_CITY": "MORGAN", "CWP_STATE": "UT", "CWP_ZIP": "84050", "CWP_COUNTY": "Morgan", "NPDES_ID": "UT0020893", "REGISTRY_ID": "110006686327", "CWP_FACILITY_TYPE_INDICATOR": "POTW", "CWP_MAJOR_MINOR_STATUS": "Minor", "CWP_PERMIT_STATUS_DESC": "Effective", "STATE_WATER_BODY_NAME": "WEBER RIVER", "CWP_CSO_FLAG": "N"}}, {"type": "Feature", "geometry": {"type": "Point", "coordinates": [-110.833531320468, 39.5962762345706]}, "properties": {"CWP_NAME": "PRICE RIVER WATER IMPROVE DIST", "CWP_STREET": "265 SOUTH FAIRGROUNDS RD", "CWP_CITY": "PRICE", "CWP_STATE": "UT", "CWP_ZIP": "84501", "CWP_COUNTY": "Carbon", "NPDES_ID": "UT0021814", "REGISTRY_ID": "110020107793", "CWP_FACILITY_TYPE_INDICATOR": "POTW", "CWP_MAJOR_MINOR_STATUS": "Major", "CWP_PERMIT_STATUS_DESC": "Effective", "STATE_WATER_BODY_NAME": "PRICE RIVER", "CWP_CSO_FLAG": "N"}}, {"type": "Feature", "geometry": {"type": "Point", "coordinates": [-111.402511978354, 40.8869500668501]}, "properties": {"CWP_NAME": "COALVILLE CITY CORPORATION WASTEWATER TREATMENT FACILITY", "CWP_STREET": "50 WEST 100 NORTH", "CWP_CITY": "COALVILLE", "CWP_STATE": "UT", "CWP_ZIP": "84017", "CWP_COUNTY": "Summit", "NPDES_ID": "UT0025976", "REGISTRY_ID": "110055634684", "CWP_FACILITY_TYPE_INDICATOR": "POTW", "CWP_MAJOR_MINOR_STATUS": "Minor", "CWP_PERMIT_STATUS_DESC": "Effective", "STATE_WATER_BODY_NAME": "CHALK CREEK, WEBER RIVER AND ECHO RESERVOIR", "CWP_CSO_FLAG": "N"}}, {"type": "Feature", "geometry": {"type": "Point", "coordinates": [-110.151290112838, 38.9799789045546]}, "properties": {"CWP_NAME": "GREEN RIVER WTF", "CWP_STREET": "P O BOX 620", "CWP_CITY": "GREEN RIVER", "CWP_STATE": "UT", "CWP_ZIP": "84525", "CWP_COUNTY": "Emery", "NPDES_ID": "UT0025232", "REGISTRY_ID": "110009768974", "CWP_FACILITY_TYPE_INDICATOR": "POTW", "CWP_MAJOR_MINOR_STATUS": "Minor", "CWP_PERMIT_STATUS_DESC": "Terminated", "STATE_WATER_BODY_NAME": "GREEN RIVER", "CWP_CSO_FLAG": "N"}}, {"type": "Feature", "geometry": {"type": "Point", "coordinates": [-112.150011646734, 41.7283387188211]}, "properties": {"CWP_NAME": "GARLAND CITY", "CWP_STREET": "PO BOX 129", "CWP_CITY": "GARLAND", "CWP_STATE": "UT", "CWP_ZIP": "84312", "CWP_COUNTY": "Box Elder", "NPDES_ID": "UT0026034", "REGISTRY_ID": "110070695413", "CWP_FACILITY_TYPE_INDICATOR": "POTW", "CWP_MAJOR_MINOR_STATUS": "Minor", "CWP_PERMIT_STATUS_DESC": "Effective", "STATE_WATER_BODY_NAME": null, "CWP_CSO_FLAG": "N"}}, {"type": "Feature", "geometry": {"type": "Point", "coordinates": [-111.424455398646, 40.5733393450221]}, "properties": {"CWP_NAME": "JORDANELLE SPECIAL SERVICE DISTRICT WRF", "CWP_STREET": "5400 NORTH OLD HWY 40", "CWP_CITY": "HEBER CITY", "CWP_STATE": "UT", "CWP_ZIP": "84032", "CWP_COUNTY": "Wasatch", "NPDES_ID": "UT0025747", "REGISTRY_ID": "110037944865", "CWP_FACILITY_TYPE_INDICATOR": "POTW", "CWP_MAJOR_MINOR_STATUS": "Minor", "CWP_PERMIT_STATUS_DESC": "Effective", "STATE_WATER_BODY_NAME": "PROVO RIVER, PROVO RIVER RETURN TO CANAL, TIMPANOGOS CANAL, WASATCH CANAL", "CWP_CSO_FLAG": "N"}}, {"type": "Feature", "geometry": {"type": "Point", "coordinates": [-109.179658897301, 40.020693460984]}, "properties": {"CWP_NAME": "BONANZA, TOWN OF WWTF", "CWP_STREET": "29950 SOUTH BONANZA HWY.", "CWP_CITY": "BONANZA", "CWP_STATE": "UT", "CWP_ZIP": "84008-9284", "CWP_COUNTY": "Uintah", "NPDES_ID": "UTG589407", "REGISTRY_ID": "110030922250", "CWP_FACILITY_TYPE_INDICATOR": "POTW", "CWP_MAJOR_MINOR_STATUS": "Minor", "CWP_PERMIT_STATUS_DESC": "Terminated", "STATE_WATER_BODY_NAME": null, "CWP_CSO_FLAG": "N"}}, {"type": "Feature", "geometry": {"type": "Point", "coordinates": [-110.151290112838, 38.9799789045546]}, "properties": {"CWP_NAME": "GREEN RIVER WASTEWATER TREATMENT FACILITY", "CWP_STREET": "ONE MILE SOUTH OF CITY OFFICES", "CWP_CITY": "GREEN RIVER", "CWP_STATE": "UT", "CWP_ZIP": "84525", "CWP_COUNTY": "Emery", "NPDES_ID": "UT0025771", "REGISTRY_ID": "110037120317", "CWP_FACILITY_TYPE_INDICATOR": "POTW", "CWP_MAJOR_MINOR_STATUS": "Minor", "CWP_PERMIT_STATUS_DESC": "Effective", "STATE_WATER_BODY_NAME": "GREEN RIVER", "CWP_CSO_FLAG": "N"}}, {"type": "Feature", "geometry": {"type": "Point", "coordinates": [-112.138789885537, 41.6010891331511]}, "properties": {"CWP_NAME": "BEAR RIVER - TOWN OF", "CWP_STREET": "NORTHWEST OF OGDEN", "CWP_CITY": "BEAR RIVER CITY", "CWP_STATE": "UT", "CWP_ZIP": "84301", "CWP_COUNTY": "Box Elder", "NPDES_ID": "UT0020311", "REGISTRY_ID": "110009769250", "CWP_FACILITY_TYPE_INDICATOR": "POTW", "CWP_MAJOR_MINOR_STATUS": "Minor", "CWP_PERMIT_STATUS_DESC": "Effective", "STATE_WATER_BODY_NAME": "BEAR RIVER, MALAD RIVER, MALAD RIVER THENCE BEAR RIVER", "CWP_CSO_FLAG": "N"}}, {"type": "Feature", "geometry": {"type": "Point", "coordinates": [-111.789456041974, 39.9961165904842]}, "properties": {"CWP_NAME": "SANTAQUIN WATER RECLAMATION FACILITY", "CWP_STREET": "1215 NORTH CENTER STREET", "CWP_CITY": "SANTAQUIN", "CWP_STATE": "UT", "CWP_ZIP": "84655", "CWP_COUNTY": "Utah", "NPDES_ID": "UT0026000", "REGISTRY_ID": "110056357543", "CWP_FACILITY_TYPE_INDICATOR": "POTW", "CWP_MAJOR_MINOR_STATUS": "Major", "CWP_PERMIT_STATUS_DESC": "Effective", "STATE_WATER_BODY_NAME": "CITIES WINTER STORAGE PONDS", "CWP_CSO_FLAG": "N"}}, {"type": "Feature", "geometry": {"type": "Point", "coordinates": [-109.496657219621, 38.5331030714144]}, "properties": {"CWP_NAME": "GRAND WATER & SEWER SERVICE AGENCY", "CWP_STREET": "3025 EAST SPANISH TRAIL ROAD", "CWP_CITY": "MOAB", "CWP_STATE": "UT", "CWP_ZIP": "84532", "CWP_COUNTY": "Grand", "NPDES_ID": "UTG580063", "REGISTRY_ID": "110017906355", "CWP_FACILITY_TYPE_INDICATOR": "POTW", "CWP_MAJOR_MINOR_STATUS": "Minor", "CWP_PERMIT_STATUS_DESC": "Terminated", "STATE_WATER_BODY_NAME": "COLORADO RIVER", "CWP_CSO_FLAG": "N"}}, {"type": "Feature", "geometry": {"type": "Point", "coordinates": [-111.168064741003, 39.098948361241]}, "properties": {"CWP_NAME": "FERRON - CITY OF", "CWP_STREET": "1555 WEST MILL ROAD", "CWP_CITY": "FERRON", "CWP_STATE": "UT", "CWP_ZIP": "84523", "CWP_COUNTY": "Emery", "NPDES_ID": "UT0020052", "REGISTRY_ID": "110039939895", "CWP_FACILITY_TYPE_INDICATOR": "POTW", "CWP_MAJOR_MINOR_STATUS": "Minor", "CWP_PERMIT_STATUS_DESC": "Effective", "STATE_WATER_BODY_NAME": "FERRON CREEK", "CWP_CSO_FLAG": "N"}}, {"type": "Feature", "geometry": {"type": "Point", "coordinates": [-111.448001329331, 39.6063512953496]}, "properties": {"CWP_NAME": "FAIRVIEW CITY", "CWP_STREET": "1 1/4 MILES SOUTH OF FAIRVIEW", "CWP_CITY": "FAIRVIEW", "CWP_STATE": "UT", "CWP_ZIP": "84629", "CWP_COUNTY": "Sanpete", "NPDES_ID": "UT0025542", "REGISTRY_ID": "110015794210", "CWP_FACILITY_TYPE_INDICATOR": "POTW", "CWP_MAJOR_MINOR_STATUS": "Minor", "CWP_PERMIT_STATUS_DESC": "Effective", "STATE_WATER_BODY_NAME": "SAN PITCH RIVER", "CWP_CSO_FLAG": "N"}}, {"type": "Feature", "geometry": {"type": "Point", "coordinates": [-113.089276771029, 37.8107789589899]}, "properties": {"CWP_NAME": "CEDAR CITY CORPORATION", "CWP_STREET": "7218 NORTH 2300 WEST", "CWP_CITY": "CEDAR CITY", "CWP_STATE": "UT", "CWP_ZIP": "84721", "CWP_COUNTY": "Iron", "NPDES_ID": "UT0024970", "REGISTRY_ID": "110000868062", "CWP_FACILITY_TYPE_INDICATOR": "POTW", "CWP_MAJOR_MINOR_STATUS": "Major", "CWP_PERMIT_STATUS_DESC": "Effective", "STATE_WATER_BODY_NAME": "BULLDOG IRRIGATION DITCH", "CWP_CSO_FLAG": "N"}}, {"type": "Feature", "geometry": {"type": "Point", "coordinates": [-111.731070252629, 40.0613426317372]}, "properties": {"CWP_NAME": "PAYSON CITY CORPORATION", "CWP_STREET": "1062 NORTH MAIN", "CWP_CITY": "PAYSON", "CWP_STATE": "UT", "CWP_ZIP": "84651", "CWP_COUNTY": "Utah", "NPDES_ID": "UT0020427", "REGISTRY_ID": "110061865272", "CWP_FACILITY_TYPE_INDICATOR": "POTW", "CWP_MAJOR_MINOR_STATUS": "Major", "CWP_PERMIT_STATUS_DESC": "Effective", "STATE_WATER_BODY_NAME": "BEER CREEK, BEER CREEK/UTAH LAKE", "CWP_CSO_FLAG": "N"}}, {"type": "Feature", "geometry": {"type": "Point", "coordinates": [-109.457950617929, 40.426075492562]}, "properties": {"CWP_NAME": "ASHLEY VALLEY WATER REC FACIL", "CWP_STREET": "4000 EAST 2200 SOUTH", "CWP_CITY": "VERNAL", "CWP_STATE": "UT", "CWP_ZIP": "84078", "CWP_COUNTY": "Uintah", "NPDES_ID": "UT0025348", "REGISTRY_ID": "110022280949", "CWP_FACILITY_TYPE_INDICATOR": "POTW", "CWP_MAJOR_MINOR_STATUS": "Major", "CWP_PERMIT_STATUS_DESC": "Expired", "STATE_WATER_BODY_NAME": "TO DITCH THEN TO ASHLEY CREEK", "CWP_CSO_FLAG": "N"}}, {"type": "Feature", "geometry": {"type": "Point", "coordinates": [-110.921592918875, 39.3127478320384]}, "properties": {"CWP_NAME": "CASTLE VALLEY SSD - HUNTINGTON", "CWP_STREET": "P O BOX 877", "CWP_CITY": "CASTLE DALE", "CWP_STATE": "UT", "CWP_ZIP": "84513", "CWP_COUNTY": "Emery", "NPDES_ID": "UT0021296", "REGISTRY_ID": "110009769036", "CWP_FACILITY_TYPE_INDICATOR": "POTW", "CWP_MAJOR_MINOR_STATUS": "Minor", "CWP_PERMIT_STATUS_DESC": "Effective", "STATE_WATER_BODY_NAME": "HUNTINGTON CREEK", "CWP_CSO_FLAG": "N"}}, {"type": "Feature", "geometry": {"type": "Point", "coordinates": [-109.461532276576, 37.465008717949]}, "properties": {"CWP_NAME": "WHITE MESA WASTEWATER LAGOONS", "CWP_STREET": "HIGHWAY 191", "CWP_CITY": "WHITE MESA", "CWP_STATE": "UT", "CWP_ZIP": "00000", "CWP_COUNTY": "San Juan", "NPDES_ID": "UT0025496", "REGISTRY_ID": "110016691490", "CWP_FACILITY_TYPE_INDICATOR": "POTW", "CWP_MAJOR_MINOR_STATUS": "Minor", "CWP_PERMIT_STATUS_DESC": "Terminated", "STATE_WATER_BODY_NAME": null, "CWP_CSO_FLAG": "N"}}, {"type": "Feature", "geometry": {"type": "Point", "coordinates": [-111.398781593795, 40.9167464085319]}, "properties": {"CWP_NAME": "COALVILLE CITY CORP", "CWP_STREET": "P.0. BOX 188", "CWP_CITY": "COALVILLE", "CWP_STATE": "UT", "CWP_ZIP": "84017", "CWP_COUNTY": "Summit", "NPDES_ID": "UT0021288", "REGISTRY_ID": "110056405117", "CWP_FACILITY_TYPE_INDICATOR": "POTW", "CWP_MAJOR_MINOR_STATUS": "Minor", "CWP_PERMIT_STATUS_DESC": "Terminated", "STATE_WATER_BODY_NAME": "CHALK CREEK", "CWP_CSO_FLAG": "N"}}, {"type": "Feature", "geometry": {"type": "Point", "coordinates": [-111.686319979766, 40.0708430743097]}, "properties": {"CWP_NAME": "SALEM CITY CORP", "CWP_STREET": "P.O. BOX 901", "CWP_CITY": "SALEM", "CWP_STATE": "UT", "CWP_ZIP": "84653", "CWP_COUNTY": "Utah", "NPDES_ID": "UT0020249", "REGISTRY_ID": "110010134194", "CWP_FACILITY_TYPE_INDICATOR": "POTW", "CWP_MAJOR_MINOR_STATUS": "Minor", "CWP_PERMIT_STATUS_DESC": "Terminated", "STATE_WATER_BODY_NAME": "BEER CREEK, BEER CREEK THEN UTAH LAKE", "CWP_CSO_FLAG": "N"}}, {"type": "Feature", "geometry": {"type": "Point", "coordinates": [-111.856695939135, 41.974690057362]}, "properties": {"CWP_NAME": "LEWISTON CITY", "CWP_STREET": "59 SOUTH MAIN", "CWP_CITY": "LEWISTON", "CWP_STATE": "UT", "CWP_ZIP": "84320", "CWP_COUNTY": "Cache", "NPDES_ID": "UT0020214", "REGISTRY_ID": "110012685148", "CWP_FACILITY_TYPE_INDICATOR": "POTW", "CWP_MAJOR_MINOR_STATUS": "Minor", "CWP_PERMIT_STATUS_DESC": "Admin Continued", "STATE_WATER_BODY_NAME": "CUB RIVER", "CWP_CSO_FLAG": "N"}}, {"type": "Feature", "geometry": {"type": "Point", "coordinates": [-109.581546049248, 38.5794325459891]}, "properties": {"CWP_NAME": "MOAB CITY CORPORATION", "CWP_STREET": "1070 W 400 NORTH", "CWP_CITY": "MOAB", "CWP_STATE": "UT", "CWP_ZIP": "84532", "CWP_COUNTY": "Grand", "NPDES_ID": "UT0020419", "REGISTRY_ID": "110002047151", "CWP_FACILITY_TYPE_INDICATOR": "POTW", "CWP_MAJOR_MINOR_STATUS": "Major", "CWP_PERMIT_STATUS_DESC": "Effective", "STATE_WATER_BODY_NAME": "COLORADO RIVER", "CWP_CSO_FLAG": "N"}}, {"type": "Feature", "geometry": {"type": "Point", "coordinates": [-112.160825992281, 41.6990990571185]}, "properties": {"CWP_NAME": "TREMONTON CITY CORPORATION", "CWP_STREET": "102 S TREMONT STREET", "CWP_CITY": "TREMONTON", "CWP_STATE": "UT", "CWP_ZIP": "84337", "CWP_COUNTY": "Box Elder", "NPDES_ID": "UT0020303", "REGISTRY_ID": "110000566637", "CWP_FACILITY_TYPE_INDICATOR": "POTW", "CWP_MAJOR_MINOR_STATUS": "Major", "CWP_PERMIT_STATUS_DESC": "Effective", "STATE_WATER_BODY_NAME": "MALAD RIVER", "CWP_CSO_FLAG": "N"}}, {"type": "Feature", "geometry": {"type": "Point", "coordinates": [-111.923787884039, 40.6146433739334]}, "properties": {"CWP_NAME": "SO. VALLEY WATER RECLAMATION", "CWP_STREET": "7495 S 1300 W", "CWP_CITY": "WEST JORDAN", "CWP_STATE": "UT", "CWP_ZIP": "84084", "CWP_COUNTY": "Salt Lake", "NPDES_ID": "UT0024384", "REGISTRY_ID": "110000567850", "CWP_FACILITY_TYPE_INDICATOR": "POTW", "CWP_MAJOR_MINOR_STATUS": "Major", "CWP_PERMIT_STATUS_DESC": "Expired", "STATE_WATER_BODY_NAME": "JORDAN RIVER", "CWP_CSO_FLAG": "N"}}, {"type": "Feature", "geometry": {"type": "Point", "coordinates": [-112.035590848178, 41.5106407162787]}, "properties": {"CWP_NAME": "BRIGHAM CITY CORPORATION", "CWP_STREET": "1175 W 675 N", "CWP_CITY": "BRIGHAM CITY", "CWP_STATE": "UT", "CWP_ZIP": "84302", "CWP_COUNTY": "Box Elder", "NPDES_ID": "UT0022365", "REGISTRY_ID": "110002162873", "CWP_FACILITY_TYPE_INDICATOR": "POTW", "CWP_MAJOR_MINOR_STATUS": "Major", "CWP_PERMIT_STATUS_DESC": "Effective", "STATE_WATER_BODY_NAME": "BOX ELDER CREEK", "CWP_CSO_FLAG": "N"}}, {"type": "Feature", "geometry": {"type": "Point", "coordinates": [-109.936077987963, 40.4636293509958]}, "properties": {"CWP_NAME": "WHITEROCKS SEWAGE LAGOONS", "CWP_STREET": "S7 T2S R1E", "CWP_CITY": "FORT DUCHESNE", "CWP_STATE": "UT", "CWP_ZIP": "84026", "CWP_COUNTY": "Uintah", "NPDES_ID": "UTG589405", "REGISTRY_ID": "110020847048", "CWP_FACILITY_TYPE_INDICATOR": "POTW", "CWP_MAJOR_MINOR_STATUS": "Minor", "CWP_PERMIT_STATUS_DESC": "Admin Continued", "STATE_WATER_BODY_NAME": "UINTAH AND WHITEROCKS RIVERS", "CWP_CSO_FLAG": "N"}}, {"type": "Feature", "geometry": {"type": "Point", "coordinates": [-112.226522316168, 41.2499964592635]}, "properties": {"CWP_NAME": "LITTLE MOUNTAIN SERVICE AREA", "CWP_STREET": "10000 WEST 900 SOUTH", "CWP_CITY": "OGDEN", "CWP_STATE": "UT", "CWP_ZIP": "84404", "CWP_COUNTY": "Weber", "NPDES_ID": "UT0025569", "REGISTRY_ID": "110015597665", "CWP_FACILITY_TYPE_INDICATOR": "POTW", "CWP_MAJOR_MINOR_STATUS": "Minor", "CWP_PERMIT_STATUS_DESC": "Effective", "STATE_WATER_BODY_NAME": "GREAT SALT LAKE", "CWP_CSO_FLAG": "N"}}, {"type": "Feature", "geometry": {"type": "Point", "coordinates": [-111.856571782973, 41.6340861848183]}, "properties": {"CWP_NAME": "HYRUM CITY WWTP", "CWP_STREET": "83 WEST MAIN", "CWP_CITY": "HYRUM", "CWP_STATE": "UT", "CWP_ZIP": "84319", "CWP_COUNTY": "Cache", "NPDES_ID": "UT0023205", "REGISTRY_ID": "110010134407", "CWP_FACILITY_TYPE_INDICATOR": "POTW", "CWP_MAJOR_MINOR_STATUS": "Major", "CWP_PERMIT_STATUS_DESC": "Effective", "STATE_WATER_BODY_NAME": "DITCH TO SPRING CREEK, DITCH TO SPRING CREEK THENCE LITTLE BEAR RIVER", "CWP_CSO_FLAG": "N"}}, {"type": "Feature", "geometry": {"type": "Point", "coordinates": [-112.061956265974, 41.4266728042427]}, "properties": {"CWP_NAME": "PERRY / WILLARD REGIONAL WASTEWATER TREATMENT PLANT", "CWP_STREET": "975 NORTH 1000 WEST", "CWP_CITY": "WILLARD", "CWP_STATE": "UT", "CWP_ZIP": "84340", "CWP_COUNTY": "Box Elder", "NPDES_ID": "UT0025721", "REGISTRY_ID": "110043477948", "CWP_FACILITY_TYPE_INDICATOR": "POTW", "CWP_MAJOR_MINOR_STATUS": "Major", "CWP_PERMIT_STATUS_DESC": "Effective", "STATE_WATER_BODY_NAME": "DRAINAGE DITCH THEN TO THE WILLARD SPUR OF THE GSL", "CWP_CSO_FLAG": "N"}}, {"type": "Feature", "geometry": {"type": "Point", "coordinates": [-109.305940577982, 37.8609595926963]}, "properties": {"CWP_NAME": "MONTICELLO CITY", "CWP_STREET": "SE 1/4 SECT 32, T335S, R24E", "CWP_CITY": "MONTICELLO", "CWP_STATE": "UT", "CWP_ZIP": "84535", "CWP_COUNTY": "San Juan", "NPDES_ID": "UT0024503", "REGISTRY_ID": "110022416517", "CWP_FACILITY_TYPE_INDICATOR": "POTW", "CWP_MAJOR_MINOR_STATUS": "Minor", "CWP_PERMIT_STATUS_DESC": "Effective", "STATE_WATER_BODY_NAME": "MONTEZUMA CREEK", "CWP_CSO_FLAG": "N"}}, {"type": "Feature", "geometry": {"type": "Point", "coordinates": [-111.930791047325, 41.6299394043926]}, "properties": {"CWP_NAME": "WELLSVILLE CITY CORPORATION", "CWP_STREET": "75 SOUTH 100 EAST", "CWP_CITY": "WELLSVILLE", "CWP_STATE": "UT", "CWP_ZIP": "84339", "CWP_COUNTY": "Cache", "NPDES_ID": "UT0020371", "REGISTRY_ID": "110006686318", "CWP_FACILITY_TYPE_INDICATOR": "POTW", "CWP_MAJOR_MINOR_STATUS": "Minor", "CWP_PERMIT_STATUS_DESC": "Effective", "STATE_WATER_BODY_NAME": "LITTLE BEAR RIVER", "CWP_CSO_FLAG": "N"}}, {"type": "Feature", "geometry": {"type": "Point", "coordinates": [-111.834122943812, 41.9248388342034]}, "properties": {"CWP_NAME": "CITY OF RICHMOND", "CWP_STREET": "6 WEST MAIN", "CWP_CITY": "RICHMOND", "CWP_STATE": "UT", "CWP_ZIP": "84333", "CWP_COUNTY": "Cache", "NPDES_ID": "UT0020907", "REGISTRY_ID": "110009769269", "CWP_FACILITY_TYPE_INDICATOR": "POTW", "CWP_MAJOR_MINOR_STATUS": "Minor", "CWP_PERMIT_STATUS_DESC": "Effective", "STATE_WATER_BODY_NAME": "CUB RIVER, DITCH TO CUB RIVER", "CWP_CSO_FLAG": "N"}}, {"type": "Feature", "geometry": {"type": "Point", "coordinates": [-112.319345778152, 40.6568305449745]}, "properties": {"CWP_NAME": "STANSBURY PARK WASTEWATER", "CWP_STREET": "10 PLAZA", "CWP_CITY": "STANSBURY PARK", "CWP_STATE": "UT", "CWP_ZIP": "84074", "CWP_COUNTY": "Tooele", "NPDES_ID": "UT0025241", "REGISTRY_ID": "110006686256", "CWP_FACILITY_TYPE_INDICATOR": "POTW", "CWP_MAJOR_MINOR_STATUS": "Minor", "CWP_PERMIT_STATUS_DESC": "Effective", "STATE_WATER_BODY_NAME": "DITCH TO GREAT SALT LAKE, UNNAMED IRR DITCH TO GREAT SL", "CWP_CSO_FLAG": "N"}}, {"type": "Feature", "geometry": {"type": "Point", "coordinates": [-109.891012933375, 40.3292652287189]}, "properties": {"CWP_NAME": "YELLOWSTONE WASTEWATER TREATMENT FACILITY", "CWP_STREET": "S9 T2S R1E", "CWP_CITY": "YELLOWSTONE RANCH", "CWP_STATE": "UT", "CWP_ZIP": "84026", "CWP_COUNTY": "Duchesne", "NPDES_ID": "UTG589402", "REGISTRY_ID": "110020847011", "CWP_FACILITY_TYPE_INDICATOR": "POTW", "CWP_MAJOR_MINOR_STATUS": "Minor", "CWP_PERMIT_STATUS_DESC": "Admin Continued", "STATE_WATER_BODY_NAME": "UNNAMED TRIBUTARY OF UINTAH RIVER", "CWP_CSO_FLAG": "N"}}, {"type": "Feature", "geometry": {"type": "Point", "coordinates": [-111.009094259425, 39.1916379098449]}, "properties": {"CWP_NAME": "CASTLE VALLEY SPECIAL SERVICE", "CWP_STREET": "86 SOUTH FIRST EAST", "CWP_CITY": "CASTLE DALE", "CWP_STATE": "UT", "CWP_ZIP": "84513", "CWP_COUNTY": "Emery", "NPDES_ID": "UT0023663", "REGISTRY_ID": "110006686274", "CWP_FACILITY_TYPE_INDICATOR": "POTW", "CWP_MAJOR_MINOR_STATUS": "Minor", "CWP_PERMIT_STATUS_DESC": "Effective", "STATE_WATER_BODY_NAME": "COTTONWOOD CREEK", "CWP_CSO_FLAG": "N"}}, {"type": "Feature", "geometry": {"type": "Point", "coordinates": [-111.587151628876, 39.3597058897456]}, "properties": {"CWP_NAME": "EPHRAIM CITY", "CWP_STREET": "5 SOUTH MAIN", "CWP_CITY": "EPHRAIM", "CWP_STATE": "UT", "CWP_ZIP": "84627", "CWP_COUNTY": "Sanpete", "NPDES_ID": "UT0025984", "REGISTRY_ID": "110020095074", "CWP_FACILITY_TYPE_INDICATOR": "POTW", "CWP_MAJOR_MINOR_STATUS": "Minor", "CWP_PERMIT_STATUS_DESC": "Effective", "STATE_WATER_BODY_NAME": "SAN PITCH RIVER", "CWP_CSO_FLAG": "N"}}, {"type": "Feature", "geometry": {"type": "Point", "coordinates": [-111.932756863474, 40.9018401020176]}, "properties": {"CWP_NAME": "SOUTH DAVIS SEWER DISTRICT-NORTH PLANT", "CWP_STREET": "1800 W 1200 N", "CWP_CITY": "WEST BOUNTIFUL", "CWP_STATE": "UT", "CWP_ZIP": "84087", "CWP_COUNTY": "Davis", "NPDES_ID": "UT0021636", "REGISTRY_ID": "110000537517", "CWP_FACILITY_TYPE_INDICATOR": "POTW", "CWP_MAJOR_MINOR_STATUS": "Major", "CWP_PERMIT_STATUS_DESC": "Effective", "STATE_WATER_BODY_NAME": "STATE CANAL TO FARMINGTON BAY BIRD", "CWP_CSO_FLAG": "N"}}, {"type": "Feature", "geometry": {"type": "Point", "coordinates": [-111.634733859718, 39.2861170525398]}, "properties": {"CWP_NAME": "MANTI CITY LAGOONS", "CWP_STREET": "50 SOUTH MAIN STREET", "CWP_CITY": "MANTI", "CWP_STATE": "UT", "CWP_ZIP": "84642", "CWP_COUNTY": "Sanpete", "NPDES_ID": "UT0026026", "REGISTRY_ID": "110012286757", "CWP_FACILITY_TYPE_INDICATOR": "POTW", "CWP_MAJOR_MINOR_STATUS": "Minor", "CWP_PERMIT_STATUS_DESC": "Expired", "STATE_WATER_BODY_NAME": "SAN PITCH RIVER", "CWP_CSO_FLAG": "N"}}, {"type": "Feature", "geometry": {"type": "Point", "coordinates": [-112.997841715964, 37.1947253038012]}, "properties": {"CWP_NAME": "SPRINGDALE, TOWN OF", "CWP_STREET": "118 LION BLVD.", "CWP_CITY": "SPRINGDALE", "CWP_STATE": "UT", "CWP_ZIP": "84767", "CWP_COUNTY": "Washington", "NPDES_ID": "UT0025224", "REGISTRY_ID": "110010134372", "CWP_FACILITY_TYPE_INDICATOR": "POTW", "CWP_MAJOR_MINOR_STATUS": "Minor", "CWP_PERMIT_STATUS_DESC": "Effective", "STATE_WATER_BODY_NAME": "VIRGIN RIVER", "CWP_CSO_FLAG": "N"}}, {"type": "Feature", "geometry": {"type": "Point", "coordinates": [-111.564128259404, 40.7568900852611]}, "properties": {"CWP_NAME": "SNYDERVILLE BASIN-SILVER CREEK", "CWP_STREET": "2800 HOMESTEAD ROAD", "CWP_CITY": "PARK CITY", "CWP_STATE": "UT", "CWP_ZIP": "84098", "CWP_COUNTY": "Summit", "NPDES_ID": "UT0024414", "REGISTRY_ID": "110062785614", "CWP_FACILITY_TYPE_INDICATOR": "POTW", "CWP_MAJOR_MINOR_STATUS": "Major", "CWP_PERMIT_STATUS_DESC": "Effective", "STATE_WATER_BODY_NAME": "MARSH TO SILVER CREEK", "CWP_CSO_FLAG": "N"}}, {"type": "Feature", "geometry": {"type": "Point", "coordinates": [-111.564128259404, 40.7568900852611]}, "properties": {"CWP_NAME": "SNYDERVILLE BASIN WRD", "CWP_STREET": "2800 HOMESTEAD ROAD", "CWP_CITY": "PARK CITY", "CWP_STATE": "UT", "CWP_ZIP": "84098", "CWP_COUNTY": "Summit", "NPDES_ID": "UT0020001", "REGISTRY_ID": "110062785614", "CWP_FACILITY_TYPE_INDICATOR": "POTW", "CWP_MAJOR_MINOR_STATUS": "Major", "CWP_PERMIT_STATUS_DESC": "Effective", "STATE_WATER_BODY_NAME": "EAST CANYON CREEK", "CWP_CSO_FLAG": "N"}}, {"type": "Feature", "geometry": {"type": "Point", "coordinates": [-111.944943592559, 41.0007061818182]}, "properties": {"CWP_NAME": "CENTRAL DAVIS CO SEWER", "CWP_STREET": "2200 SOUTH SUNSET DRIVE", "CWP_CITY": "KAYSVILLE", "CWP_STATE": "UT", "CWP_ZIP": "84037", "CWP_COUNTY": "Davis", "NPDES_ID": "UT0020974", "REGISTRY_ID": "110039924053", "CWP_FACILITY_TYPE_INDICATOR": "POTW", "CWP_MAJOR_MINOR_STATUS": "Major", "CWP_PERMIT_STATUS_DESC": "Effective", "STATE_WATER_BODY_NAME": "BAER CREEK", "CWP_CSO_FLAG": "N"}}, {"type": "Feature", "geometry": {"type": "Point", "coordinates": [-111.808672012804, 41.1424258729093]}, "properties": {"CWP_NAME": "MT GREEN SEWER TREATMENT PLANT", "CWP_STREET": "5455 WEST OLD HIGHWAY ROAD", "CWP_CITY": "MOUNTAIN GREEN", "CWP_STATE": "UT", "CWP_ZIP": "84050", "CWP_COUNTY": "Morgan", "NPDES_ID": "UT0024732", "REGISTRY_ID": "110006686229", "CWP_FACILITY_TYPE_INDICATOR": "POTW", "CWP_MAJOR_MINOR_STATUS": "Minor", "CWP_PERMIT_STATUS_DESC": "Effective", "STATE_WATER_BODY_NAME": "WEBER RIVER", "CWP_CSO_FLAG": "N"}}, {"type": "Feature", "geometry": {"type": "Point", "coordinates": [-109.424314230769, 40.9082992287049]}, "properties": {"CWP_NAME": "USBOR-FLAMING GORGE DAM", "CWP_STREET": "5995 FLAMING GORGE VISTOR CENTER", "CWP_CITY": "DUTCH JOHN", "CWP_STATE": "UT", "CWP_ZIP": "84023", "CWP_COUNTY": "Daggett", "NPDES_ID": "UT0020338", "REGISTRY_ID": "110006883131", "CWP_FACILITY_TYPE_INDICATOR": "NON-POTW", "CWP_MAJOR_MINOR_STATUS": "Minor", "CWP_PERMIT_STATUS_DESC": "Effective", "STATE_WATER_BODY_NAME": "GREEN RIVER", "CWP_CSO_FLAG": "N"}}]}